{
  "type": "FeatureCollection",
  "features": [
    {
      "type": "Feature",
      "geometry": {
        "type": "Point",
        "coordinates": [
          91.33385318645578,
          -65.71140717916211
        ]
      },
      "properties": {
        "type": "start",
        "isom": "419"
      }
    },
    {
      "type": "Feature",
      "geometry": {
        "type": "Point",
        "coordinates": [
          99.56640026588428,
          -40.61247106402096
        ]
      },
      "properties": {
        "type": "end",
        "isom": "109"
      }
    },
    {
      "type": "Feature",
      "geometry": {
        "type": "LineString",
        "coordinates": [
          [
            91.35217606927728,
            -65.71263953763736
          ],
          [
            91.7212619335692,
            -65.71265763034498
          ],
          [
            92.18262229704314,
            -65.62040801157687
          ],
          [
            92.64398266051707,
            -65.52815839280878
          ],
          [
            93.19761752317304,
            -65.34364106256497
          ],
          [
            93.8468165310781,
            -65.02398095105377
          ],
          [
            93.89946428640421,
            -64.90633442429953
          ],
          [
            94.04073782188729,
            -64.32403505687485
          ],
          [
            94.15516074451581,
            -63.821952522514295
          ],
          [
            94.52970516764822,
            -63.10485635555368
          ],
          [
            94.89861498236009,
            -62.439519424645844
          ],
          [
            95.29940929299795,
            -61.966651666801354
          ],
          [
            95.72602906188274,
            -61.608935025133405
          ],
          [
            95.96590102837884,
            -61.09925396385137
          ],
          [
            95.96591316081503,
            -60.730165025240865
          ],
          [
            95.96592529325125,
            -60.36107608663036
          ],
          [
            96.15048642405154,
            -59.80745172506842
          ],
          [
            96.15049855648775,
            -59.438362786457915
          ],
          [
            96.15051068892396,
            -59.06927384784741
          ],
          [
            96.15052282136016,
            -58.70018490923691
          ],
          [
            96.15053495379638,
            -58.33109597062641
          ],
          [
            96.15054708623259,
            -57.96200703201591
          ],
          [
            96.1505592186688,
            -57.59291809340541
          ],
          [
            96.15057135110503,
            -57.223829154794906
          ],
          [
            96.3351324819053,
            -56.67020479323297
          ],
          [
            96.3351446143415,
            -56.301115854622466
          ],
          [
            96.33515674677773,
            -55.932026916011964
          ],
          [
            96.70426687594207,
            -55.193867131498585
          ],
          [
            96.98109340659721,
            -54.824791762418805
          ],
          [
            97.11870059399973,
            -54.64516321550704
          ],
          [
            97.17676748493592,
            -54.181336076791816
          ],
          [
            97.29105063845128,
            -53.61364215631378
          ],
          [
            97.35509145054353,
            -53.256825699808175
          ],
          [
            97.58185577249928,
            -52.57435573674093
          ],
          [
            97.99604777143543,
            -52.148821242775966
          ],
          [
            98.3403185318288,
            -51.759663742837375
          ],
          [
            98.59648639070066,
            -51.521067366657064
          ],
          [
            98.91794964554157,
            -50.764419361671614
          ],
          [
            99.06922538839376,
            -50.38931679859648
          ],
          [
            99.28804384631053,
            -49.842204170599665
          ],
          [
            99.65715397547487,
            -49.104044386086294
          ],
          [
            99.7494284746569,
            -49.011776674610566
          ],
          [
            99.84171510627513,
            -48.55042002452434
          ],
          [
            99.84172723871134,
            -48.18133108591385
          ],
          [
            99.65720250521971,
            -47.62768863164428
          ],
          [
            99.65721463765593,
            -47.25859969303379
          ],
          [
            99.65722677009215,
            -46.88951075442328
          ],
          [
            99.65723890252836,
            -46.520421815812774
          ],
          [
            99.65725103496456,
            -46.15133287720227
          ],
          [
            99.6572631674008,
            -45.782243938591776
          ],
          [
            99.74954979901904,
            -45.32088728850555
          ],
          [
            99.93410789671026,
            -44.859535161596234
          ],
          [
            100.21094049358351,
            -44.3059153232112
          ],
          [
            100.21095262601972,
            -43.9368263846007
          ],
          [
            100.11869632549201,
            -43.475460688160666
          ],
          [
            100.11870845792824,
            -43.10637174955016
          ],
          [
            100.11872059036443,
            -42.73728281093966
          ],
          [
            99.79515918181146,
            -42.07750262028521
          ],
          [
            99.47285369205319,
            -41.72225656752244
          ],
          [
            99.38058829219833,
            -41.53770757504029
          ],
          [
            99.28833199167062,
            -41.07634187860026
          ],
          [
            99.5651615554348,
            -40.61499427486785
          ]
        ]
      },
      "properties": {
        "type": "variant",
        "id": 1,
        "color": "#ff4444",
        "vzdal_m": 1571,
        "prevyseni_m": 10,
        "cas_s": 402,
        "tempo_str": "4:16"
      }
    },
    {
      "type": "Feature",
      "geometry": {
        "type": "LineString",
        "coordinates": [
          [
            91.35217606927728,
            -65.71263953763736
          ],
          [
            90.98310840363969,
            -65.15898803701398
          ],
          [
            91.07539200214889,
            -64.7899036215804
          ],
          [
            91.44449909820418,
            -64.14401607171963
          ],
          [
            91.81359709493229,
            -63.77494522581675
          ],
          [
            92.18269812476946,
            -63.31360214526124
          ],
          [
            92.45952465542462,
            -62.94452677618146
          ],
          [
            92.8286317514799,
            -62.29863922632071
          ],
          [
            93.19773278131709,
            -61.8372961457652
          ],
          [
            93.38229391211735,
            -61.28367178420325
          ],
          [
            93.38230604455357,
            -60.914582845592754
          ],
          [
            93.47459267617181,
            -60.45322619550653
          ],
          [
            93.47460480860802,
            -60.08413725689603
          ],
          [
            93.47461694104425,
            -59.71504831828553
          ],
          [
            93.47462907348044,
            -59.34595937967503
          ],
          [
            93.47464120591667,
            -58.97687044106453
          ],
          [
            93.56692783753492,
            -58.515513790978304
          ],
          [
            93.87377219549332,
            -57.90007650239433
          ],
          [
            94.02832156520843,
            -57.40826959103133
          ],
          [
            94.30515719519074,
            -56.76237751799366
          ],
          [
            94.67426732435509,
            -56.02421773348029
          ],
          [
            95.04337745351941,
            -55.28605794896691
          ],
          [
            95.41248454957471,
            -54.640170399106154
          ],
          [
            95.68931714644795,
            -54.086550560721115
          ],
          [
            95.87387827724824,
            -53.53292619915918
          ],
          [
            96.24298840641258,
            -52.79476641464579
          ],
          [
            96.24300053884878,
            -52.42567747603529
          ],
          [
            96.24301267128502,
            -52.056588537424794
          ],
          [
            96.24302480372121,
            -51.68749959881429
          ],
          [
            96.24303693615742,
            -51.31841066020379
          ],
          [
            96.33532356777566,
            -50.857054010117565
          ],
          [
            96.42906224861821,
            -50.372280645532
          ],
          [
            96.61217133019419,
            -49.842072998469405
          ],
          [
            96.98128145935853,
            -49.10391321395603
          ],
          [
            97.07356809097678,
            -48.6425565638698
          ],
          [
            97.07358022341299,
            -48.2734676252593
          ],
          [
            97.0735923558492,
            -47.9043786866488
          ],
          [
            96.79679918939365,
            -47.25845947454971
          ],
          [
            96.79681132182986,
            -46.88937053593921
          ],
          [
            96.79682345426606,
            -46.520281597328704
          ],
          [
            96.7968355867023,
            -46.1511926587182
          ],
          [
            97.07367121668459,
            -45.505300585680544
          ],
          [
            97.44277527963084,
            -44.95168527047241
          ],
          [
            98.08868767457787,
            -44.58262799410025
          ],
          [
            98.457785671306,
            -44.21355714819737
          ],
          [
            98.55006320359709,
            -44.02901720206902
          ],
          [
            98.64234073588817,
            -43.84447725594068
          ],
          [
            98.9191612003252,
            -43.659946356166145
          ],
          [
            99.0114387326163,
            -43.4754064100378
          ],
          [
            99.01145086505251,
            -43.106317471427296
          ],
          [
            98.9191945645248,
            -42.64495177498726
          ],
          [
            98.919206696961,
            -42.27586283637676
          ],
          [
            99.09923781473817,
            -41.74297629257087
          ],
          [
            99.28832289234344,
            -41.35315858255813
          ],
          [
            99.38060952396168,
            -40.89180193247191
          ],
          [
            99.5651615554348,
            -40.61499427486785
          ]
        ]
      },
      "properties": {
        "type": "variant",
        "id": 2,
        "color": "#4444ff",
        "vzdal_m": 1508,
        "prevyseni_m": 14,
        "cas_s": 408,
        "tempo_str": "4:30"
      }
    },
    {
      "type": "Feature",
      "geometry": {
        "type": "LineString",
        "coordinates": [
          [
            91.35217606927728,
            -65.71263953763736
          ],
          [
            90.9831023374216,
            -65.34353250631924
          ],
          [
            90.61404073800212,
            -64.60533653639061
          ],
          [
            90.33724757154656,
            -63.95941732429151
          ],
          [
            90.24499127101885,
            -63.498051627851474
          ],
          [
            89.96819507145425,
            -62.944404650405005
          ],
          [
            89.6073286010368,
            -62.39404675852772
          ],
          [
            89.56224150749192,
            -61.94809214195137
          ],
          [
            89.23666767850136,
            -61.302721540117915
          ],
          [
            89.16655716270168,
            -60.82210395342711
          ],
          [
            89.22707849188265,
            -60.45266046805091
          ],
          [
            89.27008177607843,
            -60.088651088423006
          ],
          [
            89.45228835138302,
            -59.540057539374615
          ],
          [
            89.6061753463208,
            -58.9794585617371
          ],
          [
            89.76724071020142,
            -58.54169610410371
          ],
          [
            89.91495419944376,
            -57.96946940611586
          ],
          [
            90.07883094949736,
            -57.59581146376862
          ],
          [
            90.16175476783708,
            -57.22528386672546
          ],
          [
            90.33387768430697,
            -56.668633637541944
          ],
          [
            90.53947121360764,
            -56.0207232591449
          ],
          [
            90.63387815231957,
            -55.66083277672973
          ],
          [
            90.7566137388014,
            -55.20922438172583
          ],
          [
            90.77946652491869,
            -55.115977871114
          ],
          [
            90.8351133871569,
            -54.92790143132148
          ],
          [
            90.90773052704323,
            -54.645039743952076
          ],
          [
            90.96495502663966,
            -54.38700226296072
          ],
          [
            91.01755702356432,
            -54.166105111413174
          ],
          [
            91.22564782189593,
            -53.719387279322255
          ],
          [
            91.3184077187932,
            -53.176623628708484
          ],
          [
            91.31947671577835,
            -52.789781894307076
          ],
          [
            91.44488733616302,
            -52.33317003618358
          ],
          [
            91.71576745240695,
            -51.595005436403405
          ],
          [
            91.90627499761844,
            -51.41047030554186
          ],
          [
            92.18311062760075,
            -50.764578232504185
          ],
          [
            92.55221165743792,
            -50.303235151948684
          ],
          [
            92.82904425431117,
            -49.74961531356365
          ],
          [
            92.93034927063589,
            -49.29406318764979
          ],
          [
            93.04134452628028,
            -49.12155747478068
          ],
          [
            93.07725495735468,
            -48.73041401647134
          ],
          [
            93.16795713041365,
            -48.171353514080025
          ],
          [
            93.3933412066814,
            -47.61514504386515
          ],
          [
            93.47502641076646,
            -47.2582966401811
          ],
          [
            93.8441365399308,
            -46.52013685566772
          ],
          [
            94.21324060287702,
            -45.96652154045959
          ],
          [
            94.58234769893231,
            -45.32063399059884
          ],
          [
            94.95145782809666,
            -44.58247420608546
          ],
          [
            95.0437444597149,
            -44.121117555999234
          ],
          [
            95.21862148448596,
            -43.606614249467945
          ],
          [
            95.59622532560455,
            -43.46865852794023
          ],
          [
            95.96648113883258,
            -43.45132671519571
          ],
          [
            96.33533092114511,
            -43.4764541187307
          ],
          [
            96.70465511390091,
            -43.38302109596253
          ],
          [
            97.07375614373808,
            -42.92167801540703
          ],
          [
            97.44285717357526,
            -42.460334934851524
          ],
          [
            97.99649810244934,
            -42.09127313530246
          ],
          [
            98.65933700102339,
            -41.66968186584177
          ],
          [
            99.19605445937952,
            -41.2608818247286
          ],
          [
            99.5651615554348,
            -40.61499427486785
          ]
        ]
      },
      "properties": {
        "type": "variant",
        "id": 3,
        "color": "#44ff44",
        "vzdal_m": 1595,
        "prevyseni_m": 9,
        "cas_s": 391,
        "tempo_str": "4:05"
      }
    }
  ]
}