{
  "type": "FeatureCollection",
  "features": [
    {
      "type": "Feature",
      "geometry": {
        "type": "Point",
        "coordinates": [
          38.36900357820885,
          -74.52837557200012
        ]
      },
      "properties": {
        "type": "start",
        "isom": "419"
      }
    },
    {
      "type": "Feature",
      "geometry": {
        "type": "Point",
        "coordinates": [
          53.21430230334967,
          -93.58940974727938
        ]
      },
      "properties": {
        "type": "end",
        "isom": "204"
      }
    },
    {
      "type": "Feature",
      "geometry": {
        "type": "LineString",
        "coordinates": [
          [
            38.38806336491935,
            -74.56817776074556
          ],
          [
            39.12622296106695,
            -74.93730288477131
          ],
          [
            39.6798456912867,
            -75.12187449313801
          ],
          [
            40.04893155557861,
            -75.12189258584563
          ],
          [
            40.51028585283444,
            -75.21418743638277
          ],
          [
            40.879371717126354,
            -75.21420552909039
          ],
          [
            41.340726014382184,
            -75.30650037962755
          ],
          [
            41.525268946528136,
            -75.30650942598136
          ],
          [
            41.89434267838383,
            -75.67561645729948
          ],
          [
            42.26341337713047,
            -76.13699572327023
          ],
          [
            42.44794720994926,
            -76.41382147358192
          ],
          [
            42.90930150720509,
            -76.50611632411908
          ],
          [
            43.55519267038877,
            -76.7829646903153
          ],
          [
            44.01653786831744,
            -77.15207624481032
          ],
          [
            44.477883066246115,
            -77.52118779930535
          ],
          [
            45.21604266239372,
            -77.8903129233311
          ],
          [
            45.58511639424941,
            -78.25941995464922
          ],
          [
            45.95418709299606,
            -78.72079922061998
          ],
          [
            46.32325779174269,
            -79.18217848659071
          ],
          [
            46.69232849048933,
            -79.64355775256146
          ],
          [
            46.876862323308124,
            -79.92038350287316
          ],
          [
            46.969127723163,
            -80.10493249535531
          ],
          [
            47.15365245665463,
            -80.65857494962488
          ],
          [
            47.522714056074115,
            -81.3967709195535
          ],
          [
            47.89177868860264,
            -82.0426946548295
          ],
          [
            48.260846354240236,
            -82.59634615545288
          ],
          [
            48.72219155216891,
            -82.9654577099479
          ],
          [
            49.091262250915534,
            -83.42683697591866
          ],
          [
            49.460335982771234,
            -83.79594400723678
          ],
          [
            49.829409714626934,
            -84.1650510385549
          ],
          [
            50.19848344648262,
            -84.53415806987303
          ],
          [
            50.56755717833832,
            -84.90326510119115
          ],
          [
            50.84435944412103,
            -85.27236760933238
          ],
          [
            50.844347311684814,
            -85.64145654794288
          ],
          [
            50.93660361221252,
            -86.1028222443829
          ],
          [
            51.305665211632004,
            -86.84101821431153
          ],
          [
            51.6747328772696,
            -87.3946697149349
          ],
          [
            52.043803576016245,
            -87.85604898090565
          ],
          [
            52.13607200898016,
            -87.94832573873519
          ],
          [
            52.22833740883503,
            -88.13287473121734
          ],
          [
            52.32059370936274,
            -88.59424042765738
          ],
          [
            52.505118442854375,
            -89.14788288192693
          ],
          [
            52.874180042273856,
            -89.88607885185556
          ],
          [
            53.24324467480238,
            -90.53200258713156
          ],
          [
            53.42777244140308,
            -90.9933728067485
          ],
          [
            53.42776030896686,
            -91.362461745359
          ],
          [
            53.42774817653064,
            -91.7315506839695
          ],
          [
            53.42773604409443,
            -92.10063962258
          ],
          [
            53.42772391165821,
            -92.46972856119051
          ],
          [
            53.427711779222,
            -92.83881749980101
          ],
          [
            53.24315368153078,
            -93.30016962671033
          ],
          [
            53.24314458220361,
            -93.57698633066819
          ]
        ]
      },
      "properties": {
        "type": "variant",
        "id": 1,
        "color": "#ff4444",
        "vzdal_m": 1424,
        "prevyseni_m": 101,
        "cas_s": 485,
        "tempo_str": "5:40"
      }
    },
    {
      "type": "Feature",
      "geometry": {
        "type": "LineString",
        "coordinates": [
          [
            38.38806336491935,
            -74.56817776074556
          ],
          [
            38.48031966544706,
            -75.0295434571856
          ],
          [
            38.480307533010844,
            -75.3986323957961
          ],
          [
            38.480295400574626,
            -75.7677213344066
          ],
          [
            38.480283268138415,
            -76.1368102730171
          ],
          [
            38.38799663652017,
            -76.59816692310332
          ],
          [
            38.203435505719895,
            -77.15179128466526
          ],
          [
            38.01887437491962,
            -77.70541564622721
          ],
          [
            38.01886224248341,
            -78.07450458483771
          ],
          [
            38.38792384190288,
            -78.81270055476634
          ],
          [
            38.75699454064952,
            -79.27407982073709
          ],
          [
            39.126068272505215,
            -79.64318685205521
          ],
          [
            39.21833670546914,
            -79.73546360988475
          ],
          [
            39.21832457303292,
            -80.10455254849525
          ],
          [
            39.21831244059671,
            -80.47364148710575
          ],
          [
            39.2183003081605,
            -80.84273042571625
          ],
          [
            38.84919017899617,
            -81.58089021022963
          ],
          [
            38.66462904819589,
            -82.13451457179157
          ],
          [
            38.7568853487236,
            -82.5958802682316
          ],
          [
            38.94141614843333,
            -82.96497825319591
          ],
          [
            39.67957574458094,
            -83.33410337722167
          ],
          [
            40.325466907764614,
            -83.61095174341787
          ],
          [
            40.879083571766266,
            -83.9800678210898
          ],
          [
            41.43270023576791,
            -84.34918389876175
          ],
          [
            41.80176183518739,
            -85.08737986869038
          ],
          [
            42.170829500824986,
            -85.64103136931375
          ],
          [
            42.539897166462566,
            -86.19468286993711
          ],
          [
            42.72443403239042,
            -86.37923638559619
          ],
          [
            43.09350473113706,
            -86.84061565156694
          ],
          [
            43.73939589432074,
            -87.11746401776315
          ],
          [
            44.47755549046834,
            -87.4865891417889
          ],
          [
            45.21571508661594,
            -87.85571426581464
          ],
          [
            45.67706938387177,
            -87.94800911635178
          ],
          [
            46.41522898001937,
            -88.31713424037754
          ],
          [
            46.784302711875064,
            -88.68624127169566
          ],
          [
            47.15337644373076,
            -89.05534830301379
          ],
          [
            47.61472164165943,
            -89.42445985750882
          ],
          [
            48.35288123780703,
            -89.79358498153456
          ],
          [
            48.90649790180868,
            -90.1627010592065
          ],
          [
            49.64465749795628,
            -90.53182618323224
          ],
          [
            50.10600269588495,
            -90.90093773772728
          ],
          [
            50.751890825959585,
            -91.27005833857612
          ],
          [
            51.39778198914326,
            -91.54690670477234
          ],
          [
            51.95140168625396,
            -91.82375054779163
          ],
          [
            52.32047541810965,
            -92.19285757910977
          ],
          [
            52.59728071700142,
            -92.46968785259835
          ],
          [
            52.96634534952996,
            -93.11561158787435
          ],
          [
            53.24314458220361,
            -93.57698633066819
          ]
        ]
      },
      "properties": {
        "type": "variant",
        "id": 2,
        "color": "#4444ff",
        "vzdal_m": 1483,
        "prevyseni_m": 98,
        "cas_s": 475,
        "tempo_str": "5:20"
      }
    },
    {
      "type": "Feature",
      "geometry": {
        "type": "LineString",
        "coordinates": [
          [
            38.38806336491935,
            -74.56817776074556
          ],
          [
            38.757143162993145,
            -74.75274032275844
          ],
          [
            39.3107598269948,
            -75.12185640043037
          ],
          [
            39.58756209277751,
            -75.4909589085716
          ],
          [
            39.67983355885049,
            -75.4909634317485
          ],
          [
            40.04890729070618,
            -75.86007046306662
          ],
          [
            40.41797192323472,
            -76.50599419834262
          ],
          [
            40.69476508969027,
            -77.15191341044172
          ],
          [
            40.694759023472166,
            -77.33645787974696
          ],
          [
            40.51020092578094,
            -77.79781000665629
          ],
          [
            40.69473172549068,
            -78.16690799162059
          ],
          [
            40.69471959305447,
            -78.5359969302311
          ],
          [
            40.69470746061826,
            -78.9050858688416
          ],
          [
            40.97150062707381,
            -79.5510050809407
          ],
          [
            41.34057435892951,
            -79.92011211225882
          ],
          [
            41.709642024567096,
            -80.4737636128822
          ],
          [
            42.07870362398658,
            -81.21195958281082
          ],
          [
            42.07869149155036,
            -81.58104852142132
          ],
          [
            42.26321925815105,
            -82.04241874103826
          ],
          [
            42.81683592215269,
            -82.4115348187102
          ],
          [
            43.27818112008136,
            -82.78064637320523
          ],
          [
            43.647251818828,
            -83.24202563917598
          ],
          [
            44.0163194844656,
            -83.79567713979935
          ],
          [
            44.38539321632129,
            -84.16478417111747
          ],
          [
            44.75446694817698,
            -84.5338912024356
          ],
          [
            45.123540680032676,
            -84.90299823375372
          ],
          [
            45.49261441188837,
            -85.27210526507184
          ],
          [
            45.95395960981704,
            -85.64121681956688
          ],
          [
            46.692119205964644,
            -86.01034194359262
          ],
          [
            47.33800733603926,
            -86.37946254444147
          ],
          [
            47.707075001676856,
            -86.93311404506484
          ],
          [
            48.07614873353254,
            -87.30222107638296
          ],
          [
            48.44521943227919,
            -87.76360034235371
          ],
          [
            48.81429013102583,
            -88.22497960832446
          ],
          [
            49.18335779666341,
            -88.77863110894783
          ],
          [
            49.73697446066506,
            -89.14774718661977
          ],
          [
            50.10604819252075,
            -89.51685421793789
          ],
          [
            50.382850458303466,
            -89.88595672607912
          ],
          [
            50.75192115705011,
            -90.34733599204986
          ],
          [
            51.12099185579675,
            -90.80871525802061
          ],
          [
            51.49006255454339,
            -91.27009452399136
          ],
          [
            51.85913325329003,
            -91.73147378996211
          ],
          [
            52.22820698514573,
            -92.10058082128023
          ],
          [
            52.59728071700142,
            -92.46968785259835
          ],
          [
            52.96634534952996,
            -93.11561158787435
          ],
          [
            53.24314458220361,
            -93.57698633066819
          ]
        ]
      },
      "properties": {
        "type": "variant",
        "id": 3,
        "color": "#44ff44",
        "vzdal_m": 1363,
        "prevyseni_m": 94,
        "cas_s": 485,
        "tempo_str": "5:55"
      }
    }
  ]
}