{
  "type": "FeatureCollection",
  "features": [
    {
      "type": "Feature",
      "geometry": {
        "type": "Point",
        "coordinates": [
          117.6131407153321,
          -216.99547967638694
        ]
      },
      "properties": {
        "type": "start",
        "isom": "419"
      }
    },
    {
      "type": "Feature",
      "geometry": {
        "type": "Point",
        "coordinates": [
          88.08632046569468,
          -215.50660390865252
        ]
      },
      "properties": {
        "type": "end",
        "isom": "419"
      }
    },
    {
      "type": "Feature",
      "geometry": {
        "type": "LineString",
        "coordinates": [
          [
            117.55788236582802,
            -217.0507196065584
          ],
          [
            117.18879043531798,
            -217.2352459838747
          ],
          [
            116.81969850480792,
            -217.419772361191
          ],
          [
            116.08150251135159,
            -218.15791405411656
          ],
          [
            115.34328831924091,
            -219.4496891544816
          ],
          [
            114.6050923257846,
            -220.18783084740716
          ],
          [
            113.86688419989206,
            -221.29506147862568
          ],
          [
            113.12868214021759,
            -222.21774764069772
          ],
          [
            112.75959020970755,
            -222.40227401801405
          ],
          [
            112.3904982791975,
            -222.58680039533036
          ],
          [
            111.65231441817738,
            -222.95585314996296
          ],
          [
            110.54504469286533,
            -223.32488781276538
          ],
          [
            109.62233609835359,
            -223.14029811404347
          ],
          [
            108.69962750384185,
            -222.95570841532157
          ],
          [
            107.77690677689388,
            -223.14020765489263
          ],
          [
            107.22328404667408,
            -222.9556360480009
          ],
          [
            105.93150172030663,
            -222.40193931915587
          ],
          [
            104.45518252801129,
            -221.66368907524924
          ],
          [
            103.16340020164384,
            -221.1099923464042
          ],
          [
            102.24069160713209,
            -220.9254026476823
          ],
          [
            100.76437241483676,
            -220.18715240377566
          ],
          [
            100.39529261676293,
            -220.00258984279904
          ],
          [
            98.9189734244676,
            -219.26433959889243
          ],
          [
            97.62719109810014,
            -218.7106428700474
          ],
          [
            96.15087190580482,
            -217.9723926261408
          ],
          [
            94.67455271350948,
            -217.23414238223418
          ],
          [
            93.19823352121416,
            -216.49589213832758
          ],
          [
            92.46007392506651,
            -216.12676701637426
          ],
          [
            91.72190219648263,
            -216.12673083271392
          ],
          [
            90.98373046789874,
            -216.1266946490536
          ],
          [
            89.87647287502291,
            -216.12664037356308
          ],
          [
            89.13831327887524,
            -215.75751525160976
          ],
          [
            88.2156046843635,
            -215.57292555288785
          ],
          [
            88.03106175221752,
            -215.57291650697277
          ]
        ]
      },
      "properties": {
        "type": "variant",
        "id": 1,
        "color": "#ff4444",
        "vzdal_m": 920,
        "prevyseni_m": 19,
        "cas_s": 286,
        "tempo_str": "5:11"
      }
    },
    {
      "type": "Feature",
      "geometry": {
        "type": "LineString",
        "coordinates": [
          [
            117.55788236582802,
            -217.0507196065584
          ],
          [
            117.55789449826425,
            -216.68163066826546
          ],
          [
            117.3733636985545,
            -216.3125326840574
          ],
          [
            117.37338796342694,
            -215.57435480747148
          ],
          [
            117.37341222829939,
            -214.83617693088556
          ],
          [
            117.37343042695372,
            -214.28254352344612
          ],
          [
            116.62349226673922,
            -213.1698742364869
          ],
          [
            115.49336258490236,
            -212.89032956748883
          ],
          [
            114.8573304004888,
            -212.63619672680545
          ],
          [
            114.43812637743386,
            -212.51562482571148
          ],
          [
            113.10377374747827,
            -212.15585788959547
          ],
          [
            112.42164795057715,
            -211.96030721893774
          ],
          [
            111.85130551457924,
            -211.88897441848576
          ],
          [
            111.4870478174153,
            -211.81813349505063
          ],
          [
            111.14673132357402,
            -211.71917318758796
          ],
          [
            110.75694390171425,
            -211.6058272763248
          ],
          [
            109.63563873722138,
            -211.28425714176865
          ],
          [
            108.12911209352319,
            -210.63058810226994
          ],
          [
            106.70414953243797,
            -209.79693020658723
          ],
          [
            105.9859525772273,
            -209.38783050505603
          ],
          [
            105.62625947835386,
            -209.1856579543194
          ],
          [
            105.26631223949423,
            -208.9847341663915
          ],
          [
            104.90636500063457,
            -208.78381037846367
          ],
          [
            104.49711540957986,
            -208.63168124462186
          ],
          [
            103.34834957040326,
            -208.74552195950525
          ],
          [
            102.61017784181938,
            -208.74548577584488
          ],
          [
            102.24108591130931,
            -208.9300121531612
          ],
          [
            100.94926112141506,
            -209.6681267083415
          ],
          [
            99.28835046722888,
            -210.40622317169164
          ],
          [
            97.99652567733466,
            -211.14433772687195
          ],
          [
            97.62742768060649,
            -211.51340857333471
          ],
          [
            97.25834181631454,
            -211.51339048150456
          ],
          [
            95.78197409427432,
            -212.2514959907698
          ],
          [
            94.30560637223411,
            -212.98960150003498
          ],
          [
            93.38288564528614,
            -213.17410073960605
          ],
          [
            92.64470178426603,
            -213.54315349423868
          ],
          [
            91.53743205895398,
            -213.9121881570411
          ],
          [
            90.43016233364193,
            -214.28122281984352
          ],
          [
            89.1383375437477,
            -215.01933737502384
          ],
          [
            88.03106175221752,
            -215.57291650697277
          ]
        ]
      },
      "properties": {
        "type": "variant",
        "id": 2,
        "color": "#4444ff",
        "vzdal_m": 958,
        "prevyseni_m": 27,
        "cas_s": 297,
        "tempo_str": "5:09"
      }
    },
    {
      "type": "Feature",
      "geometry": {
        "type": "LineString",
        "coordinates": [
          [
            117.55788236582802,
            -217.0507196065584
          ],
          [
            117.18879650153607,
            -217.05070151472825
          ],
          [
            116.81970457102604,
            -217.23522789204455
          ],
          [
            116.45061264051598,
            -217.41975426936082
          ],
          [
            115.71244091193209,
            -217.41971808570048
          ],
          [
            114.97426918334821,
            -217.41968190204017
          ],
          [
            114.23609745476432,
            -217.4196457183798
          ],
          [
            113.49792572618044,
            -217.41960953471946
          ],
          [
            112.20611913494052,
            -217.60409068246034
          ],
          [
            111.2834166066469,
            -217.23495651459194
          ],
          [
            110.91434894100928,
            -216.68130501532232
          ],
          [
            110.72981207508143,
            -216.49675150026079
          ],
          [
            110.3607322770076,
            -216.31218893928414
          ],
          [
            110.17619541107973,
            -216.12763542422255
          ],
          [
            109.8071156130059,
            -215.94307286324593
          ],
          [
            109.62257268085993,
            -215.94306381733082
          ],
          [
            109.2534928827861,
            -215.75850125635415
          ],
          [
            107.77717369049077,
            -215.02025101244757
          ],
          [
            107.03901409434312,
            -214.65112589049426
          ],
          [
            106.66993429626929,
            -214.4665633295176
          ],
          [
            105.93176256768541,
            -214.4665271458573
          ],
          [
            105.19359083910152,
            -214.46649096219693
          ],
          [
            104.82450497480957,
            -214.46647287036674
          ],
          [
            104.45542517673574,
            -214.2819103093901
          ],
          [
            104.27088224458977,
            -214.28190126347502
          ],
          [
            104.08633931244381,
            -214.2818922175599
          ],
          [
            103.90179638029784,
            -214.28188317164484
          ],
          [
            103.71725344815187,
            -214.28187412572973
          ],
          [
            103.34817365007804,
            -214.0973115647531
          ],
          [
            102.97909385200418,
            -213.91274900377647
          ],
          [
            102.2409099909841,
            -214.28180175840907
          ],
          [
            101.50271399752775,
            -215.01994345133463
          ],
          [
            101.1336220670177,
            -215.20446982865093
          ],
          [
            100.21091347250595,
            -215.01988012992902
          ],
          [
            99.47274781014018,
            -214.8352994771222
          ],
          [
            98.73457001533818,
            -215.01980776260834
          ],
          [
            97.9963982867543,
            -215.019771578948
          ],
          [
            97.25822655817042,
            -215.01973539528763
          ],
          [
            96.52005482958653,
            -215.0196992116273
          ],
          [
            95.41280936914693,
            -214.65055599784384
          ],
          [
            93.9364901768516,
            -213.91230575393723
          ],
          [
            93.56741037877778,
            -213.7277431929606
          ],
          [
            93.19831844826773,
            -213.9122695702769
          ],
          [
            92.27557952266542,
            -214.65040221728736
          ],
          [
            91.5373895954272,
            -215.20399944106646
          ],
          [
            90.43011987011516,
            -215.57303410386888
          ],
          [
            89.69194814153127,
            -215.57299792020856
          ],
          [
            88.95377641294739,
            -215.5729617365482
          ],
          [
            88.2156046843635,
            -215.57292555288785
          ],
          [
            88.03106175221752,
            -215.57291650697277
          ]
        ]
      },
      "properties": {
        "type": "variant",
        "id": 3,
        "color": "#44ff44",
        "vzdal_m": 868,
        "prevyseni_m": 29,
        "cas_s": 293,
        "tempo_str": "5:37"
      }
    }
  ]
}