{
  "type": "FeatureCollection",
  "features": [
    {
      "type": "Feature",
      "geometry": {
        "type": "Point",
        "coordinates": [
          174.65402151638924,
          -302.68798480528426
        ]
      },
      "properties": {
        "type": "start",
        "isom": "204"
      }
    },
    {
      "type": "Feature",
      "geometry": {
        "type": "Point",
        "coordinates": [
          96.24421201858328,
          -215.89798897956555
        ]
      },
      "properties": {
        "type": "end",
        "isom": "111"
      }
    },
    {
      "type": "Feature",
      "geometry": {
        "type": "LineString",
        "coordinates": [
          [
            174.6556548917834,
            -302.7674978338858
          ],
          [
            173.9176022283226,
            -301.29110174383305
          ],
          [
            170.9653915744794,
            -295.38551738362224
          ],
          [
            170.22749694903067,
            -291.6945287920596
          ],
          [
            168.75149698078377,
            -287.2653416109476
          ],
          [
            166.53718095238932,
            -285.0507458422994
          ],
          [
            165.79912828892853,
            -283.5743497522467
          ],
          [
            165.06107562546774,
            -282.09795366219396
          ],
          [
            164.32302296200692,
            -280.6215575721413
          ],
          [
            160.6324962480162,
            -276.9305646243942
          ],
          [
            161.3707596288264,
            -275.4541707124337
          ],
          [
            158.4184436163085,
            -271.02498135322946
          ],
          [
            155.46618028312795,
            -265.85759449352196
          ],
          [
            152.51375891193538,
            -262.90480013532436
          ],
          [
            148.82312683926995,
            -260.6902021885839
          ],
          [
            146.60896884888754,
            -256.26101391842576
          ],
          [
            143.65665283636966,
            -251.8318245592216
          ],
          [
            140.70428414451442,
            -248.14083270052066
          ],
          [
            138.49007347479468,
            -244.44984193086583
          ],
          [
            134.06133605933107,
            -241.49704539457602
          ],
          [
            131.1089146881385,
            -238.5442510363784
          ],
          [
            128.15654599628323,
            -234.85325917767747
          ],
          [
            125.20412462509066,
            -231.90046481947988
          ],
          [
            122.98986127603357,
            -228.94767155032835
          ],
          [
            121.51365059043728,
            -227.47127437122953
          ],
          [
            120.16941363282017,
            -226.30355604140934
          ],
          [
            116.3066444202402,
            -226.27951296655974
          ],
          [
            113.45677092092711,
            -225.76938473234353
          ],
          [
            109.7276319597002,
            -225.56925174346173
          ],
          [
            107.4888588872122,
            -224.51846367734043
          ],
          [
            104.53643751601962,
            -221.56566931914287
          ],
          [
            100.10770010055602,
            -218.61287278285306
          ],
          [
            96.41712070722792,
            -215.66007733560932
          ]
        ]
      },
      "properties": {
        "type": "variant",
        "id": 1,
        "color": "#ff4444",
        "vzdal_m": 837,
        "prevyseni_m": 13,
        "cas_s": 245,
        "tempo_str": "4:52"
      }
    },
    {
      "type": "Feature",
      "geometry": {
        "type": "LineString",
        "coordinates": [
          [
            174.6556548917834,
            -302.7674978338858
          ],
          [
            173.9174968696479,
            -302.7674967448397
          ],
          [
            172.44123350471426,
            -302.0292970662442
          ],
          [
            168.01239073057596,
            -300.552895530961
          ],
          [
            165.0599693593834,
            -297.6001011727634
          ],
          [
            159.8930739217843,
            -294.6473035474275
          ],
          [
            158.41681055685063,
            -293.909103868832
          ],
          [
            155.46438918565806,
            -290.9563095106344
          ],
          [
            154.7264945602093,
            -287.26532091907177
          ],
          [
            154.7267052775587,
            -284.31253091705855
          ],
          [
            153.93347240875445,
            -280.63795389177625
          ],
          [
            153.2508106679865,
            -278.4069487349399
          ],
          [
            151.77481069973962,
            -273.97776155382786
          ],
          [
            148.82260004589642,
            -268.072177193617
          ],
          [
            148.08454738243563,
            -266.5957811035643
          ],
          [
            147.34649471897484,
            -265.1193850135116
          ],
          [
            146.60844205551405,
            -263.64298892345886
          ],
          [
            146.60849473485138,
            -262.90479142295555
          ],
          [
            145.87044207139058,
            -261.4283953329029
          ],
          [
            142.9181260588727,
            -256.9992059736986
          ],
          [
            140.70402074782766,
            -251.83182020303718
          ],
          [
            140.70423146517706,
            -248.87903020102397
          ],
          [
            139.22823149693016,
            -244.44984301991195
          ],
          [
            136.276020843087,
            -238.5442586597011
          ],
          [
            132.58549412909625,
            -234.8532657119541
          ],
          [
            130.37112542136447,
            -233.37686744380915
          ],
          [
            128.8948620564308,
            -232.63866776521365
          ],
          [
            125.20412462509066,
            -231.90046481947988
          ],
          [
            122.98986127603357,
            -228.94767155032835
          ],
          [
            121.51365059043728,
            -227.47127437122953
          ],
          [
            120.16941363282017,
            -226.30355604140934
          ],
          [
            116.3066444202402,
            -226.27951296655974
          ],
          [
            113.45677092092711,
            -225.76938473234353
          ],
          [
            109.7276319597002,
            -225.56925174346173
          ],
          [
            107.4888588872122,
            -224.51846367734043
          ],
          [
            104.53643751601962,
            -221.56566931914287
          ],
          [
            100.10770010055602,
            -218.61287278285306
          ],
          [
            96.41712070722792,
            -215.66007733560932
          ]
        ]
      },
      "properties": {
        "type": "variant",
        "id": 2,
        "color": "#4444ff",
        "vzdal_m": 863,
        "prevyseni_m": 15,
        "cas_s": 242,
        "tempo_str": "4:40"
      }
    },
    {
      "type": "Feature",
      "geometry": {
        "type": "LineString",
        "coordinates": [
          [
            174.6556548917834,
            -302.7674978338858
          ],
          [
            173.9174968696479,
            -302.7674967448397
          ],
          [
            172.44123350471426,
            -302.0292970662442
          ],
          [
            169.48860141617226,
            -302.0292927100598
          ],
          [
            165.79786398483213,
            -301.29108976432605
          ],
          [
            161.36902121069383,
            -299.8146882290428
          ],
          [
            159.89275784576017,
            -299.0764885504473
          ],
          [
            158.41649448082654,
            -298.33828887185183
          ],
          [
            155.46386239228454,
            -298.33828451566745
          ],
          [
            149.55880893254997,
            -295.3854858012854
          ],
          [
            146.60638756135737,
            -292.43269144308783
          ],
          [
            144.39201885362556,
            -290.9562931749429
          ],
          [
            142.91575548869193,
            -290.2180934963474
          ],
          [
            137.93395312610602,
            -287.71549569400463
          ],
          [
            136.2725966861592,
            -286.527096192416
          ],
          [
            134.79643867990023,
            -284.3125015128139
          ],
          [
            134.05838601643944,
            -282.8361054227612
          ],
          [
            133.3202806736413,
            -282.09790683321177
          ],
          [
            132.5822280101805,
            -280.6215107431591
          ],
          [
            131.10596464524687,
            -279.88331106456354
          ],
          [
            128.15354327405427,
            -276.93051670636595
          ],
          [
            125.20112190286167,
            -273.97772234816836
          ],
          [
            123.72491121726537,
            -272.5013251690695
          ],
          [
            122.24864785233174,
            -271.763125490474
          ],
          [
            118.55801577966629,
            -269.54852754373366
          ],
          [
            117.81991043686814,
            -268.81032895418423
          ],
          [
            117.08185777340736,
            -267.3339328641315
          ],
          [
            116.34380510994654,
            -265.8575367740788
          ],
          [
            113.3913310594166,
            -263.6429399163845
          ],
          [
            111.91506769448297,
            -262.904740237789
          ],
          [
            111.17696235168482,
            -262.1665416482396
          ],
          [
            110.43890968822402,
            -260.6901455581869
          ],
          [
            106.01017227276044,
            -257.73734902189705
          ],
          [
            104.53390890782678,
            -256.9991493433016
          ],
          [
            103.05790893957989,
            -252.5699621621895
          ],
          [
            100.84380362853484,
            -247.40257639152807
          ],
          [
            99.36780366028796,
            -242.97338921041606
          ],
          [
            97.89180369204107,
            -238.54420202930405
          ],
          [
            97.15390906659232,
            -234.8532134377414
          ],
          [
            95.67790909834542,
            -230.4240262566294
          ],
          [
            95.67811981569483,
            -227.47123625461614
          ],
          [
            94.94022519024608,
            -223.7802476630535
          ],
          [
            94.94043590759547,
            -220.82745766104028
          ],
          [
            95.67885732641774,
            -217.13647124756986
          ],
          [
            96.41712070722792,
            -215.66007733560932
          ]
        ]
      },
      "properties": {
        "type": "variant",
        "id": 3,
        "color": "#44ff44",
        "vzdal_m": 882,
        "prevyseni_m": 6,
        "cas_s": 247,
        "tempo_str": "4:39"
      }
    }
  ]
}