{
  "type": "FeatureCollection",
  "features": [
    {
      "type": "Feature",
      "geometry": {
        "type": "Point",
        "coordinates": [
          117.28414813087305,
          -232.39385408024023
        ]
      },
      "properties": {
        "type": "start",
        "isom": "204"
      }
    },
    {
      "type": "Feature",
      "geometry": {
        "type": "Point",
        "coordinates": [
          44.50762415859862,
          -237.66087677199025
        ]
      },
      "properties": {
        "type": "end",
        "isom": "419"
      }
    },
    {
      "type": "Feature",
      "geometry": {
        "type": "LineString",
        "coordinates": [
          [
            117.37283593757883,
            -232.367901499801
          ],
          [
            116.63463387790436,
            -233.2905876618731
          ],
          [
            116.26553588117622,
            -233.65965850833587
          ],
          [
            115.89644395066617,
            -233.84418488565217
          ],
          [
            115.527345953938,
            -234.21325573211496
          ],
          [
            115.3427908893558,
            -234.58233562449283
          ],
          [
            115.15823582477361,
            -234.9514155168707
          ],
          [
            114.97368076019141,
            -235.32049540924857
          ],
          [
            114.78912569560921,
            -235.68957530162643
          ],
          [
            114.05091756971666,
            -236.796805932845
          ],
          [
            113.4972584421882,
            -237.71950114083208
          ],
          [
            112.75906244873187,
            -238.4576428337577
          ],
          [
            111.6517805909836,
            -239.19576643485306
          ],
          [
            110.14966035922747,
            -239.8819830804283
          ],
          [
            109.43705603119358,
            -240.10329884503807
          ],
          [
            108.50677684095159,
            -240.2591764605973
          ],
          [
            107.77634188669573,
            -240.3251093238235
          ],
          [
            106.85106427268578,
            -240.47251837841074
          ],
          [
            106.14880946837617,
            -240.60303722665682
          ],
          [
            105.10137993742157,
            -240.6788486151591
          ],
          [
            104.3047130876183,
            -240.9217155241651
          ],
          [
            103.35293571936928,
            -241.11111663602887
          ],
          [
            102.17632128671335,
            -240.8241917652091
          ],
          [
            100.94826019542671,
            -240.11796411751044
          ],
          [
            100.21008846684283,
            -240.1179279338501
          ],
          [
            99.47191673825895,
            -240.11789175018973
          ],
          [
            98.73374500967506,
            -240.1178555665294
          ],
          [
            97.81103641516331,
            -239.9332658678075
          ],
          [
            97.07287075279756,
            -239.74868521500068
          ],
          [
            96.33469295799556,
            -239.9331935004868
          ],
          [
            95.59652122941166,
            -239.93315731682645
          ],
          [
            94.30472677060797,
            -239.74854952627436
          ],
          [
            93.75110404038817,
            -239.56397791938264
          ],
          [
            93.0129383780224,
            -239.3793972665758
          ],
          [
            92.2747605832204,
            -239.56390555206195
          ],
          [
            91.53658885463652,
            -239.5638693684016
          ],
          [
            90.79841105983452,
            -239.74837765388773
          ],
          [
            90.06024539746875,
            -239.5637970010809
          ],
          [
            89.32207366888487,
            -239.5637608174206
          ],
          [
            88.5839080065191,
            -239.37918016461376
          ],
          [
            87.8457302117171,
            -239.56368845009987
          ],
          [
            87.1075584831332,
            -239.56365226643956
          ],
          [
            85.88932339266259,
            -239.21985659417604
          ],
          [
            85.88017303608298,
            -239.17979181881825
          ],
          [
            85.4466902924738,
            -239.00993744576434
          ],
          [
            84.15486550257957,
            -239.74805200094465
          ],
          [
            83.0475957772675,
            -240.11708666374707
          ],
          [
            82.12487505031955,
            -240.3015859033181
          ],
          [
            81.20215432337157,
            -240.48608514288918
          ],
          [
            80.27943359642362,
            -240.67058438246022
          ],
          [
            79.54126186783972,
            -240.67054819879988
          ],
          [
            78.80309013925584,
            -240.6705120151395
          ],
          [
            78.06491841067195,
            -240.67047583147917
          ],
          [
            77.51128961423404,
            -240.6704486937339
          ],
          [
            77.14220981616022,
            -240.48588613275726
          ],
          [
            76.40403808757632,
            -240.48584994909695
          ],
          [
            75.29679262713672,
            -240.11670673531344
          ],
          [
            74.92770676284478,
            -240.11668864348326
          ],
          [
            74.00499816833303,
            -239.93209894476138
          ],
          [
            73.26682643974915,
            -239.932062761101
          ],
          [
            72.52864864494715,
            -240.11657104658713
          ],
          [
            71.79048298258138,
            -239.93199039378035
          ],
          [
            71.05231125399749,
            -239.93195421011998
          ],
          [
            69.76052892763003,
            -239.37825748127494
          ],
          [
            68.28420973533471,
            -238.64000723736837
          ],
          [
            68.09966680318874,
            -238.63999819145326
          ],
          [
            66.99242134274914,
            -238.27085497766979
          ],
          [
            66.25424961416525,
            -238.27081879400944
          ],
          [
            65.3315410196535,
            -238.08622909528754
          ],
          [
            64.7779122232156,
            -238.08620195754224
          ],
          [
            64.40883242514177,
            -237.90163939656563
          ],
          [
            63.30158696470215,
            -237.53249618278215
          ],
          [
            63.11704403255619,
            -237.53248713686705
          ],
          [
            62.74796423448235,
            -237.34792457589043
          ],
          [
            62.19432937182633,
            -237.5324419072916
          ],
          [
            61.8252495737525,
            -237.34787934631495
          ],
          [
            61.27161471109647,
            -237.53239667771618
          ],
          [
            60.902522780586416,
            -237.71692305503248
          ],
          [
            60.53343085007637,
            -237.90144943234878
          ],
          [
            59.6107101231284,
            -238.08594867191985
          ],
          [
            58.87253839454451,
            -238.0859124882595
          ],
          [
            57.76529293410491,
            -237.71676927447604
          ],
          [
            56.84258433959316,
            -237.53217957575413
          ],
          [
            56.10441261100928,
            -237.53214339209376
          ],
          [
            55.366240882425394,
            -237.53210720843342
          ],
          [
            54.25897115711335,
            -237.90114187123586
          ],
          [
            53.520799428529465,
            -237.90110568757552
          ],
          [
            52.78262769994558,
            -237.90106950391515
          ],
          [
            52.41354183565363,
            -237.901051412085
          ],
          [
            52.04444990514358,
            -238.08557778940133
          ],
          [
            51.306278176559694,
            -238.08554160574099
          ],
          [
            50.56811251419392,
            -237.90096095293413
          ],
          [
            49.82993471939192,
            -238.08546923842025
          ],
          [
            49.091762990808036,
            -238.08543305475993
          ],
          [
            48.35358519600605,
            -238.26994134024608
          ],
          [
            47.61541953364027,
            -238.08536068743922
          ],
          [
            46.87724780505639,
            -238.0853245037789
          ],
          [
            46.139076076472506,
            -238.08528832011856
          ],
          [
            45.40090434788862,
            -238.0852521364582
          ],
          [
            44.478201819594986,
            -237.71611796858983
          ]
        ]
      },
      "properties": {
        "type": "variant",
        "id": 1,
        "color": "#ff4444",
        "vzdal_m": 2129,
        "prevyseni_m": 9,
        "cas_s": 585,
        "tempo_str": "4:34"
      }
    },
    {
      "type": "Feature",
      "geometry": {
        "type": "LineString",
        "coordinates": [
          [
            117.37283593757883,
            -232.367901499801
          ],
          [
            116.63463387790436,
            -233.2905876618731
          ],
          [
            116.26553588117622,
            -233.65965850833587
          ],
          [
            115.89644395066617,
            -233.84418488565217
          ],
          [
            115.527345953938,
            -234.21325573211496
          ],
          [
            115.3427908893558,
            -234.58233562449283
          ],
          [
            115.15823582477361,
            -234.9514155168707
          ],
          [
            114.97368076019141,
            -235.32049540924857
          ],
          [
            114.78912569560921,
            -235.68957530162643
          ],
          [
            114.05091756971666,
            -236.796805932845
          ],
          [
            113.4972584421882,
            -237.71950114083208
          ],
          [
            112.75906244873187,
            -238.4576428337577
          ],
          [
            111.6517805909836,
            -239.19576643485306
          ],
          [
            110.14966035922747,
            -239.8819830804283
          ],
          [
            109.43705603119358,
            -240.10329884503807
          ],
          [
            108.50677684095159,
            -240.2591764605973
          ],
          [
            107.77634188669573,
            -240.3251093238235
          ],
          [
            106.85106427268578,
            -240.47251837841074
          ],
          [
            106.14880946837617,
            -240.60303722665682
          ],
          [
            105.10137993742157,
            -240.6788486151591
          ],
          [
            104.3047130876183,
            -240.9217155241651
          ],
          [
            103.35293571936928,
            -241.11111663602887
          ],
          [
            102.62184709402902,
            -241.0109688053506
          ],
          [
            101.68639552670194,
            -241.22526711604968
          ],
          [
            100.94819346702748,
            -242.14795327812172
          ],
          [
            100.39455253815336,
            -242.51701507866943
          ],
          [
            99.4718439436416,
            -242.33242537994747
          ],
          [
            98.36459241698388,
            -242.1478266353105
          ],
          [
            97.6264206884,
            -242.14779045165014
          ],
          [
            96.88824895981612,
            -242.1477542679898
          ],
          [
            96.15007723123223,
            -242.14771808432948
          ],
          [
            95.22735650428426,
            -242.33221732390052
          ],
          [
            94.3046357773363,
            -242.51671656347153
          ],
          [
            93.56646404875242,
            -242.51668037981122
          ],
          [
            92.82829232016853,
            -242.51664419615088
          ],
          [
            91.9055837256568,
            -242.33205449742897
          ],
          [
            91.53650392758296,
            -242.1474919364523
          ],
          [
            90.61379533307122,
            -241.9629022377304
          ],
          [
            89.87562360448733,
            -241.96286605407005
          ],
          [
            89.13745187590345,
            -241.96282987040968
          ],
          [
            87.8456816819722,
            -241.0400442032717
          ],
          [
            87.2920589517524,
            -240.85547259637997
          ],
          [
            86.18480135887657,
            -240.85541832088944
          ],
          [
            86.00026449294872,
            -240.67086480582788
          ],
          [
            85.63118469487489,
            -240.48630224485123
          ],
          [
            84.15486550257957,
            -239.74805200094465
          ],
          [
            83.41669377399568,
            -239.74801581728428
          ],
          [
            82.49398517948393,
            -239.56342611856238
          ],
          [
            81.94035638304601,
            -239.56339898081708
          ],
          [
            81.57127658497218,
            -239.3788364198405
          ],
          [
            81.38673365282621,
            -239.37882737392536
          ],
          [
            81.01765385475238,
            -239.19426481294872
          ],
          [
            79.91040839431278,
            -238.82512159916527
          ],
          [
            79.35677959787486,
            -238.82509446141998
          ],
          [
            78.98769979980104,
            -238.64053190044336
          ],
          [
            78.61861393550909,
            -238.64051380861318
          ],
          [
            78.24953413743526,
            -238.45595124763653
          ],
          [
            77.69591140721546,
            -238.2713796407448
          ],
          [
            77.32682554292352,
            -238.27136154891463
          ],
          [
            76.95774574484969,
            -238.08679898793795
          ],
          [
            76.58865988055774,
            -238.0867808961078
          ],
          [
            76.21958008248392,
            -237.90221833513112
          ],
          [
            76.03503715033794,
            -237.90220928921607
          ],
          [
            75.66595735226412,
            -237.7176467282394
          ],
          [
            75.29687148797217,
            -237.71762863640922
          ],
          [
            74.92779168989834,
            -237.53306607543257
          ],
          [
            73.63600936353087,
            -236.97936934658753
          ],
          [
            72.897837634947,
            -236.9793331629272
          ],
          [
            71.97512904043525,
            -236.79474346420528
          ],
          [
            71.6060431761433,
            -236.7947253723751
          ],
          [
            71.23696337806946,
            -236.61016281139842
          ],
          [
            70.86788357999563,
            -236.42560025042184
          ],
          [
            70.4987977157037,
            -236.42558215859165
          ],
          [
            70.12971791762986,
            -236.24101959761498
          ],
          [
            69.39154618904598,
            -236.24098341395464
          ],
          [
            68.83792345882618,
            -236.05641180706291
          ],
          [
            68.46884366075234,
            -235.87184924608624
          ],
          [
            67.73067799838657,
            -235.6872685932794
          ],
          [
            67.36159820031274,
            -235.50270603230277
          ],
          [
            66.99251840223891,
            -235.31814347132615
          ],
          [
            66.62343860416507,
            -235.13358091034948
          ],
          [
            66.06981587394527,
            -234.94900930345773
          ],
          [
            65.1470951469973,
            -235.13350854302877
          ],
          [
            64.40892948463154,
            -234.94892789022197
          ],
          [
            63.67075168982955,
            -235.1334361757081
          ],
          [
            62.932579961245665,
            -235.13339999204774
          ],
          [
            62.194402166443666,
            -235.31790827753386
          ],
          [
            61.27168750571381,
            -235.31786304795844
          ],
          [
            60.90260164142187,
            -235.31784495612825
          ],
          [
            60.53350971091181,
            -235.50237133344456
          ],
          [
            60.04463210111598,
            -235.68350164698361
          ],
          [
            60.038645249580796,
            -236.04903568173506
          ],
          [
            59.24167278858135,
            -236.60957482691782
          ],
          [
            58.318952061633375,
            -236.7940740664889
          ],
          [
            57.580780333049496,
            -236.79403788282858
          ],
          [
            56.658059606101524,
            -236.9785371223996
          ],
          [
            56.47351667395555,
            -236.9785280764845
          ],
          [
            56.104424743445506,
            -237.1630544538008
          ],
          [
            54.812606019769376,
            -237.71662453983464
          ],
          [
            53.889885292821404,
            -237.9011237794057
          ],
          [
            53.15171356423752,
            -237.90108759574534
          ],
          [
            52.41354183565363,
            -237.901051412085
          ],
          [
            52.04444990514358,
            -238.08557778940133
          ],
          [
            51.306278176559694,
            -238.08554160574099
          ],
          [
            50.56810644797581,
            -238.08550542208062
          ],
          [
            49.82993471939192,
            -238.08546923842025
          ],
          [
            49.091762990808036,
            -238.08543305475993
          ],
          [
            48.35359126222416,
            -238.0853968710996
          ],
          [
            47.61542559985838,
            -237.90081621829276
          ],
          [
            46.87724780505639,
            -238.0853245037789
          ],
          [
            46.139076076472506,
            -238.08528832011856
          ],
          [
            45.40090434788862,
            -238.0852521364582
          ],
          [
            44.478201819594986,
            -237.71611796858983
          ]
        ]
      },
      "properties": {
        "type": "variant",
        "id": 2,
        "color": "#4444ff",
        "vzdal_m": 2162,
        "prevyseni_m": 9,
        "cas_s": 596,
        "tempo_str": "4:35"
      }
    },
    {
      "type": "Feature",
      "geometry": {
        "type": "LineString",
        "coordinates": [
          [
            117.37283593757883,
            -232.367901499801
          ],
          [
            116.26556621226676,
            -232.73693616260348
          ],
          [
            115.527400549901,
            -232.55235550979666
          ],
          [
            115.15832075182718,
            -232.36779294881998
          ],
          [
            114.42014902324328,
            -232.36775676515964
          ],
          [
            113.6819772946594,
            -232.36772058149933
          ],
          [
            112.94381163229363,
            -232.18313992869247
          ],
          [
            112.20563383749163,
            -232.36764821417862
          ],
          [
            111.46746210890774,
            -232.36761203051827
          ],
          [
            110.72929038032386,
            -232.36757584685793
          ],
          [
            109.99111865173998,
            -232.36753966319756
          ],
          [
            109.25294692315609,
            -232.36750347953722
          ],
          [
            108.33022619620812,
            -232.55200271910826
          ],
          [
            108.14568326406214,
            -232.5519936731932
          ],
          [
            107.77660346598832,
            -232.36743111221654
          ],
          [
            107.03843173740444,
            -232.3673949285562
          ],
          [
            105.93116201209239,
            -232.73642959135864
          ],
          [
            105.1929902835085,
            -232.7363934076983
          ],
          [
            104.45481855492461,
            -232.73635722403793
          ],
          [
            103.71665289255884,
            -232.5517765712311
          ],
          [
            102.97848116397495,
            -232.5517403875708
          ],
          [
            102.42484630131892,
            -232.73625771897198
          ],
          [
            102.05575437080887,
            -232.92078409628832
          ],
          [
            101.13301544520658,
            -233.65891674329876
          ],
          [
            99.84119672153044,
            -234.2124868293326
          ],
          [
            98.69752415338063,
            -234.624708196704
          ],
          [
            97.4427886707312,
            -234.0265463364796
          ],
          [
            95.90031504643571,
            -233.3945105509949
          ],
          [
            94.78732594200947,
            -232.61933442328117
          ],
          [
            94.09354055638727,
            -231.8411752467338
          ],
          [
            93.33601899751014,
            -231.1242190086497
          ],
          [
            92.56314992516253,
            -230.43767972388878
          ],
          [
            91.52717872042777,
            -229.61071536614182
          ],
          [
            90.08176050813996,
            -228.82293301058826
          ],
          [
            88.75984796028906,
            -228.32966328025313
          ],
          [
            88.05882085198257,
            -228.12512938230765
          ],
          [
            87.50095860000933,
            -228.01059031866552
          ],
          [
            87.32457051149196,
            -227.97265764951538
          ],
          [
            86.93299306518496,
            -227.89092005518089
          ],
          [
            86.16129684293347,
            -227.85354194385565
          ],
          [
            85.9906800768541,
            -227.9022811762747
          ],
          [
            85.43052188538755,
            -228.06569362422556
          ],
          [
            85.05213567544416,
            -228.1474094454997
          ],
          [
            84.63544426626473,
            -228.37096701547463
          ],
          [
            83.41704561464613,
            -229.04443660678854
          ],
          [
            82.12522689097,
            -229.59800669282237
          ],
          [
            81.75614102667805,
            -229.59798860099218
          ],
          [
            80.27977330463784,
            -230.33609411025745
          ],
          [
            79.17250357932579,
            -230.70512877305987
          ],
          [
            77.69613585728558,
            -231.4432342823251
          ],
          [
            76.77340906411949,
            -231.81227799104258
          ],
          [
            76.40431713360944,
            -231.99680436835894
          ],
          [
            75.66614540502556,
            -231.99676818469857
          ],
          [
            74.92797367644168,
            -231.99673200103823
          ],
          [
            74.37435094622187,
            -231.8121603941465
          ],
          [
            73.63617921763799,
            -231.81212421048613
          ],
          [
            72.8980074890541,
            -231.8120880268258
          ],
          [
            72.15983576047022,
            -231.81205184316548
          ],
          [
            71.42166403188634,
            -231.8120156595051
          ],
          [
            70.68349230330244,
            -231.81197947584477
          ],
          [
            69.76077157635449,
            -231.9964787154158
          ],
          [
            69.0225998477706,
            -231.99644253175546
          ],
          [
            68.28442811918671,
            -231.99640634809512
          ],
          [
            67.17715839387466,
            -232.36544101089757
          ],
          [
            66.43898666529077,
            -232.3654048272372
          ],
          [
            65.70081493670689,
            -232.3653686435769
          ],
          [
            64.96264320812301,
            -232.36533245991652
          ],
          [
            64.22447147953912,
            -232.36529627625617
          ],
          [
            63.48629975095524,
            -232.3652600925958
          ],
          [
            62.748128022371354,
            -232.3652239089355
          ],
          [
            62.00995022756936,
            -232.54973219442164
          ],
          [
            60.902686568475424,
            -232.73422238807757
          ],
          [
            59.42633704508954,
            -232.91869448990337
          ],
          [
            58.31905518734128,
            -233.65681809099874
          ],
          [
            57.94996325683122,
            -233.84134446831504
          ],
          [
            57.76540819224902,
            -234.21042436069294
          ],
          [
            57.58085919388495,
            -234.39495978392435
          ],
          [
            57.21176726337489,
            -234.57948616124065
          ],
          [
            56.65810813584641,
            -235.50218136922774
          ],
          [
            56.47355307126423,
            -235.87126126160564
          ],
          [
            55.7353570778079,
            -236.6094029545312
          ],
          [
            54.99715501813345,
            -237.5320891166033
          ],
          [
            54.07442822496738,
            -237.90113282532076
          ],
          [
            53.33625649638349,
            -237.90109664166044
          ],
          [
            52.598084767799605,
            -237.9010604580001
          ],
          [
            52.41354183565363,
            -237.901051412085
          ],
          [
            52.04444990514358,
            -238.08557778940133
          ],
          [
            51.306278176559694,
            -238.08554160574099
          ],
          [
            50.56810644797581,
            -238.08550542208062
          ],
          [
            49.82993471939192,
            -238.08546923842025
          ],
          [
            49.091762990808036,
            -238.08543305475993
          ],
          [
            48.35359126222416,
            -238.0853968710996
          ],
          [
            47.615413467422165,
            -238.2699051565857
          ],
          [
            46.87724780505639,
            -238.0853245037789
          ],
          [
            46.139076076472506,
            -238.08528832011856
          ],
          [
            45.40090434788862,
            -238.0852521364582
          ],
          [
            44.478201819594986,
            -237.71611796858983
          ]
        ]
      },
      "properties": {
        "type": "variant",
        "id": 3,
        "color": "#44ff44",
        "vzdal_m": 2143,
        "prevyseni_m": 31,
        "cas_s": 610,
        "tempo_str": "4:44"
      }
    }
  ]
}