{
  "type": "FeatureCollection",
  "features": [
    {
      "type": "Feature",
      "geometry": {
        "type": "Point",
        "coordinates": [
          26.746058392883928,
          -104.49155316299249
        ]
      },
      "properties": {
        "type": "start",
        "isom": "204"
      }
    },
    {
      "type": "Feature",
      "geometry": {
        "type": "Point",
        "coordinates": [
          38.61622855391042,
          -93.27367673540344
        ]
      },
      "properties": {
        "type": "end",
        "isom": "203"
      }
    },
    {
      "type": "Feature",
      "geometry": {
        "type": "LineString",
        "coordinates": [
          [
            26.760875912390905,
            -104.4638118679061
          ],
          [
            27.129979975337132,
            -103.91019655269797
          ],
          [
            27.499077972065255,
            -103.54112570679509
          ],
          [
            27.868188101229592,
            -102.80296592228171
          ],
          [
            28.237298230393925,
            -102.06480613776831
          ],
          [
            28.4218593611942,
            -101.51118177620639
          ],
          [
            28.790969490358535,
            -100.77302199169301
          ],
          [
            29.173781164717603,
            -99.9649961289929
          ],
          [
            29.558148519868123,
            -99.70099053674294
          ],
          [
            30.08506273159326,
            -99.299913089907
          ],
          [
            30.47168815584704,
            -98.94054823177306
          ],
          [
            30.91605731848198,
            -98.5623421515351
          ],
          [
            31.367783859507075,
            -98.22183986448374
          ],
          [
            31.660739113890656,
            -97.82742776314085
          ],
          [
            31.998477722427552,
            -97.16478532837637
          ],
          [
            32.444141909004884,
            -96.43323222650642
          ],
          [
            32.75880328627638,
            -95.88278805171079
          ],
          [
            33.13711170346144,
            -95.52680687000283
          ],
          [
            33.487411275140225,
            -95.2156164545729
          ],
          [
            34.23438825969542,
            -94.86584904414184
          ],
          [
            34.50561806594679,
            -94.7593589767035
          ],
          [
            34.61547677947577,
            -94.7578431876106
          ],
          [
            35.250166234446354,
            -94.86791559630838
          ],
          [
            35.80380109710232,
            -94.68339826606456
          ],
          [
            36.54198495812235,
            -94.31434551286928
          ],
          [
            37.28016881914238,
            -93.94529275967403
          ],
          [
            38.018352680162415,
            -93.57624000647877
          ],
          [
            38.57199057592744,
            -93.29945044158234
          ]
        ]
      },
      "properties": {
        "type": "variant",
        "id": 1,
        "color": "#ff4444",
        "vzdal_m": 931,
        "prevyseni_m": 25,
        "cas_s": 251,
        "tempo_str": "4:29"
      }
    },
    {
      "type": "Feature",
      "geometry": {
        "type": "LineString",
        "coordinates": [
          [
            26.760875912390905,
            -104.4638118679061
          ],
          [
            27.129979975337132,
            -103.91019655269797
          ],
          [
            27.591349438138234,
            -103.54113022997198
          ],
          [
            28.329533299158264,
            -103.17207747677674
          ],
          [
            28.97544569410531,
            -102.80302020040459
          ],
          [
            29.529083589870336,
            -102.52623063550813
          ],
          [
            29.898169454162247,
            -102.52624872821576
          ],
          [
            30.36000678451703,
            -102.50565990957247
          ],
          [
            30.828418737538282,
            -102.36684800695038
          ],
          [
            31.3950909394864,
            -102.23740436093837
          ],
          [
            31.74363517293043,
            -101.41907237592237
          ],
          [
            32.112745302094766,
            -100.68091259140898
          ],
          [
            32.481852398150046,
            -100.03502504154824
          ],
          [
            32.60701722029404,
            -99.57177465997947
          ],
          [
            32.850971626641545,
            -99.02004855307696
          ],
          [
            33.22006962336967,
            -98.65097770717409
          ],
          [
            33.58916762009778,
            -98.28190686127122
          ],
          [
            33.95827168304402,
            -97.72829154606308
          ],
          [
            34.32736967977214,
            -97.35922070016021
          ],
          [
            34.696470709609315,
            -96.89787761960469
          ],
          [
            35.06557477255554,
            -96.34426230439657
          ],
          [
            35.5269472684657,
            -95.88292374701795
          ],
          [
            36.08058819733977,
            -95.51386194746891
          ],
          [
            36.541957660140866,
            -95.14479562474293
          ],
          [
            36.911055656868996,
            -94.77572477884006
          ],
          [
            37.55696805181605,
            -94.40666750246787
          ],
          [
            37.926066048544165,
            -94.03759665656499
          ],
          [
            38.29516404527229,
            -93.66852581066212
          ],
          [
            38.57199057592744,
            -93.29945044158234
          ]
        ]
      },
      "properties": {
        "type": "variant",
        "id": 2,
        "color": "#4444ff",
        "vzdal_m": 921,
        "prevyseni_m": 24,
        "cas_s": 259,
        "tempo_str": "4:40"
      }
    }
  ]
}