{
  "type": "FeatureCollection",
  "features": [
    {
      "type": "Feature",
      "geometry": {
        "type": "Point",
        "coordinates": [
          13.356470060891834,
          -105.07996409626338
        ]
      },
      "properties": {
        "type": "start",
        "isom": "419"
      }
    },
    {
      "type": "Feature",
      "geometry": {
        "type": "Point",
        "coordinates": [
          31.820642601203225,
          -85.2404932889547
        ]
      },
      "properties": {
        "type": "end",
        "isom": "111"
      }
    },
    {
      "type": "Feature",
      "geometry": {
        "type": "LineString",
        "coordinates": [
          [
            13.39712316626397,
            -105.06514218051791
          ],
          [
            13.766209030555878,
            -105.06516027322554
          ],
          [
            14.135294894847787,
            -105.06517836593315
          ],
          [
            14.688929757503754,
            -104.88066103568933
          ],
          [
            15.427113618523785,
            -104.5116082824941
          ],
          [
            16.165297479543813,
            -104.14255552929883
          ],
          [
            16.903481340563847,
            -103.77350277610357
          ],
          [
            17.549393735510897,
            -103.4044454997314
          ],
          [
            18.010763198312,
            -103.03537917700544
          ],
          [
            18.37986119504012,
            -102.66630833110254
          ],
          [
            18.74895919176824,
            -102.29723748519967
          ],
          [
            19.118057188496365,
            -101.9281666392968
          ],
          [
            19.39489281847867,
            -101.28227456625913
          ],
          [
            19.763993848315845,
            -100.82093148570364
          ],
          [
            20.225363311116944,
            -100.45186516297765
          ],
          [
            20.594461307845066,
            -100.08279431707477
          ],
          [
            21.148102236719144,
            -99.7137325175257
          ],
          [
            21.701743165593218,
            -99.34467071797664
          ],
          [
            22.163112628394316,
            -98.97560439525066
          ],
          [
            22.53221062512244,
            -98.60653354934779
          ],
          [
            22.901308621850564,
            -98.2374627034449
          ],
          [
            23.27041268479679,
            -97.68384738823679
          ],
          [
            23.63952281396113,
            -96.94568760372341
          ],
          [
            23.824074845434243,
            -96.66887994611933
          ],
          [
            23.916352377725325,
            -96.48433999999098
          ],
          [
            24.19318800770763,
            -95.83844792695332
          ],
          [
            24.285474639325876,
            -95.3770912768671
          ],
          [
            24.28548677176209,
            -95.0080023382566
          ],
          [
            24.470047902562364,
            -94.45437797669464
          ],
          [
            24.8391580317267,
            -93.71621819218127
          ],
          [
            25.208268160891034,
            -92.9780584076679
          ],
          [
            25.485103790873346,
            -92.33216633463023
          ],
          [
            25.854207853819574,
            -91.7785510194221
          ],
          [
            26.223314949874858,
            -91.13266346956134
          ],
          [
            26.59242507903919,
            -90.39450368504797
          ],
          [
            26.776986209839468,
            -89.84087932348602
          ],
          [
            27.146090272785695,
            -89.28726400827789
          ],
          [
            27.607459735586797,
            -88.91819768555192
          ],
          [
            28.16110066446087,
            -88.54913588600284
          ],
          [
            28.530201694298047,
            -88.08779280544735
          ],
          [
            28.899305757244274,
            -87.53417749023922
          ],
          [
            29.360675220045376,
            -87.16511116751325
          ],
          [
            29.91431614891945,
            -86.79604936796417
          ],
          [
            30.46795707779353,
            -86.42698756841511
          ],
          [
            30.83705507452165,
            -86.05791672251223
          ],
          [
            31.20615307124977,
            -85.68884587660935
          ],
          [
            31.66752253405087,
            -85.31977955388338
          ],
          [
            31.852068499305876,
            -85.22751636558456
          ]
        ]
      },
      "properties": {
        "type": "variant",
        "id": 1,
        "color": "#ff4444",
        "vzdal_m": 1536,
        "prevyseni_m": 35,
        "cas_s": 412,
        "tempo_str": "4:28"
      }
    },
    {
      "type": "Feature",
      "geometry": {
        "type": "LineString",
        "coordinates": [
          [
            13.39712316626397,
            -105.06514218051791
          ],
          [
            13.766233295428306,
            -104.32698239600454
          ],
          [
            13.76624542786452,
            -103.95789345739404
          ],
          [
            14.043078024737772,
            -103.40427361900899
          ],
          [
            14.412188153902108,
            -102.66611383449562
          ],
          [
            14.781298283066446,
            -101.92795404998222
          ],
          [
            15.150408412230782,
            -101.18979426546885
          ],
          [
            15.519518541395117,
            -100.45163448095548
          ],
          [
            15.796354171377422,
            -99.8057424079178
          ],
          [
            16.16545823432365,
            -99.25212709270969
          ],
          [
            16.534556231051774,
            -98.88305624680679
          ],
          [
            17.08819715992585,
            -98.51399444725773
          ],
          [
            17.54956662272695,
            -98.14492812453175
          ],
          [
            17.918664619455072,
            -97.77585727862888
          ],
          [
            18.287762616183194,
            -97.406786432726
          ],
          [
            18.656866679129422,
            -96.85317111751787
          ],
          [
            19.0259677089666,
            -96.39182803696237
          ],
          [
            19.39506570569472,
            -96.02275719105948
          ],
          [
            19.764166735531894,
            -95.56141411050399
          ],
          [
            20.133264732260017,
            -95.19234326460109
          ],
          [
            20.59463419506112,
            -94.82327694187514
          ],
          [
            20.963732191789237,
            -94.45420609597224
          ],
          [
            21.332833221626416,
            -93.99286301541673
          ],
          [
            21.886474150500494,
            -93.62380121586767
          ],
          [
            22.25557518033767,
            -93.16245813531216
          ],
          [
            22.624673177065787,
            -92.79338728940928
          ],
          [
            23.178314105939865,
            -92.42432548986021
          ],
          [
            23.547412102667987,
            -92.05525464395733
          ],
          [
            23.916513132505166,
            -91.59391156340183
          ],
          [
            24.19334876248747,
            -90.94801949036417
          ],
          [
            24.562446759215593,
            -90.57894864446129
          ],
          [
            24.93155385527087,
            -89.93306109460053
          ],
          [
            25.300660951326154,
            -89.28717354473977
          ],
          [
            25.66975894805428,
            -88.9181026988369
          ],
          [
            26.038856944782403,
            -88.54903185293402
          ],
          [
            26.407957974619578,
            -88.08768877237851
          ],
          [
            26.869327437420676,
            -87.71862244965254
          ],
          [
            27.42296230007664,
            -87.53410511940874
          ],
          [
            27.884322663550584,
            -87.44185550064063
          ],
          [
            28.62250652457061,
            -87.07280274744538
          ],
          [
            28.807052489825622,
            -86.98053955914656
          ],
          [
            29.26841285329956,
            -86.88828994037847
          ],
          [
            30.00659671431959,
            -86.51923718718321
          ],
          [
            30.56023157697556,
            -86.33471985693939
          ],
          [
            30.929329573703683,
            -85.9656490110365
          ],
          [
            31.2984275704318,
            -85.59657816513364
          ],
          [
            31.852068499305876,
            -85.22751636558456
          ]
        ]
      },
      "properties": {
        "type": "variant",
        "id": 2,
        "color": "#4444ff",
        "vzdal_m": 1521,
        "prevyseni_m": 35,
        "cas_s": 420,
        "tempo_str": "4:35"
      }
    },
    {
      "type": "Feature",
      "geometry": {
        "type": "LineString",
        "coordinates": [
          [
            13.39712316626397,
            -105.06514218051791
          ],
          [
            13.85849262906507,
            -104.69607585779193
          ],
          [
            14.319862091866167,
            -104.32700953506597
          ],
          [
            14.781231554667267,
            -103.95794321233998
          ],
          [
            15.334872483541343,
            -103.58888141279093
          ],
          [
            15.796241946342443,
            -103.21981509006494
          ],
          [
            16.534425807362474,
            -102.85076233686968
          ],
          [
            16.903523804090593,
            -102.48169149096681
          ],
          [
            17.0880697693456,
            -102.38942830266801
          ],
          [
            17.18035640096385,
            -101.92807165258178
          ],
          [
            17.272643032582092,
            -101.46671500249556
          ],
          [
            17.549472596346288,
            -101.00536739876314
          ],
          [
            18.01084205914739,
            -100.63630107603717
          ],
          [
            18.47221455505754,
            -100.17496251865856
          ],
          [
            18.841312551785663,
            -99.80589167275569
          ],
          [
            19.21041054851379,
            -99.43682082685281
          ],
          [
            19.579508545241907,
            -99.06774998094994
          ],
          [
            20.22542094018896,
            -98.69869270457777
          ],
          [
            20.594521970026136,
            -98.23734962402227
          ],
          [
            20.96362906608142,
            -97.59146207416153
          ],
          [
            21.332730095918595,
            -97.130118993606
          ],
          [
            21.70183719197388,
            -96.48423144374526
          ],
          [
            22.070935188702,
            -96.11516059784236
          ],
          [
            22.16320968788403,
            -96.02289288636665
          ],
          [
            22.532310717721206,
            -95.56154980581115
          ],
          [
            22.901408714449328,
            -95.19247895990826
          ],
          [
            23.270509744286503,
            -94.73113587935276
          ],
          [
            23.63961077412368,
            -94.26979279879725
          ],
          [
            24.0087087708518,
            -93.90072195289437
          ],
          [
            24.377806767579923,
            -93.53165110699149
          ],
          [
            24.83917623038102,
            -93.16258478426552
          ],
          [
            25.208274227109143,
            -92.79351393836265
          ],
          [
            25.577381323164428,
            -92.14762638850189
          ],
          [
            25.946482353001603,
            -91.68628330794638
          ],
          [
            26.31559248216594,
            -90.948123523433
          ],
          [
            26.592428112148244,
            -90.30223145039534
          ],
          [
            26.96153824131258,
            -89.56407166588195
          ],
          [
            27.330636238040704,
            -89.19500081997909
          ],
          [
            27.792005700841802,
            -88.8259344972531
          ],
          [
            28.253375163642904,
            -88.45686817452713
          ],
          [
            28.622479226589128,
            -87.903252859319
          ],
          [
            28.991580256426303,
            -87.44190977876349
          ],
          [
            29.45294971922741,
            -87.07284345603752
          ],
          [
            30.006590648101483,
            -86.70378165648846
          ],
          [
            30.56023157697556,
            -86.33471985693939
          ],
          [
            30.929329573703683,
            -85.9656490110365
          ],
          [
            31.2984275704318,
            -85.59657816513364
          ],
          [
            31.852068499305876,
            -85.22751636558456
          ]
        ]
      },
      "properties": {
        "type": "variant",
        "id": 3,
        "color": "#44ff44",
        "vzdal_m": 1499,
        "prevyseni_m": 37,
        "cas_s": 421,
        "tempo_str": "4:40"
      }
    }
  ]
}