{
  "type": "FeatureCollection",
  "features": [
    {
      "type": "Feature",
      "geometry": {
        "type": "Point",
        "coordinates": [
          95.8263554036615,
          -258.9494922909632
        ]
      },
      "properties": {
        "type": "start",
        "isom": "418"
      }
    },
    {
      "type": "Feature",
      "geometry": {
        "type": "Point",
        "coordinates": [
          73.431014130754,
          -234.94654082151737
        ]
      },
      "properties": {
        "type": "end",
        "isom": "419"
      }
    },
    {
      "type": "Feature",
      "geometry": {
        "type": "LineString",
        "coordinates": [
          [
            95.8116954073103,
            -259.03795221568237
          ],
          [
            95.81170147352839,
            -258.8534077465359
          ],
          [
            95.62717067381864,
            -258.4843097623278
          ],
          [
            94.15085148152332,
            -257.74605951842125
          ],
          [
            92.85907522137397,
            -257.0078183204297
          ],
          [
            91.38275602907865,
            -256.2695680765231
          ],
          [
            90.64460856536721,
            -255.53135401627685
          ],
          [
            90.46007169943934,
            -255.34680050121526
          ],
          [
            90.09099190136551,
            -255.1622379402386
          ],
          [
            89.90644896921955,
            -255.16222889432353
          ],
          [
            89.53736917114571,
            -254.9776663333469
          ],
          [
            88.06104997885038,
            -254.23941608944028
          ],
          [
            86.953816650847,
            -253.50118393736383
          ],
          [
            86.21566918713556,
            -252.76296987711757
          ],
          [
            85.47752172342412,
            -252.02475581687133
          ],
          [
            85.29299092371438,
            -251.65565783266328
          ],
          [
            84.55484952622105,
            -250.73289930327059
          ],
          [
            84.3703187265113,
            -250.3638013190625
          ],
          [
            83.63218339523608,
            -249.2564983205233
          ],
          [
            82.89404199774276,
            -248.33373979113057
          ],
          [
            82.15589453403132,
            -247.5955257308843
          ],
          [
            81.97136373432157,
            -247.22642774667622
          ],
          [
            81.7868268683937,
            -247.04187423161468
          ],
          [
            81.60229606868396,
            -246.67277624740666
          ],
          [
            81.4177592027561,
            -246.48822273234506
          ],
          [
            81.23322840304635,
            -246.11912474813704
          ],
          [
            80.49509913798924,
            -244.82727728045134
          ],
          [
            79.75696987293215,
            -243.53542981276564
          ],
          [
            79.38790827351265,
            -242.79723384434953
          ],
          [
            79.20337747380289,
            -242.4281358601415
          ],
          [
            78.46523001009145,
            -241.68992179989525
          ],
          [
            78.09616234445384,
            -241.13627030062563
          ],
          [
            77.72708861259812,
            -240.76716327050255
          ],
          [
            77.3580088145243,
            -240.58260070952588
          ],
          [
            77.17347801481455,
            -240.21350272531782
          ],
          [
            77.17348408103265,
            -240.02895825617134
          ],
          [
            76.80442248161316,
            -239.29076228775526
          ],
          [
            76.06627501790172,
            -238.55254822750902
          ],
          [
            75.3281396866265,
            -237.44524522896978
          ],
          [
            74.40546142320531,
            -236.3379331845155
          ],
          [
            73.85186902407607,
            -235.2306392318914
          ],
          [
            73.48279529222035,
            -234.86153220176826
          ]
        ]
      },
      "properties": {
        "type": "variant",
        "id": 1,
        "color": "#ff4444",
        "vzdal_m": 920,
        "prevyseni_m": 5,
        "cas_s": 266,
        "tempo_str": "4:49"
      }
    },
    {
      "type": "Feature",
      "geometry": {
        "type": "LineString",
        "coordinates": [
          [
            95.8116954073103,
            -259.03795221568237
          ],
          [
            95.81170147352839,
            -258.8534077465359
          ],
          [
            95.62717067381864,
            -258.4843097623278
          ],
          [
            94.8890292763253,
            -257.56155123293513
          ],
          [
            94.15088181261387,
            -256.8233371726888
          ],
          [
            92.85910555246453,
            -256.0850959746973
          ],
          [
            91.93642728904334,
            -254.97778393024302
          ],
          [
            91.19830409020435,
            -253.50139199341083
          ],
          [
            90.64471775729321,
            -252.20955357164024
          ],
          [
            90.09113142438207,
            -250.9177151498696
          ],
          [
            90.09115568925452,
            -250.1795372732837
          ],
          [
            89.53756935634338,
            -248.88769885151308
          ],
          [
            89.53759362121582,
            -248.14952097492719
          ],
          [
            89.53761788608827,
            -247.41134309834126
          ],
          [
            89.53764215096072,
            -246.67316522175534
          ],
          [
            89.53764821717883,
            -246.48862075260888
          ],
          [
            89.35311741746908,
            -246.11952276840086
          ],
          [
            88.61496995375764,
            -245.38130870815456
          ],
          [
            87.8768224900462,
            -244.6430946479083
          ],
          [
            87.1386932249891,
            -243.35124718022266
          ],
          [
            86.87589404805253,
            -242.57990260859887
          ],
          [
            86.75532319378803,
            -242.19298596633058
          ],
          [
            86.21602102778601,
            -242.05939066662182
          ],
          [
            85.2933306319286,
            -241.32116756046048
          ],
          [
            85.10879376600074,
            -241.13661404539894
          ],
          [
            84.92425690007289,
            -240.95206053033735
          ],
          [
            83.44793770777757,
            -240.21381028643077
          ],
          [
            83.07885790970374,
            -240.0292477254541
          ],
          [
            82.7097720454118,
            -240.02922963362394
          ],
          [
            82.34069224733796,
            -239.84466707264727
          ],
          [
            81.97160638304601,
            -239.84464898081708
          ],
          [
            81.60252658497218,
            -239.6600864198405
          ],
          [
            81.41798365282621,
            -239.66007737392536
          ],
          [
            81.04890385475238,
            -239.47551481294872
          ],
          [
            79.94165839431278,
            -239.10637159916527
          ],
          [
            79.38802959787486,
            -239.10634446141998
          ],
          [
            79.01894979980104,
            -238.92178190044336
          ],
          [
            78.64986393550909,
            -238.92176380861318
          ],
          [
            78.28078413743526,
            -238.73720124763653
          ],
          [
            76.9890018110678,
            -238.1835045187915
          ],
          [
            76.0663114152104,
            -237.44528141263015
          ],
          [
            75.32816395149895,
            -236.7070673523839
          ],
          [
            74.40546748942343,
            -236.15338871536903
          ],
          [
            73.85186902407607,
            -235.2306392318914
          ],
          [
            73.48279529222035,
            -234.86153220176826
          ]
        ]
      },
      "properties": {
        "type": "variant",
        "id": 2,
        "color": "#4444ff",
        "vzdal_m": 963,
        "prevyseni_m": 10,
        "cas_s": 275,
        "tempo_str": "4:45"
      }
    },
    {
      "type": "Feature",
      "geometry": {
        "type": "LineString",
        "coordinates": [
          [
            95.8116954073103,
            -259.03795221568237
          ],
          [
            95.81170147352839,
            -258.8534077465359
          ],
          [
            95.62717067381864,
            -258.4843097623278
          ],
          [
            94.15085148152332,
            -257.74605951842125
          ],
          [
            92.85907522137397,
            -257.0078183204297
          ],
          [
            91.38275602907865,
            -256.2695680765231
          ],
          [
            90.64460856536721,
            -255.53135401627685
          ],
          [
            90.46007169943934,
            -255.34680050121526
          ],
          [
            90.09099190136551,
            -255.1622379402386
          ],
          [
            89.90644896921955,
            -255.16222889432353
          ],
          [
            89.53736917114571,
            -254.9776663333469
          ],
          [
            89.35282623899974,
            -254.9776572874318
          ],
          [
            88.98374644092591,
            -254.79309472645517
          ],
          [
            88.79920350877994,
            -254.79308568054006
          ],
          [
            88.43012371070611,
            -254.60852311956344
          ],
          [
            87.32288431648462,
            -254.05483543663345
          ],
          [
            86.7692555200467,
            -254.05480829888822
          ],
          [
            86.40017572197287,
            -253.87024573791155
          ],
          [
            86.2156327898269,
            -253.87023669199644
          ],
          [
            85.84655299175307,
            -253.68567413101982
          ],
          [
            85.6620100596071,
            -253.68566508510472
          ],
          [
            85.29293026153326,
            -253.50110252412807
          ],
          [
            84.92385046345943,
            -253.3165399631514
          ],
          [
            84.17865130981657,
            -252.96707126750798
          ],
          [
            83.26298227280003,
            -252.76282514247623
          ],
          [
            81.97120601265067,
            -252.02458394448468
          ],
          [
            81.41758934864899,
            -251.65546786844646
          ],
          [
            80.67944795115565,
            -250.7327093390537
          ],
          [
            79.94130048744421,
            -249.9944952788075
          ],
          [
            79.2031712223871,
            -248.70264781112178
          ],
          [
            78.4650480235481,
            -247.2262558742896
          ],
          [
            78.09598642412861,
            -246.4880599058735
          ],
          [
            77.91145562441888,
            -246.1189619216655
          ],
          [
            77.17332635936177,
            -244.8271144539798
          ],
          [
            76.25062989728625,
            -244.27343581696493
          ],
          [
            76.06611729623083,
            -243.35070442531747
          ],
          [
            75.88158649652108,
            -242.9816064411094
          ],
          [
            75.88159256273919,
            -242.7970619719629
          ],
          [
            75.8815986289573,
            -242.61251750281644
          ],
          [
            75.88160469517541,
            -242.42797303366996
          ],
          [
            75.88161076139352,
            -242.24342856452347
          ],
          [
            75.69707996168378,
            -241.87433058031544
          ],
          [
            75.51254916197402,
            -241.5052325961074
          ],
          [
            75.51256129441025,
            -241.13614365781444
          ],
          [
            75.3280304947005,
            -240.76704567360642
          ],
          [
            74.95898102771721,
            -239.65976076689736
          ],
          [
            74.95900529258967,
            -238.92158289031144
          ],
          [
            74.5899558256064,
            -237.8142979836024
          ],
          [
            74.40544322455098,
            -236.89156659195493
          ],
          [
            73.85185689163984,
            -235.59972817018433
          ],
          [
            73.48279529222035,
            -234.86153220176826
          ]
        ]
      },
      "properties": {
        "type": "variant",
        "id": 3,
        "color": "#44ff44",
        "vzdal_m": 968,
        "prevyseni_m": 5,
        "cas_s": 279,
        "tempo_str": "4:48"
      }
    }
  ]
}