{
  "type": "FeatureCollection",
  "features": [
    {
      "type": "Feature",
      "geometry": {
        "type": "Point",
        "coordinates": [
          166.9998214275196,
          -109.51202237556512
        ]
      },
      "properties": {
        "type": "start",
        "isom": "204"
      }
    },
    {
      "type": "Feature",
      "geometry": {
        "type": "Point",
        "coordinates": [
          73.18051208962355,
          -329.01491075642343
        ]
      },
      "properties": {
        "type": "end",
        "isom": "109"
      }
    },
    {
      "type": "Feature",
      "geometry": {
        "type": "LineString",
        "coordinates": [
          [
            167.28787665681426,
            -109.35974181155852
          ],
          [
            165.81150793320592,
            -110.09793713396962
          ],
          [
            165.0732445523957,
            -111.57433104593015
          ],
          [
            162.85855976863982,
            -114.52711778080509
          ],
          [
            159.90571696274841,
            -117.47990342663391
          ],
          [
            156.21476881405889,
            -119.69449048291334
          ],
          [
            153.26213672551688,
            -119.69448612672896
          ],
          [
            151.04760997977306,
            -120.43268036009397
          ],
          [
            149.57124125616468,
            -121.17087568250508
          ],
          [
            146.61834577093595,
            -124.86185882883723
          ],
          [
            143.66529224769513,
            -130.76743447667928
          ],
          [
            142.92702886688494,
            -132.2438283886398
          ],
          [
            139.9740280229815,
            -137.41120653597858
          ],
          [
            138.4975012613611,
            -140.3639943598996
          ],
          [
            134.8065004333342,
            -143.31677891668232
          ],
          [
            133.3300790303885,
            -144.79317173959674
          ],
          [
            132.44140814453087,
            -146.84616958698206
          ],
          [
            133.47647351940702,
            -147.10308042488242
          ],
          [
            130.37697282781036,
            -151.43694488794213
          ],
          [
            127.42413002191897,
            -154.38973053377097
          ],
          [
            124.47128721602756,
            -157.3425161795998
          ],
          [
            122.99486581308187,
            -158.8189090025142
          ],
          [
            122.25660243227168,
            -160.29530291447475
          ],
          [
            121.51833905146147,
            -161.77169682643526
          ],
          [
            120.78007567065127,
            -163.24809073839577
          ],
          [
            120.04181228984106,
            -164.7244846503563
          ],
          [
            119.30354890903088,
            -166.2008785623168
          ],
          [
            118.56528552822067,
            -167.67727247427732
          ],
          [
            115.61223200497987,
            -173.58284812211937
          ],
          [
            114.13570524335947,
            -176.5356359460404
          ],
          [
            113.39744186254927,
            -178.01202985800094
          ],
          [
            114.13533648799802,
            -181.70301844956356
          ],
          [
            114.87333647212147,
            -183.91761204011956
          ],
          [
            114.87328379278411,
            -184.65580954062287
          ],
          [
            115.61133645624491,
            -186.1322056306756
          ],
          [
            115.61128377690756,
            -186.8704031311789
          ],
          [
            114.13491505329922,
            -187.60859845359002
          ],
          [
            110.49655964653434,
            -190.87283268660104
          ],
          [
            108.93990552735305,
            -191.13609259676227
          ],
          [
            107.38326267317696,
            -191.3993299789402
          ],
          [
            106.75291339724544,
            -193.5141675671555
          ],
          [
            106.01465001643523,
            -194.990561479116
          ],
          [
            103.79980719466728,
            -200.15794071550087
          ],
          [
            103.79975451532992,
            -200.89613821600418
          ],
          [
            103.06143845518238,
            -203.11072962846796
          ],
          [
            102.32317507437217,
            -204.5871235404285
          ],
          [
            102.32296435702278,
            -207.53991354244175
          ],
          [
            101.58459561753787,
            -210.49270245540887
          ],
          [
            102.32254292232396,
            -213.44549354646819
          ],
          [
            101.58412150350172,
            -217.1364799599386
          ],
          [
            100.84575276401682,
            -220.08926887290573
          ],
          [
            98.63085726291152,
            -225.9948456097939
          ],
          [
            97.89243584408928,
            -229.68583202326437
          ],
          [
            97.15401442526701,
            -233.3768184367348
          ],
          [
            97.15380370791762,
            -236.329608438748
          ],
          [
            99.36790901896266,
            -241.49699420940945
          ],
          [
            100.84390898720956,
            -245.92618139052146
          ],
          [
            100.8437509491975,
            -248.14077389203138
          ],
          [
            97.89085546396875,
            -251.83175703836355
          ],
          [
            94.93801265807737,
            -254.7845426841924
          ],
          [
            91.24711718872517,
            -256.2609322399685
          ],
          [
            89.77074846511681,
            -256.9991275623796
          ],
          [
            88.29437974150846,
            -257.73732288479073
          ],
          [
            85.34153693561707,
            -260.69010853061957
          ],
          [
            82.38869412972568,
            -263.6428941764484
          ],
          [
            79.43590400317163,
            -265.85748232177394
          ],
          [
            76.48306119728024,
            -268.8102679676028
          ],
          [
            73.53016571205148,
            -272.5012511139349
          ],
          [
            70.57711218881069,
            -278.406826761777
          ],
          [
            67.62405866556989,
            -284.31240240961904
          ],
          [
            69.10021667182883,
            -286.52699708922114
          ],
          [
            69.83826933528962,
            -288.00339317927387
          ],
          [
            71.31437466221122,
            -290.9561853593793
          ],
          [
            72.05242732567203,
            -292.432581449432
          ],
          [
            72.05221660832262,
            -295.3853714514452
          ],
          [
            72.05200589097322,
            -298.33816145345844
          ],
          [
            71.31358447215098,
            -302.0291478669289
          ],
          [
            71.31337375480156,
            -304.9819378689421
          ],
          [
            71.31332107546422,
            -305.7201353694454
          ],
          [
            72.05137373892501,
            -307.19653145949815
          ],
          [
            72.78937372304846,
            -309.4111250500542
          ],
          [
            72.05111034223826,
            -310.88751896201467
          ],
          [
            69.71572019925033,
            -314.25113738890343
          ],
          [
            69.09810949833481,
            -316.0548971093534
          ],
          [
            69.09789878098542,
            -319.00768711136664
          ],
          [
            68.35963540017521,
            -320.4840810233272
          ],
          [
            71.3118460540184,
            -326.389665383538
          ],
          [
            73.5261094030755,
            -329.3424586526895
          ]
        ]
      },
      "properties": {
        "type": "variant",
        "id": 1,
        "color": "#ff4444",
        "vzdal_m": 1819,
        "prevyseni_m": 3,
        "cas_s": 473,
        "tempo_str": "4:20"
      }
    },
    {
      "type": "Feature",
      "geometry": {
        "type": "LineString",
        "coordinates": [
          [
            167.28787665681426,
            -109.35974181155852
          ],
          [
            165.81150793320592,
            -110.09793713396962
          ],
          [
            165.0732445523957,
            -111.57433104593015
          ],
          [
            162.85855976863982,
            -114.52711778080509
          ],
          [
            159.90571696274841,
            -117.47990342663391
          ],
          [
            156.95282147751968,
            -121.17088657296605
          ],
          [
            156.21445273803477,
            -124.12367548593318
          ],
          [
            155.47618935722457,
            -125.6000693978937
          ],
          [
            153.99960991626682,
            -129.29105472231802
          ],
          [
            153.26134653545662,
            -130.76744863427857
          ],
          [
            150.30834569155317,
            -135.93482678161732
          ],
          [
            147.35539752698708,
            -140.36400742845277
          ],
          [
            146.61697610816483,
            -144.0549938419232
          ],
          [
            146.61676539081543,
            -147.00778384393644
          ],
          [
            146.61671271147807,
            -147.74598134443974
          ],
          [
            147.35476537493886,
            -149.22237743449244
          ],
          [
            147.37022335542684,
            -152.15678461170774
          ],
          [
            148.83065998451107,
            -155.1279596166111
          ],
          [
            149.56855460995982,
            -158.8189482081737
          ],
          [
            151.04455457820671,
            -163.24813538928575
          ],
          [
            151.0443438608573,
            -166.200925391299
          ],
          [
            151.78223848630603,
            -169.8919139828616
          ],
          [
            151.78213312763134,
            -171.36830898386822
          ],
          [
            152.52018579109216,
            -172.84470507392095
          ],
          [
            152.5200277530801,
            -175.05929757543086
          ],
          [
            153.2580804165409,
            -176.53569366548356
          ],
          [
            153.2579750578662,
            -178.01208866649017
          ],
          [
            153.99602772132698,
            -179.48848475654287
          ],
          [
            153.99586968331494,
            -181.7030772580528
          ],
          [
            154.97523309286166,
            -183.1273889683661
          ],
          [
            155.47186965156183,
            -186.13226443916483
          ],
          [
            155.47165893421243,
            -189.08505444117807
          ],
          [
            156.20971159767322,
            -190.56145053123078
          ],
          [
            156.94765890245932,
            -193.51424162229011
          ],
          [
            156.49561525594112,
            -195.38652049869316
          ],
          [
            154.41921420544747,
            -199.40208836066358
          ],
          [
            154.33896263087436,
            -202.39907818038333
          ],
          [
            153.82182588691285,
            -204.1404692813571
          ],
          [
            150.33476590622607,
            -206.85454745213082
          ],
          [
            145.22485170500858,
            -209.9035470030651
          ],
          [
            142.084784293575,
            -211.81330850550174
          ],
          [
            137.34641226410284,
            -214.7538475490955
          ],
          [
            135.20140958573776,
            -218.24369064028895
          ],
          [
            132.0151673475812,
            -221.02894647054637
          ],
          [
            127.93057075812584,
            -223.29901940979713
          ],
          [
            126.43792988711637,
            -223.9887006604257
          ],
          [
            125.94270408192497,
            -225.99488590449948
          ],
          [
            124.46607196162986,
            -230.42406872942715
          ],
          [
            124.46586124428045,
            -233.37685873144036
          ],
          [
            122.98922912398537,
            -237.80604155636803
          ],
          [
            120.03617560074457,
            -243.71161720421009
          ],
          [
            119.29791221993436,
            -245.1880111161706
          ],
          [
            116.34496405536827,
            -249.61719176300608
          ],
          [
            114.13017391293768,
            -254.04637349888762
          ],
          [
            113.39175249411541,
            -257.73735991235804
          ],
          [
            112.65348911330521,
            -259.21375382431853
          ],
          [
            111.91506769448297,
            -262.904740237789
          ],
          [
            111.91496233580827,
            -264.38113523879565
          ],
          [
            111.17654091698601,
            -268.07212165226605
          ],
          [
            109.6999087966909,
            -272.5013044771937
          ],
          [
            109.69969807934152,
            -275.4540944792069
          ],
          [
            109.69959272066681,
            -276.9304894802135
          ],
          [
            110.4376453841276,
            -278.40688557026624
          ],
          [
            109.69938200331741,
            -279.8832794822267
          ],
          [
            106.74653919742602,
            -282.8360651280556
          ],
          [
            103.79353835352256,
            -288.0034432753943
          ],
          [
            103.05527497271235,
            -289.47983718735486
          ],
          [
            101.57890624910401,
            -290.218032509766
          ],
          [
            99.36406342733608,
            -295.38541174615085
          ],
          [
            98.62580004652587,
            -296.86180565811134
          ],
          [
            95.67295724063447,
            -299.8145913039402
          ],
          [
            94.93469385982426,
            -301.2909852159007
          ],
          [
            94.19637779967672,
            -303.5055766283645
          ],
          [
            93.6257151119292,
            -305.43673225748955
          ],
          [
            89.24740466469508,
            -307.050800670446
          ],
          [
            83.97965663108461,
            -308.99275154564646
          ],
          [
            78.71191986087169,
            -310.9347024208636
          ],
          [
            75.63332705128019,
            -312.06961345758583
          ],
          [
            74.09403064648444,
            -312.637068975947
          ],
          [
            72.55474550428244,
            -313.2045357583247
          ],
          [
            71.31263624407866,
            -315.3167028759884
          ],
          [
            70.57437286326847,
            -316.79309678794897
          ],
          [
            68.35963540017521,
            -320.4840810233272
          ],
          [
            71.3118460540184,
            -326.389665383538
          ],
          [
            73.5261094030755,
            -329.3424586526895
          ]
        ]
      },
      "properties": {
        "type": "variant",
        "id": 2,
        "color": "#4444ff",
        "vzdal_m": 1817,
        "prevyseni_m": 6,
        "cas_s": 473,
        "tempo_str": "4:20"
      }
    },
    {
      "type": "Feature",
      "geometry": {
        "type": "LineString",
        "coordinates": [
          [
            167.28787665681426,
            -109.35974181155852
          ],
          [
            165.81150793320592,
            -110.09793713396962
          ],
          [
            165.0732445523957,
            -111.57433104593015
          ],
          [
            162.85855976863982,
            -114.52711778080509
          ],
          [
            159.90571696274841,
            -117.47990342663391
          ],
          [
            156.21476881405889,
            -119.69449048291334
          ],
          [
            153.26213672551688,
            -119.69448612672896
          ],
          [
            151.04760997977306,
            -120.43268036009397
          ],
          [
            149.57124125616468,
            -121.17087568250508
          ],
          [
            146.61834577093595,
            -124.86185882883723
          ],
          [
            143.66529224769513,
            -130.76743447667928
          ],
          [
            142.92702886688494,
            -132.2438283886398
          ],
          [
            139.9740280229815,
            -137.41120653597858
          ],
          [
            138.4975012613611,
            -140.3639943598996
          ],
          [
            134.8065004333342,
            -143.31677891668232
          ],
          [
            133.3300790303885,
            -144.79317173959674
          ],
          [
            132.44140814453087,
            -146.84616958698206
          ],
          [
            133.47647351940702,
            -147.10308042488242
          ],
          [
            130.37697282781036,
            -151.43694488794213
          ],
          [
            127.42413002191897,
            -154.38973053377097
          ],
          [
            124.47128721602756,
            -157.3425161795998
          ],
          [
            122.99486581308187,
            -158.8189090025142
          ],
          [
            122.25660243227168,
            -160.29530291447475
          ],
          [
            121.51833905146147,
            -161.77169682643526
          ],
          [
            120.78007567065127,
            -163.24809073839577
          ],
          [
            120.04181228984106,
            -164.7244846503563
          ],
          [
            119.30354890903088,
            -166.2008785623168
          ],
          [
            118.56528552822067,
            -167.67727247427732
          ],
          [
            115.61223200497987,
            -173.58284812211937
          ],
          [
            114.13570524335947,
            -176.5356359460404
          ],
          [
            113.39744186254927,
            -178.01202985800094
          ],
          [
            114.13533648799802,
            -181.70301844956356
          ],
          [
            114.87333647212147,
            -183.91761204011956
          ],
          [
            114.87328379278411,
            -184.65580954062287
          ],
          [
            115.61133645624491,
            -186.1322056306756
          ],
          [
            117.21824730851468,
            -189.03329624400524
          ],
          [
            117.82544176728996,
            -191.29959140133704
          ],
          [
            117.8253890879526,
            -192.03778890184034
          ],
          [
            118.56344175141341,
            -193.51418499189307
          ],
          [
            118.56338907207605,
            -194.25238249239638
          ],
          [
            119.30144173553686,
            -195.72877858244905
          ],
          [
            120.03949439899765,
            -197.20517467250178
          ],
          [
            120.03944171966029,
            -197.9433721730051
          ],
          [
            119.30117833885011,
            -199.41976608496557
          ],
          [
            118.56275692002784,
            -203.11075249843606
          ],
          [
            118.56254620267845,
            -206.06354250044927
          ],
          [
            118.56238816466639,
            -208.27813500195919
          ],
          [
            117.82412478385618,
            -209.7545289139197
          ],
          [
            117.82407210451885,
            -210.492726414423
          ],
          [
            117.82401942518149,
            -211.2309239149263
          ],
          [
            117.08575604437128,
            -212.70731782688682
          ],
          [
            116.3474926635611,
            -214.18371173884736
          ],
          [
            113.394544498995,
            -218.61289238568278
          ],
          [
            111.17985971523909,
            -221.56567912055772
          ],
          [
            110.44159633442891,
            -223.04207303251823
          ],
          [
            106.72379619901623,
            -226.67782765859926
          ],
          [
            104.3740066672633,
            -227.8985601861686
          ],
          [
            103.49093472541439,
            -228.35870454519164
          ],
          [
            102.0273144227383,
            -229.12135403029797
          ],
          [
            99.97341761642346,
            -230.92757844770279
          ],
          [
            98.63033046953801,
            -233.37682061482695
          ],
          [
            98.63027779020067,
            -234.11501811533026
          ],
          [
            97.89201440939046,
            -235.59141202729083
          ],
          [
            98.62990903483922,
            -239.28240061885342
          ],
          [
            100.10590900308611,
            -243.71158779996549
          ],
          [
            101.581908971333,
            -248.1407749810775
          ],
          [
            101.58169825398359,
            -251.09356498309072
          ],
          [
            101.58164557464626,
            -251.83176248359402
          ],
          [
            100.84338219383605,
            -253.30815639555453
          ],
          [
            97.89053938794466,
            -256.2609420413834
          ],
          [
            94.93769658205325,
            -259.2137276872122
          ],
          [
            91.98469573814981,
            -264.38110583455097
          ],
          [
            89.0318529322584,
            -267.33389148037986
          ],
          [
            86.07895744702967,
            -271.02487462671195
          ],
          [
            85.34069406621946,
            -272.5012685386725
          ],
          [
            84.60243068540926,
            -273.977662450633
          ],
          [
            83.864009266587,
            -277.66864886410343
          ],
          [
            84.60190389203576,
            -281.359637455666
          ],
          [
            83.86353515255085,
            -284.3124263686332
          ],
          [
            83.12527177174066,
            -285.7888202805937
          ],
          [
            80.91048162931006,
            -290.2180020164752
          ],
          [
            80.17221824849986,
            -291.69439592843577
          ],
          [
            80.1721655691625,
            -292.4325934289391
          ],
          [
            79.4339021883523,
            -293.9089873408996
          ],
          [
            77.95727006805721,
            -298.3381701658272
          ],
          [
            77.95716470938251,
            -299.81456516683386
          ],
          [
            77.2189013285723,
            -301.2909590787944
          ],
          [
            76.48058526842476,
            -303.5055504912582
          ],
          [
            75.74232188761457,
            -304.9819444032187
          ],
          [
            75.74221652893986,
            -306.4583394042253
          ],
          [
            74.26568976731946,
            -309.41112722814637
          ],
          [
            73.52742638650926,
            -310.88752114010686
          ],
          [
            71.31263624407866,
            -315.3167028759884
          ],
          [
            70.57437286326847,
            -316.79309678794897
          ],
          [
            68.35963540017521,
            -320.4840810233272
          ],
          [
            71.3118460540184,
            -326.389665383538
          ],
          [
            73.5261094030755,
            -329.3424586526895
          ]
        ]
      },
      "properties": {
        "type": "variant",
        "id": 3,
        "color": "#44ff44",
        "vzdal_m": 1790,
        "prevyseni_m": 4,
        "cas_s": 475,
        "tempo_str": "4:25"
      }
    }
  ]
}