{
  "type": "FeatureCollection",
  "features": [
    {
      "type": "Feature",
      "geometry": {
        "type": "Point",
        "coordinates": [
          51.565222388504324,
          -217.08082348856786
        ]
      },
      "properties": {
        "type": "start",
        "isom": "417"
      }
    },
    {
      "type": "Feature",
      "geometry": {
        "type": "Point",
        "coordinates": [
          122.62515422917359,
          -222.24417006596656
        ]
      },
      "properties": {
        "type": "end",
        "isom": "204"
      }
    },
    {
      "type": "Feature",
      "geometry": {
        "type": "LineString",
        "coordinates": [
          [
            51.49151265757035,
            -217.0474811689575
          ],
          [
            52.22968438615423,
            -217.04751735261786
          ],
          [
            53.15241117932032,
            -216.67847364390033
          ],
          [
            53.521490977394144,
            -216.86303620487698
          ],
          [
            53.890582907904204,
            -216.67850982756067
          ],
          [
            54.25966270597803,
            -216.86307238853735
          ],
          [
            54.997834434561916,
            -216.8631085721977
          ],
          [
            55.920543029073656,
            -217.0476982709196
          ],
          [
            56.65871475765754,
            -217.0477344545799
          ],
          [
            57.58142335216928,
            -217.23232415330185
          ],
          [
            58.504131946681035,
            -217.41691385202375
          ],
          [
            59.24229760904681,
            -217.60149450483055
          ],
          [
            59.98047540384881,
            -217.41698621934444
          ],
          [
            60.71864713243269,
            -217.41702240300478
          ],
          [
            61.45682492723468,
            -217.23251411751866
          ],
          [
            62.19499058960046,
            -217.41709477032546
          ],
          [
            62.933162318184344,
            -217.4171309539858
          ],
          [
            63.67132798055012,
            -217.60171160679266
          ],
          [
            64.4095057753521,
            -217.41720332130652
          ],
          [
            65.147677503936,
            -217.41723950496683
          ],
          [
            65.885855298738,
            -217.2327312194807
          ],
          [
            66.62402096110377,
            -217.41731187228757
          ],
          [
            67.36219268968765,
            -217.41734805594788
          ],
          [
            68.10036441827152,
            -217.41738423960823
          ],
          [
            68.83853614685542,
            -217.4174204232686
          ],
          [
            69.5767078754393,
            -217.41745660692894
          ],
          [
            70.31487960402319,
            -217.41749279058925
          ],
          [
            71.05305133260707,
            -217.41752897424962
          ],
          [
            71.79122306119095,
            -217.41756515790996
          ],
          [
            72.52939478977484,
            -217.41760134157028
          ],
          [
            73.70659543982889,
            -217.62286422469955
          ],
          [
            74.33002776546914,
            -217.88612712688882
          ],
          [
            75.61107621508127,
            -218.46363519022566
          ],
          [
            76.8921246646934,
            -219.04114325356252
          ],
          [
            78.06563422440908,
            -218.8942284721947
          ],
          [
            78.80380595299297,
            -218.89426465585507
          ],
          [
            79.72652667994095,
            -218.709765416284
          ],
          [
            80.64923527445268,
            -218.8943551150059
          ],
          [
            81.38740700303657,
            -218.89439129866628
          ],
          [
            82.12557873162045,
            -218.89442748232662
          ],
          [
            83.04829945856842,
            -218.70992824275558
          ],
          [
            83.7864711871523,
            -218.70996442641592
          ],
          [
            84.5246429157362,
            -218.7100006100763
          ],
          [
            85.44735151024793,
            -218.8945903087982
          ],
          [
            86.37006010475967,
            -219.07918000752008
          ],
          [
            87.29278083170765,
            -218.89468076794904
          ],
          [
            88.21548942621939,
            -219.07927046667095
          ],
          [
            88.95366115480327,
            -219.0793066503313
          ],
          [
            89.69183288338716,
            -219.07934283399166
          ],
          [
            90.42999854575292,
            -219.26392348679843
          ],
          [
            91.16817634055492,
            -219.07941520131232
          ],
          [
            91.90634806913882,
            -219.07945138497269
          ],
          [
            92.64452586394081,
            -218.89494309948657
          ],
          [
            93.38269152630659,
            -219.07952375229334
          ],
          [
            94.12086325489047,
            -219.0795599359537
          ],
          [
            94.85902891725625,
            -219.26414058876054
          ],
          [
            95.59720671205822,
            -219.0796323032744
          ],
          [
            96.33537844064212,
            -219.07966848693474
          ],
          [
            97.073550169226,
            -219.0797046705951
          ],
          [
            97.81172189780987,
            -219.07974085425545
          ],
          [
            98.54989362639377,
            -219.07977703791576
          ],
          [
            100.0262128186891,
            -219.8180272818224
          ],
          [
            101.50253201098441,
            -220.55627752572897
          ],
          [
            102.79431433735189,
            -221.109974254574
          ],
          [
            103.71702293186364,
            -221.29456395329592
          ],
          [
            104.82426839230322,
            -221.66370716707942
          ],
          [
            106.30058758459856,
            -222.401957410986
          ],
          [
            107.40782091260193,
            -223.14018956306245
          ],
          [
            108.3305416395499,
            -222.95569032349138
          ],
          [
            109.06871336813379,
            -222.95572650715175
          ],
          [
            110.17595882857339,
            -223.3248697209352
          ],
          [
            111.09867955552136,
            -223.1403704813642
          ],
          [
            112.3904982791975,
            -222.58680039533036
          ],
          [
            112.75959020970755,
            -222.40227401801405
          ],
          [
            113.12868214021759,
            -222.21774764069772
          ],
          [
            113.86685386880148,
            -222.21778382435807
          ],
          [
            114.78956246331322,
            -222.40237352307997
          ],
          [
            115.71227712404308,
            -222.4024187526554
          ],
          [
            116.45045491884508,
            -222.21791046716928
          ],
          [
            117.18862664742896,
            -222.21794665082965
          ],
          [
            117.92679837601284,
            -222.21798283449
          ],
          [
            119.21860496725276,
            -222.0335016867491
          ],
          [
            119.95677669583664,
            -222.03353787040942
          ],
          [
            120.32586256012858,
            -222.0335559622396
          ],
          [
            120.69494235820241,
            -222.21811852321628
          ],
          [
            121.06403428871248,
            -222.03359214589997
          ],
          [
            121.4331140867863,
            -222.21815470687662
          ],
          [
            121.61765701893228,
            -222.2181637527917
          ],
          [
            121.80219995107824,
            -222.2181727987068
          ],
          [
            121.98674288322421,
            -222.21818184462185
          ],
          [
            122.17128581537018,
            -222.218190890537
          ],
          [
            122.54037167966213,
            -222.21820898236712
          ]
        ]
      },
      "properties": {
        "type": "variant",
        "id": 1,
        "color": "#ff4444",
        "vzdal_m": 1990,
        "prevyseni_m": 99,
        "cas_s": 691,
        "tempo_str": "5:46"
      }
    },
    {
      "type": "Feature",
      "geometry": {
        "type": "LineString",
        "coordinates": [
          [
            51.49151265757035,
            -217.0474811689575
          ],
          [
            52.22968438615423,
            -217.04751735261786
          ],
          [
            53.15241117932032,
            -216.67847364390033
          ],
          [
            53.521490977394144,
            -216.86303620487698
          ],
          [
            53.890582907904204,
            -216.67850982756067
          ],
          [
            54.25966270597803,
            -216.86307238853735
          ],
          [
            54.997834434561916,
            -216.8631085721977
          ],
          [
            55.920543029073656,
            -217.0476982709196
          ],
          [
            56.65871475765754,
            -217.0477344545799
          ],
          [
            57.39687435380521,
            -217.41685957653323
          ],
          [
            57.765954151879036,
            -217.60142213750987
          ],
          [
            58.13503394995286,
            -217.78598469848654
          ],
          [
            58.873181413664305,
            -218.5241987587328
          ],
          [
            59.795871809521714,
            -219.26242186489415
          ],
          [
            60.534019273233156,
            -220.0006359251404
          ],
          [
            61.27216673694459,
            -220.73884998538665
          ],
          [
            62.74848592923992,
            -221.47710022929328
          ],
          [
            63.855731389679526,
            -221.84624344307673
          ],
          [
            64.59390311826341,
            -221.84627962673707
          ],
          [
            65.51661171277516,
            -222.03086932545898
          ],
          [
            66.80839403914263,
            -222.58456605430402
          ],
          [
            67.5465657677265,
            -222.5846022379644
          ],
          [
            68.46927436223825,
            -222.76919193668627
          ],
          [
            69.57651982267785,
            -223.13833515046977
          ],
          [
            70.4992284171896,
            -223.32292484919168
          ],
          [
            71.42193701170135,
            -223.5075145479136
          ],
          [
            72.52918247214095,
            -223.87665776169703
          ],
          [
            73.45189106665269,
            -224.06124746041897
          ],
          [
            74.37459966116444,
            -224.24583715914088
          ],
          [
            75.48184512160404,
            -224.61498037292432
          ],
          [
            76.95816431389937,
            -225.35323061683096
          ],
          [
            78.24994664026683,
            -225.906927345676
          ],
          [
            78.61902643834067,
            -226.09148990665264
          ],
          [
            78.9881062364145,
            -226.2760524676293
          ],
          [
            80.46442542870982,
            -227.0143027115359
          ],
          [
            81.75620775507728,
            -227.56799944038093
          ],
          [
            82.49437948366116,
            -227.5680356240413
          ],
          [
            83.23255121224506,
            -227.56807180770164
          ],
          [
            84.2313358799667,
            -227.99110283523396
          ],
          [
            84.79982805096597,
            -228.27030712166965
          ],
          [
            85.43052188538755,
            -228.06569362422556
          ],
          [
            86.54557613428518,
            -227.82110659067035
          ],
          [
            87.6930225746431,
            -228.12274311642165
          ],
          [
            88.05882085198257,
            -228.12512938230765
          ],
          [
            88.75984796028906,
            -228.32966328025313
          ],
          [
            89.68934575809533,
            -228.68477500423182
          ],
          [
            89.86487914109455,
            -228.7459113278423
          ],
          [
            90.30055705163808,
            -228.94712890890557
          ],
          [
            90.52053565388547,
            -229.07230859782078
          ],
          [
            90.87703057856795,
            -229.27861810381927
          ],
          [
            91.22490879683679,
            -229.46970334568937
          ],
          [
            91.61707261847165,
            -229.6821906764057
          ],
          [
            91.82003618514888,
            -229.84356852536087
          ],
          [
            92.1361962208816,
            -230.09519446312774
          ],
          [
            92.94700727126332,
            -230.76215809313035
          ],
          [
            93.23790636720103,
            -231.03212722873866
          ],
          [
            93.9974291443304,
            -231.7489783635046
          ],
          [
            94.69938711364264,
            -232.5271595128145
          ],
          [
            95.90031504643571,
            -233.3945105509949
          ],
          [
            97.4427886707312,
            -234.0265463364796
          ],
          [
            98.49744872353982,
            -234.46026701182467
          ],
          [
            99.65664772316637,
            -234.397022252564
          ],
          [
            100.94847251306061,
            -233.6589076973837
          ],
          [
            102.05575437080887,
            -232.92078409628832
          ],
          [
            102.42484630131892,
            -232.73625771897198
          ],
          [
            103.3475670282669,
            -232.55175847940097
          ],
          [
            104.08573875685079,
            -232.5517946630613
          ],
          [
            104.82391048543467,
            -232.55183084672163
          ],
          [
            105.74661907994641,
            -232.73642054544354
          ],
          [
            106.66933980689438,
            -232.5519213058725
          ],
          [
            107.59206053384234,
            -232.36742206630143
          ],
          [
            108.33024439486246,
            -231.99836931166882
          ],
          [
            108.6993363253725,
            -231.81384293435252
          ],
          [
            109.62207525097482,
            -231.07571028734205
          ],
          [
            110.72935710872308,
            -230.33758668624668
          ],
          [
            112.02117583239921,
            -229.78401660021282
          ],
          [
            112.57481069505525,
            -229.5994992688116
          ],
          [
            113.31298242363913,
            -229.59953545247197
          ],
          [
            114.2357031505871,
            -229.4150362129009
          ],
          [
            115.71207087262731,
            -228.67693070363566
          ],
          [
            117.0513186425908,
            -227.95381990074011
          ],
          [
            118.11117752026982,
            -227.20069254735998
          ],
          [
            119.40300231016406,
            -226.46257799217966
          ],
          [
            120.87936396598617,
            -225.90901695206094
          ],
          [
            121.8021210902428,
            -224.61725089761103
          ],
          [
            122.3557923502075,
            -223.3254667513309
          ],
          [
            122.35581661507993,
            -222.587288874745
          ],
          [
            122.54037167966213,
            -222.21820898236712
          ]
        ]
      },
      "properties": {
        "type": "variant",
        "id": 2,
        "color": "#4444ff",
        "vzdal_m": 2189,
        "prevyseni_m": 87,
        "cas_s": 701,
        "tempo_str": "5:20"
      }
    }
  ]
}