{
  "type": "FeatureCollection",
  "features": [
    {
      "type": "Feature",
      "geometry": {
        "type": "Point",
        "coordinates": [
          56.75352607289724,
          -90.06238614187085
        ]
      },
      "properties": {
        "type": "start",
        "isom": "203"
      }
    },
    {
      "type": "Feature",
      "geometry": {
        "type": "Point",
        "coordinates": [
          67.67830542246777,
          -111.84064544692956
        ]
      },
      "properties": {
        "type": "end",
        "isom": "109"
      }
    },
    {
      "type": "Feature",
      "geometry": {
        "type": "LineString",
        "coordinates": [
          [
            56.76520661733889,
            -90.0268938252856
          ],
          [
            56.94973135083052,
            -90.58053627955516
          ],
          [
            57.04198765135823,
            -91.0419019759952
          ],
          [
            57.041975518922015,
            -91.41099091460569
          ],
          [
            57.4110371183415,
            -92.14918688453432
          ],
          [
            57.780104783979084,
            -92.70283838515769
          ],
          [
            58.14917851583477,
            -93.07194541647583
          ],
          [
            58.51825224769047,
            -93.44105244779395
          ],
          [
            58.88732597954617,
            -93.81015947911207
          ],
          [
            59.256399711401855,
            -94.1792665104302
          ],
          [
            59.44092444489349,
            -94.73290896469977
          ],
          [
            59.717717611349045,
            -95.37882817679888
          ],
          [
            59.90224234484068,
            -95.93247063106843
          ],
          [
            60.08676707833231,
            -96.48611308533799
          ],
          [
            60.179023378860016,
            -96.94747878177802
          ],
          [
            60.54808801138856,
            -97.59340251705403
          ],
          [
            60.824884210953165,
            -98.14704949450048
          ],
          [
            60.91714051148087,
            -98.60841519094052
          ],
          [
            61.00939681200858,
            -99.06978088738056
          ],
          [
            61.19392457860927,
            -99.5311511069975
          ],
          [
            61.56299831046496,
            -99.90025813831564
          ],
          [
            61.932072042320655,
            -100.26936516963374
          ],
          [
            62.301145774176355,
            -100.63847220095188
          ],
          [
            62.67021950603205,
            -101.00757923226999
          ],
          [
            63.039287171669635,
            -101.56123073289336
          ],
          [
            63.13154347219734,
            -102.0225964293334
          ],
          [
            63.131531339761125,
            -102.39168536794391
          ],
          [
            63.13151920732491,
            -102.76077430655441
          ],
          [
            63.223775507852615,
            -103.22214000299444
          ],
          [
            63.50057474052628,
            -103.68351474578827
          ],
          [
            63.9619169053459,
            -104.14489853493593
          ],
          [
            64.42325907016553,
            -104.60628232408358
          ],
          [
            64.792320669585,
            -105.34447829401222
          ],
          [
            65.16138226900448,
            -106.08267426394085
          ],
          [
            65.53044386842396,
            -106.82087023386947
          ],
          [
            65.80724613420668,
            -107.1899727420107
          ],
          [
            65.9917708676983,
            -107.74361519628026
          ],
          [
            66.26856706726292,
            -108.29726217372671
          ],
          [
            66.36082336779063,
            -108.75862787016675
          ],
          [
            66.45307966831834,
            -109.21999356660677
          ],
          [
            66.82215340017403,
            -109.58910059792491
          ],
          [
            67.28349859810271,
            -109.95821215241993
          ],
          [
            67.6525662637403,
            -110.51186365304332
          ],
          [
            67.65255413130407,
            -110.88095259165382
          ],
          [
            67.65254199886786,
            -111.25004153026433
          ],
          [
            67.65252986643165,
            -111.61913046887481
          ],
          [
            67.65252380021354,
            -111.80367493818007
          ]
        ]
      },
      "properties": {
        "type": "variant",
        "id": 1,
        "color": "#ff4444",
        "vzdal_m": 1363,
        "prevyseni_m": 0,
        "cas_s": 329,
        "tempo_str": "4:01"
      }
    },
    {
      "type": "Feature",
      "geometry": {
        "type": "LineString",
        "coordinates": [
          [
            56.76520661733889,
            -90.0268938252856
          ],
          [
            57.134280349194576,
            -90.39600085660372
          ],
          [
            57.503354081050276,
            -90.76510788792184
          ],
          [
            57.87242781290596,
            -91.13421491923997
          ],
          [
            58.33377301083463,
            -91.503326473735
          ],
          [
            58.70284674269033,
            -91.87243350505312
          ],
          [
            59.07192047454602,
            -92.24154053637126
          ],
          [
            59.44099420640172,
            -92.61064756768938
          ],
          [
            59.90233940433039,
            -92.9797591221844
          ],
          [
            60.27141010307703,
            -93.44113838815515
          ],
          [
            60.64047473560556,
            -94.08706212343115
          ],
          [
            61.00954846746126,
            -94.45616915474928
          ],
          [
            61.37862219931696,
            -94.82527618606741
          ],
          [
            61.74768986495454,
            -95.37892768669079
          ],
          [
            62.11675146437402,
            -96.11712365661941
          ],
          [
            62.4858130637935,
            -96.85531962654805
          ],
          [
            62.85488376254014,
            -97.31669889251879
          ],
          [
            63.22395142817773,
            -97.87035039314217
          ],
          [
            63.59301302759721,
            -98.60854636307079
          ],
          [
            63.777537761088844,
            -99.16218881734035
          ],
          [
            64.14660542672642,
            -99.71584031796374
          ],
          [
            64.51567915858212,
            -100.08494734928185
          ],
          [
            64.88474985732876,
            -100.54632661525261
          ],
          [
            65.2538205560754,
            -101.00770588122334
          ],
          [
            65.62288215549488,
            -101.74590185115197
          ],
          [
            65.99194375491436,
            -102.48409782108061
          ],
          [
            66.36100535433384,
            -103.22229379100922
          ],
          [
            66.73007908618953,
            -103.59140082232736
          ],
          [
            67.09914675182712,
            -104.14505232295072
          ],
          [
            67.4682083512466,
            -104.88324829287936
          ],
          [
            67.74500151770216,
            -105.52916750497845
          ],
          [
            67.74498938526594,
            -105.89825644358895
          ],
          [
            67.56042825446568,
            -106.45188080515089
          ],
          [
            67.28359262448336,
            -107.09777287818855
          ],
          [
            67.00675699450106,
            -107.7436649512262
          ],
          [
            67.00674486206485,
            -108.1127538898367
          ],
          [
            67.00673272962862,
            -108.4818428284472
          ],
          [
            67.09898903015633,
            -108.94320852488724
          ],
          [
            67.46805062957581,
            -109.68140449481587
          ],
          [
            67.74484682914043,
            -110.23505147226234
          ],
          [
            67.74483469670422,
            -110.60414041087284
          ],
          [
            67.744822564268,
            -110.97322934948335
          ],
          [
            67.65253593264976,
            -111.43458599956956
          ],
          [
            67.65252380021354,
            -111.80367493818007
          ]
        ]
      },
      "properties": {
        "type": "variant",
        "id": 2,
        "color": "#4444ff",
        "vzdal_m": 1399,
        "prevyseni_m": 0,
        "cas_s": 331,
        "tempo_str": "3:56"
      }
    },
    {
      "type": "Feature",
      "geometry": {
        "type": "LineString",
        "coordinates": [
          [
            56.76520661733889,
            -90.0268938252856
          ],
          [
            56.94973135083052,
            -90.58053627955516
          ],
          [
            57.04198765135823,
            -91.0419019759952
          ],
          [
            57.041975518922015,
            -91.41099091460569
          ],
          [
            57.31876868537757,
            -92.05691012670479
          ],
          [
            57.31875655294135,
            -92.4259990653153
          ],
          [
            57.31874442050515,
            -92.79508800392578
          ],
          [
            57.31873228806893,
            -93.16417694253629
          ],
          [
            57.595525454524484,
            -93.81009615463539
          ],
          [
            57.964587053943966,
            -94.54829212456401
          ],
          [
            58.24138022039951,
            -95.19421133666312
          ],
          [
            58.610441819818995,
            -95.93240730659176
          ],
          [
            58.7026981203467,
            -96.39377300303178
          ],
          [
            58.887222853838345,
            -96.94741545730133
          ],
          [
            59.16401602029389,
            -97.59333466940043
          ],
          [
            59.16400388785769,
            -97.96242360801094
          ],
          [
            59.440797054313244,
            -98.60834282011004
          ],
          [
            59.7175902207688,
            -99.25426203220914
          ],
          [
            59.902117987369486,
            -99.71563225182607
          ],
          [
            59.9943742878972,
            -100.17699794826609
          ],
          [
            60.08663058842491,
            -100.63836364470613
          ],
          [
            60.08661845598869,
            -101.00745258331663
          ],
          [
            60.08660632355247,
            -101.37654152192714
          ],
          [
            60.08659419111626,
            -101.74563046053764
          ],
          [
            60.271115891498845,
            -102.39154514945983
          ],
          [
            60.64017749091831,
            -103.12974111938846
          ],
          [
            61.00923909033779,
            -103.86793708931708
          ],
          [
            61.378300689757275,
            -104.6061330592457
          ],
          [
            61.747365322285816,
            -105.25205679452169
          ],
          [
            62.11642995481435,
            -105.8979805297977
          ],
          [
            62.485503686670036,
            -106.26708756111584
          ],
          [
            62.854577418525736,
            -106.63619459243395
          ],
          [
            63.22364508416332,
            -107.18984609305734
          ],
          [
            63.59271578290996,
            -107.65122535902807
          ],
          [
            63.96178951476565,
            -108.0203323903462
          ],
          [
            64.3308602135123,
            -108.48171165631695
          ],
          [
            64.69993394536799,
            -108.85081868763507
          ],
          [
            65.34581904233356,
            -109.31221152313654
          ],
          [
            65.89943570633521,
            -109.68132760080849
          ],
          [
            66.63759530248281,
            -110.05045272483423
          ],
          [
            67.28348343255743,
            -110.41957332568306
          ],
          [
            67.65255413130407,
            -110.88095259165382
          ],
          [
            67.65254199886786,
            -111.25004153026433
          ],
          [
            67.65252986643165,
            -111.61913046887481
          ],
          [
            67.65252380021354,
            -111.80367493818007
          ]
        ]
      },
      "properties": {
        "type": "variant",
        "id": 3,
        "color": "#44ff44",
        "vzdal_m": 1381,
        "prevyseni_m": 0,
        "cas_s": 343,
        "tempo_str": "4:08"
      }
    }
  ]
}