{
  "type": "FeatureCollection",
  "features": [
    {
      "type": "Feature",
      "geometry": {
        "type": "Point",
        "coordinates": [
          67.09951863806202,
          -38.19758310763598
        ]
      },
      "properties": {
        "type": "start",
        "isom": "109"
      }
    },
    {
      "type": "Feature",
      "geometry": {
        "type": "Point",
        "coordinates": [
          97.54774611936344,
          -84.41253285565251
        ]
      },
      "properties": {
        "type": "end",
        "isom": "419"
      }
    },
    {
      "type": "Feature",
      "geometry": {
        "type": "LineString",
        "coordinates": [
          [
            67.1250053672732,
            -38.19017826556016
          ],
          [
            67.86318247361324,
            -38.5593082164057
          ],
          [
            68.23227102678324,
            -38.74387319182847
          ],
          [
            68.41681170304823,
            -38.92843231371097
          ],
          [
            68.78588585493814,
            -39.48210382581822
          ],
          [
            69.15497440810813,
            -39.66666880124099
          ],
          [
            70.26224726825822,
            -40.03581045916707
          ],
          [
            70.81589089897331,
            -40.035828019787864
          ],
          [
            71.18497945214331,
            -40.220392995210645
          ],
          [
            71.55406800531333,
            -40.40495797063341
          ],
          [
            72.10766843218812,
            -41.51229514130763
          ],
          [
            72.10763962962793,
            -42.25050821467658
          ],
          [
            71.92305574952266,
            -43.1732687028475
          ],
          [
            72.10756762322744,
            -44.09604089809895
          ],
          [
            72.84571592700726,
            -45.20338392231344
          ],
          [
            73.03025660327225,
            -45.38794304419594
          ],
          [
            73.21479007889717,
            -45.757055434420685
          ],
          [
            73.39932355452211,
            -46.12616782464542
          ],
          [
            74.1374646576619,
            -47.41806411720215
          ],
          [
            75.06016083834673,
            -48.52541299495691
          ],
          [
            75.79832354340667,
            -49.26364948248692
          ],
          [
            76.53649344910663,
            -49.81733270167471
          ],
          [
            78.01284766178667,
            -50.555592603365795
          ],
          [
            78.1973955386917,
            -50.55559845690606
          ],
          [
            78.56648409186171,
            -50.74016343232883
          ],
          [
            79.12011332129669,
            -51.10928752963411
          ],
          [
            79.30464679692163,
            -51.478399919858845
          ],
          [
            79.30463959628158,
            -51.66295318820108
          ],
          [
            79.4891730719065,
            -52.03206557842582
          ],
          [
            79.67372094881154,
            -52.032071431966095
          ],
          [
            79.85826882571656,
            -52.03207728550636
          ],
          [
            80.22735737888658,
            -52.21664226092913
          ],
          [
            80.96551288330645,
            -53.13943201680138
          ],
          [
            81.5190948456327,
            -54.431322455460574
          ],
          [
            82.25725035005257,
            -55.354112211332826
          ],
          [
            82.81086517820746,
            -56.09234284532257
          ],
          [
            83.36445840444222,
            -57.384233284339025
          ],
          [
            83.54899188006713,
            -57.75334567456377
          ],
          [
            83.73352535569207,
            -58.12245806478852
          ],
          [
            83.91803722939686,
            -59.045230260039965
          ],
          [
            84.10257070502179,
            -59.414342650264715
          ],
          [
            84.84072620944166,
            -60.33713240613696
          ],
          [
            85.57888891450159,
            -61.075368893666976
          ],
          [
            86.3170516195615,
            -61.81360538119699
          ],
          [
            86.50159229582648,
            -61.9981645030795
          ],
          [
            86.68612577145142,
            -62.36727689330424
          ],
          [
            86.87065924707635,
            -62.73638928352897
          ],
          [
            87.79336982904131,
            -63.47463162459926
          ],
          [
            88.90062828791127,
            -64.21287981920982
          ],
          [
            89.0851617635362,
            -64.58199220943456
          ],
          [
            89.08513296097603,
            -65.3202052828035
          ],
          [
            89.2696448346808,
            -66.24297747805495
          ],
          [
            89.26961603212061,
            -66.98119055142391
          ],
          [
            90.00774993462034,
            -68.45764011232286
          ],
          [
            90.74589823840016,
            -69.56498313653735
          ],
          [
            90.93043171402509,
            -69.93409552676209
          ],
          [
            91.66856561652482,
            -71.41054508766106
          ],
          [
            92.40671392030464,
            -72.51788811187555
          ],
          [
            93.14485502344442,
            -73.80978440443228
          ],
          [
            93.88298892594415,
            -75.28623396533123
          ],
          [
            94.43658215217889,
            -76.5781244043477
          ],
          [
            94.62111562780383,
            -76.94723679457243
          ],
          [
            94.80564910342875,
            -77.31634918479718
          ],
          [
            95.17470165339853,
            -78.42368050193113
          ],
          [
            95.54376140400832,
            -79.34645855072284
          ],
          [
            95.72827327771313,
            -80.2692307459743
          ],
          [
            95.54368939760785,
            -81.19199123414522
          ],
          [
            96.28183770138767,
            -82.2993342583597
          ],
          [
            96.4663711770126,
            -82.66844664858445
          ],
          [
            96.65090465263755,
            -83.03755903880919
          ],
          [
            96.83544532890251,
            -83.22211816069169
          ],
          [
            97.01997880452744,
            -83.59123055091644
          ],
          [
            97.57359363268235,
            -84.32946118490618
          ]
        ]
      },
      "properties": {
        "type": "variant",
        "id": 1,
        "color": "#ff4444",
        "vzdal_m": 1585,
        "prevyseni_m": 26,
        "cas_s": 462,
        "tempo_str": "4:51"
      }
    },
    {
      "type": "Feature",
      "geometry": {
        "type": "LineString",
        "coordinates": [
          [
            67.1250053672732,
            -38.19017826556016
          ],
          [
            67.86318247361324,
            -38.5593082164057
          ],
          [
            68.23227102678324,
            -38.74387319182847
          ],
          [
            68.41681170304823,
            -38.92843231371097
          ],
          [
            68.78588585493814,
            -39.48210382581822
          ],
          [
            69.15497440810813,
            -39.66666880124099
          ],
          [
            70.26224726825822,
            -40.03581045916707
          ],
          [
            71.00043877587834,
            -40.03583387332814
          ],
          [
            72.10771163602841,
            -40.40497553125421
          ],
          [
            73.03043661927346,
            -40.77411133564002
          ],
          [
            73.95314720123841,
            -41.512353676710305
          ],
          [
            74.87585778320337,
            -42.250596017780595
          ],
          [
            76.16766411897837,
            -42.98885006593141
          ],
          [
            76.72130054905341,
            -43.17342089489445
          ],
          [
            78.19765476173345,
            -43.911680796585536
          ],
          [
            78.93583186807346,
            -44.28081074743108
          ],
          [
            79.30492042124347,
            -44.46537572285385
          ],
          [
            79.67400897441348,
            -44.64994069827662
          ],
          [
            80.0430975275835,
            -44.83450567369939
          ],
          [
            80.4121860807535,
            -45.01907064912216
          ],
          [
            80.78127463392352,
            -45.20363562454494
          ],
          [
            81.15036318709353,
            -45.3882005999677
          ],
          [
            82.62670613586506,
            -46.12646050130152
          ],
          [
            83.54941671783001,
            -46.864702842371806
          ],
          [
            84.28757942288993,
            -47.602939329901815
          ],
          [
            84.84118705040477,
            -48.52572323223381
          ],
          [
            85.76388323108964,
            -49.63307210998857
          ],
          [
            86.31749805924451,
            -50.37130274397831
          ],
          [
            87.05563196174425,
            -51.847752304877275
          ],
          [
            87.60923238861905,
            -52.955089475551496
          ],
          [
            87.79376586424398,
            -53.32420186577624
          ],
          [
            87.79373706168379,
            -54.062414939145185
          ],
          [
            87.79370825912358,
            -54.80062801251413
          ],
          [
            87.7936794565634,
            -55.53884108588308
          ],
          [
            87.7936506540032,
            -56.277054159252025
          ],
          [
            87.97817692898808,
            -56.830719817819
          ],
          [
            88.347251080878,
            -57.38439132992625
          ],
          [
            88.53178455650293,
            -57.75350372015099
          ],
          [
            88.71631803212786,
            -58.12261611037573
          ],
          [
            88.90082990583264,
            -59.045388305627185
          ],
          [
            89.08536338145757,
            -59.41450069585193
          ],
          [
            89.82351888587745,
            -60.33729045172418
          ],
          [
            90.56167439029731,
            -61.26008020759643
          ],
          [
            91.48438497226228,
            -61.998322548666714
          ],
          [
            92.03801420169727,
            -62.36744664597199
          ],
          [
            92.22254767732218,
            -62.73655903619673
          ],
          [
            92.40705955102698,
            -63.659331231448185
          ],
          [
            92.40703074846678,
            -64.39754430481713
          ],
          [
            92.96062397470153,
            -65.68943474383359
          ],
          [
            92.96059517214134,
            -66.42764781720253
          ],
          [
            93.14510704584612,
            -67.35042001245398
          ],
          [
            93.32961891955091,
            -68.27319220770543
          ],
          [
            93.69868587080077,
            -69.01141698815492
          ],
          [
            94.06773842077054,
            -70.11874830528888
          ],
          [
            94.06770961821034,
            -70.85696137865783
          ],
          [
            94.0677024175703,
            -71.04151464700006
          ],
          [
            94.25223589319522,
            -71.4106270372248
          ],
          [
            94.43674776690001,
            -72.33339923247625
          ],
          [
            94.43671896433982,
            -73.0716123058452
          ],
          [
            94.43669016177962,
            -73.80982537921415
          ],
          [
            94.6212020354844,
            -74.73259757446559
          ],
          [
            94.80571390918918,
            -75.65536976971704
          ],
          [
            94.805685106629,
            -76.393582843086
          ],
          [
            94.8056563040688,
            -77.13179591645493
          ],
          [
            94.99016817777358,
            -78.05456811170639
          ],
          [
            95.54376140400832,
            -79.34645855072284
          ],
          [
            95.72827327771313,
            -80.2692307459743
          ],
          [
            95.72824447515293,
            -81.00744381934325
          ],
          [
            96.28183770138767,
            -82.2993342583597
          ],
          [
            96.4663711770126,
            -82.66844664858445
          ],
          [
            96.65090465263755,
            -83.03755903880919
          ],
          [
            96.83544532890251,
            -83.22211816069169
          ],
          [
            97.01997880452744,
            -83.59123055091644
          ],
          [
            97.57359363268235,
            -84.32946118490618
          ]
        ]
      },
      "properties": {
        "type": "variant",
        "id": 2,
        "color": "#4444ff",
        "vzdal_m": 1634,
        "prevyseni_m": 29,
        "cas_s": 471,
        "tempo_str": "4:48"
      }
    }
  ]
}