{
  "type": "FeatureCollection",
  "features": [
    {
      "type": "Feature",
      "geometry": {
        "type": "Point",
        "coordinates": [
          110.84938749386725,
          -198.84963132533392
        ]
      },
      "properties": {
        "type": "start",
        "isom": "204"
      }
    },
    {
      "type": "Feature",
      "geometry": {
        "type": "Point",
        "coordinates": [
          113.08570931015244,
          -231.6045388268169
        ]
      },
      "properties": {
        "type": "end",
        "isom": "204"
      }
    },
    {
      "type": "Feature",
      "geometry": {
        "type": "LineString",
        "coordinates": [
          [
            110.76165049823821,
            -198.8771879930524
          ],
          [
            110.57708330121982,
            -199.61535682372318
          ],
          [
            110.76160196849332,
            -200.3535437462242
          ],
          [
            110.57702870525681,
            -201.27625704604148
          ],
          [
            110.76155343874844,
            -201.82989949939602
          ],
          [
            110.76154737253032,
            -202.0144439685425
          ],
          [
            110.76154130631222,
            -202.198988437689
          ],
          [
            110.76151704143977,
            -202.9371663142749
          ],
          [
            110.39239477983917,
            -204.0444150373236
          ],
          [
            109.65416845529228,
            -205.70527907598154
          ],
          [
            109.1005032615457,
            -206.81251875311517
          ],
          [
            108.36228300321692,
            -208.28883832262665
          ],
          [
            107.99316074161631,
            -209.39608704567533
          ],
          [
            107.80858747837979,
            -210.31880034549266
          ],
          [
            107.80856321350734,
            -211.05697822207856
          ],
          [
            107.8085389486349,
            -211.79515609866448
          ],
          [
            107.62397781783459,
            -212.3487804601888
          ],
          [
            107.43942275325239,
            -212.7178603525667
          ],
          [
            107.2548676886702,
            -213.08694024494457
          ],
          [
            107.07031869030612,
            -213.27147566817595
          ],
          [
            106.88576362572392,
            -213.64055556055385
          ],
          [
            106.14756763226761,
            -214.3786972534794
          ],
          [
            105.96301256768541,
            -214.7477771458573
          ],
          [
            106.7011357665244,
            -216.22416908268943
          ],
          [
            107.25472816565365,
            -217.3314630353136
          ],
          [
            107.4392589653634,
            -217.70056101952161
          ],
          [
            107.99284529827453,
            -218.9923994412922
          ],
          [
            108.3618947652578,
            -220.09968434800126
          ],
          [
            108.54641343253132,
            -220.8378712705023
          ],
          [
            108.54638916765889,
            -221.57604914708818
          ],
          [
            108.54636490278642,
            -222.3142270236741
          ],
          [
            109.09995123569756,
            -223.6060654454447
          ],
          [
            109.28448203540732,
            -223.97516342965272
          ],
          [
            109.28446383675299,
            -224.52879683709216
          ],
          [
            109.46900070268084,
            -224.71335035215375
          ],
          [
            109.65353150239059,
            -225.08244833636178
          ],
          [
            109.65350723751816,
            -225.8206262129477
          ],
          [
            110.39163043635715,
            -227.2970181497799
          ],
          [
            111.12975363519614,
            -228.77341008661207
          ],
          [
            111.68332783567104,
            -230.4343374466756
          ],
          [
            112.05241369996298,
            -230.4343555385058
          ],
          [
            112.42149349803681,
            -230.61891809948244
          ],
          [
            112.60602429774657,
            -230.98801608369047
          ],
          [
            113.15963489553015,
            -231.54167662887517
          ]
        ]
      },
      "properties": {
        "type": "variant",
        "id": 1,
        "color": "#ff4444",
        "vzdal_m": 977,
        "prevyseni_m": 3,
        "cas_s": 269,
        "tempo_str": "4:34"
      }
    },
    {
      "type": "Feature",
      "geometry": {
        "type": "LineString",
        "coordinates": [
          [
            110.76165049823821,
            -198.8771879930524
          ],
          [
            111.31524289736747,
            -199.9844819456765
          ],
          [
            112.0533903610789,
            -200.72269600592276
          ],
          [
            112.23790296213431,
            -201.64542739757022
          ],
          [
            112.42241556318974,
            -202.56815878921773
          ],
          [
            112.2378483661713,
            -203.30632761988852
          ],
          [
            112.42236703344484,
            -204.04451454238955
          ],
          [
            112.42234276857239,
            -204.78269241897547
          ],
          [
            112.42231243748184,
            -205.70541476470785
          ],
          [
            112.2377331080272,
            -206.81267253367162
          ],
          [
            112.4222335766464,
            -208.10449286361208
          ],
          [
            112.60675831013803,
            -208.6581353169666
          ],
          [
            112.6067340452656,
            -209.3963131935525
          ],
          [
            112.791246646321,
            -210.3190445852
          ],
          [
            112.79122238144856,
            -211.05722246178593
          ],
          [
            112.60665518443015,
            -211.7953912924567
          ],
          [
            112.79116171926744,
            -212.9026671532507
          ],
          [
            112.42203339144872,
            -214.19446034544586
          ],
          [
            112.05291719606623,
            -215.1171645993481
          ],
          [
            112.0528929311938,
            -215.855342475934
          ],
          [
            112.05286866632133,
            -216.5935203525199
          ],
          [
            112.23738733359487,
            -217.3317072750209
          ],
          [
            112.42189993465027,
            -218.2544386666684
          ],
          [
            112.42187566977783,
            -218.99261654325431
          ],
          [
            112.60639433705136,
            -219.7308034657553
          ],
          [
            113.15998066996248,
            -221.02264188752588
          ],
          [
            113.34449327101791,
            -221.9453732791734
          ],
          [
            113.34446900614547,
            -222.6835511557593
          ],
          [
            113.52899980585522,
            -223.05264913996731
          ],
          [
            113.71351240691061,
            -223.97538053161483
          ],
          [
            113.71350634069252,
            -224.15992500076132
          ],
          [
            113.89803714040227,
            -224.52902298496934
          ],
          [
            113.89801287552982,
            -225.26720086155524
          ],
          [
            113.89798861065738,
            -226.00537873814116
          ],
          [
            113.89796434578491,
            -226.74355661472708
          ],
          [
            113.89794008091248,
            -227.48173449131298
          ],
          [
            113.89791581604004,
            -228.2199123678989
          ],
          [
            113.34425062229344,
            -229.32715204503253
          ],
          [
            113.15968342527505,
            -230.06532087570332
          ],
          [
            113.15965916040258,
            -230.80349875228924
          ],
          [
            113.15963489553015,
            -231.54167662887517
          ]
        ]
      },
      "properties": {
        "type": "variant",
        "id": 2,
        "color": "#4444ff",
        "vzdal_m": 918,
        "prevyseni_m": 8,
        "cas_s": 265,
        "tempo_str": "4:48"
      }
    },
    {
      "type": "Feature",
      "geometry": {
        "type": "LineString",
        "coordinates": [
          [
            110.76165049823821,
            -198.8771879930524
          ],
          [
            111.31524289736747,
            -199.9844819456765
          ],
          [
            112.23793329322487,
            -200.72270505183783
          ],
          [
            112.97608075693631,
            -201.4609191120841
          ],
          [
            113.71421002199342,
            -202.7527665797698
          ],
          [
            114.26779028868644,
            -204.22914947068688
          ],
          [
            114.63685188810594,
            -204.96734543910298
          ],
          [
            114.8213826878157,
            -205.336443423311
          ],
          [
            114.82135842294323,
            -206.0746212998969
          ],
          [
            114.8213341580708,
            -206.81279917648283
          ],
          [
            114.82130989319835,
            -207.55097705306875
          ],
          [
            114.63673662996183,
            -208.47369035288605
          ],
          [
            114.6367123650894,
            -209.21186822947197
          ],
          [
            114.63668810021693,
            -209.9500461060579
          ],
          [
            114.63666383534449,
            -210.68822398264382
          ],
          [
            114.63663957047204,
            -211.4264018592297
          ],
          [
            114.45206630723553,
            -212.349115159047
          ],
          [
            115.19020163851074,
            -213.45641815758623
          ],
          [
            115.92833090356785,
            -214.74826562527193
          ],
          [
            115.74376370654942,
            -215.48643445594274
          ],
          [
            115.92828844004107,
            -216.04007690929728
          ],
          [
            115.92828237382295,
            -216.22462137844377
          ],
          [
            115.74372730924075,
            -216.5937012708216
          ],
          [
            115.55915404600424,
            -217.51641457063894
          ],
          [
            115.55912978113179,
            -218.25459244722484
          ],
          [
            114.820909522803,
            -219.7309120167363
          ],
          [
            114.26724432905642,
            -220.83815169386995
          ],
          [
            114.08268926447423,
            -221.20723158624784
          ],
          [
            113.71357306909174,
            -222.12993584015004
          ],
          [
            113.89809173636527,
            -222.868122762651
          ],
          [
            114.2671715344391,
            -223.05268532362768
          ],
          [
            114.45170233414885,
            -223.4217833078357
          ],
          [
            114.63623313385858,
            -223.79088129204376
          ],
          [
            114.82076393356834,
            -224.1599792762518
          ],
          [
            114.82075786735024,
            -224.34452374539828
          ],
          [
            114.45163560574963,
            -225.45177246844696
          ],
          [
            115.00522193866074,
            -226.7436108902176
          ],
          [
            115.0051916075702,
            -227.66633323595
          ],
          [
            115.00517340891588,
            -228.21996664338943
          ],
          [
            114.63605114731524,
            -229.32721536643814
          ],
          [
            113.89784908764081,
            -230.24990152851015
          ],
          [
            113.71330008927673,
            -230.43443695174156
          ],
          [
            113.52874502469453,
            -230.80351684411943
          ],
          [
            113.15963489553015,
            -231.54167662887517
          ]
        ]
      },
      "properties": {
        "type": "variant",
        "id": 3,
        "color": "#44ff44",
        "vzdal_m": 977,
        "prevyseni_m": 6,
        "cas_s": 278,
        "tempo_str": "4:44"
      }
    }
  ]
}