{
  "type": "FeatureCollection",
  "features": [
    {
      "type": "Feature",
      "geometry": {
        "type": "Point",
        "coordinates": [
          38.005632803796374,
          -112.28209761003285
        ]
      },
      "properties": {
        "type": "start",
        "isom": "204"
      }
    },
    {
      "type": "Feature",
      "geometry": {
        "type": "Point",
        "coordinates": [
          42.25145010459785,
          -127.9667402128873
        ]
      },
      "properties": {
        "type": "end",
        "isom": "417"
      }
    },
    {
      "type": "Feature",
      "geometry": {
        "type": "LineString",
        "coordinates": [
          [
            38.03336802524265,
            -112.2635841716565
          ],
          [
            38.402435690880246,
            -112.81723567227986
          ],
          [
            38.77150942273594,
            -113.186342703598
          ],
          [
            39.14058315459163,
            -113.55544973491611
          ],
          [
            39.509656886447324,
            -113.92455676623423
          ],
          [
            39.87873061830302,
            -114.29366379755237
          ],
          [
            40.43234728230467,
            -114.6627798752243
          ],
          [
            40.8014179810513,
            -115.12415914119505
          ],
          [
            40.80140584861509,
            -115.49324807980555
          ],
          [
            40.80139371617888,
            -115.86233701841606
          ],
          [
            40.98592148277956,
            -116.32370723803298
          ],
          [
            41.26272071545323,
            -116.78508198082683
          ],
          [
            41.26270858301701,
            -117.15417091943733
          ],
          [
            41.44723331650865,
            -117.7078133737069
          ],
          [
            41.63175805000028,
            -118.26145582797646
          ],
          [
            41.72401435052799,
            -118.7228215244165
          ],
          [
            42.00080751698354,
            -119.36874073651558
          ],
          [
            42.277600683439104,
            -120.01465994861468
          ],
          [
            42.277588551002886,
            -120.38374888722518
          ],
          [
            42.27757641856667,
            -120.75283782583568
          ],
          [
            42.277564286130456,
            -121.12192676444619
          ],
          [
            42.277552153694245,
            -121.49101570305669
          ],
          [
            42.277540021258034,
            -121.86010464166719
          ],
          [
            42.277527888821815,
            -122.2291935802777
          ],
          [
            42.277515756385604,
            -122.5982825188882
          ],
          [
            42.277506657058446,
            -122.87509922284607
          ],
          [
            42.27750362394939,
            -122.9673714574987
          ],
          [
            42.27750059084033,
            -123.05964369215133
          ],
          [
            42.27749755773128,
            -123.15191592680395
          ],
          [
            42.27749452462223,
            -123.24418816145658
          ],
          [
            42.27748239218601,
            -123.61327710006708
          ],
          [
            42.2774702597498,
            -123.98236603867758
          ],
          [
            42.27745812731359,
            -124.35145497728807
          ],
          [
            42.27744599487737,
            -124.72054391589857
          ],
          [
            42.27743386244116,
            -125.08963285450908
          ],
          [
            42.277421730004946,
            -125.45872179311958
          ],
          [
            42.1851350983867,
            -125.9200784432058
          ],
          [
            42.185122965950484,
            -126.2891673818163
          ],
          [
            42.27737926647819,
            -126.75053307825634
          ],
          [
            42.27736713404198,
            -127.11962201686684
          ],
          [
            42.27735500160577,
            -127.48871095547734
          ],
          [
            42.27734286916955,
            -127.85779989408785
          ],
          [
            42.2773398360605,
            -127.95007212874047
          ]
        ]
      },
      "properties": {
        "type": "variant",
        "id": 1,
        "color": "#ff4444",
        "vzdal_m": 929,
        "prevyseni_m": 0,
        "cas_s": 267,
        "tempo_str": "4:46"
      }
    },
    {
      "type": "Feature",
      "geometry": {
        "type": "LineString",
        "coordinates": [
          [
            38.03336802524265,
            -112.2635841716565
          ],
          [
            37.94108139362441,
            -112.72494082174272
          ],
          [
            37.9410692611882,
            -113.09402976035322
          ],
          [
            38.31013086060767,
            -113.83222573028183
          ],
          [
            38.494655594099314,
            -114.3858681845514
          ],
          [
            38.86371719351879,
            -115.12406415448004
          ],
          [
            39.232784859156375,
            -115.6777156551034
          ],
          [
            39.41730959264801,
            -116.23135810937296
          ],
          [
            39.786371192067485,
            -116.9695540793016
          ],
          [
            39.8786274925952,
            -117.43091977574163
          ],
          [
            40.247689092014674,
            -118.16911574567025
          ],
          [
            40.33994539254239,
            -118.63048144211028
          ],
          [
            40.33993326010617,
            -118.99957038072078
          ],
          [
            40.33992112766996,
            -119.36865931933129
          ],
          [
            40.33990899523374,
            -119.73774825794179
          ],
          [
            40.33989686279753,
            -120.10683719655229
          ],
          [
            40.33988473036131,
            -120.4759261351628
          ],
          [
            40.3398725979251,
            -120.8450150737733
          ],
          [
            40.43212889845281,
            -121.30638077021332
          ],
          [
            40.4321167660166,
            -121.67546970882383
          ],
          [
            40.43210463358039,
            -122.04455864743433
          ],
          [
            40.43209250114417,
            -122.41364758604483
          ],
          [
            40.52434880167188,
            -122.87501328248487
          ],
          [
            40.524336669235666,
            -123.24410222109536
          ],
          [
            40.524324536799455,
            -123.61319115970586
          ],
          [
            40.524312404363236,
            -123.98228009831637
          ],
          [
            40.70883713785487,
            -124.53592255258594
          ],
          [
            40.70882500541865,
            -124.90501149119645
          ],
          [
            40.70881287298244,
            -125.27410042980694
          ],
          [
            40.70880074054623,
            -125.64318936841744
          ],
          [
            41.07786840618381,
            -126.19684086904081
          ],
          [
            41.63148203707641,
            -126.65822918136539
          ],
          [
            42.00054666960494,
            -127.30415291664137
          ],
          [
            42.2773398360605,
            -127.95007212874047
          ]
        ]
      },
      "properties": {
        "type": "variant",
        "id": 2,
        "color": "#4444ff",
        "vzdal_m": 911,
        "prevyseni_m": 5,
        "cas_s": 258,
        "tempo_str": "4:43"
      }
    }
  ]
}