{
  "type": "FeatureCollection",
  "features": [
    {
      "type": "Feature",
      "geometry": {
        "type": "Point",
        "coordinates": [
          165.46526888928318,
          -105.14658397220853
        ]
      },
      "properties": {
        "type": "start",
        "isom": "204"
      }
    },
    {
      "type": "Feature",
      "geometry": {
        "type": "Point",
        "coordinates": [
          135.4709533492302,
          -164.93498591655623
        ]
      },
      "properties": {
        "type": "end",
        "isom": "204"
      }
    },
    {
      "type": "Feature",
      "geometry": {
        "type": "LineString",
        "coordinates": [
          [
            165.3154370294869,
            -104.99593671319066
          ],
          [
            164.94632687439676,
            -105.3650315427946
          ],
          [
            164.5772023180265,
            -106.10323290908302
          ],
          [
            164.94626926927637,
            -106.84145768953249
          ],
          [
            164.94624046671615,
            -107.57967076290144
          ],
          [
            164.5771159103459,
            -108.31787212918987
          ],
          [
            164.20799135397567,
            -109.05607349547827
          ],
          [
            163.8388811988855,
            -109.42516832508221
          ],
          [
            163.46975664251525,
            -110.16336969137062
          ],
          [
            163.46974224123517,
            -110.53247622805509
          ],
          [
            163.10061768486491,
            -111.27067759434352
          ],
          [
            161.62419959232128,
            -112.74705691347381
          ],
          [
            160.1477301694005,
            -114.9616493052585
          ],
          [
            159.77857681047,
            -116.43806374491588
          ],
          [
            159.40945225409976,
            -117.17626511120429
          ],
          [
            158.67121754263937,
            -118.28356130709663
          ],
          [
            158.3021073875492,
            -118.65265613670059
          ],
          [
            157.93298283117895,
            -119.390857502989
          ],
          [
            157.19473371843847,
            -120.86726023556581
          ],
          [
            156.8256091620682,
            -121.60546160185422
          ],
          [
            156.45648460569794,
            -122.34366296814264
          ],
          [
            155.3490965353071,
            -124.92737360369235
          ],
          [
            153.87264151366637,
            -126.77285945879257
          ],
          [
            152.39620089330575,
            -128.24923877720835
          ],
          [
            151.28885602675518,
            -129.72562980270462
          ],
          [
            149.81241540639456,
            -131.20200912112037
          ],
          [
            149.07418069493414,
            -132.30930531701273
          ],
          [
            148.7050561385639,
            -133.04750668330112
          ],
          [
            146.85950536311313,
            -134.89298083132084
          ],
          [
            145.75213169400237,
            -137.10758493018608
          ],
          [
            146.12112663885173,
            -139.69134239405793
          ],
          [
            146.12108343501146,
            -140.79866200411135
          ],
          [
            144.64458520953042,
            -143.75146746926498
          ],
          [
            143.16808698404944,
            -146.70427293441864
          ],
          [
            142.06071331493865,
            -148.91887703328388
          ],
          [
            141.6915887585684,
            -149.6570783995723
          ],
          [
            141.32246420219818,
            -150.3952797658607
          ],
          [
            140.95333964582792,
            -151.13348113214911
          ],
          [
            140.58421508945767,
            -151.87168249843754
          ],
          [
            140.58420068817756,
            -152.240789035122
          ],
          [
            140.2150761318073,
            -152.9789904014104
          ],
          [
            140.21501852668692,
            -154.4554165481483
          ],
          [
            140.21496092156653,
            -155.9318426948862
          ],
          [
            140.21490331644614,
            -157.4082688416241
          ],
          [
            140.21484571132575,
            -158.88469498836199
          ],
          [
            140.21477370492528,
            -160.73022767178435
          ],
          [
            139.47652459218475,
            -162.20663040436116
          ],
          [
            139.1074144370946,
            -162.57572523396513
          ],
          [
            138.73830428200444,
            -162.94482006356907
          ],
          [
            138.3691941269143,
            -163.313914893173
          ],
          [
            138.00006957054404,
            -164.0521162594614
          ],
          [
            137.26186366164382,
            -164.42119938198482
          ],
          [
            135.41637049131344,
            -164.79024738326663
          ]
        ]
      },
      "properties": {
        "type": "variant",
        "id": 1,
        "color": "#ff4444",
        "vzdal_m": 954,
        "prevyseni_m": 9,
        "cas_s": 292,
        "tempo_str": "5:06"
      }
    },
    {
      "type": "Feature",
      "geometry": {
        "type": "LineString",
        "coordinates": [
          [
            165.3154370294869,
            -104.99593671319066
          ],
          [
            165.68451838201688,
            -105.36505495695567
          ],
          [
            166.05358533326674,
            -106.10327973740516
          ],
          [
            166.4226522845166,
            -106.84150451785464
          ],
          [
            167.16078618701633,
            -108.3179540787536
          ],
          [
            167.5298531382662,
            -109.05617885920309
          ],
          [
            167.89892008951605,
            -109.79440363965257
          ],
          [
            168.26798704076592,
            -110.53262842010206
          ],
          [
            168.6370683932959,
            -110.90174666386704
          ],
          [
            169.00613534454573,
            -111.63997144431653
          ],
          [
            169.74424044448529,
            -113.85463407858445
          ],
          [
            169.7441828393649,
            -115.33106022532235
          ],
          [
            168.26769901516397,
            -117.91475915379152
          ],
          [
            168.63673716385364,
            -119.39119700760995
          ],
          [
            167.89845924855294,
            -121.60581281355573
          ],
          [
            167.5293346921827,
            -122.34401417984414
          ],
          [
            167.16021013581243,
            -123.08221554613255
          ],
          [
            165.6837263116115,
            -125.66591447460172
          ],
          [
            164.2072568886907,
            -127.88050686638643
          ],
          [
            163.83813233232044,
            -128.61870823267483
          ],
          [
            162.36171423977683,
            -130.09508755180514
          ],
          [
            159.77798635798604,
            -131.57143174897928
          ],
          [
            157.93244998381536,
            -133.0477993603145
          ],
          [
            155.34870770074446,
            -134.8932500941731
          ],
          [
            153.50317132657378,
            -136.36961770550835
          ],
          [
            152.3958120587431,
            -138.21511526768913
          ],
          [
            150.919299431982,
            -141.53702726952724
          ],
          [
            150.55018927689184,
            -141.90612209913118
          ],
          [
            150.1810647205216,
            -142.64432346541957
          ],
          [
            148.7045664950406,
            -145.59712893057323
          ],
          [
            147.22806826955957,
            -148.5499343957269
          ],
          [
            146.12070900172893,
            -150.39543195790765
          ],
          [
            145.63112232742736,
            -151.28434500221482
          ],
          [
            145.01334973389825,
            -152.2409295200884
          ],
          [
            144.64421077624792,
            -153.3482374230613
          ],
          [
            145.01327772749778,
            -154.0864622035108
          ],
          [
            144.64410996728722,
            -155.9319831798526
          ],
          [
            145.01316251725697,
            -157.03931449698658
          ],
          [
            144.64403796088675,
            -157.77751586327497
          ],
          [
            144.64402355960664,
            -158.14662239995945
          ],
          [
            143.90580324942633,
            -158.88481205916733
          ],
          [
            143.16753973540574,
            -160.73032132842863
          ],
          [
            141.6910991150451,
            -162.20670064684438
          ],
          [
            140.95287880486478,
            -162.9448903060523
          ],
          [
            140.58375424849453,
            -163.68309167234068
          ],
          [
            139.84554833959433,
            -164.05217479486407
          ],
          [
            138.73824667688405,
            -164.42124621030695
          ],
          [
            138.00006957054404,
            -164.0521162594614
          ],
          [
            137.26186366164382,
            -164.42119938198482
          ],
          [
            135.41637049131344,
            -164.79024738326663
          ]
        ]
      },
      "properties": {
        "type": "variant",
        "id": 2,
        "color": "#4444ff",
        "vzdal_m": 1032,
        "prevyseni_m": 7,
        "cas_s": 309,
        "tempo_str": "4:59"
      }
    },
    {
      "type": "Feature",
      "geometry": {
        "type": "LineString",
        "coordinates": [
          [
            165.3154370294869,
            -104.99593671319066
          ],
          [
            163.4699870629968,
            -104.25766510441905
          ],
          [
            162.73183248447378,
            -103.88853515428805
          ],
          [
            161.9936265755736,
            -104.25761827681144
          ],
          [
            161.62451642048342,
            -104.6267131064154
          ],
          [
            160.88631051158322,
            -104.99579622893879
          ],
          [
            160.51720035649305,
            -105.36489105854272
          ],
          [
            159.77899444759285,
            -105.73397418106615
          ],
          [
            159.04073093357223,
            -107.57948345032743
          ],
          [
            159.04067332845185,
            -109.05590959706532
          ],
          [
            158.6715487720816,
            -109.79411096335373
          ],
          [
            158.30242421571134,
            -110.53231232964217
          ],
          [
            157.56420390553103,
            -111.27050198885003
          ],
          [
            155.3495717775503,
            -112.74685789310472
          ],
          [
            153.5040498046597,
            -113.85411896775545
          ],
          [
            152.7658438957595,
            -114.22320209027887
          ],
          [
            152.02763798685928,
            -114.59228521280227
          ],
          [
            151.28943207795908,
            -114.96136833532569
          ],
          [
            150.9203219228689,
            -115.33046316492963
          ],
          [
            150.55119736649866,
            -116.06866453121803
          ],
          [
            150.55118296521857,
            -116.4377710679025
          ],
          [
            150.18205840884832,
            -117.17597243419091
          ],
          [
            148.99716717769834,
            -118.79636301331978
          ],
          [
            148.79483792215814,
            -120.12878073108041
          ],
          [
            148.54998060840555,
            -121.92426990698854
          ],
          [
            147.76754794895248,
            -124.14459528087691
          ],
          [
            147.58000809237657,
            -126.34599307612297
          ],
          [
            146.95390117871233,
            -127.27766083611124
          ],
          [
            144.76319223128357,
            -128.78890284296452
          ],
          [
            143.07558680822137,
            -129.984525606062
          ],
          [
            141.480676810733,
            -131.34780822149358
          ],
          [
            140.0114663200526,
            -132.85749611977147
          ],
          [
            138.58221764438505,
            -134.43208982252617
          ],
          [
            137.37490918903944,
            -136.10492598080887
          ],
          [
            135.76349495165852,
            -137.82389890293356
          ],
          [
            134.72561875594116,
            -140.06008748534904
          ],
          [
            134.7255611508208,
            -141.53651363208692
          ],
          [
            135.91706449791215,
            -143.66399418422995
          ],
          [
            137.4124833819395,
            -145.39971419288986
          ],
          [
            137.8241444928851,
            -145.7128505264206
          ],
          [
            137.2625549230885,
            -146.7040856211301
          ],
          [
            136.89343036671823,
            -147.4422869874185
          ],
          [
            138.369741375558,
            -149.28786649916302
          ],
          [
            138.73882272808794,
            -149.65698474292802
          ],
          [
            139.1078896793378,
            -150.3952095233775
          ],
          [
            139.47697103186778,
            -150.7643277671425
          ],
          [
            139.84603798311764,
            -151.502552547592
          ],
          [
            140.2151049343675,
            -152.24077732804147
          ],
          [
            140.2150905330874,
            -152.60988386472593
          ],
          [
            140.95319563302692,
            -154.82454649899387
          ],
          [
            140.95315242918664,
            -155.9318661090473
          ],
          [
            141.3222193804365,
            -156.67009088949675
          ],
          [
            141.32216177531612,
            -158.14651703623463
          ],
          [
            141.3221185714758,
            -159.25383664628805
          ],
          [
            140.58386945873534,
            -160.7302393788649
          ],
          [
            139.84560594471472,
            -162.5757486481262
          ],
          [
            139.47648138834447,
            -163.3139500144146
          ],
          [
            139.10735683197422,
            -164.052151380703
          ],
          [
            138.369150923074,
            -164.42123450322643
          ],
          [
            137.63097381673398,
            -164.05210455238088
          ],
          [
            135.7854662451235,
            -164.79025909034715
          ],
          [
            135.41637049131344,
            -164.79024738326663
          ]
        ]
      },
      "properties": {
        "type": "variant",
        "id": 3,
        "color": "#44ff44",
        "vzdal_m": 1105,
        "prevyseni_m": 11,
        "cas_s": 318,
        "tempo_str": "4:47"
      }
    }
  ]
}