{
  "type": "FeatureCollection",
  "features": [
    {
      "type": "Feature",
      "geometry": {
        "type": "Point",
        "coordinates": [
          163.43639941364646,
          -44.27332966235442
        ]
      },
      "properties": {
        "type": "start",
        "isom": "417"
      }
    },
    {
      "type": "Feature",
      "geometry": {
        "type": "Point",
        "coordinates": [
          171.23324040605277,
          -114.6209563326405
        ]
      },
      "properties": {
        "type": "end",
        "isom": "109"
      }
    },
    {
      "type": "Feature",
      "geometry": {
        "type": "LineString",
        "coordinates": [
          [
            163.514750450327,
            -44.31934891831105
          ],
          [
            162.4074685925787,
            -45.057472519406446
          ],
          [
            161.85380339883213,
            -46.16471219654006
          ],
          [
            161.11561953781202,
            -46.53376495117267
          ],
          [
            160.74652760730197,
            -46.718291328488974
          ],
          [
            160.00833161384563,
            -47.45643302141455
          ],
          [
            159.2701356203893,
            -48.19457471434011
          ],
          [
            159.08556235715278,
            -49.11728801415742
          ],
          [
            159.08553809228033,
            -49.85546589074333
          ],
          [
            159.08551382740788,
            -50.59364376732925
          ],
          [
            159.08548956253546,
            -51.33182164391516
          ],
          [
            159.27000216359087,
            -52.254553035562644
          ],
          [
            159.45451476464626,
            -53.177284427210125
          ],
          [
            159.6390334319198,
            -53.91547134971111
          ],
          [
            159.63900916704736,
            -54.65364922629703
          ],
          [
            159.82352176810278,
            -55.57638061794451
          ],
          [
            159.82349750323033,
            -56.314558494530424
          ],
          [
            159.82347323835788,
            -57.05273637111634
          ],
          [
            159.63889997512138,
            -57.97544967093364
          ],
          [
            159.6388757102489,
            -58.71362754751955
          ],
          [
            159.63885144537647,
            -59.451805424105466
          ],
          [
            159.63882718050402,
            -60.18998330069138
          ],
          [
            159.63880291563157,
            -60.928161177277296
          ],
          [
            159.823315516687,
            -61.85089256892478
          ],
          [
            159.82329125181454,
            -62.58907044551069
          ],
          [
            159.82326698694212,
            -63.3272483220966
          ],
          [
            159.82324272206966,
            -64.06542619868252
          ],
          [
            160.3768290549808,
            -65.35726462045312
          ],
          [
            160.5613416560362,
            -66.27999601210061
          ],
          [
            160.74585425709162,
            -67.20272740374809
          ],
          [
            160.93036685814704,
            -68.12545879539556
          ],
          [
            160.9303425932746,
            -68.86363667198147
          ],
          [
            161.11485519433,
            -69.78636806362896
          ],
          [
            161.66844152724113,
            -71.07820648539956
          ],
          [
            161.85295412829655,
            -72.00093787704704
          ],
          [
            162.41479280409737,
            -73.267949322092
          ],
          [
            162.53033184637798,
            -73.59112717801564
          ],
          [
            162.659602753202,
            -74.03096658118619
          ],
          [
            162.63670586152494,
            -74.7716219154293
          ],
          [
            162.55325495114477,
            -75.50505538038844
          ],
          [
            162.50906808344118,
            -76.24056956908048
          ],
          [
            162.36883099675822,
            -77.16444772187396
          ],
          [
            162.30495634212943,
            -77.90086575266817
          ],
          [
            161.9385504269346,
            -79.00126864941097
          ],
          [
            161.83040310510637,
            -79.93645742662206
          ],
          [
            161.89229305990855,
            -80.66969219160502
          ],
          [
            161.94454280055797,
            -81.39892016715409
          ],
          [
            161.96736588963526,
            -82.32515035552571
          ],
          [
            162.16457725085507,
            -83.27663104286697
          ],
          [
            162.32732983034572,
            -83.97523527950487
          ],
          [
            162.36972845778115,
            -84.73804127721796
          ],
          [
            162.22159715866638,
            -85.47270221657014
          ],
          [
            162.4061097597218,
            -86.39543360821762
          ],
          [
            162.77515922670509,
            -87.50271851492667
          ],
          [
            163.32874555961618,
            -88.79455693669728
          ],
          [
            163.88233189252733,
            -90.08639535846788
          ],
          [
            164.25138135951062,
            -91.19368026517691
          ],
          [
            164.80496769242174,
            -92.48551868694753
          ],
          [
            165.358560091551,
            -93.59281263957166
          ],
          [
            165.72762169097047,
            -94.33100860798774
          ],
          [
            165.91215249068023,
            -94.7001065921958
          ],
          [
            166.2812019576635,
            -95.80739149890482
          ],
          [
            166.46571455871893,
            -96.73012289055231
          ],
          [
            166.46569029384648,
            -97.46830076713822
          ],
          [
            166.6502028949019,
            -98.3910321587857
          ],
          [
            166.65017863002944,
            -99.12921003537161
          ],
          [
            166.65015436515702,
            -99.86738791195752
          ],
          [
            166.65013010028457,
            -100.60556578854344
          ],
          [
            166.65010583541212,
            -101.34374366512935
          ],
          [
            166.65008157053967,
            -102.08192154171527
          ],
          [
            166.8346123702494,
            -102.45101952592331
          ],
          [
            166.6500391070129,
            -103.37373282574062
          ],
          [
            166.65001484214045,
            -104.11191070232653
          ],
          [
            166.6215335434575,
            -104.86750551890833
          ],
          [
            166.67870279723115,
            -105.83856059798167
          ],
          [
            167.4910889413523,
            -107.29827691377069
          ],
          [
            168.2037567378202,
            -108.09172157783098
          ],
          [
            168.86436017378497,
            -109.27926438940895
          ],
          [
            169.23340964076826,
            -110.386549296118
          ],
          [
            169.9715449720435,
            -111.49385229465722
          ],
          [
            170.52514343739085,
            -112.41660177813488
          ],
          [
            171.26326663622984,
            -113.89299371496706
          ],
          [
            171.44779743593958,
            -114.26209169917509
          ],
          [
            171.26324237135736,
            -114.63117159155297
          ]
        ]
      },
      "properties": {
        "type": "variant",
        "id": 1,
        "color": "#ff4444",
        "vzdal_m": 2040,
        "prevyseni_m": 43,
        "cas_s": 578,
        "tempo_str": "4:43"
      }
    },
    {
      "type": "Feature",
      "geometry": {
        "type": "LineString",
        "coordinates": [
          [
            163.514750450327,
            -44.31934891831105
          ],
          [
            164.4374408461844,
            -45.05757202447239
          ],
          [
            165.17560044233207,
            -45.426697146425695
          ],
          [
            165.36013730825994,
            -45.61125066148727
          ],
          [
            165.72921710633375,
            -45.79581322246392
          ],
          [
            167.20553629862906,
            -46.53406346637052
          ],
          [
            167.75915902884887,
            -46.718635073262256
          ],
          [
            168.1282388269227,
            -46.90319763423891
          ],
          [
            168.31277569285058,
            -47.08775114930047
          ],
          [
            169.05089889168957,
            -48.56414308613264
          ],
          [
            169.78902815674667,
            -49.85599055381834
          ],
          [
            170.5271756204581,
            -50.594204614064594
          ],
          [
            171.44986601631553,
            -51.332427720225944
          ],
          [
            172.3725564121729,
            -52.070650826387286
          ],
          [
            173.84887560446825,
            -52.80890107029389
          ],
          [
            174.2179554025421,
            -52.993463631270544
          ],
          [
            174.5870352006159,
            -53.178026192247195
          ],
          [
            174.95611499868974,
            -53.36258875322385
          ],
          [
            175.14064579839948,
            -53.731686737431886
          ],
          [
            175.8787811296747,
            -54.838989735971104
          ],
          [
            176.61692252716804,
            -55.76174826536384
          ],
          [
            177.35505785844327,
            -56.86905126390306
          ],
          [
            177.9086441913544,
            -58.160889685673666
          ],
          [
            178.27769365833765,
            -59.268174592382714
          ],
          [
            178.8312799912488,
            -60.56001301415332
          ],
          [
            179.56942138874211,
            -61.48277154354606
          ],
          [
            180.30756278623545,
            -62.405530072938795
          ],
          [
            180.49207538729087,
            -63.32826146458626
          ],
          [
            180.67658798834628,
            -64.25099285623375
          ],
          [
            180.8611005894017,
            -65.17372424788122
          ],
          [
            180.86107632452925,
            -65.91190212446715
          ],
          [
            181.04558892558467,
            -66.83463351611462
          ],
          [
            181.04556466071224,
            -67.57281139270054
          ],
          [
            181.23007726176763,
            -68.495542784348
          ],
          [
            181.2300529968952,
            -69.23372066093393
          ],
          [
            181.4145655979506,
            -70.1564520525814
          ],
          [
            181.41454133307818,
            -70.89462992916732
          ],
          [
            181.5990721327879,
            -71.26372791337536
          ],
          [
            181.38634496977338,
            -72.21770287598804
          ],
          [
            182.05352944352725,
            -73.42796418086675
          ],
          [
            182.26089127149248,
            -73.7886868902289
          ],
          [
            182.45721026110604,
            -74.14937720794997
          ],
          [
            182.6447978059965,
            -74.52610947672405
          ],
          [
            182.77264861571584,
            -74.95454606738829
          ],
          [
            182.59440528633021,
            -75.65310527984
          ],
          [
            182.20565521033507,
            -76.754735345955
          ],
          [
            181.7201698141785,
            -78.06577065713137
          ],
          [
            181.18518349844302,
            -79.35803010808792
          ],
          [
            180.9843232360371,
            -80.43348204364733
          ],
          [
            180.74110166213438,
            -81.42830229370804
          ],
          [
            180.59871020048809,
            -82.13199306608765
          ],
          [
            180.3095415503931,
            -83.25973836874175
          ],
          [
            180.22903364887384,
            -83.85021035677431
          ],
          [
            180.08565772874974,
            -84.19591267167009
          ],
          [
            179.8622521794067,
            -84.89341135094854
          ],
          [
            179.3327249047156,
            -86.17361433242377
          ],
          [
            178.91550747606703,
            -87.30436384568723
          ],
          [
            178.77444511836202,
            -88.43186150444892
          ],
          [
            178.68068643074494,
            -89.17423126428402
          ],
          [
            178.4899167196229,
            -90.10046201018973
          ],
          [
            177.80065362759535,
            -91.59929191055765
          ],
          [
            177.31426192316343,
            -92.6523725415959
          ],
          [
            176.72502117517806,
            -93.92772204235277
          ],
          [
            176.03129607171712,
            -95.42441325333698
          ],
          [
            175.45517718996507,
            -96.71116083425005
          ],
          [
            174.84023092393107,
            -97.96878784726152
          ],
          [
            174.2733784577648,
            -99.27219612233634
          ],
          [
            174.17559516895358,
            -100.23455652021268
          ],
          [
            174.15107764043242,
            -100.97653797244212
          ],
          [
            174.16710651427692,
            -101.71129358363866
          ],
          [
            174.16553976747102,
            -102.4563408969602
          ],
          [
            174.21630539121583,
            -103.18955923911267
          ],
          [
            174.21626899390716,
            -104.29682605399154
          ],
          [
            174.2162447290347,
            -105.03500393057746
          ],
          [
            174.21622046416226,
            -105.77318180716337
          ],
          [
            174.40073913143578,
            -106.51136872966437
          ],
          [
            174.40072093278147,
            -107.0650021371038
          ],
          [
            174.5852517324912,
            -107.43410012131186
          ],
          [
            174.58522746761875,
            -108.17227799789777
          ],
          [
            174.5852032027463,
            -108.91045587448367
          ],
          [
            174.58517893787388,
            -109.6486337510696
          ],
          [
            174.20261055792707,
            -110.78572268211255
          ],
          [
            173.6623975487448,
            -111.67857768210543
          ],
          [
            172.92420155528848,
            -112.416719375031
          ],
          [
            172.18600556183213,
            -113.15486106795657
          ],
          [
            171.44779743593958,
            -114.26209169917509
          ],
          [
            171.26324237135736,
            -114.63117159155297
          ]
        ]
      },
      "properties": {
        "type": "variant",
        "id": 2,
        "color": "#4444ff",
        "vzdal_m": 2197,
        "prevyseni_m": 42,
        "cas_s": 598,
        "tempo_str": "4:32"
      }
    },
    {
      "type": "Feature",
      "geometry": {
        "type": "LineString",
        "coordinates": [
          [
            163.514750450327,
            -44.31934891831105
          ],
          [
            163.6992691176005,
            -45.05753584081205
          ],
          [
            163.51471405301834,
            -45.42661573318992
          ],
          [
            163.5147019205821,
            -45.79570467148288
          ],
          [
            163.69923272029183,
            -46.16480265569093
          ],
          [
            163.69922665407373,
            -46.3493471248374
          ],
          [
            163.8837574537835,
            -46.71844510904544
          ],
          [
            164.06828825349322,
            -47.08754309325349
          ],
          [
            164.0682700548389,
            -47.64117650069292
          ],
          [
            163.69913566080206,
            -49.117514162034574
          ],
          [
            163.51457453000177,
            -49.67113852355893
          ],
          [
            163.33001946541955,
            -50.0402184159368
          ],
          [
            163.32999520054713,
            -50.778396292522714
          ],
          [
            163.32995880323844,
            -51.885663107401584
          ],
          [
            163.51447140429386,
            -52.808394499049065
          ],
          [
            163.88352087127714,
            -53.915679405758105
          ],
          [
            163.8834966064047,
            -54.65385728234401
          ],
          [
            163.88349054018659,
            -54.838401751490494
          ],
          [
            164.06802133989635,
            -55.20749973569854
          ],
          [
            164.0679970750239,
            -55.945677612284456
          ],
          [
            164.2525096760793,
            -56.86840900393192
          ],
          [
            164.25248541120686,
            -57.60658688051784
          ],
          [
            164.2524611463344,
            -58.34476475710375
          ],
          [
            164.43697374738983,
            -59.267496148751235
          ],
          [
            164.43696768117172,
            -59.452040617897715
          ],
          [
            164.62149848088146,
            -59.82113860210576
          ],
          [
            164.62147421600903,
            -60.55931647869167
          ],
          [
            164.62144995113658,
            -61.297494355277585
          ],
          [
            164.62142568626413,
            -62.0356722318635
          ],
          [
            165.1750180853934,
            -63.142966184487626
          ],
          [
            165.17499382052094,
            -63.88114406107354
          ],
          [
            165.1749695556485,
            -64.61932193765945
          ],
          [
            165.17494529077604,
            -65.35749981424537
          ],
          [
            165.35945789183145,
            -66.28023120589285
          ],
          [
            165.359433626959,
            -67.01840908247877
          ],
          [
            165.35940936208658,
            -67.75658695906468
          ],
          [
            165.3593850972141,
            -68.49476483565059
          ],
          [
            165.72843456419739,
            -69.60204974235963
          ],
          [
            165.72841029932496,
            -70.34022761894555
          ],
          [
            165.7283860344525,
            -71.07840549553146
          ],
          [
            165.91289863550793,
            -72.00113688717894
          ],
          [
            165.91287437063548,
            -72.73931476376485
          ],
          [
            166.28192383761873,
            -73.84659967047389
          ],
          [
            166.46643643867415,
            -74.76933106212137
          ],
          [
            166.83548590565744,
            -75.87661596883042
          ],
          [
            167.3890722385686,
            -77.16845439060103
          ],
          [
            167.9426585714797,
            -78.46029281237163
          ],
          [
            168.3117201708992,
            -79.19848878078771
          ],
          [
            168.49625097060897,
            -79.56758676499577
          ],
          [
            168.49624490439086,
            -79.75213123414224
          ],
          [
            168.3116716411543,
            -80.67484453395954
          ],
          [
            168.31164737628188,
            -81.41302241054545
          ],
          [
            168.3116231114094,
            -82.15120028713137
          ],
          [
            168.31159884653698,
            -82.88937816371728
          ],
          [
            168.31156244922832,
            -83.99664497859615
          ],
          [
            168.49608718271995,
            -84.55028743195068
          ],
          [
            168.49606291784752,
            -85.28846530853659
          ],
          [
            168.49603865297505,
            -86.02664318512251
          ],
          [
            168.49601438810262,
            -86.76482106170842
          ],
          [
            168.49599012323017,
            -87.50299893829434
          ],
          [
            168.49596585835772,
            -88.24117681488025
          ],
          [
            168.49594159348527,
            -88.97935469146616
          ],
          [
            168.31136833024874,
            -89.90206799128346
          ],
          [
            168.4958869975223,
            -90.64025491378446
          ],
          [
            168.31130766806766,
            -91.74751268274825
          ],
          [
            168.1267344048311,
            -92.67022598256557
          ],
          [
            168.49579600425062,
            -93.40842195098165
          ],
          [
            168.49577173937817,
            -94.14659982756756
          ],
          [
            168.6802904066517,
            -94.88478675006856
          ],
          [
            168.86482120636143,
            -95.2538847342766
          ],
          [
            168.864796941489,
            -95.9920626108625
          ],
          [
            169.04932774119874,
            -96.36116059507056
          ],
          [
            169.0493034763263,
            -97.09933847165647
          ],
          [
            169.04927921145386,
            -97.83751634824239
          ],
          [
            169.0492549465814,
            -98.5756942248283
          ],
          [
            169.04923068170896,
            -99.3138721014142
          ],
          [
            169.6028170146201,
            -100.60571052318483
          ],
          [
            169.60279274974766,
            -101.34388839977075
          ],
          [
            169.6027684848752,
            -102.08206627635666
          ],
          [
            169.78728108593063,
            -103.00479766800413
          ],
          [
            169.97179368698602,
            -103.92752905965159
          ],
          [
            169.9717694221136,
            -104.66570693623751
          ],
          [
            170.156282023169,
            -105.58843832788499
          ],
          [
            169.9717148261506,
            -106.32660715855582
          ],
          [
            170.1562334934241,
            -107.06479408105682
          ],
          [
            170.15620922855166,
            -107.80297195764274
          ],
          [
            170.15618496367924,
            -108.54114983422865
          ],
          [
            170.15614856637058,
            -109.64841664910752
          ],
          [
            170.52519803335383,
            -110.75570155581657
          ],
          [
            171.26333943084717,
            -111.67846008520931
          ],
          [
            171.44785203190258,
            -112.60119147685677
          ],
          [
            171.44782776703013,
            -113.33936935344269
          ],
          [
            171.44780350215768,
            -114.0775472300286
          ],
          [
            171.44779743593958,
            -114.26209169917509
          ],
          [
            171.26324237135736,
            -114.63117159155297
          ]
        ]
      },
      "properties": {
        "type": "variant",
        "id": 3,
        "color": "#44ff44",
        "vzdal_m": 1963,
        "prevyseni_m": 41,
        "cas_s": 614,
        "tempo_str": "5:12"
      }
    }
  ]
}