{
  "type": "FeatureCollection",
  "features": [
    {
      "type": "Feature",
      "geometry": {
        "type": "Point",
        "coordinates": [
          97.54774611936344,
          -84.41253285565251
        ]
      },
      "properties": {
        "type": "start",
        "isom": "419"
      }
    },
    {
      "type": "Feature",
      "geometry": {
        "type": "Point",
        "coordinates": [
          49.11374476598813,
          -69.31638477629781
        ]
      },
      "properties": {
        "type": "end",
        "isom": "417"
      }
    },
    {
      "type": "Feature",
      "geometry": {
        "type": "LineString",
        "coordinates": [
          [
            97.57359363268235,
            -84.32946118490618
          ],
          [
            96.83540212506223,
            -84.32943777074512
          ],
          [
            95.91266994117711,
            -84.14485523470154
          ],
          [
            94.43631572849709,
            -83.40659533301046
          ],
          [
            93.32904286834702,
            -83.03745367508438
          ],
          [
            92.22177000819694,
            -82.6683120171583
          ],
          [
            91.11449714804685,
            -82.29917035923222
          ],
          [
            90.00723868917687,
            -81.56092216462167
          ],
          [
            88.71542515276182,
            -81.00722138481309
          ],
          [
            88.16181032460693,
            -80.26899075082335
          ],
          [
            87.0545302638168,
            -80.0844023612395
          ],
          [
            86.68544171064678,
            -79.89983738581674
          ],
          [
            85.7626951254816,
            -80.08436138645763
          ],
          [
            85.57814724857657,
            -80.08435553291737
          ],
          [
            85.20905869540657,
            -79.89979055749458
          ],
          [
            84.4708599871464,
            -80.08432041167576
          ],
          [
            83.73268288080638,
            -79.71519046083021
          ],
          [
            83.36359432763636,
            -79.53062548540744
          ],
          [
            82.99450577446636,
            -79.34606050998468
          ],
          [
            82.25631426684625,
            -79.3460370958236
          ],
          [
            81.33359334686965,
            -79.1614545601373
          ],
          [
            80.22632048671957,
            -78.79231290221122
          ],
          [
            79.48812897909946,
            -78.79228948805016
          ],
          [
            78.93448534838436,
            -78.79227192742935
          ],
          [
            78.38084891830934,
            -78.60770109846631
          ],
          [
            77.27357605815925,
            -78.23855944054024
          ],
          [
            76.53538455053913,
            -78.23853602637917
          ],
          [
            75.61265236665403,
            -78.0539534903356
          ],
          [
            75.059015936579,
            -77.86938266137255
          ],
          [
            74.68993458404904,
            -77.50026441760755
          ],
          [
            74.25969389914931,
            -77.32524394389681
          ],
          [
            73.87238863579256,
            -76.35071740892958
          ],
          [
            73.61853758870069,
            -75.96823780217805
          ],
          [
            72.78431116371368,
            -75.36092250110741
          ],
          [
            71.86466489401002,
            -74.6091181151811
          ],
          [
            71.23174276112583,
            -74.11152287320013
          ],
          [
            70.90138162176518,
            -73.87322871287007
          ],
          [
            70.692419470094,
            -73.72254601091335
          ],
          [
            70.30001661502597,
            -73.4870096209351
          ],
          [
            69.46807320995087,
            -72.97077138526056
          ],
          [
            68.49715111748542,
            -72.28332922650664
          ],
          [
            67.75693686664454,
            -71.29521245946809
          ],
          [
            67.3315449766905,
            -70.11790027935899
          ],
          [
            67.33155937797058,
            -69.74879374267452
          ],
          [
            66.93923338155992,
            -69.56422803020014
          ],
          [
            66.01648679639472,
            -69.74875203084105
          ],
          [
            65.2782952887746,
            -69.74872861667997
          ],
          [
            64.17099362606433,
            -70.11780003212284
          ],
          [
            63.06369196335406,
            -70.4868714475657
          ],
          [
            62.14094537818887,
            -70.67139544820661
          ],
          [
            61.218198793023674,
            -70.8559194488475
          ],
          [
            60.29546660913857,
            -70.67133691280394
          ],
          [
            59.55727510151846,
            -70.67131349864286
          ],
          [
            58.634528516353264,
            -70.85583749928377
          ],
          [
            57.71178193118807,
            -71.04036149992466
          ],
          [
            56.973590423567956,
            -71.0403380857636
          ],
          [
            56.050843838402756,
            -71.2248620864045
          ],
          [
            55.31265233078264,
            -71.22483867224342
          ],
          [
            54.574460823162525,
            -71.22481525808236
          ],
          [
            53.65172863927742,
            -71.04023272203878
          ],
          [
            52.91353713165731,
            -71.04020930787772
          ],
          [
            52.5444485784873,
            -70.85564433245494
          ],
          [
            51.80625707086718,
            -70.85562091829387
          ],
          [
            51.06806556324706,
            -70.8555975041328
          ],
          [
            50.698977010077066,
            -70.67103252871004
          ],
          [
            50.51442913317204,
            -70.67102667516977
          ],
          [
            50.14534058000202,
            -70.486461699747
          ],
          [
            49.77625202683201,
            -70.30189672432422
          ],
          [
            49.59171135056703,
            -70.11733760244172
          ],
          [
            49.22262279739702,
            -69.93277262701895
          ],
          [
            49.03809652241213,
            -69.37910696845196
          ]
        ]
      },
      "properties": {
        "type": "variant",
        "id": 1,
        "color": "#ff4444",
        "vzdal_m": 1489,
        "prevyseni_m": 46,
        "cas_s": 479,
        "tempo_str": "5:22"
      }
    },
    {
      "type": "Feature",
      "geometry": {
        "type": "LineString",
        "coordinates": [
          [
            97.57359363268235,
            -84.32946118490618
          ],
          [
            96.83540212506223,
            -84.32943777074512
          ],
          [
            96.09721061744212,
            -84.32941435658405
          ],
          [
            95.54356698672701,
            -84.32939679596325
          ],
          [
            95.1744640322769,
            -84.51393835722494
          ],
          [
            94.4362725246568,
            -84.51391494306388
          ],
          [
            93.69808101703669,
            -84.5138915289028
          ],
          [
            92.59077935432641,
            -84.88296294434568
          ],
          [
            91.48346329033605,
            -85.62114089647302
          ],
          [
            90.37616882826582,
            -85.80565904357366
          ],
          [
            89.82251079627063,
            -86.17474801963732
          ],
          [
            89.45340784182052,
            -86.35928958089902
          ],
          [
            88.34610617911025,
            -86.7283609963419
          ],
          [
            86.86969436130983,
            -87.4665272413887
          ],
          [
            85.57783762105447,
            -88.02014607163355
          ],
          [
            84.65509103588928,
            -88.20467007227444
          ],
          [
            83.91689952826917,
            -88.20464665811338
          ],
          [
            82.99416734438407,
            -88.0200641220698
          ],
          [
            81.51781313170403,
            -87.28180422037872
          ],
          [
            80.41055153546246,
            -86.91266256280991
          ],
          [
            78.93419732278242,
            -86.17440266111883
          ],
          [
            77.45784311010239,
            -85.43614275942774
          ],
          [
            76.16603677432737,
            -84.69788871127692
          ],
          [
            75.05877111481735,
            -84.1441937850086
          ],
          [
            73.58241690213731,
            -83.40593388331752
          ],
          [
            72.84424699643733,
            -82.85225066412974
          ],
          [
            72.47515844326732,
            -82.66768568870697
          ],
          [
            71.73699573820741,
            -81.92944920117695
          ],
          [
            70.99882583250744,
            -81.37576598198918
          ],
          [
            70.07610804990243,
            -80.82207690926113
          ],
          [
            69.33793094356243,
            -80.45294695841558
          ],
          [
            68.96884239039241,
            -80.2683819829928
          ],
          [
            68.5997538372224,
            -80.08381700757005
          ],
          [
            67.86156232960228,
            -80.08379359340897
          ],
          [
            67.12337082198216,
            -80.08377017924789
          ],
          [
            66.38517931436205,
            -80.08374676508683
          ],
          [
            65.09336577794699,
            -79.53004598527825
          ],
          [
            64.35518147096693,
            -79.34546930277494
          ],
          [
            63.98609291779692,
            -79.16090432735217
          ],
          [
            63.06336073391182,
            -78.97632179130859
          ],
          [
            62.140642951306816,
            -78.42263271858054
          ],
          [
            61.956109475681885,
            -78.0535203283558
          ],
          [
            61.771568799416904,
            -77.86896120647332
          ],
          [
            61.033391693076894,
            -77.49983125562777
          ],
          [
            60.66430313990688,
            -77.315266280205
          ],
          [
            60.29522178737692,
            -76.94614803643998
          ],
          [
            59.5570446810369,
            -76.57701808559445
          ],
          [
            59.18795612786688,
            -76.39245311017167
          ],
          [
            58.26524554590194,
            -75.65421076910138
          ],
          [
            57.527054038281825,
            -75.65418735494032
          ],
          [
            56.60432185439672,
            -75.46960481889674
          ],
          [
            55.49702019168645,
            -75.83867623433962
          ],
          [
            55.12793163851644,
            -75.65411125891684
          ],
          [
            54.943383761611415,
            -75.65410540537658
          ],
          [
            54.758835884706386,
            -75.65409955183631
          ],
          [
            53.83611090146133,
            -75.2849637474505
          ],
          [
            53.097962597681516,
            -74.177620723236
          ],
          [
            52.913429122056584,
            -73.80850833301126
          ],
          [
            52.7288884457916,
            -73.62394921112876
          ],
          [
            51.62162278628157,
            -73.07025428486044
          ],
          [
            50.88344567994156,
            -72.7011243340149
          ],
          [
            50.514393129971786,
            -71.59379301688095
          ],
          [
            50.14530457680178,
            -71.40922804145818
          ],
          [
            49.96076390053679,
            -71.22466891957568
          ],
          [
            49.776223224271824,
            -71.04010979769318
          ],
          [
            49.59168254800684,
            -70.85555067581066
          ],
          [
            49.40714187174186,
            -70.67099155392816
          ],
          [
            49.038074920491994,
            -69.93276677347868
          ],
          [
            49.03809652241213,
            -69.37910696845196
          ]
        ]
      },
      "properties": {
        "type": "variant",
        "id": 2,
        "color": "#4444ff",
        "vzdal_m": 1526,
        "prevyseni_m": 32,
        "cas_s": 471,
        "tempo_str": "5:08"
      }
    }
  ]
}