{
  "type": "FeatureCollection",
  "features": [
    {
      "type": "Feature",
      "geometry": {
        "type": "Point",
        "coordinates": [
          166.06095207901205,
          -106.10406522359605
        ]
      },
      "properties": {
        "type": "start",
        "isom": "204"
      }
    },
    {
      "type": "Feature",
      "geometry": {
        "type": "Point",
        "coordinates": [
          152.80389441010755,
          -197.53502504785914
        ]
      },
      "properties": {
        "type": "end",
        "isom": "419"
      }
    },
    {
      "type": "Feature",
      "geometry": {
        "type": "LineString",
        "coordinates": [
          [
            166.05358533326674,
            -106.10327973740516
          ],
          [
            166.4226522845166,
            -106.84150451785464
          ],
          [
            167.16078618701633,
            -108.3179540787536
          ],
          [
            167.5298531382662,
            -109.05617885920309
          ],
          [
            167.89892008951605,
            -109.79440363965257
          ],
          [
            168.26798704076592,
            -110.53262842010206
          ],
          [
            168.6370683932959,
            -110.90174666386704
          ],
          [
            169.00613534454573,
            -111.63997144431653
          ],
          [
            169.3751590919553,
            -113.48551583481944
          ],
          [
            169.00600573302486,
            -114.9619302744768
          ],
          [
            168.26771341644405,
            -117.54565261710705
          ],
          [
            167.1603253460532,
            -120.12936325265674
          ],
          [
            167.1603109447731,
            -120.49846978934123
          ],
          [
            166.79118638840285,
            -121.23667115562964
          ],
          [
            166.4220618320326,
            -121.97487252191806
          ],
          [
            166.05293727566234,
            -122.71307388820647
          ],
          [
            164.57643905018134,
            -125.66587935336013
          ],
          [
            163.83816113488064,
            -127.88049515930588
          ],
          [
            162.3617286410569,
            -129.72598101512065
          ],
          [
            160.51619226688624,
            -131.2023486264559
          ],
          [
            158.30154573762542,
            -133.04781106739506
          ],
          [
            156.08689920836457,
            -134.8932735083342
          ],
          [
            154.61047298928403,
            -136.0005462900655
          ],
          [
            152.76493661511336,
            -137.4769139014007
          ],
          [
            152.02664429853257,
            -140.06063624403095
          ],
          [
            150.91927062942182,
            -142.27524034289618
          ],
          [
            150.55014607305156,
            -143.0134417091846
          ],
          [
            149.44275800266072,
            -145.59715234473433
          ],
          [
            149.81178175007028,
            -147.4426967352372
          ],
          [
            149.8117241449499,
            -148.91912288197508
          ],
          [
            149.81166653982947,
            -150.395549028713
          ],
          [
            149.8116089347091,
            -151.87197517545087
          ],
          [
            149.81155132958872,
            -153.34840132218878
          ],
          [
            149.8114937244683,
            -154.82482746892669
          ],
          [
            149.81143611934795,
            -156.30125361566456
          ],
          [
            149.81137851422756,
            -157.77767976240247
          ],
          [
            149.84786188969397,
            -159.23202916249326
          ],
          [
            150.01122306904375,
            -159.50242110298612
          ],
          [
            150.21215278760587,
            -160.55164615009744
          ],
          [
            150.56029871967695,
            -161.10218554034938
          ],
          [
            150.2349649107374,
            -162.50309718536403
          ],
          [
            150.226729842642,
            -163.39868266172564
          ],
          [
            149.8111192911858,
            -164.42159742272298
          ],
          [
            149.81106168606541,
            -165.8980235694609
          ],
          [
            149.81100408094503,
            -167.37444971619877
          ],
          [
            150.1800422296347,
            -168.8508875700172
          ],
          [
            149.81088887070425,
            -170.32730200967455
          ],
          [
            149.81083126558386,
            -171.80372815641246
          ],
          [
            149.44167790665338,
            -173.28014259606982
          ],
          [
            149.81071605534308,
            -174.75658044988825
          ],
          [
            149.8106296476625,
            -176.9712196699951
          ],
          [
            150.54873474760203,
            -179.185882304263
          ],
          [
            150.9177584950116,
            -181.0314266947659
          ],
          [
            150.917672087331,
            -183.24606591487276
          ],
          [
            151.28669583474058,
            -185.09161030537567
          ],
          [
            151.28660942706,
            -187.30624952548249
          ],
          [
            152.02474332955973,
            -188.78269908638146
          ],
          [
            152.3937814782494,
            -190.25913694019985
          ],
          [
            152.02462811931895,
            -191.73555137985727
          ],
          [
            152.02457051419856,
            -193.21197752659515
          ],
          [
            152.02451290907817,
            -194.68840367333306
          ],
          [
            152.39353665648773,
            -196.5339480638359
          ],
          [
            152.7625892064575,
            -197.64127938096988
          ]
        ]
      },
      "properties": {
        "type": "variant",
        "id": 1,
        "color": "#ff4444",
        "vzdal_m": 1359,
        "prevyseni_m": 9,
        "cas_s": 386,
        "tempo_str": "4:44"
      }
    },
    {
      "type": "Feature",
      "geometry": {
        "type": "LineString",
        "coordinates": [
          [
            166.05358533326674,
            -106.10327973740516
          ],
          [
            165.6844607768965,
            -106.84148110369357
          ],
          [
            164.5771159103459,
            -108.31787212918987
          ],
          [
            164.20799135397567,
            -109.05607349547827
          ],
          [
            163.8388811988855,
            -109.42516832508221
          ],
          [
            163.46975664251525,
            -110.16336969137062
          ],
          [
            163.46974224123517,
            -110.53247622805509
          ],
          [
            163.10061768486491,
            -111.27067759434352
          ],
          [
            161.62419959232128,
            -112.74705691347381
          ],
          [
            160.1477301694005,
            -114.9616493052585
          ],
          [
            159.77857681047,
            -116.43806374491588
          ],
          [
            159.40943785281968,
            -117.54537164788876
          ],
          [
            158.30209298626912,
            -119.02176267338506
          ],
          [
            157.19473371843847,
            -120.86726023556581
          ],
          [
            156.8256091620682,
            -121.60546160185422
          ],
          [
            156.45648460569794,
            -122.34366296814264
          ],
          [
            155.3490965353071,
            -124.92737360369235
          ],
          [
            153.87264151366637,
            -126.77285945879257
          ],
          [
            152.39620089330575,
            -128.24923877720835
          ],
          [
            151.28885602675518,
            -129.72562980270462
          ],
          [
            149.81240100511448,
            -131.57111565780485
          ],
          [
            148.33591718091355,
            -134.15481458627403
          ],
          [
            147.22851470924257,
            -137.1076317585082
          ],
          [
            147.59753845665216,
            -138.9531761490111
          ],
          [
            147.59748085153177,
            -140.42960229574902
          ],
          [
            147.59742324641138,
            -141.9060284424869
          ],
          [
            147.597365641291,
            -143.3824545892248
          ],
          [
            147.5973080361706,
            -144.85888073596269
          ],
          [
            147.5972504310502,
            -146.3353068827006
          ],
          [
            147.59719282592982,
            -147.81173302943847
          ],
          [
            147.59713522080943,
            -149.28815917617638
          ],
          [
            147.59707761568905,
            -150.76458532291426
          ],
          [
            147.59702001056866,
            -152.24101146965216
          ],
          [
            147.9348624237529,
            -153.58183817772604
          ],
          [
            148.24116589280376,
            -154.34528159537595
          ],
          [
            148.43986699063538,
            -155.35264866493839
          ],
          [
            148.75057897135855,
            -156.2939770623398
          ],
          [
            148.94238656158154,
            -157.3012312708762
          ],
          [
            149.28099536893916,
            -158.0531749266228
          ],
          [
            149.61960417673623,
            -158.80510731813183
          ],
          [
            150.01122306904375,
            -159.50242110298612
          ],
          [
            150.21215278760587,
            -160.55164615009744
          ],
          [
            150.56029871967695,
            -161.10218554034938
          ],
          [
            150.2349649107374,
            -162.50309718536403
          ],
          [
            150.91844975645628,
            -163.31431293391117
          ],
          [
            152.39471756145574,
            -166.2672120557091
          ],
          [
            153.13286586523554,
            -167.3745550799236
          ],
          [
            152.7637557101454,
            -167.74364990952753
          ],
          [
            154.24002351514486,
            -170.69654903132547
          ],
          [
            154.23996591002447,
            -172.17297517806335
          ],
          [
            154.23989390362397,
            -174.01850786148572
          ],
          [
            154.2398506997837,
            -175.12582747153914
          ],
          [
            153.87069734085324,
            -176.6022419111965
          ],
          [
            153.87068293957313,
            -176.97134844788098
          ],
          [
            153.50155838320288,
            -177.70954981416938
          ],
          [
            153.5015007780825,
            -179.18597596090729
          ],
          [
            153.87049572293185,
            -181.76973342477913
          ],
          [
            153.13220340635107,
            -184.35345576740937
          ],
          [
            151.65570518087006,
            -187.30626123256303
          ],
          [
            151.65561877318947,
            -189.52090045266985
          ],
          [
            152.02467132315925,
            -190.62823176980385
          ],
          [
            152.02461371803884,
            -192.10465791654173
          ],
          [
            152.02455611291848,
            -193.58108406327963
          ],
          [
            152.02449850779809,
            -195.0575102100175
          ],
          [
            152.39352225520764,
            -196.9030546005204
          ],
          [
            152.7625892064575,
            -197.64127938096988
          ]
        ]
      },
      "properties": {
        "type": "variant",
        "id": 2,
        "color": "#4444ff",
        "vzdal_m": 1354,
        "prevyseni_m": 11,
        "cas_s": 390,
        "tempo_str": "4:48"
      }
    },
    {
      "type": "Feature",
      "geometry": {
        "type": "LineString",
        "coordinates": [
          [
            166.05358533326674,
            -106.10327973740516
          ],
          [
            166.4226522845166,
            -106.84150451785464
          ],
          [
            167.16078618701633,
            -108.3179540787536
          ],
          [
            167.5298531382662,
            -109.05617885920309
          ],
          [
            167.89892008951605,
            -109.79440363965257
          ],
          [
            168.26798704076592,
            -110.53262842010206
          ],
          [
            168.6370683932959,
            -110.90174666386704
          ],
          [
            169.00613534454573,
            -111.63997144431653
          ],
          [
            169.74424044448529,
            -113.85463407858445
          ],
          [
            169.37507268427473,
            -115.70015505492628
          ],
          [
            169.74412523424448,
            -116.80748637206024
          ],
          [
            170.11316338293418,
            -118.28392422587865
          ],
          [
            170.48223033418404,
            -119.02214900632814
          ],
          [
            171.58941678665352,
            -121.60592988436107
          ],
          [
            173.06568459165297,
            -124.558829006159
          ],
          [
            173.43475154290283,
            -125.29705378660849
          ],
          [
            173.8038184941527,
            -126.03527856705794
          ],
          [
            175.64923965808262,
            -127.51176324919852
          ],
          [
            177.86375657582255,
            -128.98825963841963
          ],
          [
            178.2328235270724,
            -129.72648441886912
          ],
          [
            178.23276592195205,
            -131.202910565607
          ],
          [
            178.6017896693616,
            -133.0484549561099
          ],
          [
            178.60173206424122,
            -134.52488110284781
          ],
          [
            178.97075581165078,
            -136.3704254933507
          ],
          [
            178.9706982065304,
            -137.84685164008857
          ],
          [
            178.97064060141,
            -139.32327778682648
          ],
          [
            178.97061179884983,
            -140.06149086019542
          ],
          [
            178.60148724247958,
            -140.79969222648387
          ],
          [
            178.23231948226902,
            -142.6452132028257
          ],
          [
            178.23226187714863,
            -144.1216393495636
          ],
          [
            178.2322042720282,
            -145.59806549630147
          ],
          [
            178.23214666690785,
            -147.07449164303938
          ],
          [
            178.97025176684738,
            -149.28915427730726
          ],
          [
            178.97022296428716,
            -150.0273673506762
          ],
          [
            179.33928991553705,
            -150.7655921311257
          ],
          [
            179.33926111297686,
            -151.50380520449465
          ],
          [
            178.9701365566066,
            -152.24200657078305
          ],
          [
            178.60101200023635,
            -152.9802079370715
          ],
          [
            178.2318874438661,
            -153.7184093033599
          ],
          [
            177.86276288749585,
            -154.4566106696483
          ],
          [
            176.38629346457503,
            -156.671203061433
          ],
          [
            174.90979523909402,
            -159.62400852658666
          ],
          [
            174.17151732379332,
            -161.83862433253242
          ],
          [
            173.43323940849262,
            -164.0532401384782
          ],
          [
            173.06407164828207,
            -165.89876111482005
          ],
          [
            173.06401404316168,
            -167.37518726155793
          ],
          [
            171.58755902152097,
            -169.22067311665816
          ],
          [
            170.11111840116033,
            -170.69705243507389
          ],
          [
            168.63466337951962,
            -172.54253829017412
          ],
          [
            166.78914140662903,
            -173.64979936482487
          ],
          [
            165.3126575824281,
            -176.23349829329405
          ],
          [
            163.83615935694712,
            -179.1863037584477
          ],
          [
            162.3597124618433,
            -181.40089615094695
          ],
          [
            160.14508033386255,
            -182.87725205520164
          ],
          [
            157.930477008442,
            -183.6153948860874
          ],
          [
            157.1922710995418,
            -183.98447800861078
          ],
          [
            155.71580167662097,
            -186.1990704003955
          ],
          [
            153.87020769732993,
            -189.1518641584686
          ],
          [
            153.13191538074912,
            -191.73558650109882
          ],
          [
            152.7627476205386,
            -193.58110747744067
          ],
          [
            152.7626900154182,
            -195.05753362417855
          ],
          [
            152.76263241029778,
            -196.53395977091645
          ],
          [
            152.7625892064575,
            -197.64127938096988
          ]
        ]
      },
      "properties": {
        "type": "variant",
        "id": 3,
        "color": "#44ff44",
        "vzdal_m": 1431,
        "prevyseni_m": 10,
        "cas_s": 401,
        "tempo_str": "4:39"
      }
    }
  ]
}