{
  "type": "FeatureCollection",
  "features": [
    {
      "type": "Feature",
      "geometry": {
        "type": "Point",
        "coordinates": [
          91.26143325664692,
          -163.4087485553426
        ]
      },
      "properties": {
        "type": "start",
        "isom": "109"
      }
    },
    {
      "type": "Feature",
      "geometry": {
        "type": "Point",
        "coordinates": [
          59.52064171628522,
          -167.82998544169592
        ]
      },
      "properties": {
        "type": "end",
        "isom": "109"
      }
    },
    {
      "type": "Feature",
      "geometry": {
        "type": "LineString",
        "coordinates": [
          [
            91.17000833842452,
            -163.34698551907582
          ],
          [
            89.69364668260242,
            -163.90054655919457
          ],
          [
            88.95546888780042,
            -164.0850548446807
          ],
          [
            87.98368197297128,
            -164.68895311175615
          ],
          [
            86.92547236932229,
            -164.82313321620066
          ],
          [
            86.18730064073841,
            -164.82309703254032
          ],
          [
            85.44912891215453,
            -164.82306084887998
          ],
          [
            84.89550011571662,
            -164.8230337111347
          ],
          [
            84.52642031764279,
            -164.63847115015807
          ],
          [
            84.15733445335084,
            -164.63845305832788
          ],
          [
            83.78825465527702,
            -164.45389049735124
          ],
          [
            83.41916879098507,
            -164.45387240552105
          ],
          [
            83.05008899291124,
            -164.2693098445444
          ],
          [
            82.12736826596327,
            -164.45380908411548
          ],
          [
            81.38918440494317,
            -164.82286183874805
          ],
          [
            81.02009247443311,
            -165.00738821606438
          ],
          [
            80.65100054392306,
            -165.1919145933807
          ],
          [
            79.91280455046673,
            -165.93005628630624
          ],
          [
            78.99007169108253,
            -166.48364446417025
          ],
          [
            78.06735096413458,
            -166.6681437037413
          ],
          [
            76.77553224045845,
            -167.22171378977515
          ],
          [
            75.66825644892828,
            -167.77529292172406
          ],
          [
            74.19189479310617,
            -168.3288539618428
          ],
          [
            73.26917406615821,
            -168.51335320141382
          ],
          [
            72.53100233757432,
            -168.5133170177535
          ],
          [
            71.79283060899044,
            -168.51328083409317
          ],
          [
            71.05465888040655,
            -168.5132446504328
          ],
          [
            69.94741341996695,
            -168.14410143664932
          ],
          [
            68.52513493570717,
            -167.9392125672632
          ],
          [
            67.83337513909618,
            -167.87030408200224
          ],
          [
            66.99473863806763,
            -167.77486776371498
          ],
          [
            66.25656690948375,
            -167.77483158005467
          ],
          [
            65.51839518089986,
            -167.7747953963943
          ],
          [
            64.78021738609787,
            -167.95930368188044
          ],
          [
            64.0420517237321,
            -167.7747230290736
          ],
          [
            63.30387999514822,
            -167.77468684541327
          ],
          [
            62.565714332782434,
            -167.59010619260644
          ],
          [
            61.82753653798045,
            -167.7746144780926
          ],
          [
            61.089364809396564,
            -167.77457829443222
          ],
          [
            60.35119308081268,
            -167.77454211077188
          ],
          [
            59.61302135222879,
            -167.77450592711156
          ],
          [
            59.428478420082826,
            -167.77449688119646
          ]
        ]
      },
      "properties": {
        "type": "variant",
        "id": 1,
        "color": "#ff4444",
        "vzdal_m": 904,
        "prevyseni_m": 12,
        "cas_s": 256,
        "tempo_str": "4:43"
      }
    },
    {
      "type": "Feature",
      "geometry": {
        "type": "LineString",
        "coordinates": [
          [
            91.17000833842452,
            -163.34698551907582
          ],
          [
            89.69364668260242,
            -163.90054655919457
          ],
          [
            89.14001788616451,
            -163.9005194214493
          ],
          [
            88.03276029328869,
            -163.90046514595878
          ],
          [
            87.47913756306889,
            -163.71589353906705
          ],
          [
            86.740965834485,
            -163.71585735540668
          ],
          [
            86.00280017211924,
            -163.53127670259988
          ],
          [
            85.26462237731724,
            -163.715784988086
          ],
          [
            84.52645064873334,
            -163.71574880442566
          ],
          [
            83.78827285393135,
            -163.9002570899118
          ],
          [
            83.05010719156557,
            -163.71567643710497
          ],
          [
            82.3119354629817,
            -163.71564025344463
          ],
          [
            81.57376980061592,
            -163.5310596006378
          ],
          [
            80.83559200581392,
            -163.71556788612395
          ],
          [
            80.09742027723004,
            -163.71553170246358
          ],
          [
            79.35924248242804,
            -163.90003998794973
          ],
          [
            78.62107682006227,
            -163.7154593351429
          ],
          [
            77.88290509147838,
            -163.71542315148255
          ],
          [
            76.77565356482067,
            -163.53082440684557
          ],
          [
            76.03747577001867,
            -163.71533269233169
          ],
          [
            75.29930404143478,
            -163.71529650867134
          ],
          [
            74.37658331448681,
            -163.8997957482424
          ],
          [
            74.37658938070493,
            -163.71525127909592
          ],
          [
            74.0075095826311,
            -163.53068871811928
          ],
          [
            73.08479492190125,
            -163.53064348854386
          ],
          [
            72.53116612546333,
            -163.53061635079857
          ],
          [
            71.60844539851536,
            -163.71511559036963
          ],
          [
            70.87027366993148,
            -163.71507940670926
          ],
          [
            70.13210194134759,
            -163.71504322304895
          ],
          [
            68.84028321767146,
            -164.26861330908278
          ],
          [
            67.73301349235942,
            -164.63764797188523
          ],
          [
            66.99484176377553,
            -164.63761178822486
          ],
          [
            66.25666396897353,
            -164.822120073711
          ],
          [
            64.78030231315142,
            -165.37568111382976
          ],
          [
            64.04213058456754,
            -165.3756449301694
          ],
          [
            63.30395885598366,
            -165.37560874650904
          ],
          [
            62.56578712739977,
            -165.3755725628487
          ],
          [
            61.64305426801559,
            -165.92916074071272
          ],
          [
            60.53577241026731,
            -166.6672843418081
          ],
          [
            59.79757641681098,
            -167.40542603473367
          ],
          [
            59.428478420082826,
            -167.77449688119646
          ]
        ]
      },
      "properties": {
        "type": "variant",
        "id": 2,
        "color": "#4444ff",
        "vzdal_m": 907,
        "prevyseni_m": 12,
        "cas_s": 265,
        "tempo_str": "4:52"
      }
    },
    {
      "type": "Feature",
      "geometry": {
        "type": "LineString",
        "coordinates": [
          [
            91.17000833842452,
            -163.34698551907582
          ],
          [
            89.69364668260242,
            -163.90054655919457
          ],
          [
            88.40182189270818,
            -164.63866111437486
          ],
          [
            87.29454610117803,
            -165.1922402463238
          ],
          [
            86.18727030964786,
            -165.7458193782727
          ],
          [
            84.89545765218983,
            -166.11484499516007
          ],
          [
            83.6036328622956,
            -166.8529595503404
          ],
          [
            82.68090606912952,
            -167.22200325905789
          ],
          [
            81.38908127923527,
            -167.9601178142382
          ],
          [
            80.46634235363297,
            -168.69825046124868
          ],
          [
            78.98997463159276,
            -169.43635597051392
          ],
          [
            77.69814984169852,
            -170.1744705256942
          ],
          [
            77.32905791118847,
            -170.3589969030105
          ],
          [
            76.4063432504586,
            -170.3589516734351
          ],
          [
            75.29906745892845,
            -170.91253080538402
          ],
          [
            74.00724266903421,
            -171.6506453605643
          ],
          [
            72.71542394535807,
            -172.20421544659817
          ],
          [
            71.60816028626414,
            -172.38870564025413
          ],
          [
            71.05453148982622,
            -172.38867850250887
          ],
          [
            70.31635976124234,
            -172.38864231884853
          ],
          [
            69.42417422854766,
            -172.561602241615
          ],
          [
            68.10185670792691,
            -172.01944482957452
          ],
          [
            66.9946112474873,
            -171.65030161579105
          ],
          [
            65.8873657870477,
            -171.28115840200758
          ],
          [
            64.78010819417187,
            -171.28110412651705
          ],
          [
            63.67287486616849,
            -170.54287197444063
          ],
          [
            62.75018447031108,
            -169.80464886827926
          ],
          [
            61.6429511423077,
            -169.06641671620284
          ],
          [
            59.98208295164829,
            -168.5127018955276
          ],
          [
            59.428478420082826,
            -167.77449688119646
          ]
        ]
      },
      "properties": {
        "type": "variant",
        "id": 3,
        "color": "#44ff44",
        "vzdal_m": 958,
        "prevyseni_m": 6,
        "cas_s": 264,
        "tempo_str": "4:36"
      }
    }
  ]
}