{
  "type": "FeatureCollection",
  "features": [
    {
      "type": "Feature",
      "geometry": {
        "type": "Point",
        "coordinates": [
          26.712940121772277,
          -210.15992855128204
        ]
      },
      "properties": {
        "type": "start",
        "isom": "419"
      }
    },
    {
      "type": "Feature",
      "geometry": {
        "type": "Point",
        "coordinates": [
          97.08553875649005,
          -240.67965153860274
        ]
      },
      "properties": {
        "type": "end",
        "isom": "417"
      }
    },
    {
      "type": "Feature",
      "geometry": {
        "type": "LineString",
        "coordinates": [
          [
            26.794246332516554,
            -210.13028471962332
          ],
          [
            28.086028658884022,
            -210.68398144846836
          ],
          [
            29.193274119323625,
            -211.0531246622518
          ],
          [
            29.976740678183592,
            -211.3863336083874
          ],
          [
            30.61973951910341,
            -212.19962202046148
          ],
          [
            31.96135743933208,
            -212.8987050424429
          ],
          [
            33.437676631627404,
            -213.6369552863495
          ],
          [
            34.544909959630786,
            -214.37518743842594
          ],
          [
            35.467600355488194,
            -215.11341054458728
          ],
          [
            36.02119882083555,
            -216.0361600280649
          ],
          [
            36.94389528291108,
            -216.58983866507978
          ],
          [
            37.682042746622514,
            -217.32805272532605
          ],
          [
            38.973812940553756,
            -218.25083839246403
          ],
          [
            40.45013213284908,
            -218.9890886363706
          ],
          [
            41.37283466114272,
            -219.35822280423903
          ],
          [
            42.84915385343804,
            -220.09647304814564
          ],
          [
            44.32547304573337,
            -220.83472329205222
          ],
          [
            45.0636205094448,
            -221.57293735229848
          ],
          [
            45.801767973156245,
            -222.31115141254475
          ],
          [
            46.17084777123007,
            -222.49571397352142
          ],
          [
            46.539927569303906,
            -222.68027653449806
          ],
          [
            47.27807503301535,
            -223.4184905947443
          ],
          [
            48.01621643050868,
            -224.34124912413705
          ],
          [
            48.93892502502042,
            -224.52583882285896
          ],
          [
            49.6770967536043,
            -224.5258750065193
          ],
          [
            50.78434221404391,
            -224.8950182203028
          ],
          [
            52.076124540411364,
            -225.44871494914784
          ],
          [
            53.36790686677883,
            -226.00241167799288
          ],
          [
            54.475152327218446,
            -226.37155489177633
          ],
          [
            55.582397787658046,
            -226.74069810555983
          ],
          [
            56.68964324809765,
            -227.10984131934327
          ],
          [
            57.79688870853725,
            -227.47898453312675
          ],
          [
            59.273207900832574,
            -228.21723477703335
          ],
          [
            60.195910429126215,
            -228.58636894490178
          ],
          [
            60.9340821577101,
            -228.5864051285621
          ],
          [
            61.67225388629398,
            -228.58644131222243
          ],
          [
            62.04133975058593,
            -228.58645940405262
          ],
          [
            63.14857307858931,
            -229.32469155612904
          ],
          [
            64.07126954066482,
            -229.87837019314392
          ],
          [
            65.36305186703228,
            -230.43206692198896
          ],
          [
            66.83937105932762,
            -231.17031716589554
          ],
          [
            68.13114125325885,
            -232.09310283303356
          ],
          [
            69.60746651177229,
            -232.6468086077937
          ],
          [
            71.08378570406761,
            -233.38505885170028
          ],
          [
            71.45286550214145,
            -233.56962141267692
          ],
          [
            72.19100689963477,
            -234.49237994206968
          ],
          [
            73.1137033617103,
            -235.04605857908456
          ],
          [
            73.85185082542174,
            -235.78427263933082
          ],
          [
            74.58999828913318,
            -236.52248669957706
          ],
          [
            75.32814575284462,
            -237.26070075982332
          ],
          [
            76.06629321655606,
            -237.9989148200696
          ],
          [
            77.35807554292352,
            -238.55261154891463
          ],
          [
            77.54261847506949,
            -238.5526205948297
          ],
          [
            77.91169827314332,
            -238.73718315580635
          ],
          [
            78.64987000172721,
            -238.73721933946672
          ],
          [
            79.57257859623896,
            -238.9218090381886
          ],
          [
            80.49528719075069,
            -239.1063987369105
          ],
          [
            81.6025326511903,
            -239.475541950694
          ],
          [
            82.52524124570205,
            -239.66013164941592
          ],
          [
            83.63248670614165,
            -240.02927486319936
          ],
          [
            84.5552074330896,
            -239.84477562362835
          ],
          [
            85.4779402924738,
            -239.29118744576434
          ],
          [
            85.91142303608298,
            -239.46104181881825
          ],
          [
            86.76972868505938,
            -239.6603397054629
          ],
          [
            87.69243727957112,
            -239.8449294041848
          ],
          [
            88.4306029419369,
            -240.02951005699163
          ],
          [
            89.1687807367389,
            -239.84500177150548
          ],
          [
            89.90695246532277,
            -239.84503795516582
          ],
          [
            90.64513026012477,
            -239.6605296696797
          ],
          [
            91.38329592249055,
            -239.8451103224865
          ],
          [
            92.12146765107443,
            -239.84514650614685
          ],
          [
            92.8596333134402,
            -240.0297271589537
          ],
          [
            93.5978111082422,
            -239.84521887346756
          ],
          [
            94.33598283682609,
            -239.84525505712787
          ],
          [
            95.25868536511973,
            -240.2143892249963
          ],
          [
            96.18138182719524,
            -240.76806786201118
          ],
          [
            96.91955355577912,
            -240.7681040456715
          ],
          [
            97.10409648792509,
            -240.7681130915866
          ]
        ]
      },
      "properties": {
        "type": "variant",
        "id": 1,
        "color": "#ff4444",
        "vzdal_m": 2164,
        "prevyseni_m": 97,
        "cas_s": 704,
        "tempo_str": "5:25"
      }
    },
    {
      "type": "Feature",
      "geometry": {
        "type": "LineString",
        "coordinates": [
          [
            26.794246332516554,
            -210.13028471962332
          ],
          [
            28.086028658884022,
            -210.68398144846836
          ],
          [
            29.193274119323625,
            -211.0531246622518
          ],
          [
            29.976740678183592,
            -211.3863336083874
          ],
          [
            30.61973951910341,
            -212.19962202046148
          ],
          [
            31.776826639622332,
            -212.52960705823483
          ],
          [
            32.884072100061935,
            -212.89875027201833
          ],
          [
            33.80678069457368,
            -213.08333997074024
          ],
          [
            34.36040342479348,
            -213.26791157763196
          ],
          [
            34.729483222867316,
            -213.4524741386086
          ],
          [
            35.4676549514512,
            -213.45251032226898
          ],
          [
            36.20582668003509,
            -213.45254650592932
          ],
          [
            37.31307214047469,
            -213.82168971971277
          ],
          [
            38.235780734986434,
            -214.00627941843467
          ],
          [
            39.158489329498174,
            -214.19086911715658
          ],
          [
            40.26572265750156,
            -214.92910126923303
          ],
          [
            41.18844338444953,
            -214.74460202966196
          ],
          [
            41.926615113033414,
            -214.74463821332233
          ],
          [
            42.66478684161729,
            -214.74467439698267
          ],
          [
            43.40295857020118,
            -214.74471058064302
          ],
          [
            44.69474089656864,
            -215.29840730948803
          ],
          [
            46.17106008886397,
            -216.03665755339466
          ],
          [
            46.90923181744785,
            -216.03669373705503
          ],
          [
            47.64740354603174,
            -216.03672992071535
          ],
          [
            48.27474219799833,
            -216.16975622530506
          ],
          [
            49.25209760975686,
            -215.74512831999928
          ],
          [
            50.32750282967011,
            -215.26665768869591
          ],
          [
            50.71638995646116,
            -214.96762634430715
          ],
          [
            51.09291610195548,
            -214.79552582327446
          ],
          [
            51.468436719649034,
            -214.6251702571331
          ],
          [
            51.875429929507646,
            -214.4936646744945
          ],
          [
            52.223335786286846,
            -214.40783480958814
          ],
          [
            52.61416509292841,
            -214.31141554576465
          ],
          [
            53.715769841961375,
            -213.94620230521645
          ],
          [
            53.879622154398135,
            -213.8879820243355
          ],
          [
            54.265555286997085,
            -213.75085161069043
          ],
          [
            54.36473623916376,
            -213.71561046695976
          ],
          [
            54.79505734663972,
            -213.5086002314684
          ],
          [
            55.33997561260351,
            -213.29990435453556
          ],
          [
            55.72379662390474,
            -213.15416895948513
          ],
          [
            56.10761763520598,
            -213.00843356443468
          ],
          [
            56.26890412399746,
            -212.94719369098263
          ],
          [
            56.65272513529869,
            -212.80145829593215
          ],
          [
            56.81401162409017,
            -212.74021842248013
          ],
          [
            57.21331480401256,
            -212.60583503404618
          ],
          [
            58.543990078520416,
            -212.18289746066878
          ],
          [
            59.021262557744244,
            -211.99201278374596
          ],
          [
            59.403080541123316,
            -211.83930504220766
          ],
          [
            59.78489852450238,
            -211.68659730066938
          ],
          [
            61.1191831819223,
            -211.60832301300118
          ],
          [
            62.41095944207166,
            -212.34656421099268
          ],
          [
            63.88727863436698,
            -213.0848144548993
          ],
          [
            65.17904882829822,
            -214.00760012203727
          ],
          [
            66.83991701895764,
            -214.5613149427125
          ],
          [
            68.31623621125296,
            -215.2995651866191
          ],
          [
            69.23894480576469,
            -215.484154885341
          ],
          [
            70.16165340027644,
            -215.66874458406292
          ],
          [
            71.63797259257176,
            -216.4069948279695
          ],
          [
            72.92435360776189,
            -217.14970945667875
          ],
          [
            73.83107145373312,
            -217.9397076760311
          ],
          [
            75.33557086270652,
            -218.60659714224292
          ],
          [
            76.83913189393952,
            -219.28441586137026
          ],
          [
            77.21502215174777,
            -219.45387054115213
          ],
          [
            77.59091240955603,
            -219.62332522093396
          ],
          [
            78.23816154872573,
            -220.13408314554192
          ],
          [
            78.92301146799956,
            -221.08820340707862
          ],
          [
            79.78834481609144,
            -222.28917971196654
          ],
          [
            80.35146234079717,
            -223.0200551921772
          ],
          [
            81.09238192368532,
            -223.93874142041815
          ],
          [
            81.86819192815662,
            -224.82375209986438
          ],
          [
            82.40098246870618,
            -225.4132934559827
          ],
          [
            83.13607391905268,
            -226.5187732525014
          ],
          [
            83.87152813171195,
            -227.62974465346215
          ],
          [
            84.09457731579604,
            -227.97387690680694
          ],
          [
            84.29958223189749,
            -228.34681535309142
          ],
          [
            84.92463300559578,
            -229.51030344325568
          ],
          [
            85.66278046930722,
            -230.24851750350197
          ],
          [
            86.40092793301866,
            -230.98673156374824
          ],
          [
            87.69270419316801,
            -231.72497276173974
          ],
          [
            88.2463208571697,
            -232.09408883777795
          ],
          [
            88.43085165687945,
            -232.46318682198603
          ],
          [
            88.7999314549533,
            -232.64774938296264
          ],
          [
            89.53807891866474,
            -233.3859634432089
          ],
          [
            90.27622638237617,
            -234.12417750345517
          ],
          [
            91.01437384608761,
            -234.86239156370144
          ],
          [
            91.75252130979905,
            -235.60060562394767
          ],
          [
            92.49066877351049,
            -236.33881968419394
          ],
          [
            93.04426723885784,
            -237.26156916767158
          ],
          [
            94.15150663307934,
            -237.81525685060154
          ],
          [
            94.88965409679076,
            -238.55347091084784
          ],
          [
            95.62780156050222,
            -239.29168497109404
          ],
          [
            96.18139395963146,
            -240.3989789237182
          ],
          [
            97.10409648792509,
            -240.7681130915866
          ]
        ]
      },
      "properties": {
        "type": "variant",
        "id": 2,
        "color": "#4444ff",
        "vzdal_m": 2287,
        "prevyseni_m": 97,
        "cas_s": 712,
        "tempo_str": "5:11"
      }
    },
    {
      "type": "Feature",
      "geometry": {
        "type": "LineString",
        "coordinates": [
          [
            26.794246332516554,
            -210.13028471962332
          ],
          [
            28.270565524811882,
            -210.8685349635299
          ],
          [
            29.193274119323625,
            -211.0531246622518
          ],
          [
            29.93143371547129,
            -211.42224978420512
          ],
          [
            30.669581179182728,
            -212.16046384445139
          ],
          [
            31.40773470911228,
            -212.71413343555113
          ],
          [
            32.69951096926163,
            -213.45237463354266
          ],
          [
            33.43765843297307,
            -214.19058869378892
          ],
          [
            34.544891760976455,
            -214.92882084586537
          ],
          [
            36.021210953271776,
            -215.66707108977195
          ],
          [
            36.75935841698322,
            -216.40528515001822
          ],
          [
            37.49750588069465,
            -217.1434992102645
          ],
          [
            38.60473314247993,
            -218.0662758314874
          ],
          [
            40.08105233477525,
            -218.804526075394
          ],
          [
            41.37283466114272,
            -219.35822280423903
          ],
          [
            42.84915385343804,
            -220.09647304814564
          ],
          [
            43.95638718144142,
            -220.8347052002221
          ],
          [
            44.87907757729883,
            -221.57292830638343
          ],
          [
            45.801767973156245,
            -222.31115141254475
          ],
          [
            46.17084777123007,
            -222.49571397352142
          ],
          [
            46.539927569303906,
            -222.68027653449806
          ],
          [
            47.64716089730728,
            -223.41850868657448
          ],
          [
            48.20076542887276,
            -224.15671370090567
          ],
          [
            49.30801088931236,
            -224.52585691468911
          ],
          [
            50.04618261789624,
            -224.52589309834948
          ],
          [
            51.522501810191564,
            -225.26414334225606
          ],
          [
            52.81428413655903,
            -225.8178400711011
          ],
          [
            54.29060332885436,
            -226.55609031500774
          ],
          [
            55.21331798958421,
            -226.55613554458316
          ],
          [
            56.50510031595168,
            -227.1098322734282
          ],
          [
            56.874186180243626,
            -227.10985036525838
          ],
          [
            58.16596850661108,
            -227.66354709410342
          ],
          [
            59.6422876989064,
            -228.40179733801
          ],
          [
            60.564996293418154,
            -228.5863870367319
          ],
          [
            61.30316802200204,
            -228.58642322039225
          ],
          [
            62.04133975058593,
            -228.58645940405262
          ],
          [
            62.77951147916981,
            -228.586495587713
          ],
          [
            63.70222007368155,
            -228.77108528643487
          ],
          [
            63.886763005827525,
            -228.77109433234995
          ],
          [
            64.25585493633757,
            -228.58656795503364
          ],
          [
            64.44039786848354,
            -228.58657700094875
          ],
          [
            64.8094897989936,
            -228.40205062363242
          ],
          [
            65.17856959706742,
            -228.58661318460906
          ],
          [
            65.36310646299529,
            -228.77116669967066
          ],
          [
            65.73218626106912,
            -228.9557292606473
          ],
          [
            65.91672312699698,
            -229.14028277570887
          ],
          [
            67.3930423192923,
            -229.87853301961545
          ],
          [
            68.31573271514971,
            -230.61675612577682
          ],
          [
            69.79205190744504,
            -231.35500636968342
          ],
          [
            70.71476050195679,
            -231.53959606840533
          ],
          [
            71.82200596239639,
            -231.9087392821888
          ],
          [
            72.56017769098027,
            -231.90877546584912
          ],
          [
            73.48288628549201,
            -232.09336516457108
          ],
          [
            74.2210580140759,
            -232.0934013482314
          ],
          [
            74.95922974265979,
            -232.09343753189174
          ],
          [
            76.0664752030994,
            -232.46258074567524
          ],
          [
            77.54279439539472,
            -233.20083098958182
          ],
          [
            79.01911358769004,
            -233.93908123348845
          ],
          [
            80.31089591405751,
            -234.4927779623335
          ],
          [
            81.78721510635283,
            -235.23102820624007
          ],
          [
            82.89446056679243,
            -235.60017142002357
          ],
          [
            83.81716916130418,
            -235.78476111874545
          ],
          [
            84.92441462174378,
            -236.15390433252892
          ],
          [
            86.40073381403911,
            -236.89215457643553
          ],
          [
            87.87705300633444,
            -237.63040482034214
          ],
          [
            89.1688353327019,
            -238.18410154918718
          ],
          [
            90.64515452499722,
            -238.92235179309378
          ],
          [
            91.3833262535811,
            -238.9223879767541
          ],
          [
            92.121497982165,
            -238.92242416041447
          ],
          [
            93.2287434426046,
            -239.29156737419797
          ],
          [
            94.70506263489993,
            -240.02981761810454
          ],
          [
            95.81229596290329,
            -240.768049770181
          ],
          [
            96.91955355577912,
            -240.7681040456715
          ],
          [
            97.10409648792509,
            -240.7681130915866
          ]
        ]
      },
      "properties": {
        "type": "variant",
        "id": 3,
        "color": "#44ff44",
        "vzdal_m": 2133,
        "prevyseni_m": 100,
        "cas_s": 720,
        "tempo_str": "5:37"
      }
    }
  ]
}