{
  "type": "FeatureCollection",
  "features": [
    {
      "type": "Feature",
      "geometry": {
        "type": "Point",
        "coordinates": [
          224.76703286432866,
          -41.27017785907263
        ]
      },
      "properties": {
        "type": "start",
        "isom": "109"
      }
    },
    {
      "type": "Feature",
      "geometry": {
        "type": "Point",
        "coordinates": [
          174.65402151638924,
          -302.68798480528426
        ]
      },
      "properties": {
        "type": "end",
        "isom": "204"
      }
    },
    {
      "type": "Feature",
      "geometry": {
        "type": "LineString",
        "coordinates": [
          [
            224.86904888241938,
            -41.44565671084989
          ],
          [
            224.1306801429345,
            -44.39844562381702
          ],
          [
            223.3922060447749,
            -48.82762953779076
          ],
          [
            222.65378462595265,
            -52.5186159512612
          ],
          [
            222.65357390860325,
            -55.47140595327442
          ],
          [
            221.91515248978098,
            -59.162392366744854
          ],
          [
            221.9149417724316,
            -62.115182368758084
          ],
          [
            222.65288907721765,
            -65.06797345981741
          ],
          [
            224.129099762814,
            -66.5443706389162
          ],
          [
            224.86715242627477,
            -68.02076672896892
          ],
          [
            222.6524149631815,
            -71.71175096434716
          ],
          [
            221.91415158237132,
            -73.18814487630767
          ],
          [
            220.43762482075093,
            -76.14093270022872
          ],
          [
            219.69936143994073,
            -77.61732661218923
          ],
          [
            220.4373087447268,
            -80.57011770324856
          ],
          [
            221.17536140818763,
            -82.04651379330126
          ],
          [
            220.4370980273774,
            -83.52290770526179
          ],
          [
            220.4370453480401,
            -84.26110520576509
          ],
          [
            221.17509801150086,
            -85.7375012958178
          ],
          [
            221.1750453321635,
            -86.4756987963211
          ],
          [
            221.17483461481413,
            -89.42848879833433
          ],
          [
            221.17462389746473,
            -92.38127880034754
          ],
          [
            221.9125712022508,
            -95.33406989140688
          ],
          [
            221.1740971040912,
            -99.76325380538063
          ],
          [
            221.17388638674183,
            -102.71604380739386
          ],
          [
            221.1736756693924,
            -105.66883380940708
          ],
          [
            221.173464952043,
            -108.6216238114203
          ],
          [
            221.1732542346936,
            -111.57441381343354
          ],
          [
            221.91130689815438,
            -113.05080990348624
          ],
          [
            222.6493595616152,
            -114.52720599353894
          ],
          [
            223.387412225076,
            -116.00360208359166
          ],
          [
            223.3872015077266,
            -118.95639208560489
          ],
          [
            223.3868854317025,
            -123.38557708862473
          ],
          [
            224.12478005715124,
            -127.07656568018736
          ],
          [
            225.60093806341018,
            -129.29116035978947
          ],
          [
            226.74668786264823,
            -130.98236153034586
          ],
          [
            225.97738372372086,
            -132.44242259658583
          ],
          [
            222.9355333585581,
            -138.2949672016665
          ],
          [
            220.0007263142853,
            -144.20369679641405
          ],
          [
            216.71005349730055,
            -149.9367525229464
          ],
          [
            213.4974305072249,
            -154.168790259582
          ],
          [
            210.91936794853106,
            -157.40982221701023
          ],
          [
            207.52765672283792,
            -162.27620311048892
          ],
          [
            204.63969493144552,
            -166.75345860497978
          ],
          [
            201.62406650242056,
            -171.96420305971967
          ],
          [
            200.26499388531138,
            -176.50325511358062
          ],
          [
            200.21530867181212,
            -179.53527601823436
          ],
          [
            200.5379780230754,
            -182.43882028883883
          ],
          [
            200.42419531764963,
            -184.64658663874349
          ],
          [
            200.04844352659038,
            -186.92421192982687
          ],
          [
            199.725769228642,
            -188.50934911042572
          ],
          [
            199.0757166251714,
            -191.30660484241096
          ],
          [
            198.82831923557856,
            -194.26148958372605
          ],
          [
            199.3331477579715,
            -198.00686042318128
          ],
          [
            200.1372470651836,
            -201.71983644031755
          ],
          [
            200.79793861016137,
            -204.5164182661206
          ],
          [
            201.12828438265026,
            -205.91470917902214
          ],
          [
            201.49767982577646,
            -207.4782430287705
          ],
          [
            201.82802559826533,
            -208.87653394167202
          ],
          [
            202.19739851459641,
            -210.44006779138718
          ],
          [
            203.4707464676257,
            -215.82980353306644
          ],
          [
            204.13143801260347,
            -218.6263853588695
          ],
          [
            204.99634085106544,
            -222.28735557795352
          ],
          [
            205.8612436895274,
            -225.94832579703757
          ],
          [
            206.3591389106759,
            -228.04596492189518
          ],
          [
            205.66329635852264,
            -232.6387810260078
          ],
          [
            204.9248749397004,
            -236.32976743947822
          ],
          [
            204.18645352087813,
            -240.02075385294862
          ],
          [
            203.44819014006794,
            -241.49714776490916
          ],
          [
            200.49524197550184,
            -245.9263284117446
          ],
          [
            197.54239916961043,
            -248.87911405757345
          ],
          [
            195.32760902717985,
            -253.308295793455
          ],
          [
            194.589398325707,
            -254.04649220491217
          ],
          [
            193.85118762423414,
            -254.7846886163694
          ],
          [
            193.11297692276128,
            -255.52288502782662
          ],
          [
            192.37476622128847,
            -256.26108143928377
          ],
          [
            191.6365555198156,
            -256.999277850741
          ],
          [
            190.8982921390054,
            -258.47567176270155
          ],
          [
            191.6363448024662,
            -259.9520678527543
          ],
          [
            189.42160733937297,
            -263.6430520881325
          ],
          [
            188.68334395856274,
            -265.11944600009303
          ],
          [
            187.94508057775255,
            -266.5958399120535
          ],
          [
            187.20686987627968,
            -267.33403632351076
          ],
          [
            184.9920797338491,
            -271.76321805939233
          ],
          [
            184.35815270673268,
            -273.66403964332034
          ],
          [
            180.5354123894414,
            -274.6040936470624
          ],
          [
            180.00152922059448,
            -278.36584080997187
          ],
          [
            178.17026712632847,
            -282.1903378024946
          ],
          [
            178.34765662721995,
            -285.7889607675403
          ],
          [
            178.34744590987054,
            -288.7417507695535
          ],
          [
            179.08549857333136,
            -290.2181468596062
          ],
          [
            179.08528785598193,
            -293.1709368616194
          ],
          [
            178.34702447517174,
            -294.64733077357994
          ],
          [
            177.60876109436157,
            -296.1237246855404
          ],
          [
            176.13223433274115,
            -299.0765125094615
          ],
          [
            175.39397095193095,
            -300.552906421422
          ],
          [
            175.3939182725936,
            -301.2911039219253
          ],
          [
            174.6556548917834,
            -302.7674978338858
          ]
        ]
      },
      "properties": {
        "type": "variant",
        "id": 1,
        "color": "#ff4444",
        "vzdal_m": 1931,
        "prevyseni_m": 24,
        "cas_s": 528,
        "tempo_str": "4:33"
      }
    },
    {
      "type": "Feature",
      "geometry": {
        "type": "LineString",
        "coordinates": [
          [
            224.86904888241938,
            -41.44565671084989
          ],
          [
            224.1306801429345,
            -44.39844562381702
          ],
          [
            223.3922060447749,
            -48.82762953779076
          ],
          [
            222.65378462595265,
            -52.5186159512612
          ],
          [
            222.65357390860325,
            -55.47140595327442
          ],
          [
            221.91515248978098,
            -59.162392366744854
          ],
          [
            221.17673107095874,
            -62.85337878021529
          ],
          [
            221.17662571228405,
            -64.3297737812219
          ],
          [
            220.43836233147383,
            -65.80616769318243
          ],
          [
            219.70009895066363,
            -67.28256160514293
          ],
          [
            219.70004627132627,
            -68.02075910564625
          ],
          [
            218.9618355698534,
            -68.75895551710344
          ],
          [
            218.22357218904324,
            -70.23534942906397
          ],
          [
            216.00878204661265,
            -74.66453116494552
          ],
          [
            213.05593924072122,
            -77.61731681077435
          ],
          [
            210.10288571748043,
            -83.52289245861643
          ],
          [
            207.8880428957125,
            -88.69027169500127
          ],
          [
            206.4115161340921,
            -91.6430595189223
          ],
          [
            205.6732527532819,
            -93.11945343088283
          ],
          [
            205.6730420359325,
            -96.07224343289604
          ],
          [
            204.1964099156374,
            -100.50142625782371
          ],
          [
            202.7197777953423,
            -104.93060908275135
          ],
          [
            205.67204112852284,
            -110.09799594245887
          ],
          [
            207.88630447757993,
            -113.05078921161038
          ],
          [
            207.14804109676973,
            -114.52718312357091
          ],
          [
            205.67140897647462,
            -118.95636594849854
          ],
          [
            206.40946163993542,
            -120.43276203855127
          ],
          [
            207.14735626538416,
            -124.12375063011389
          ],
          [
            207.14714554803476,
            -127.07654063212712
          ],
          [
            206.4087241292125,
            -130.76752704559757
          ],
          [
            204.9320920089174,
            -135.1967098705252
          ],
          [
            205.6700393137035,
            -138.14950096158452
          ],
          [
            204.93167057421863,
            -141.10228987455164
          ],
          [
            204.9315652155439,
            -142.57868487555828
          ],
          [
            205.66935448231794,
            -147.7460684681275
          ],
          [
            206.4073544664414,
            -149.96066205868354
          ],
          [
            205.66893304761913,
            -153.65164847215397
          ],
          [
            205.66872233026976,
            -156.60443847416718
          ],
          [
            206.40677499373055,
            -158.0808345642199
          ],
          [
            206.4066169557185,
            -160.29542706572983
          ],
          [
            207.64350206061027,
            -162.10023707421706
          ],
          [
            206.74219739723253,
            -163.46928482613077
          ],
          [
            203.20493856703663,
            -168.99476719782226
          ],
          [
            200.45943657265408,
            -175.0455361112043
          ],
          [
            199.9794932556872,
            -178.0259447333131
          ],
          [
            200.40938691869417,
            -180.97479296990178
          ],
          [
            200.50007251893595,
            -183.91778342606486
          ],
          [
            200.04844352659038,
            -186.92421192982687
          ],
          [
            199.725769228642,
            -188.50934911042572
          ],
          [
            199.0757166251714,
            -191.30660484241096
          ],
          [
            198.82831923557856,
            -194.26148958372605
          ],
          [
            199.3331477579715,
            -198.00686042318128
          ],
          [
            200.1372470651836,
            -201.71983644031755
          ],
          [
            200.79793861016137,
            -204.5164182661206
          ],
          [
            201.12828438265026,
            -205.91470917902214
          ],
          [
            201.49767982577646,
            -207.4782430287705
          ],
          [
            201.82802559826533,
            -208.87653394167202
          ],
          [
            202.19739851459641,
            -210.44006779138718
          ],
          [
            203.4707464676257,
            -215.82980353306644
          ],
          [
            204.13143801260347,
            -218.6263853588695
          ],
          [
            204.99634085106544,
            -222.28735557795352
          ],
          [
            206.06545498301156,
            -226.81271419031856
          ],
          [
            206.93004245759553,
            -230.47352671293805
          ],
          [
            207.58805321669274,
            -233.27147147877966
          ],
          [
            207.75253901157166,
            -233.9709548542151
          ],
          [
            208.14072255821623,
            -235.52388930773174
          ],
          [
            208.72055901127408,
            -237.77915696875183
          ],
          [
            209.27514862853045,
            -239.95452904089382
          ],
          [
            209.66626432879448,
            -241.45603207497464
          ],
          [
            210.0199068410095,
            -242.79780027050893
          ],
          [
            210.4317203189046,
            -244.36021904684415
          ],
          [
            210.52819898892704,
            -244.72624286748936
          ],
          [
            211.02196426705342,
            -246.61386470722653
          ],
          [
            211.3851778819434,
            -247.99466267670084
          ],
          [
            211.79615786520424,
            -249.5571265078062
          ],
          [
            212.15937148009428,
            -250.9379244772805
          ],
          [
            212.5703514641589,
            -252.50037704438589
          ],
          [
            212.9335425522538,
            -253.88117501382698
          ],
          [
            213.3445225355146,
            -255.4436388449323
          ],
          [
            214.75909182074287,
            -260.8214124270188
          ],
          [
            215.3038897166847,
            -262.89260374919706
          ],
          [
            214.8628513425846,
            -264.5939739706284
          ],
          [
            211.65394370749289,
            -266.953946185416
          ],
          [
            208.001790693132,
            -267.84990188103933
          ],
          [
            203.4832417874649,
            -268.9609761694237
          ],
          [
            199.0169767957489,
            -273.23963375227476
          ],
          [
            196.06408131052012,
            -276.9306168986069
          ],
          [
            193.11129118396607,
            -279.14520504393244
          ],
          [
            189.4202903559392,
            -282.0979896007152
          ],
          [
            186.46744755004778,
            -285.050775246544
          ],
          [
            185.72918416923758,
            -286.52716915850453
          ],
          [
            184.99097346776475,
            -287.2653655699618
          ],
          [
            184.25271008695455,
            -288.74175948192226
          ],
          [
            183.51449938548168,
            -289.47995589337944
          ],
          [
            182.7762360046715,
            -290.95634980534
          ],
          [
            180.5615512209156,
            -293.90913654021494
          ],
          [
            177.60865573568685,
            -297.60011968654703
          ],
          [
            176.13223433274115,
            -299.0765125094615
          ],
          [
            175.39397095193095,
            -300.552906421422
          ],
          [
            175.3939182725936,
            -301.2911039219253
          ],
          [
            174.6556548917834,
            -302.7674978338858
          ]
        ]
      },
      "properties": {
        "type": "variant",
        "id": 2,
        "color": "#4444ff",
        "vzdal_m": 1990,
        "prevyseni_m": 21,
        "cas_s": 531,
        "tempo_str": "4:27"
      }
    },
    {
      "type": "Feature",
      "geometry": {
        "type": "LineString",
        "coordinates": [
          [
            224.86904888241938,
            -41.44565671084989
          ],
          [
            224.1306801429345,
            -44.39844562381702
          ],
          [
            223.3922060447749,
            -48.82762953779076
          ],
          [
            222.65378462595265,
            -52.5186159512612
          ],
          [
            222.65357390860325,
            -55.47140595327442
          ],
          [
            225.6058899211211,
            -59.90059531247865
          ],
          [
            226.3439425845819,
            -61.37699140253135
          ],
          [
            227.08199524804274,
            -62.85338749258407
          ],
          [
            227.08178453069334,
            -65.80617749459729
          ],
          [
            227.0815738133439,
            -68.75896749661052
          ],
          [
            227.81952111813,
            -71.71175858766985
          ],
          [
            227.0811523786451,
            -74.66454750063697
          ],
          [
            227.08104701997044,
            -76.1409425016436
          ],
          [
            227.8190996834312,
            -77.6173385916963
          ],
          [
            227.81904700409385,
            -78.35553609219961
          ],
          [
            227.08078362328368,
            -79.83193000416011
          ],
          [
            226.34252024247346,
            -81.30832391612063
          ],
          [
            225.60415150298854,
            -84.26111282908776
          ],
          [
            226.34220416644933,
            -85.73750891914047
          ],
          [
            229.2945728583046,
            -89.42850077784139
          ],
          [
            230.03246748375335,
            -93.11948936940404
          ],
          [
            230.7703621092021,
            -96.81047796096665
          ],
          [
            232.98457277892183,
            -100.50146873062147
          ],
          [
            233.72252008370793,
            -103.45425982168081
          ],
          [
            232.98415134422305,
            -106.40704873464793
          ],
          [
            232.98394062687365,
            -109.35983873666116
          ],
          [
            232.24557188738873,
            -112.3126276496283
          ],
          [
            232.9835191921748,
            -115.26541874068761
          ],
          [
            232.98336115416276,
            -117.48001124219752
          ],
          [
            232.24509777335254,
            -118.95640515415805
          ],
          [
            232.12285018610345,
            -119.19738698868319
          ],
          [
            231.92799173647845,
            -121.43049721885487
          ],
          [
            228.75010940580836,
            -127.18004360771698
          ],
          [
            225.67293790851207,
            -133.0202202887437
          ],
          [
            222.9355333585581,
            -138.2949672016665
          ],
          [
            220.0007263142853,
            -144.20369679641405
          ],
          [
            216.71005349730055,
            -149.9367525229464
          ],
          [
            213.4974305072249,
            -154.168790259582
          ],
          [
            210.91936794853106,
            -157.40982221701023
          ],
          [
            207.52765672283792,
            -162.27620311048892
          ],
          [
            204.63969493144552,
            -166.75345860497978
          ],
          [
            201.62406650242056,
            -171.96420305971967
          ],
          [
            200.26499388531138,
            -176.50325511358062
          ],
          [
            200.21530867181212,
            -179.53527601823436
          ],
          [
            200.5379780230754,
            -182.43882028883883
          ],
          [
            200.42419531764963,
            -184.64658663874349
          ],
          [
            200.04844352659038,
            -186.92421192982687
          ],
          [
            199.725769228642,
            -188.50934911042572
          ],
          [
            199.0757166251714,
            -191.30660484241096
          ],
          [
            198.82831923557856,
            -194.26148958372605
          ],
          [
            199.3331477579715,
            -198.00686042318128
          ],
          [
            200.1372470651836,
            -201.71983644031755
          ],
          [
            200.79793861016137,
            -204.5164182661206
          ],
          [
            201.12828438265026,
            -205.91470917902214
          ],
          [
            201.49767982577646,
            -207.4782430287705
          ],
          [
            201.82802559826533,
            -208.87653394167202
          ],
          [
            202.19739851459641,
            -210.44006779138718
          ],
          [
            203.4707464676257,
            -215.82980353306644
          ],
          [
            204.13143801260347,
            -218.6263853588695
          ],
          [
            204.99634085106544,
            -222.28735557795352
          ],
          [
            206.06545498301156,
            -226.81271419031856
          ],
          [
            206.93004245759553,
            -230.47352671293805
          ],
          [
            207.58805321669274,
            -233.27147147877966
          ],
          [
            207.75253901157166,
            -233.9709548542151
          ],
          [
            208.14072255821623,
            -235.52388930773174
          ],
          [
            208.72055901127408,
            -237.77915696875183
          ],
          [
            209.27514862853045,
            -239.95452904089382
          ],
          [
            209.66626432879448,
            -241.45603207497464
          ],
          [
            210.0199068410095,
            -242.79780027050893
          ],
          [
            210.4317203189046,
            -244.36021904684415
          ],
          [
            210.52819898892704,
            -244.72624286748936
          ],
          [
            211.02196426705342,
            -246.61386470722653
          ],
          [
            211.3851778819434,
            -247.99466267670084
          ],
          [
            211.79615786520424,
            -249.5571265078062
          ],
          [
            212.15937148009428,
            -250.9379244772805
          ],
          [
            212.5703514641589,
            -252.50037704438589
          ],
          [
            212.9335425522538,
            -253.88117501382698
          ],
          [
            213.3445225355146,
            -255.4436388449323
          ],
          [
            214.75909182074287,
            -260.8214124270188
          ],
          [
            215.3038897166847,
            -262.89260374919706
          ],
          [
            214.8628513425846,
            -264.5939739706284
          ],
          [
            211.65394370749289,
            -266.953946185416
          ],
          [
            208.001790693132,
            -267.84990188103933
          ],
          [
            203.4832417874649,
            -268.9609761694237
          ],
          [
            199.0169767957489,
            -273.23963375227476
          ],
          [
            196.06408131052012,
            -276.9306168986069
          ],
          [
            193.11129118396607,
            -279.14520504393244
          ],
          [
            189.4202903559392,
            -282.0979896007152
          ],
          [
            186.46744755004778,
            -285.050775246544
          ],
          [
            185.72918416923758,
            -286.52716915850453
          ],
          [
            184.99097346776475,
            -287.2653655699618
          ],
          [
            184.25271008695455,
            -288.74175948192226
          ],
          [
            183.51449938548168,
            -289.47995589337944
          ],
          [
            182.7762360046715,
            -290.95634980534
          ],
          [
            180.5615512209156,
            -293.90913654021494
          ],
          [
            177.60865573568685,
            -297.60011968654703
          ],
          [
            176.13223433274115,
            -299.0765125094615
          ],
          [
            175.39397095193095,
            -300.552906421422
          ],
          [
            175.3939182725936,
            -301.2911039219253
          ],
          [
            174.6556548917834,
            -302.7674978338858
          ]
        ]
      },
      "properties": {
        "type": "variant",
        "id": 3,
        "color": "#44ff44",
        "vzdal_m": 2013,
        "prevyseni_m": 26,
        "cas_s": 536,
        "tempo_str": "4:26"
      }
    }
  ]
}