{
  "type": "FeatureCollection",
  "features": [
    {
      "type": "Feature",
      "geometry": {
        "type": "Point",
        "coordinates": [
          142.85804752282274,
          -174.64450226708658
        ]
      },
      "properties": {
        "type": "start",
        "isom": "109"
      }
    },
    {
      "type": "Feature",
      "geometry": {
        "type": "Point",
        "coordinates": [
          200.71748503656767,
          -139.10444269180283
        ]
      },
      "properties": {
        "type": "end",
        "isom": "109"
      }
    },
    {
      "type": "Feature",
      "geometry": {
        "type": "LineString",
        "coordinates": [
          [
            142.87291536620978,
            -174.7034365240887
          ],
          [
            143.24200729671983,
            -174.51891014677238
          ],
          [
            144.16472802366778,
            -174.33441090720135
          ],
          [
            144.90289975225167,
            -174.3344470908617
          ],
          [
            145.64107148083556,
            -174.33448327452203
          ],
          [
            147.11743920287577,
            -173.59637776525682
          ],
          [
            148.45659080531573,
            -172.9245266688005
          ],
          [
            149.4167769388371,
            -172.2388684253526
          ],
          [
            150.5019797110116,
            -171.4655834797895
          ],
          [
            151.41403082929617,
            -170.71934864844826
          ],
          [
            152.7130306557829,
            -170.03589864014924
          ],
          [
            153.81261147639614,
            -169.22082030446106
          ],
          [
            154.5574626328371,
            -168.48763600089887
          ],
          [
            155.23901057636942,
            -167.69266097344033
          ],
          [
            155.90441667203834,
            -166.90192298552859
          ],
          [
            156.72239773170685,
            -166.22649593064259
          ],
          [
            157.40400439611776,
            -165.60992336970972
          ],
          [
            158.74392297410506,
            -165.10790207716923
          ],
          [
            159.29755177054298,
            -165.10792921491446
          ],
          [
            160.40482756207317,
            -164.55435008296558
          ],
          [
            161.51210941982143,
            -163.8162264818702
          ],
          [
            161.88120135033148,
            -163.6317001045539
          ],
          [
            162.25029328084153,
            -163.44717372723755
          ],
          [
            163.54211200451766,
            -162.89360364120373
          ],
          [
            164.64939386226592,
            -162.15548004010833
          ],
          [
            166.12576158430616,
            -161.4173745308431
          ],
          [
            167.23304344205442,
            -160.67925092974772
          ],
          [
            167.97123943551074,
            -159.94110923682214
          ],
          [
            169.07852129325903,
            -159.20298563572675
          ],
          [
            169.6260445787055,
            -159.06330916219676
          ],
          [
            170.37035214937137,
            -158.28032661139994
          ],
          [
            171.2930910749737,
            -157.5421939643895
          ],
          [
            171.6621830054837,
            -157.35766758707317
          ],
          [
            172.4003547340676,
            -157.35770377073354
          ],
          [
            173.1385264626515,
            -157.35773995439385
          ],
          [
            173.8766981912354,
            -157.35777613805422
          ],
          [
            174.61486991981926,
            -157.35781232171456
          ],
          [
            174.9839618503293,
            -157.17328594439826
          ],
          [
            175.7221396451313,
            -156.9887776589121
          ],
          [
            175.90669470971352,
            -156.61969776653424
          ],
          [
            176.09124977429573,
            -156.25061787415638
          ],
          [
            176.64490890182418,
            -155.32792266616926
          ],
          [
            177.56764782742647,
            -154.58979001915876
          ],
          [
            178.30584988710092,
            -153.66710385708672
          ],
          [
            178.490398885465,
            -153.4825684338553
          ],
          [
            178.67495395004718,
            -153.11348854147744
          ],
          [
            179.2286130775757,
            -152.19079333349032
          ],
          [
            179.41316814215784,
            -151.82171344111242
          ],
          [
            180.15137020183232,
            -150.8990272790404
          ],
          [
            180.52046819856045,
            -150.52995643257762
          ],
          [
            180.8895601290705,
            -150.3454300552613
          ],
          [
            182.18138491896477,
            -149.607315500081
          ],
          [
            182.91958091242108,
            -148.86917380715542
          ],
          [
            183.65778903831364,
            -147.7619431759369
          ],
          [
            184.58052796391596,
            -147.02381052892642
          ],
          [
            185.31872395737227,
            -146.28566883600084
          ],
          [
            186.05691995082861,
            -145.54752714307529
          ],
          [
            186.61056694592085,
            -144.99392087338111
          ],
          [
            186.79512201050304,
            -144.62484098100325
          ],
          [
            186.97967707508525,
            -144.25576108862538
          ],
          [
            187.71787306854156,
            -143.5176193956998
          ],
          [
            187.90242206690564,
            -143.33308397246842
          ],
          [
            188.27151399741572,
            -143.1485575951521
          ],
          [
            189.37879585516401,
            -142.4104339940567
          ],
          [
            190.3015347807663,
            -141.67230134704621
          ],
          [
            191.03973077422265,
            -140.93415965412066
          ],
          [
            191.40882270473267,
            -140.74963327680436
          ],
          [
            191.59337170309678,
            -140.56509785357295
          ],
          [
            191.96246363360683,
            -140.38057147625665
          ],
          [
            193.25428235728296,
            -139.82700139022282
          ],
          [
            194.17700308423093,
            -139.64250215065178
          ],
          [
            194.91517481281483,
            -139.64253833431212
          ],
          [
            196.20699353649096,
            -139.0889682482783
          ],
          [
            196.94516526507482,
            -139.08900443193863
          ],
          [
            197.86788599202276,
            -138.9045051923676
          ],
          [
            198.79060671897076,
            -138.72000595279653
          ],
          [
            200.0823890453382,
            -139.27370268164157
          ],
          [
            200.63602390799426,
            -139.08918535024037
          ]
        ]
      },
      "properties": {
        "type": "variant",
        "id": 1,
        "color": "#ff4444",
        "vzdal_m": 1926,
        "prevyseni_m": 45,
        "cas_s": 575,
        "tempo_str": "4:58"
      }
    },
    {
      "type": "Feature",
      "geometry": {
        "type": "LineString",
        "coordinates": [
          [
            142.87291536620978,
            -174.7034365240887
          ],
          [
            143.0574886294463,
            -173.78072322427138
          ],
          [
            143.05751289431873,
            -173.04254534768546
          ],
          [
            143.05751896053684,
            -172.858000878539
          ],
          [
            143.24207402511905,
            -172.4889209861611
          ],
          [
            143.2420982899915,
            -171.75074310957518
          ],
          [
            143.24212255486395,
            -171.0125652329893
          ],
          [
            143.24214681973638,
            -170.27438735640337
          ],
          [
            143.24215288595448,
            -170.08984288725688
          ],
          [
            143.4267079505367,
            -169.720762994879
          ],
          [
            143.98037921050138,
            -168.42897884859894
          ],
          [
            144.71859340261204,
            -167.13720374823393
          ],
          [
            145.4568075947227,
            -165.84542864786894
          ],
          [
            146.01046065603308,
            -165.10727790902826
          ],
          [
            146.9332056478535,
            -164.18460079287132
          ],
          [
            147.11776071243568,
            -163.81552090049345
          ],
          [
            147.85596277211013,
            -162.89283473842139
          ],
          [
            148.77871989636677,
            -161.60106868397148
          ],
          [
            149.51691588982308,
            -160.86292699104592
          ],
          [
            150.25511794949753,
            -159.94024082897386
          ],
          [
            150.99331394295385,
            -159.2020991360483
          ],
          [
            151.7315342012826,
            -157.7257795665368
          ],
          [
            152.46973019473896,
            -156.98763787361125
          ],
          [
            152.65427919310304,
            -156.80310245037984
          ],
          [
            153.0233711236131,
            -156.61857607306354
          ],
          [
            153.76156711706943,
            -155.88043438013798
          ],
          [
            154.49976917674385,
            -154.95774821806592
          ],
          [
            154.86886717347204,
            -154.58867737160315
          ],
          [
            155.36561854787837,
            -154.3995967148076
          ],
          [
            155.9761550974384,
            -153.66600930136127
          ],
          [
            157.083400557878,
            -154.03515251514474
          ],
          [
            158.00612128482598,
            -153.85065327557368
          ],
          [
            158.9288602104283,
            -153.11252062856323
          ],
          [
            159.6670562038846,
            -152.37437893563765
          ],
          [
            160.58978906326882,
            -151.82079075777364
          ],
          [
            161.51251585643487,
            -151.4517470490561
          ],
          [
            161.88160778694493,
            -151.26722067173984
          ],
          [
            162.61980378040127,
            -150.52907897881425
          ],
          [
            162.98889571091132,
            -150.34455260149795
          ],
          [
            163.35798764142137,
            -150.16002622418162
          ],
          [
            163.54253057356735,
            -150.1600352700967
          ],
          [
            163.9116225040774,
            -149.97550889278043
          ],
          [
            164.83435536346158,
            -149.4219207149164
          ],
          [
            165.20344729397164,
            -149.2373943376001
          ],
          [
            165.94161902255553,
            -149.23743052126045
          ],
          [
            166.1261619547015,
            -149.23743956717553
          ],
          [
            166.3107170192837,
            -148.86835967479766
          ],
          [
            167.0489069465219,
            -148.31476245101857
          ],
          [
            168.34073780263427,
            -147.3921034266918
          ],
          [
            169.44801359416442,
            -146.83852429474288
          ],
          [
            169.81710552467447,
            -146.65399791742658
          ],
          [
            171.006108291547,
            -146.01307707430317
          ],
          [
            171.96937275996288,
            -145.08473324129108
          ],
          [
            172.683318624017,
            -144.19622004611034
          ],
          [
            173.10849140051056,
            -143.74348963795524
          ],
          [
            174.56055893368983,
            -143.27819793947378
          ],
          [
            175.40476675433328,
            -142.4490256272029
          ],
          [
            176.12440090003537,
            -141.51143858962863
          ],
          [
            176.77207768410264,
            -140.5402558512546
          ],
          [
            176.97560720501238,
            -140.33857039091677
          ],
          [
            177.84967049296515,
            -139.55892590775528
          ],
          [
            178.5639902876325,
            -138.79285408394762
          ],
          [
            179.29532537190278,
            -138.03151315281227
          ],
          [
            180.07615006773764,
            -137.3416612679345
          ],
          [
            180.47639797955756,
            -136.9909572882557
          ],
          [
            181.05881614104024,
            -136.65350420369012
          ],
          [
            182.36635855259664,
            -136.5046672365961
          ],
          [
            183.10453028118053,
            -136.50470342025648
          ],
          [
            183.8427020097644,
            -136.5047396039168
          ],
          [
            184.5808737383483,
            -136.50477578757716
          ],
          [
            185.33986364243032,
            -136.4421006319961
          ],
          [
            186.0327576095737,
            -136.64407005573057
          ],
          [
            186.97212706215876,
            -136.77603046260683
          ],
          [
            187.69529128262226,
            -136.83420922313587
          ],
          [
            188.6290568422141,
            -136.99605976175462
          ],
          [
            189.56144655543972,
            -137.07197580587848
          ],
          [
            190.28226009837317,
            -137.18386700375214
          ],
          [
            191.21593055779246,
            -137.31836189282953
          ],
          [
            191.93371423826585,
            -137.3933517922643
          ],
          [
            192.87608952758217,
            -137.54825065393936
          ],
          [
            193.62638102477777,
            -137.4359040430476
          ],
          [
            194.5461678093583,
            -137.2434421435777
          ],
          [
            195.2843395379422,
            -137.24347832723808
          ],
          [
            196.0225112665261,
            -137.24351451089842
          ],
          [
            196.76068299511,
            -137.24355069455876
          ],
          [
            197.31431179154788,
            -137.24357783230403
          ],
          [
            197.6833915896217,
            -137.42814039328067
          ],
          [
            198.97516784977105,
            -138.1663815912722
          ],
          [
            200.26694410992042,
            -138.9046227892637
          ],
          [
            200.63602390799426,
            -139.08918535024037
          ]
        ]
      },
      "properties": {
        "type": "variant",
        "id": 2,
        "color": "#4444ff",
        "vzdal_m": 2095,
        "prevyseni_m": 38,
        "cas_s": 610,
        "tempo_str": "4:51"
      }
    },
    {
      "type": "Feature",
      "geometry": {
        "type": "LineString",
        "coordinates": [
          [
            142.87291536620978,
            -174.7034365240887
          ],
          [
            143.24200729671983,
            -174.51891014677238
          ],
          [
            144.34927702203188,
            -174.14987548396994
          ],
          [
            145.27199774897986,
            -173.9653762443989
          ],
          [
            146.3792674742919,
            -173.59634158159645
          ],
          [
            147.30198820123988,
            -173.4118423420254
          ],
          [
            148.77835592328006,
            -172.67373683276017
          ],
          [
            149.70109484888238,
            -171.9356041857497
          ],
          [
            150.62383377448467,
            -171.19747153873922
          ],
          [
            151.54657270008698,
            -170.45933889172872
          ],
          [
            153.0229404221272,
            -169.7212333824635
          ],
          [
            153.94567934772948,
            -168.98310073545304
          ],
          [
            154.68387534118582,
            -168.24495904252746
          ],
          [
            155.6066142667881,
            -167.50682639551698
          ],
          [
            156.7138900583183,
            -166.95324726356804
          ],
          [
            157.45206178690216,
            -166.95328344722842
          ],
          [
            158.37478251385014,
            -166.76878420765735
          ],
          [
            159.2975032407981,
            -166.5842849680863
          ],
          [
            160.58928556716558,
            -167.13798169693135
          ],
          [
            161.5119941616773,
            -167.32257139565326
          ],
          [
            161.88107395975115,
            -167.50713395662993
          ],
          [
            162.619245688335,
            -167.50717014029027
          ],
          [
            162.803788620481,
            -167.50717918620535
          ],
          [
            163.17288055099107,
            -167.32265280888905
          ],
          [
            163.91105227957493,
            -167.3226889925494
          ],
          [
            164.28013207764877,
            -167.50725155352603
          ],
          [
            164.64921794194072,
            -167.5072696453562
          ],
          [
            165.38741393539703,
            -166.76912795243064
          ],
          [
            165.75651799834333,
            -166.2155126368214
          ],
          [
            166.12560992885338,
            -166.03098625950506
          ],
          [
            166.49470185936343,
            -165.84645988218875
          ],
          [
            167.23289785281975,
            -165.1083181892632
          ],
          [
            168.15563677842206,
            -164.37018554225273
          ],
          [
            168.89383883809649,
            -163.44749938018066
          ],
          [
            169.2629610996971,
            -162.34025065713197
          ],
          [
            170.37023082500914,
            -161.97121599432953
          ],
          [
            171.10840255359304,
            -161.9712521779899
          ],
          [
            171.4774944841031,
            -161.78672580067357
          ],
          [
            172.58476420941514,
            -161.41769113787115
          ],
          [
            173.87658293309127,
            -160.86412105183732
          ],
          [
            175.35295065513148,
            -160.12601554257208
          ],
          [
            176.46022644666164,
            -159.57243641062317
          ],
          [
            176.6447693788076,
            -159.57244545653825
          ],
          [
            177.01384917688145,
            -159.7570080175149
          ],
          [
            177.75202090546534,
            -159.75704420117523
          ],
          [
            178.1211128359754,
            -159.57251782385893
          ],
          [
            178.49020476648545,
            -159.38799144654263
          ],
          [
            179.04383356292337,
            -159.3880185842879
          ],
          [
            179.41291336099718,
            -159.57258114526454
          ],
          [
            179.41290729477907,
            -159.757125614411
          ],
          [
            180.15107902336297,
            -159.75716179807137
          ],
          [
            181.25834874867502,
            -159.38812713526892
          ],
          [
            181.9965204772589,
            -159.3881633189293
          ],
          [
            182.73469220584278,
            -159.3881995025896
          ],
          [
            184.0265109295189,
            -158.83462941655577
          ],
          [
            185.50287865155914,
            -158.09652390729056
          ],
          [
            186.97924637359932,
            -157.35841839802535
          ],
          [
            188.2710711634936,
            -156.62030384284503
          ],
          [
            189.3783530212419,
            -155.88218024174964
          ],
          [
            190.3010919468442,
            -155.14404759473913
          ],
          [
            191.03928794030048,
            -154.40590590181358
          ],
          [
            191.77748393375683,
            -153.667764208888
          ],
          [
            191.96203293212093,
            -153.48322878565662
          ],
          [
            192.14658799670312,
            -153.11414889327875
          ],
          [
            192.3311430612853,
            -152.74506900090088
          ],
          [
            193.06934512095975,
            -151.82238283882882
          ],
          [
            193.8075532468523,
            -150.71515220761032
          ],
          [
            193.99212044387073,
            -149.97698337693947
          ],
          [
            194.17669370710723,
            -149.05427007712217
          ],
          [
            194.1767179719797,
            -148.31609220053627
          ],
          [
            194.17673010441592,
            -147.9470032622433
          ],
          [
            194.3612851689981,
            -147.57792336986543
          ],
          [
            194.36129730143435,
            -147.20883443157246
          ],
          [
            194.54587663088898,
            -146.1015766626087
          ],
          [
            195.2840847567815,
            -144.99434603139017
          ],
          [
            196.02228075023783,
            -144.25620433846458
          ],
          [
            196.76047674369417,
            -143.51806264553903
          ],
          [
            197.49867880336865,
            -142.59537648346696
          ],
          [
            198.0523439971152,
            -141.4881368063334
          ],
          [
            198.79053999057152,
            -140.7499951134078
          ],
          [
            199.15965618595402,
            -139.82729085950558
          ],
          [
            199.3442173167543,
            -139.27366649798122
          ],
          [
            200.0823890453382,
            -139.27370268164157
          ],
          [
            200.63602390799426,
            -139.08918535024037
          ]
        ]
      },
      "properties": {
        "type": "variant",
        "id": 3,
        "color": "#44ff44",
        "vzdal_m": 2027,
        "prevyseni_m": 37,
        "cas_s": 588,
        "tempo_str": "4:50"
      }
    }
  ]
}