{
  "type": "FeatureCollection",
  "features": [
    {
      "type": "Feature",
      "geometry": {
        "type": "Point",
        "coordinates": [
          37.03768853987531,
          -226.6395148959199
        ]
      },
      "properties": {
        "type": "start",
        "isom": "111"
      }
    },
    {
      "type": "Feature",
      "geometry": {
        "type": "Point",
        "coordinates": [
          62.3968259430045,
          -249.5279630491173
        ]
      },
      "properties": {
        "type": "end",
        "isom": "417"
      }
    },
    {
      "type": "Feature",
      "geometry": {
        "type": "LineString",
        "coordinates": [
          [
            37.09684850684282,
            -226.64308798319766
          ],
          [
            37.09682424197037,
            -227.38126585978358
          ],
          [
            37.2813429092439,
            -228.11945278228458
          ],
          [
            37.465873708953644,
            -228.48855076649264
          ],
          [
            37.46586764273553,
            -228.67309523563912
          ],
          [
            37.65039844244529,
            -229.04219321984715
          ],
          [
            38.01946004186478,
            -229.78038918826323
          ],
          [
            38.20399084157453,
            -230.14948717247125
          ],
          [
            38.38852164128428,
            -230.51858515667934
          ],
          [
            39.311212037141686,
            -231.25680826284065
          ],
          [
            40.418445365145075,
            -231.99504041491707
          ],
          [
            40.97206202914676,
            -232.3641564909553
          ],
          [
            41.341135761002484,
            -232.73326352107844
          ],
          [
            41.52566656071223,
            -233.10236150528647
          ],
          [
            42.263814024423674,
            -233.84057556553273
          ],
          [
            43.00194328948078,
            -235.1324230332184
          ],
          [
            43.74009075319221,
            -235.87063709346467
          ],
          [
            44.478238216903655,
            -236.60885115371096
          ],
          [
            45.2163856806151,
            -237.34706521395722
          ],
          [
            45.95453314432653,
            -238.08527927420346
          ],
          [
            47.246309404475895,
            -238.82352047219496
          ],
          [
            47.98445080196922,
            -239.7462790015877
          ],
          [
            48.90714726404474,
            -240.29995763860256
          ],
          [
            49.64529472775618,
            -241.03817169884886
          ],
          [
            50.383442191467616,
            -241.77638575909512
          ],
          [
            50.93704065681497,
            -242.69913524257277
          ],
          [
            51.85973711889049,
            -243.25281387958762
          ],
          [
            53.33605631118582,
            -243.99106412349425
          ],
          [
            54.81237550348114,
            -244.72931436740083
          ],
          [
            55.73507196555667,
            -245.2829930044157
          ],
          [
            56.842329558432496,
            -245.2830472799062
          ],
          [
            57.58048915458015,
            -245.65217240185953
          ],
          [
            57.94956895265398,
            -245.83673496283615
          ],
          [
            58.31864875072782,
            -246.02129752381282
          ],
          [
            59.4258820787312,
            -246.75952967588927
          ],
          [
            59.979480544078555,
            -247.68227915936689
          ],
          [
            60.902177006154076,
            -248.23595779638177
          ],
          [
            61.82486740201149,
            -248.97418090254308
          ],
          [
            62.378477999795074,
            -249.5278414477278
          ]
        ]
      },
      "properties": {
        "type": "variant",
        "id": 1,
        "color": "#ff4444",
        "vzdal_m": 963,
        "prevyseni_m": 14,
        "cas_s": 288,
        "tempo_str": "4:58"
      }
    },
    {
      "type": "Feature",
      "geometry": {
        "type": "LineString",
        "coordinates": [
          [
            37.09684850684282,
            -226.64308798319766
          ],
          [
            38.01954496891834,
            -227.19676662021254
          ],
          [
            38.942265695866304,
            -227.01226738064148
          ],
          [
            39.86497429037805,
            -227.19685707936338
          ],
          [
            40.97220761838143,
            -227.93508923143983
          ],
          [
            42.44852681067676,
            -228.6733394753464
          ],
          [
            42.81760660875059,
            -228.85790203632308
          ],
          [
            43.55575407246202,
            -229.59611609656935
          ],
          [
            44.293883337519134,
            -230.88796356425502
          ],
          [
            45.03201260257624,
            -232.17981103194072
          ],
          [
            45.77015400006957,
            -233.10256956133347
          ],
          [
            46.1392337981434,
            -233.2871321223101
          ],
          [
            46.32376459785315,
            -233.65623010651814
          ],
          [
            46.50830146378101,
            -233.84078362157973
          ],
          [
            46.69283832970886,
            -234.02533713664127
          ],
          [
            46.87737519563673,
            -234.20989065170286
          ],
          [
            48.35369438793205,
            -234.94814089560944
          ],
          [
            49.091853984079705,
            -235.31726601756276
          ],
          [
            49.64546458186329,
            -235.87092656274746
          ],
          [
            50.01454437993712,
            -236.0554891237241
          ],
          [
            50.383624178010955,
            -236.24005168470077
          ],
          [
            51.1217716417224,
            -236.97826574494698
          ],
          [
            51.675382239505964,
            -237.5319262901317
          ],
          [
            52.044443838925474,
            -238.27012225854781
          ],
          [
            52.4135236369993,
            -238.45468481952443
          ],
          [
            53.15166503449263,
            -239.37744334891718
          ],
          [
            53.33619583420238,
            -239.74654133312524
          ],
          [
            54.07432509925949,
            -241.0383888008109
          ],
          [
            54.25884983275112,
            -241.59203125416545
          ],
          [
            54.44338063246087,
            -241.96112923837347
          ],
          [
            55.181522029954195,
            -242.88388776776623
          ],
          [
            55.91966949366564,
            -243.6221018280125
          ],
          [
            56.47328009144922,
            -244.17576237319716
          ],
          [
            57.21142148894254,
            -245.0985209025899
          ],
          [
            58.50320381531001,
            -245.65221763143495
          ],
          [
            59.794974009241244,
            -246.57500329857297
          ],
          [
            60.533103274298355,
            -247.8668507662586
          ],
          [
            61.455793670155764,
            -248.60507387242
          ],
          [
            62.193941133867206,
            -249.34328793266621
          ],
          [
            62.378477999795074,
            -249.5278414477278
          ]
        ]
      },
      "properties": {
        "type": "variant",
        "id": 2,
        "color": "#4444ff",
        "vzdal_m": 963,
        "prevyseni_m": 16,
        "cas_s": 293,
        "tempo_str": "5:04"
      }
    },
    {
      "type": "Feature",
      "geometry": {
        "type": "LineString",
        "coordinates": [
          [
            37.09684850684282,
            -226.64308798319766
          ],
          [
            37.09682424197037,
            -227.38126585978358
          ],
          [
            37.09679997709792,
            -228.1194437363695
          ],
          [
            37.09679391087982,
            -228.303988205516
          ],
          [
            37.096787844661705,
            -228.48853267466245
          ],
          [
            37.09678177844359,
            -228.67307714380894
          ],
          [
            37.09677571222549,
            -228.85762161295543
          ],
          [
            37.28129437949901,
            -229.5958085354564
          ],
          [
            37.09673931491682,
            -229.9648884278343
          ],
          [
            36.91216605168029,
            -230.88760172765157
          ],
          [
            36.72759278844376,
            -231.8103150274689
          ],
          [
            36.54301952520723,
            -232.73302832728618
          ],
          [
            36.912068992190505,
            -233.84031323399523
          ],
          [
            37.6501921910295,
            -235.31670517082742
          ],
          [
            38.203778523940635,
            -236.608543592598
          ],
          [
            38.57284618957824,
            -237.1621950918676
          ],
          [
            38.94192598765207,
            -237.34675765284427
          ],
          [
            39.311005785725904,
            -237.53132021382092
          ],
          [
            40.418239113729285,
            -238.26955236589734
          ],
          [
            40.78731891180312,
            -238.45411492687398
          ],
          [
            41.15639870987695,
            -238.63867748785066
          ],
          [
            41.52547850795078,
            -238.8232400488273
          ],
          [
            42.26362597166222,
            -239.56145410907357
          ],
          [
            43.001755236719326,
            -240.85330157675924
          ],
          [
            43.73990270043076,
            -241.5915156370055
          ],
          [
            44.47805016414221,
            -242.3297296972518
          ],
          [
            45.216197627853646,
            -243.06794375749806
          ],
          [
            45.95433295912886,
            -244.17524675603724
          ],
          [
            46.32340062476647,
            -244.72889825530686
          ],
          [
            47.61517688491582,
            -245.46713945329836
          ],
          [
            48.53786728077323,
            -246.2053625594597
          ],
          [
            49.09148394477493,
            -246.57447863549794
          ],
          [
            49.460563742848755,
            -246.7590411964746
          ],
          [
            49.64510060877661,
            -246.94359471153615
          ],
          [
            50.01418040685045,
            -247.12815727251282
          ],
          [
            51.49049959914577,
            -247.8664075164194
          ],
          [
            52.66430417805581,
            -248.4898764951546
          ],
          [
            53.613299515635994,
            -247.58570061204074
          ],
          [
            54.07411278162559,
            -247.49744522093764
          ],
          [
            54.99682137613733,
            -247.6820349196596
          ],
          [
            55.91952997064909,
            -247.8666246183815
          ],
          [
            56.473140568432655,
            -248.42028516356618
          ],
          [
            57.02676936487057,
            -248.4203123013114
          ],
          [
            57.76494109345445,
            -248.42034848497178
          ],
          [
            58.50311282203834,
            -248.42038466863212
          ],
          [
            59.241284550622225,
            -248.42042085229244
          ],
          [
            60.163993145133965,
            -248.6050105510144
          ],
          [
            61.45577547150143,
            -249.15870727985944
          ],
          [
            62.378477999795074,
            -249.5278414477278
          ]
        ]
      },
      "properties": {
        "type": "variant",
        "id": 3,
        "color": "#44ff44",
        "vzdal_m": 1083,
        "prevyseni_m": 13,
        "cas_s": 308,
        "tempo_str": "4:44"
      }
    }
  ]
}