{
  "type": "FeatureCollection",
  "features": [
    {
      "type": "Feature",
      "geometry": {
        "type": "Point",
        "coordinates": [
          31.68367935030121,
          -32.760926916784285
        ]
      },
      "properties": {
        "type": "start",
        "isom": "417"
      }
    },
    {
      "type": "Feature",
      "geometry": {
        "type": "Point",
        "coordinates": [
          21.305726259816154,
          -56.103454771478354
        ]
      },
      "properties": {
        "type": "end",
        "isom": "204"
      }
    },
    {
      "type": "Feature",
      "geometry": {
        "type": "LineString",
        "coordinates": [
          [
            31.671914434644673,
            -32.691852357154765
          ],
          [
            31.856427600509868,
            -33.06095137966794
          ],
          [
            32.04094076637507,
            -33.43005040218112
          ],
          [
            32.22545393224027,
            -33.7991494246943
          ],
          [
            32.40998026793981,
            -33.98369907208165
          ],
          [
            32.40996709810547,
            -34.168248447207475
          ],
          [
            32.594467094136334,
            -34.721896844846476
          ],
          [
            32.594414414798976,
            -35.46009434534979
          ],
          [
            32.77890124099551,
            -36.198292118114615
          ],
          [
            32.93756910204244,
            -36.66647487803785
          ],
          [
            32.982627485170255,
            -36.678228928460584
          ],
          [
            33.147914402891566,
            -37.1210395382668
          ],
          [
            32.409703701418714,
            -37.85923594972401
          ],
          [
            31.671492999945865,
            -38.59743236118121
          ],
          [
            30.933282298473014,
            -39.33562877263843
          ],
          [
            30.748716453270468,
            -39.70472725062855
          ],
          [
            30.56415060806792,
            -40.07382572861869
          ],
          [
            30.379584762865367,
            -40.442924206608815
          ],
          [
            30.195018917662818,
            -40.812022684598944
          ],
          [
            30.010453072460265,
            -41.18112116258907
          ],
          [
            29.82588722725772,
            -41.5502196405792
          ],
          [
            29.641321382055168,
            -41.91931811856933
          ],
          [
            28.90305800124497,
            -43.39571203052984
          ],
          [
            28.533926310839867,
            -44.1339089865101
          ],
          [
            28.349360465637318,
            -44.503007464500236
          ],
          [
            28.533834121999504,
            -45.42575461239089
          ],
          [
            28.718334118030366,
            -45.97940301002989
          ],
          [
            28.718320948196027,
            -46.16395238515572
          ],
          [
            28.90283411406123,
            -46.5330514076689
          ],
          [
            28.90282094422689,
            -46.717600782794726
          ],
          [
            28.533728763324806,
            -46.902149613397505
          ],
          [
            27.624139911633584,
            -47.71820817165026
          ],
          [
            27.234976381838262,
            -47.78402314919057
          ],
          [
            26.84581566829424,
            -47.84983249473505
          ],
          [
            26.68822834931136,
            -48.37854189178888
          ],
          [
            26.503662504108807,
            -48.747640369779
          ],
          [
            25.94995179866682,
            -50.03948517887522
          ],
          [
            25.94993862883248,
            -50.224034554001044
          ],
          [
            25.765372783629935,
            -50.593133031991165
          ],
          [
            25.58082010826172,
            -50.777682134855475
          ],
          [
            25.396254263059173,
            -51.1467806128456
          ],
          [
            24.65804356158632,
            -51.884977024302806
          ],
          [
            23.735293354579596,
            -52.6231731634985
          ],
          [
            23.18159581897195,
            -53.730468597468885
          ],
          [
            22.25881927229655,
            -54.83776348691623
          ],
          [
            21.520582231155025,
            -55.945058648625086
          ],
          [
            21.336029555786812,
            -56.12960775148939
          ]
        ]
      },
      "properties": {
        "type": "variant",
        "id": 1,
        "color": "#ff4444",
        "vzdal_m": 770,
        "prevyseni_m": 0,
        "cas_s": 209,
        "tempo_str": "4:31"
      }
    },
    {
      "type": "Feature",
      "geometry": {
        "type": "LineString",
        "coordinates": [
          [
            31.671914434644673,
            -32.691852357154765
          ],
          [
            31.30279591407391,
            -33.245499938009196
          ],
          [
            31.30278274423957,
            -33.43004931313502
          ],
          [
            31.11821689903702,
            -33.79914779112515
          ],
          [
            30.749124718134937,
            -33.98369662172793
          ],
          [
            30.38003253723285,
            -34.16824545233071
          ],
          [
            29.82637451112821,
            -34.721892760923616
          ],
          [
            29.64180866592566,
            -35.090991238913745
          ],
          [
            29.457242820723113,
            -35.46008971690387
          ],
          [
            29.27267697552056,
            -35.829188194894
          ],
          [
            28.534426764544698,
            -37.12103273172869
          ],
          [
            27.98071605910271,
            -38.4128775408249
          ],
          [
            27.24246584812685,
            -39.704722077659596
          ],
          [
            26.688781482353537,
            -40.627468136504156
          ],
          [
            26.31962345227976,
            -41.734763842736065
          ],
          [
            25.765912746837774,
            -43.02660865183228
          ],
          [
            25.581307392132214,
            -43.94935525519988
          ],
          [
            25.396754716763997,
            -44.13390435806419
          ],
          [
            25.39672837709532,
            -44.503003108315845
          ],
          [
            25.212162531892776,
            -44.87210158630597
          ],
          [
            25.02760985652456,
            -45.056650689170276
          ],
          [
            24.84305718115635,
            -45.24119979203458
          ],
          [
            24.658491335953798,
            -45.61029827002471
          ],
          [
            24.473885981248237,
            -46.53304487339231
          ],
          [
            24.28932013604569,
            -46.90214335138244
          ],
          [
            24.104754290843136,
            -47.27124182937258
          ],
          [
            23.551069925069825,
            -48.19398788821713
          ],
          [
            23.5509909060638,
            -49.30128413897209
          ],
          [
            23.366398721192574,
            -50.03948136721388
          ],
          [
            23.366332872020887,
            -50.96222824284301
          ],
          [
            22.8126221665789,
            -52.25407305193923
          ],
          [
            22.25892463097125,
            -53.361368485909615
          ],
          [
            22.258885121468236,
            -53.91501661128709
          ],
          [
            21.889727091394462,
            -55.022312317518995
          ],
          [
            21.336029555786812,
            -56.12960775148939
          ]
        ]
      },
      "properties": {
        "type": "variant",
        "id": 2,
        "color": "#4444ff",
        "vzdal_m": 712,
        "prevyseni_m": 3,
        "cas_s": 210,
        "tempo_str": "4:55"
      }
    },
    {
      "type": "Feature",
      "geometry": {
        "type": "LineString",
        "coordinates": [
          [
            31.671914434644673,
            -32.691852357154765
          ],
          [
            30.933730072840497,
            -33.06095001836032
          ],
          [
            30.56463789193841,
            -33.245498848963095
          ],
          [
            29.272821843698274,
            -33.79914506850991
          ],
          [
            27.79645312008993,
            -34.537340390921024
          ],
          [
            27.058268758285752,
            -34.906438052126575
          ],
          [
            25.76643954021128,
            -35.644633646799214
          ],
          [
            24.47461032213681,
            -36.382829241471846
          ],
          [
            24.290057646768595,
            -36.56737834433615
          ],
          [
            23.920965465866512,
            -36.75192717493893
          ],
          [
            23.551873284964422,
            -36.936476005541714
          ],
          [
            22.813649413657238,
            -37.85922179212474
          ],
          [
            22.07542554235005,
            -38.78196757870778
          ],
          [
            21.70630702177929,
            -39.33561515956221
          ],
          [
            21.521741176576736,
            -39.704713637552345
          ],
          [
            21.337175331374187,
            -40.07381211554247
          ],
          [
            21.152609486171638,
            -40.4429105935326
          ],
          [
            20.96804364096909,
            -40.81200907152273
          ],
          [
            20.783490965600876,
            -40.996558174387026
          ],
          [
            20.598925120398327,
            -41.36565665237716
          ],
          [
            20.045280264128028,
            -41.73475458584424
          ],
          [
            19.676188083225938,
            -41.919303416447015
          ],
          [
            19.49162223802339,
            -42.28840189443715
          ],
          [
            19.860622230085113,
            -43.395698689715154
          ],
          [
            20.0450958864473,
            -44.318445837605815
          ],
          [
            20.414095878509023,
            -45.42574263288382
          ],
          [
            20.414043199171672,
            -46.16394013338712
          ],
          [
            20.414016859502997,
            -46.53303888363878
          ],
          [
            20.598530025368195,
            -46.90213790615196
          ],
          [
            20.96753001742992,
            -48.00943470142997
          ],
          [
            21.52105634519118,
            -49.30128114409533
          ],
          [
            21.705530001553367,
            -50.22402829198598
          ],
          [
            21.890003657915553,
            -51.14677543987664
          ],
          [
            21.70539830320999,
            -52.06952204324425
          ],
          [
            21.520806118338765,
            -52.807719271486036
          ],
          [
            21.705292944535287,
            -53.54591704425086
          ],
          [
            21.705240265197936,
            -54.28411454475417
          ],
          [
            21.70517441602625,
            -55.2068614203833
          ],
          [
            21.336029555786812,
            -56.12960775148939
          ]
        ]
      },
      "properties": {
        "type": "variant",
        "id": 3,
        "color": "#44ff44",
        "vzdal_m": 823,
        "prevyseni_m": 4,
        "cas_s": 215,
        "tempo_str": "4:21"
      }
    }
  ]
}