{
  "type": "FeatureCollection",
  "features": [
    {
      "type": "Feature",
      "geometry": {
        "type": "Point",
        "coordinates": [
          39.106616187782066,
          -89.81810692927401
        ]
      },
      "properties": {
        "type": "start",
        "isom": "419"
      }
    },
    {
      "type": "Feature",
      "geometry": {
        "type": "Point",
        "coordinates": [
          44.5217197443719,
          -116.05450598938525
        ]
      },
      "properties": {
        "type": "end",
        "isom": "204"
      }
    },
    {
      "type": "Feature",
      "geometry": {
        "type": "LineString",
        "coordinates": [
          [
            39.14136266361839,
            -89.84148542919138
          ],
          [
            38.77226163378121,
            -90.30282850974689
          ],
          [
            38.403154537725925,
            -90.94871605960763
          ],
          [
            38.03404440856159,
            -91.68687584412102
          ],
          [
            37.66493427939726,
            -92.42503562863439
          ],
          [
            37.66492214696104,
            -92.79412456724489
          ],
          [
            37.480361016160764,
            -93.34774892880684
          ],
          [
            37.48034888372455,
            -93.71683786741734
          ],
          [
            37.66487361721618,
            -94.2704803216869
          ],
          [
            37.66486148477997,
            -94.63956926029742
          ],
          [
            37.66484935234376,
            -95.00865819890792
          ],
          [
            37.66483721990754,
            -95.37774713751843
          ],
          [
            37.66482508747133,
            -95.74683607612891
          ],
          [
            37.66481295503512,
            -96.11592501473942
          ],
          [
            37.757069255562826,
            -96.57729071117946
          ],
          [
            37.941593989054454,
            -97.13093316544902
          ],
          [
            38.21839018861907,
            -97.68458014289548
          ],
          [
            38.21837805618286,
            -98.05366908150599
          ],
          [
            38.21836592374664,
            -98.42275802011649
          ],
          [
            38.126079292128395,
            -98.88411467020272
          ],
          [
            38.2183355926561,
            -99.34548036664273
          ],
          [
            38.587397192075585,
            -100.08367633657137
          ],
          [
            38.956458791495066,
            -100.82187230650001
          ],
          [
            39.048715092022775,
            -101.28323800294002
          ],
          [
            39.04870295958656,
            -101.65232694155053
          ],
          [
            39.048690827150345,
            -102.02141588016103
          ],
          [
            39.04867869471413,
            -102.39050481877152
          ],
          [
            39.048666562277916,
            -102.75959375738202
          ],
          [
            39.41772816169739,
            -103.49778972731066
          ],
          [
            39.78679279422593,
            -104.14371346258667
          ],
          [
            40.155866526081624,
            -104.51282049390478
          ],
          [
            40.52494025793732,
            -104.88192752522292
          ],
          [
            40.894007923574904,
            -105.43557902584628
          ],
          [
            41.07853569017559,
            -105.89694924546322
          ],
          [
            41.07852355773937,
            -106.26603818407372
          ],
          [
            41.17077985826709,
            -106.72740388051376
          ],
          [
            41.2630361587948,
            -107.18876957695379
          ],
          [
            41.26302402635858,
            -107.55785851556429
          ],
          [
            41.539817192814134,
            -108.2037777276634
          ],
          [
            41.816610359269696,
            -108.84969693976247
          ],
          [
            41.81659822683348,
            -109.21878587837297
          ],
          [
            41.816586094397266,
            -109.58787481698347
          ],
          [
            41.816573961961055,
            -109.95696375559397
          ],
          [
            42.00109869545268,
            -110.51060620986354
          ],
          [
            42.370160294872164,
            -111.24880217979218
          ],
          [
            42.739230993618804,
            -111.71018144576291
          ],
          [
            43.108301692365444,
            -112.17156071173368
          ],
          [
            43.477372391112084,
            -112.63293997770444
          ],
          [
            43.66189712460372,
            -113.18658243197397
          ],
          [
            43.846421858095354,
            -113.74022488624355
          ],
          [
            44.307760989805914,
            -114.29388091004384
          ],
          [
            44.4922887564066,
            -114.75525112966076
          ],
          [
            44.49227662397038,
            -115.12434006827127
          ],
          [
            44.49226449153417,
            -115.49342900688177
          ],
          [
            44.49225235909796,
            -115.86251794549227
          ],
          [
            44.49224629287985,
            -116.04706241479751
          ]
        ]
      },
      "properties": {
        "type": "variant",
        "id": 1,
        "color": "#ff4444",
        "vzdal_m": 1545,
        "prevyseni_m": 21,
        "cas_s": 405,
        "tempo_str": "4:22"
      }
    },
    {
      "type": "Feature",
      "geometry": {
        "type": "LineString",
        "coordinates": [
          [
            39.14136266361839,
            -89.84148542919138
          ],
          [
            38.77226163378121,
            -90.30282850974689
          ],
          [
            38.403154537725925,
            -90.94871605960763
          ],
          [
            38.03404440856159,
            -91.68687584412102
          ],
          [
            37.66493427939726,
            -92.42503562863439
          ],
          [
            37.66492214696104,
            -92.79412456724489
          ],
          [
            37.480361016160764,
            -93.34774892880684
          ],
          [
            37.48034888372455,
            -93.71683786741734
          ],
          [
            37.48033675128834,
            -94.08592680602784
          ],
          [
            37.111226622124,
            -94.82408659054124
          ],
          [
            36.74211649295967,
            -95.56224637505461
          ],
          [
            36.46528086297736,
            -96.20813844809227
          ],
          [
            36.18844523299505,
            -96.85403052112994
          ],
          [
            36.09615860137681,
            -97.31538717121616
          ],
          [
            36.096146468940596,
            -97.68447610982666
          ],
          [
            36.188402769468304,
            -98.1458418062667
          ],
          [
            36.188390637032086,
            -98.5149307448772
          ],
          [
            36.188378504595875,
            -98.88401968348771
          ],
          [
            36.18836637215966,
            -99.25310862209821
          ],
          [
            36.188354239723445,
            -99.62219756070871
          ],
          [
            36.188342107287234,
            -99.9912864993192
          ],
          [
            36.557403706706715,
            -100.72948246924783
          ],
          [
            36.9264653061262,
            -101.46767843917645
          ],
          [
            37.29552690554567,
            -102.20587440910506
          ],
          [
            37.572320072001226,
            -102.85179362120417
          ],
          [
            37.572307939565015,
            -103.22088255981467
          ],
          [
            37.48002130794677,
            -103.68223920990089
          ],
          [
            37.664546041438406,
            -104.23588166417046
          ],
          [
            37.66453390900219,
            -104.60497060278097
          ],
          [
            37.66452177656598,
            -104.97405954139145
          ],
          [
            37.756778077093685,
            -105.4354252378315
          ],
          [
            37.756765944657474,
            -105.804514176442
          ],
          [
            37.9412906781491,
            -106.35815663071156
          ],
          [
            38.12581541164074,
            -106.91179908498114
          ],
          [
            38.218071712168445,
            -107.37316478142115
          ],
          [
            38.40259644566008,
            -107.92680723569072
          ],
          [
            38.40258431322387,
            -108.29589617430122
          ],
          [
            38.5871090467155,
            -108.84953862857078
          ],
          [
            38.86390221317105,
            -109.49545784066989
          ],
          [
            39.04842997977174,
            -109.95682806028681
          ],
          [
            39.41750371162743,
            -110.32593509160495
          ],
          [
            39.78656834415597,
            -110.97185882688095
          ],
          [
            40.155636009793554,
            -111.5255103275043
          ],
          [
            40.524706708540194,
            -111.98688959347507
          ],
          [
            40.89377740728684,
            -112.4482688594458
          ],
          [
            41.26284810603347,
            -112.90964812541657
          ],
          [
            41.63191577167106,
            -113.46329962603994
          ],
          [
            42.00098343730865,
            -114.01695112666332
          ],
          [
            42.37004806983718,
            -114.66287486193931
          ],
          [
            42.73911876858382,
            -115.12425412791005
          ],
          [
            43.200463966512494,
            -115.4933656824051
          ],
          [
            43.84635512969617,
            -115.7702140486013
          ],
          [
            44.49224629287985,
            -116.04706241479751
          ]
        ]
      },
      "properties": {
        "type": "variant",
        "id": 2,
        "color": "#4444ff",
        "vzdal_m": 1615,
        "prevyseni_m": 11,
        "cas_s": 405,
        "tempo_str": "4:10"
      }
    },
    {
      "type": "Feature",
      "geometry": {
        "type": "LineString",
        "coordinates": [
          [
            39.14136266361839,
            -89.84148542919138
          ],
          [
            38.77225860067215,
            -90.39510074439951
          ],
          [
            38.58769746987188,
            -90.94872510596144
          ],
          [
            38.310861839889576,
            -91.59461717899912
          ],
          [
            37.94175171072524,
            -92.33277696351249
          ],
          [
            38.12627644421687,
            -92.88641941778205
          ],
          [
            38.21853274474458,
            -93.34778511422209
          ],
          [
            38.21852061230837,
            -93.7168740528326
          ],
          [
            38.218508479872156,
            -94.0859629914431
          ],
          [
            38.49530771254582,
            -94.54733773423693
          ],
          [
            38.86437234507435,
            -95.19326146951295
          ],
          [
            38.95662864560206,
            -95.65462716595299
          ],
          [
            39.04888494612977,
            -96.115992862393
          ],
          [
            39.32567811258533,
            -96.7619120744921
          ],
          [
            39.41793441311304,
            -97.22327777093213
          ],
          [
            39.69472757956859,
            -97.86919698303123
          ],
          [
            39.97152074602415,
            -98.51511619513032
          ],
          [
            40.34059447787984,
            -98.88422322644844
          ],
          [
            40.43285077840755,
            -99.34558892288848
          ],
          [
            40.43283257975323,
            -99.89922233080424
          ],
          [
            40.709625746208786,
            -100.54514154290334
          ],
          [
            40.98641891266434,
            -101.19106075500241
          ],
          [
            40.98640678022813,
            -101.56014969361291
          ],
          [
            40.98639464779191,
            -101.92923863222342
          ],
          [
            40.9863825153557,
            -102.29832757083392
          ],
          [
            40.98637038291949,
            -102.66741650944442
          ],
          [
            40.98635825048327,
            -103.03650544805492
          ],
          [
            41.170882983974906,
            -103.59014790232449
          ],
          [
            41.17087085153869,
            -103.95923684093499
          ],
          [
            41.263127152066396,
            -104.42060253737503
          ],
          [
            41.263115019630185,
            -104.78969147598553
          ],
          [
            41.26310288719397,
            -105.15878041459604
          ],
          [
            41.17081625557573,
            -105.62013706468225
          ],
          [
            41.17080412313951,
            -105.98922600329276
          ],
          [
            41.1707919907033,
            -106.35831494190326
          ],
          [
            41.17077985826709,
            -106.72740388051376
          ],
          [
            41.2630361587948,
            -107.18876957695379
          ],
          [
            41.26302402635858,
            -107.55785851556429
          ],
          [
            41.539817192814134,
            -108.2037777276634
          ],
          [
            41.816610359269696,
            -108.84969693976247
          ],
          [
            41.81659822683348,
            -109.21878587837297
          ],
          [
            41.816586094397266,
            -109.58787481698347
          ],
          [
            41.816573961961055,
            -109.95696375559397
          ],
          [
            42.00109869545268,
            -110.51060620986354
          ],
          [
            42.370160294872164,
            -111.24880217979218
          ],
          [
            42.739230993618804,
            -111.71018144576291
          ],
          [
            43.108301692365444,
            -112.17156071173368
          ],
          [
            43.477372391112084,
            -112.63293997770444
          ],
          [
            43.66189712460372,
            -113.18658243197397
          ],
          [
            43.846421858095354,
            -113.74022488624355
          ],
          [
            44.307760989805914,
            -114.29388091004384
          ],
          [
            44.4922887564066,
            -114.75525112966076
          ],
          [
            44.49227662397038,
            -115.12434006827127
          ],
          [
            44.49226449153417,
            -115.49342900688177
          ],
          [
            44.49225235909796,
            -115.86251794549227
          ],
          [
            44.49224629287985,
            -116.04706241479751
          ]
        ]
      },
      "properties": {
        "type": "variant",
        "id": 3,
        "color": "#44ff44",
        "vzdal_m": 1524,
        "prevyseni_m": 26,
        "cas_s": 405,
        "tempo_str": "4:25"
      }
    },
    {
      "type": "Feature",
      "geometry": {
        "type": "LineString",
        "coordinates": [
          [
            39.14136266361839,
            -89.84148542919138
          ],
          [
            38.77225860067215,
            -90.39510074439951
          ],
          [
            38.40315150461687,
            -91.04098829426026
          ],
          [
            38.03404440856159,
            -91.68687584412102
          ],
          [
            37.66493427939726,
            -92.42503562863439
          ],
          [
            37.572647647779014,
            -92.88639227872062
          ],
          [
            37.203537518614674,
            -93.62455206323399
          ],
          [
            36.83442738945033,
            -94.36271184774738
          ],
          [
            36.465317260286,
            -95.10087163226076
          ],
          [
            36.096207131121666,
            -95.83903141677416
          ],
          [
            35.72710610128449,
            -96.30037449732966
          ],
          [
            35.450276537520296,
            -96.76172210106206
          ],
          [
            35.45026440508408,
            -97.13081103967257
          ],
          [
            35.2657032742838,
            -97.68443540123451
          ],
          [
            35.26569114184759,
            -98.05352433984501
          ],
          [
            35.26567900941138,
            -98.42261327845551
          ],
          [
            35.26566687697516,
            -98.79170221706602
          ],
          [
            35.26565474453895,
            -99.16079115567652
          ],
          [
            35.26564261210273,
            -99.52988009428702
          ],
          [
            35.26563047966651,
            -99.89896903289753
          ],
          [
            35.2656183472303,
            -100.26805797150803
          ],
          [
            35.26560621479409,
            -100.63714691011853
          ],
          [
            35.26559408235787,
            -101.00623584872903
          ],
          [
            35.26558194992166,
            -101.37532478733954
          ],
          [
            35.26556981748545,
            -101.74441372595004
          ],
          [
            35.26555768504923,
            -102.11350266456054
          ],
          [
            35.26554555261302,
            -102.48259160317103
          ],
          [
            35.26553342017681,
            -102.85168054178153
          ],
          [
            35.26552128774059,
            -103.22076948039204
          ],
          [
            35.080960156940314,
            -103.77439384195398
          ],
          [
            34.711856093994086,
            -104.3280091571621
          ],
          [
            34.61956946237584,
            -104.78936580724832
          ],
          [
            34.43500226535746,
            -105.52753463811553
          ],
          [
            34.80406386477694,
            -106.26573060804414
          ],
          [
            35.17312849730547,
            -106.91165434332015
          ],
          [
            35.54219919605212,
            -107.37303360929089
          ],
          [
            35.91126989479876,
            -107.83441287526165
          ],
          [
            36.28034059354539,
            -108.2957921412324
          ],
          [
            36.64941129229203,
            -108.75717140720313
          ],
          [
            37.1107564902207,
            -109.12628296169818
          ],
          [
            36.64941129229203,
            -108.75717140720313
          ],
          [
            36.28034059354539,
            -108.2957921412324
          ],
          [
            35.9112668616897,
            -107.92668510991427
          ],
          [
            35.54219919605212,
            -107.37303360929089
          ],
          [
            35.17312849730547,
            -106.91165434332015
          ],
          [
            34.80406386477694,
            -106.26573060804414
          ],
          [
            34.43500226535746,
            -105.52753463811553
          ],
          [
            34.06594066593798,
            -104.78933866818689
          ],
          [
            33.78914749948242,
            -104.14341945608778
          ],
          [
            33.51235433302687,
            -103.49750024398871
          ],
          [
            33.327829599535235,
            -102.94385778971915
          ],
          [
            32.958768000115754,
            -102.2056618197905
          ],
          [
            32.866511699588045,
            -101.74429612335048
          ],
          [
            32.68198696609641,
            -101.19065366908093
          ],
          [
            32.68199909853263,
            -100.82156473047043
          ],
          [
            32.58974279800492,
            -100.36019903403039
          ],
          [
            32.58975493044113,
            -99.99111009541988
          ],
          [
            32.58976706287734,
            -99.62202115680938
          ],
          [
            32.58977919531356,
            -99.25293221819888
          ],
          [
            32.58979132774977,
            -98.88384327958839
          ],
          [
            32.58980346018598,
            -98.51475434097789
          ],
          [
            32.5898155926222,
            -98.14566540236738
          ],
          [
            32.58982772505841,
            -97.77657646375688
          ],
          [
            32.497571424530705,
            -97.31521076731684
          ],
          [
            32.497583556966916,
            -96.94612182870634
          ],
          [
            32.497595689403134,
            -96.57703289009584
          ],
          [
            32.405339388875426,
            -96.11566719365581
          ],
          [
            32.40535152131164,
            -95.7465782550453
          ],
          [
            32.31309522078393,
            -95.28521255860527
          ],
          [
            32.22083892025622,
            -94.82384686216524
          ],
          [
            32.22085105269243,
            -94.45475792355472
          ],
          [
            32.22086318512864,
            -94.08566898494422
          ],
          [
            32.22087531756486,
            -93.71658004633372
          ],
          [
            32.220869251346755,
            -93.90112451563897
          ],
          [
            32.220857118910544,
            -94.27021345424947
          ],
          [
            32.22084498647433,
            -94.63930239285999
          ],
          [
            32.220832854038115,
            -95.00839133147049
          ],
          [
            32.31308915456582,
            -95.46975702791052
          ],
          [
            32.40534545509353,
            -95.93112272435056
          ],
          [
            32.49760175562124,
            -96.39248842079058
          ],
          [
            32.49758962318503,
            -96.76157735940109
          ],
          [
            32.49757749074882,
            -97.13066629801159
          ],
          [
            32.4975653583126,
            -97.4997552366221
          ],
          [
            32.58982165884031,
            -97.96112093306213
          ],
          [
            32.589809526404096,
            -98.33020987167264
          ],
          [
            32.589797393967885,
            -98.69929881028314
          ],
          [
            32.58978526153167,
            -99.06838774889364
          ],
          [
            32.58977312909545,
            -99.43747668750413
          ],
          [
            32.58976099665924,
            -99.80656562611463
          ],
          [
            32.58974886422302,
            -100.17565456472514
          ],
          [
            32.58973673178681,
            -100.54474350333564
          ],
          [
            32.681993032314516,
            -101.00610919977568
          ],
          [
            32.77424933284223,
            -101.46747489621569
          ],
          [
            32.86650563336994,
            -101.92884059265572
          ],
          [
            33.05103036686157,
            -102.4824830469253
          ],
          [
            33.4200949993901,
            -103.1284067822013
          ],
          [
            33.60461366666363,
            -103.86659370577613
          ],
          [
            33.97367526608311,
            -104.60478967570474
          ],
          [
            34.34273686550259,
            -105.34298564563336
          ],
          [
            34.71179846492207,
            -106.08118161556197
          ],
          [
            35.08086006434155,
            -106.81937758549061
          ],
          [
            35.44993076308819,
            -107.28075685146135
          ],
          [
            35.81900449494388,
            -107.64986388277948
          ],
          [
            36.18807519369052,
            -108.11124314875025
          ],
          [
            36.55714285932811,
            -108.66489464937361
          ],
          [
            37.203030989402734,
            -109.03401525022247
          ],
          [
            37.94119058555034,
            -109.40314037424821
          ],
          [
            38.58707871562496,
            -109.77226097509704
          ],
          [
            39.14069537962661,
            -110.14137705276896
          ],
          [
            39.5097630452642,
            -110.69502855339235
          ],
          [
            39.87883677711989,
            -111.06413558471048
          ],
          [
            40.24790140964843,
            -111.71005931998647
          ],
          [
            40.61697210839507,
            -112.17143858595723
          ],
          [
            40.98604584025076,
            -112.54054561727534
          ],
          [
            41.3551165389974,
            -113.0019248832461
          ],
          [
            41.72418420463499,
            -113.55557638386948
          ],
          [
            42.093251870272574,
            -114.10922788449284
          ],
          [
            42.462313469692056,
            -114.84742385442148
          ],
          [
            42.83138720154775,
            -115.21653088573959
          ],
          [
            43.38500386554939,
            -115.58564696341153
          ],
          [
            44.03089502873308,
            -115.86249532960775
          ],
          [
            44.49224629287985,
            -116.04706241479751
          ]
        ]
      },
      "properties": {
        "type": "variant",
        "id": 4,
        "color": "#ffaa00",
        "vzdal_m": 3539,
        "prevyseni_m": 19,
        "cas_s": 805,
        "tempo_str": "3:47"
      }
    }
  ]
}