{
  "type": "FeatureCollection",
  "features": [
    {
      "type": "Feature",
      "geometry": {
        "type": "Point",
        "coordinates": [
          34.77437498390996,
          -135.52921344092294
        ]
      },
      "properties": {
        "type": "start",
        "isom": "204"
      }
    },
    {
      "type": "Feature",
      "geometry": {
        "type": "Point",
        "coordinates": [
          74.66761399023427,
          -72.03898690582285
        ]
      },
      "properties": {
        "type": "end",
        "isom": "418"
      }
    },
    {
      "type": "Feature",
      "geometry": {
        "type": "LineString",
        "coordinates": [
          [
            34.825332171587476,
            -135.44872631237214
          ],
          [
            35.56357408368794,
            -134.15687684813756
          ],
          [
            35.563610086888175,
            -133.23411050642636
          ],
          [
            35.748201167633496,
            -132.1267967499132
          ],
          [
            35.93277784709872,
            -131.38858953008454
          ],
          [
            36.30190960410903,
            -130.4658348954539
          ],
          [
            36.486471882294154,
            -130.0967342123097
          ],
          [
            36.67103416047927,
            -129.72763352916547
          ],
          [
            36.8555820373843,
            -129.72763938270575
          ],
          [
            37.040144315569435,
            -129.35853869956154
          ],
          [
            37.40926167129964,
            -128.80489060161537
          ],
          [
            37.593816748844716,
            -128.62034318681341
          ],
          [
            38.88568068974011,
            -127.88217108822631
          ],
          [
            40.17754463063551,
            -127.14399898963924
          ],
          [
            41.28486069462588,
            -126.40582103751191
          ],
          [
            42.57672463552128,
            -125.66764893892483
          ],
          [
            43.6840334988716,
            -125.11402425513971
          ],
          [
            44.237684330226735,
            -124.92948854741829
          ],
          [
            44.42223940777181,
            -124.74494113261632
          ],
          [
            44.79134236222192,
            -124.56039957135462
          ],
          [
            46.26775418002235,
            -123.82223332630781
          ],
          [
            47.744165997822776,
            -123.084067081261
          ],
          [
            48.851482061813144,
            -122.34588912913365
          ],
          [
            49.40514729444837,
            -121.79224688472775
          ],
          [
            49.58970957263351,
            -121.42314620158355
          ],
          [
            49.77427185081863,
            -121.05404551843934
          ],
          [
            49.958834129003755,
            -120.68494483529514
          ],
          [
            50.88162391800924,
            -119.3931012246008
          ],
          [
            51.61984422818956,
            -118.65491156539294
          ],
          [
            52.35806453836987,
            -117.91672190618505
          ],
          [
            52.54262681655499,
            -117.54762122304084
          ],
          [
            53.096306450470315,
            -116.62487244195047
          ],
          [
            54.01907463755566,
            -115.88668863628284
          ],
          [
            54.941842824641,
            -115.14850483061525
          ],
          [
            55.86461101172634,
            -114.41032102494762
          ],
          [
            56.233721166816494,
            -114.0412261953437
          ],
          [
            56.971941476996804,
            -113.30303653613582
          ],
          [
            57.89470966408215,
            -112.5648527304682
          ],
          [
            58.63292997426246,
            -111.82666307126034
          ],
          [
            58.44838929799748,
            -111.64210394937783
          ],
          [
            59.18662400945788,
            -110.53480775348547
          ],
          [
            59.92486592155834,
            -109.2429582892509
          ],
          [
            60.6631222349389,
            -107.58200228833181
          ],
          [
            61.0322539919492,
            -106.65924765370117
          ],
          [
            61.40136414703935,
            -106.29015282409723
          ],
          [
            62.139606059139815,
            -104.99830335986266
          ],
          [
            62.87781916868008,
            -104.444666968997
          ],
          [
            63.24692212313018,
            -104.2601254077353
          ],
          [
            63.98514243331049,
            -103.52193574852744
          ],
          [
            64.72335554285075,
            -102.96829935766178
          ],
          [
            65.46158305367112,
            -102.04555643011167
          ],
          [
            66.0152698882265,
            -100.93825438067904
          ],
          [
            66.93805967723198,
            -99.64641076998474
          ],
          [
            66.56900712726221,
            -98.53907945285077
          ],
          [
            66.75359100736748,
            -97.61631896467986
          ],
          [
            66.56907193302266,
            -96.87810003777065
          ],
          [
            67.49186892266817,
            -95.4017031587341
          ],
          [
            68.13047542369885,
            -94.26722882963621
          ],
          [
            68.0225727010392,
            -93.54833613244026
          ],
          [
            68.21107617386924,
            -92.63191753435166
          ],
          [
            68.26899002400972,
            -91.89827394533673
          ],
          [
            68.96175519777653,
            -90.42895497552794
          ],
          [
            69.71068370316901,
            -89.49899764322258
          ],
          [
            70.39527473651513,
            -88.518461843493
          ],
          [
            71.16851302769507,
            -87.81898847957008
          ],
          [
            71.45363514364212,
            -87.56105774672355
          ],
          [
            71.7195028213605,
            -87.12768027067521
          ],
          [
            71.81621789163785,
            -86.75820508132887
          ],
          [
            71.87780396130267,
            -86.59720165483076
          ],
          [
            72.01742466346334,
            -86.19173295517845
          ],
          [
            72.19962051475875,
            -85.27102811462241
          ],
          [
            72.22811384235887,
            -84.51671371647323
          ],
          [
            72.25415799340199,
            -83.59950710094317
          ],
          [
            72.33371931799186,
            -82.62221873961428
          ],
          [
            73.14044910634675,
            -81.82286081121082
          ],
          [
            73.60973291933523,
            -81.64713106130353
          ],
          [
            75.00557260219523,
            -81.23347368119518
          ],
          [
            75.11744999248691,
            -80.83582711457474
          ],
          [
            75.20819602695232,
            -80.44493278813555
          ],
          [
            75.04481914597824,
            -79.9995847089953
          ],
          [
            75.1518393284082,
            -79.37637726281868
          ],
          [
            74.87444645775382,
            -78.423036612859
          ],
          [
            74.87447526031401,
            -77.68482353949004
          ],
          [
            74.87450406287422,
            -76.9466104661211
          ],
          [
            74.8745328654344,
            -76.20839739275215
          ],
          [
            74.8745616679946,
            -75.47018431938321
          ],
          [
            74.50550911802483,
            -74.36285300224925
          ],
          [
            74.50553071994499,
            -73.80919319722254
          ],
          [
            74.69009299813011,
            -73.44009251407834
          ],
          [
            74.69012180069029,
            -72.70187944070939
          ],
          [
            74.6901506032505,
            -71.96366636734045
          ]
        ]
      },
      "properties": {
        "type": "variant",
        "id": 1,
        "color": "#ff4444",
        "vzdal_m": 2204,
        "prevyseni_m": 84,
        "cas_s": 720,
        "tempo_str": "5:26"
      }
    },
    {
      "type": "Feature",
      "geometry": {
        "type": "LineString",
        "coordinates": [
          [
            34.825332171587476,
            -135.44872631237214
          ],
          [
            34.08719826908775,
            -133.97227675147317
          ],
          [
            33.533605042853004,
            -132.68038631245673
          ],
          [
            33.31890590359084,
            -131.75737661072802
          ],
          [
            33.32478067290587,
            -131.0192087797334
          ],
          [
            33.33064417831239,
            -130.28104094838147
          ],
          [
            33.33651894762742,
            -129.54287311738688
          ],
          [
            33.34239371694244,
            -128.80470528639225
          ],
          [
            33.34826848625747,
            -128.0665374553976
          ],
          [
            33.354560008760295,
            -127.32866250779884
          ],
          [
            33.49523798306741,
            -126.38515190137923
          ],
          [
            34.34409609308843,
            -124.97498639412088
          ],
          [
            35.02581943059041,
            -123.87653083228842
          ],
          [
            35.27875368392734,
            -123.50613693046319
          ],
          [
            35.47761015909886,
            -123.12942207609969
          ],
          [
            35.65187741213637,
            -122.75552250120441
          ],
          [
            35.722541825737466,
            -122.60390810468168
          ],
          [
            35.89680907877498,
            -122.2300085297864
          ],
          [
            35.94087932161397,
            -121.79181982137665
          ],
          [
            35.940908124174165,
            -121.0536067480077
          ],
          [
            36.11775918724035,
            -120.2788806248896
          ],
          [
            35.9409729299346,
            -119.39262733292756
          ],
          [
            35.99193712674312,
            -118.65441587514145
          ],
          [
            36.167133853274784,
            -117.84232059136686
          ],
          [
            36.45999128159102,
            -116.79500923036481
          ],
          [
            36.72387961159088,
            -116.28217375961985
          ],
          [
            36.77706346376557,
            -115.52690831653572
          ],
          [
            36.8456103698076,
            -114.79515464063763
          ],
          [
            36.88156844732039,
            -114.4121013018366
          ],
          [
            37.22746966792955,
            -113.31232280462746
          ],
          [
            37.21462420982451,
            -112.56419679383556
          ],
          [
            37.2146530123847,
            -111.82598372046661
          ],
          [
            37.214681814944896,
            -111.08777064709767
          ],
          [
            37.32353935738575,
            -110.14144860411174
          ],
          [
            37.52098630555536,
            -109.22677343046082
          ],
          [
            37.91288428569876,
            -108.54493903137475
          ],
          [
            38.30670940711239,
            -108.41453418008459
          ],
          [
            39.440109190220504,
            -107.76588239954332
          ],
          [
            40.36287737730584,
            -107.0276985938757
          ],
          [
            41.10109768748615,
            -106.28950893466784
          ],
          [
            41.83931799766646,
            -105.55131927545995
          ],
          [
            42.76208618475181,
            -104.81313546979234
          ],
          [
            43.50029929429207,
            -104.2594990789267
          ],
          [
            44.79215603454742,
            -103.70588024868186
          ],
          [
            44.976711112092495,
            -103.5213328338799
          ],
          [
            45.714960224833,
            -102.04493010130307
          ],
          [
            46.26863265810828,
            -101.30673458855493
          ],
          [
            47.006838567008494,
            -100.93765146603151
          ],
          [
            47.19140084519363,
            -100.5685507828873
          ],
          [
            47.929642757294076,
            -99.27670131865273
          ],
          [
            48.66787746875449,
            -98.16940512276037
          ],
          [
            49.22155710266982,
            -97.24665634166999
          ],
          [
            50.32887316666019,
            -96.50847838954263
          ],
          [
            51.0671078781206,
            -95.4011821936503
          ],
          [
            51.805342589581,
            -94.29388599775794
          ],
          [
            51.98990486776613,
            -93.92478531461374
          ],
          [
            52.174467145951255,
            -93.55568463146953
          ],
          [
            52.91270185741167,
            -92.44838843557719
          ],
          [
            53.09725693495675,
            -92.26384102077522
          ],
          [
            53.281819213141866,
            -91.894740337631
          ],
          [
            54.020039523322176,
            -91.15655067842313
          ],
          [
            54.7582598335025,
            -90.41836101921525
          ],
          [
            54.94282211168762,
            -90.04926033607104
          ],
          [
            55.681056823148026,
            -88.9419641401787
          ],
          [
            55.86561910133315,
            -88.57286345703449
          ],
          [
            56.05018137951827,
            -88.20376277389028
          ],
          [
            56.788423291618734,
            -86.91191330965569
          ],
          [
            57.526643601799044,
            -86.17372365044781
          ],
          [
            58.26487111261941,
            -85.25098072289771
          ],
          [
            58.81854354589469,
            -84.51278521014956
          ],
          [
            59.00310582407982,
            -84.14368452700535
          ],
          [
            59.187660901624895,
            -83.95913711220338
          ],
          [
            59.37222317981002,
            -83.59003642905917
          ],
          [
            59.55678545799514,
            -83.22093574591496
          ],
          [
            59.9259100143654,
            -82.48273437962655
          ],
          [
            60.29504897201575,
            -81.37542647665366
          ],
          [
            60.84872860593107,
            -80.45267769556328
          ],
          [
            61.586963317391486,
            -79.34538149967094
          ],
          [
            61.95608787376174,
            -78.60718013338251
          ],
          [
            62.140650151946865,
            -78.23807945023832
          ],
          [
            62.509774708317124,
            -77.49987808394991
          ],
          [
            62.694358588422396,
            -76.57711759577899
          ],
          [
            62.878920866607515,
            -76.20801691263478
          ],
          [
            63.24802382105762,
            -76.02347535137308
          ],
          [
            64.35533268440794,
            -75.46985066758798
          ],
          [
            65.27810087149328,
            -74.73166686192036
          ],
          [
            66.20086905857863,
            -73.99348305625276
          ],
          [
            66.93908936875894,
            -73.25529339704488
          ],
          [
            67.67730967893925,
            -72.517103737837
          ],
          [
            68.0464198340294,
            -72.14800890823305
          ],
          [
            68.46916113549693,
            -72.26203892967959
          ],
          [
            69.81234587753742,
            -73.19365650982586
          ],
          [
            71.36827441767988,
            -72.33266754030011
          ],
          [
            71.55282229458491,
            -72.33267339384037
          ],
          [
            71.92192524903501,
            -72.14813183257867
          ],
          [
            72.66011675665513,
            -72.14815524673973
          ],
          [
            73.39830826427524,
            -72.14817866090081
          ],
          [
            74.13649977189536,
            -72.14820207506187
          ],
          [
            74.6901506032505,
            -71.96366636734045
          ]
        ]
      },
      "properties": {
        "type": "variant",
        "id": 2,
        "color": "#4444ff",
        "vzdal_m": 2268,
        "prevyseni_m": 103,
        "cas_s": 736,
        "tempo_str": "5:24"
      }
    },
    {
      "type": "Feature",
      "geometry": {
        "type": "LineString",
        "coordinates": [
          [
            34.825332171587476,
            -135.44872631237214
          ],
          [
            35.56357408368794,
            -134.15687684813756
          ],
          [
            35.563610086888175,
            -133.23411050642636
          ],
          [
            35.56364609008842,
            -132.3113441647152
          ],
          [
            35.74822276955364,
            -131.57313694488653
          ],
          [
            35.748251572113844,
            -130.83492387151756
          ],
          [
            35.74828037467403,
            -130.09671079814862
          ],
          [
            35.74830917723423,
            -129.35849772477968
          ],
          [
            35.74833797979442,
            -128.6202846514107
          ],
          [
            36.30201761370975,
            -127.69753587032035
          ],
          [
            37.04023792389007,
            -126.95934621111246
          ],
          [
            37.77847263535047,
            -125.85205001522012
          ],
          [
            38.516692945530785,
            -125.11386035601222
          ],
          [
            39.439453931976075,
            -124.56022981868686
          ],
          [
            39.6240162101612,
            -124.19112913554267
          ],
          [
            39.80857848834633,
            -123.82202845239846
          ],
          [
            39.808585688986376,
            -123.63747518405623
          ],
          [
            39.9931479671715,
            -123.268374500912
          ],
          [
            39.9931767697317,
            -122.53016142754305
          ],
          [
            40.17774624855687,
            -121.97650747605661
          ],
          [
            40.54688520620722,
            -120.86919957308373
          ],
          [
            40.546899607487326,
            -120.50009303639925
          ],
          [
            40.916009762577474,
            -120.13099820679533
          ],
          [
            42.02332582656784,
            -119.39282025466797
          ],
          [
            42.76155333738821,
            -118.47007732711786
          ],
          [
            43.31525457322368,
            -116.99366874100077
          ],
          [
            43.31528337578388,
            -116.25545566763184
          ],
          [
            43.315312178344065,
            -115.51724259426288
          ],
          [
            43.68445113599442,
            -114.40993469128998
          ],
          [
            43.869035016099694,
            -113.48717420311907
          ],
          [
            44.422707449374975,
            -112.74897869037093
          ],
          [
            44.6072697275601,
            -112.37987800722672
          ],
          [
            44.79182480510518,
            -112.19533059242475
          ],
          [
            44.976387083290305,
            -111.82622990928056
          ],
          [
            45.345518840300606,
            -110.90347527464989
          ],
          [
            46.63738278119601,
            -110.16530317606284
          ],
          [
            47.929246722091406,
            -109.42713107747575
          ],
          [
            49.221103462346754,
            -108.8735122472309
          ],
          [
            50.51296740324215,
            -108.13534014864382
          ],
          [
            51.25118771342247,
            -107.39715048943596
          ],
          [
            51.98940802360278,
            -106.65896083022808
          ],
          [
            52.72763553442313,
            -105.73621790267796
          ],
          [
            54.01949227467848,
            -105.18259907243312
          ],
          [
            55.31134901493383,
            -104.62898024218829
          ],
          [
            56.04954052255395,
            -104.62900365634935
          ],
          [
            57.15684218526422,
            -104.2599322409065
          ],
          [
            58.07961037234956,
            -103.52174843523888
          ],
          [
            58.81783068252987,
            -102.783558776031
          ],
          [
            59.55605099271018,
            -102.04536911682311
          ],
          [
            60.29430010545069,
            -100.5689663842463
          ],
          [
            61.03254921819119,
            -99.09256365166947
          ],
          [
            61.21711869701636,
            -98.53890970018303
          ],
          [
            61.4016809752015,
            -98.16980901703882
          ],
          [
            61.955339007196685,
            -97.80072004097515
          ],
          [
            62.13990848602185,
            -97.24706608948871
          ],
          [
            62.87815039812231,
            -95.95521662525411
          ],
          [
            63.98547366275273,
            -95.03248540478454
          ],
          [
            65.09278972674309,
            -94.2943074526572
          ],
          [
            66.01555791382843,
            -93.55612364698959
          ],
          [
            66.75374942144856,
            -93.55614706115065
          ],
          [
            67.49193372842862,
            -93.74072374365396
          ],
          [
            68.00333174477952,
            -93.6047355597317
          ],
          [
            68.1353823805383,
            -93.21771744113198
          ],
          [
            68.24003873078387,
            -92.26509855608222
          ],
          [
            68.52993838582884,
            -91.09900008382625
          ],
          [
            69.40632791131357,
            -89.91542685304974
          ],
          [
            70.11244008412892,
            -89.04227371281856
          ],
          [
            70.78189951405935,
            -88.16872516171019
          ],
          [
            71.45363514364212,
            -87.56105774672355
          ],
          [
            71.7195028213605,
            -87.12768027067521
          ],
          [
            71.81621789163785,
            -86.75820508132887
          ],
          [
            71.87780396130267,
            -86.59720165483076
          ],
          [
            72.01742466346334,
            -86.19173295517845
          ],
          [
            72.19962051475875,
            -85.27102811462241
          ],
          [
            72.22811384235887,
            -84.51671371647323
          ],
          [
            72.25415799340199,
            -83.59950710094317
          ],
          [
            72.33371931799186,
            -82.62221873961428
          ],
          [
            73.14044910634675,
            -81.82286081121082
          ],
          [
            73.60973291933523,
            -81.64713106130353
          ],
          [
            75.00557260219523,
            -81.23347368119518
          ],
          [
            75.11744999248691,
            -80.83582711457474
          ],
          [
            75.20819602695232,
            -80.44493278813555
          ],
          [
            75.04481914597824,
            -79.9995847089953
          ],
          [
            75.1518393284082,
            -79.37637726281868
          ],
          [
            74.87444645775382,
            -78.423036612859
          ],
          [
            74.87447526031401,
            -77.68482353949004
          ],
          [
            74.87450406287422,
            -76.9466104661211
          ],
          [
            74.8745328654344,
            -76.20839739275215
          ],
          [
            74.8745616679946,
            -75.47018431938321
          ],
          [
            74.50550911802483,
            -74.36285300224925
          ],
          [
            74.50553071994499,
            -73.80919319722254
          ],
          [
            74.69009299813011,
            -73.44009251407834
          ],
          [
            74.69012180069029,
            -72.70187944070939
          ],
          [
            74.6901506032505,
            -71.96366636734045
          ]
        ]
      },
      "properties": {
        "type": "variant",
        "id": 3,
        "color": "#44ff44",
        "vzdal_m": 2238,
        "prevyseni_m": 85,
        "cas_s": 721,
        "tempo_str": "5:22"
      }
    }
  ]
}