{
  "type": "FeatureCollection",
  "features": [
    {
      "type": "Feature",
      "geometry": {
        "type": "Point",
        "coordinates": [
          23.645660116490692,
          -55.33554139579032
        ]
      },
      "properties": {
        "type": "start",
        "isom": "204"
      }
    },
    {
      "type": "Feature",
      "geometry": {
        "type": "Point",
        "coordinates": [
          35.655318047479895,
          -68.10489947936557
        ]
      },
      "properties": {
        "type": "end",
        "isom": "112"
      }
    },
    {
      "type": "Feature",
      "geometry": {
        "type": "LineString",
        "coordinates": [
          [
            23.7180431081841,
            -55.295994860332186
          ],
          [
            23.717990428846747,
            -56.03419236083549
          ],
          [
            23.7179377495094,
            -56.7723898613388
          ],
          [
            24.393840654198872,
            -57.94918880508607
          ],
          [
            24.640516748669732,
            -58.433335598778854
          ],
          [
            25.378608921633546,
            -59.35608356345409
          ],
          [
            26.116714264431693,
            -60.0942821530035
          ],
          [
            26.670306441364637,
            -60.46338172003972
          ],
          [
            27.03937228259805,
            -60.64793163968859
          ],
          [
            27.408438123831463,
            -60.83248155933747
          ],
          [
            27.592964459531,
            -61.01703120672482
          ],
          [
            27.96203030076441,
            -61.2015811263737
          ],
          [
            28.700096134059546,
            -62.49342784130058
          ],
          [
            29.99184633312799,
            -62.862528497382904
          ],
          [
            30.360912174361403,
            -63.04707841703178
          ],
          [
            31.46810969806164,
            -63.600728175978404
          ],
          [
            31.83716236946071,
            -63.96982747075311
          ],
          [
            32.02167553532591,
            -64.33892649326629
          ],
          [
            32.20620187102545,
            -64.52347614065363
          ],
          [
            32.57526771225886,
            -64.7080260603025
          ],
          [
            33.49791256059088,
            -65.44622492211344
          ],
          [
            34.236004733554694,
            -66.36897288678867
          ],
          [
            35.15863641205238,
            -67.29172112372542
          ],
          [
            35.52767591361712,
            -67.84536979362595
          ],
          [
            35.712202249316654,
            -68.0299194410133
          ]
        ]
      },
      "properties": {
        "type": "variant",
        "id": 1,
        "color": "#ff4444",
        "vzdal_m": 500,
        "prevyseni_m": 9,
        "cas_s": 153,
        "tempo_str": "5:05"
      }
    },
    {
      "type": "Feature",
      "geometry": {
        "type": "LineString",
        "coordinates": [
          [
            23.7180431081841,
            -55.295994860332186
          ],
          [
            24.087148458920524,
            -54.92689665460358
          ],
          [
            24.640766975522148,
            -54.92689747138815
          ],
          [
            26.117030340455795,
            -55.66509714998366
          ],
          [
            27.414855291044617,
            -56.29689400581172
          ],
          [
            28.133372061555058,
            -56.30673416983441
          ],
          [
            29.059608406179617,
            -56.47445931158622
          ],
          [
            30.025300709324608,
            -56.48047008029862
          ],
          [
            30.361359948728886,
            -56.77239966275367
          ],
          [
            31.099465291527032,
            -57.510598252303076
          ],
          [
            31.83755746449084,
            -58.43334621697831
          ],
          [
            32.57564963745465,
            -59.35609418165353
          ],
          [
            33.31374181041846,
            -60.27884214632877
          ],
          [
            33.68272863264585,
            -61.57068831673261
          ],
          [
            34.42082080560966,
            -62.49343628140783
          ],
          [
            34.97436030320526,
            -63.600733348947365
          ],
          [
            35.158833959567446,
            -64.52348049683802
          ],
          [
            34.97422860486188,
            -65.44622710020563
          ],
          [
            35.34325493659228,
            -66.184425145232
          ],
          [
            35.52772859295447,
            -67.10717229312264
          ],
          [
            35.896768094519196,
            -67.66082096302318
          ],
          [
            35.712202249316654,
            -68.0299194410133
          ]
        ]
      },
      "properties": {
        "type": "variant",
        "id": 2,
        "color": "#4444ff",
        "vzdal_m": 548,
        "prevyseni_m": 11,
        "cas_s": 159,
        "tempo_str": "4:49"
      }
    },
    {
      "type": "Feature",
      "geometry": {
        "type": "LineString",
        "coordinates": [
          [
            23.7180431081841,
            -55.295994860332186
          ],
          [
            23.717990428846747,
            -56.03419236083549
          ],
          [
            23.7179377495094,
            -56.7723898613388
          ],
          [
            23.717898240006384,
            -57.32603798671628
          ],
          [
            23.902411405871586,
            -57.69513700922946
          ],
          [
            24.271411397933306,
            -58.802433804507466
          ],
          [
            24.824937725694568,
            -60.094280247172826
          ],
          [
            25.009411382056754,
            -61.01702739506349
          ],
          [
            25.37841137411848,
            -62.12432419034149
          ],
          [
            25.562885030480665,
            -63.04707133823215
          ],
          [
            26.116424528076262,
            -64.15436840577169
          ],
          [
            26.485490369309677,
            -64.33891832542055
          ],
          [
            27.59267472317557,
            -65.07711745949301
          ],
          [
            27.77718788904077,
            -65.4462164820062
          ],
          [
            27.96171422474031,
            -65.63076612939354
          ],
          [
            28.330780065973716,
            -65.81531604904241
          ],
          [
            29.068898578606202,
            -66.368965263466
          ],
          [
            29.253411744471407,
            -66.73806428597916
          ],
          [
            29.4379249103366,
            -67.10716330849235
          ],
          [
            30.176043422969087,
            -67.66081252291592
          ],
          [
            30.5451092642025,
            -67.84536244256479
          ],
          [
            30.91417510543591,
            -68.02991236221366
          ],
          [
            31.65233312757141,
            -68.02991345125977
          ],
          [
            32.57505699490946,
            -67.66081606231573
          ],
          [
            33.31321501704496,
            -67.66081715136183
          ],
          [
            34.05135986934612,
            -67.84536761553376
          ],
          [
            34.789531061315955,
            -67.66081932945403
          ],
          [
            35.34314957791757,
            -67.6608201462386
          ],
          [
            35.52767591361712,
            -67.84536979362595
          ],
          [
            35.712202249316654,
            -68.0299194410133
          ]
        ]
      },
      "properties": {
        "type": "variant",
        "id": 3,
        "color": "#44ff44",
        "vzdal_m": 561,
        "prevyseni_m": 5,
        "cas_s": 159,
        "tempo_str": "4:43"
      }
    }
  ]
}