{
  "type": "FeatureCollection",
  "features": [
    {
      "type": "Feature",
      "geometry": {
        "type": "Point",
        "coordinates": [
          102.34720883094138,
          -177.29773963867117
        ]
      },
      "properties": {
        "type": "start",
        "isom": "204"
      }
    },
    {
      "type": "Feature",
      "geometry": {
        "type": "Point",
        "coordinates": [
          50.08545789807522,
          -208.8722129526935
        ]
      },
      "properties": {
        "type": "end",
        "isom": "417"
      }
    },
    {
      "type": "Feature",
      "geometry": {
        "type": "LineString",
        "coordinates": [
          [
            102.42666616675233,
            -177.37291697502846
          ],
          [
            101.13485350929429,
            -177.7419425919158
          ],
          [
            100.21211458369199,
            -178.48007523892628
          ],
          [
            99.65847365481785,
            -178.849137039474
          ],
          [
            99.47392465645378,
            -179.03367246270537
          ],
          [
            98.73572866299743,
            -179.77181415563092
          ],
          [
            97.25937307339346,
            -180.1408307266032
          ],
          [
            95.9675482834992,
            -180.87894528178353
          ],
          [
            95.04480329167879,
            -181.80162239794046
          ],
          [
            94.49115629658654,
            -182.35522866763466
          ],
          [
            94.30660123200435,
            -182.72430856001253
          ],
          [
            93.56840523854802,
            -183.46245025293808
          ],
          [
            92.09203751650782,
            -184.2005557622033
          ],
          [
            90.98475565875954,
            -184.9386793632987
          ],
          [
            90.24654146664888,
            -186.2304544636637
          ],
          [
            89.32378434239224,
            -187.5222205181136
          ],
          [
            88.58557621649969,
            -188.62945114933214
          ],
          [
            87.84735595817091,
            -190.10577071884364
          ],
          [
            87.10914176606025,
            -191.3975458192087
          ],
          [
            86.37092150773148,
            -192.87386538872016
          ],
          [
            85.63272551427515,
            -193.61200708164571
          ],
          [
            84.34091285681713,
            -193.98103269853306
          ],
          [
            83.7872840603792,
            -193.98100556078782
          ],
          [
            82.68000826884905,
            -194.53458469273673
          ],
          [
            81.38819561139103,
            -194.90361030962407
          ],
          [
            79.91183395556894,
            -195.45717134974282
          ],
          [
            79.17365616076694,
            -195.64167963522897
          ],
          [
            78.43547836596494,
            -195.82618792071509
          ],
          [
            77.69731270359917,
            -195.64160726790828
          ],
          [
            76.40549397992304,
            -196.1951773539421
          ],
          [
            75.66732225133914,
            -196.19514117028177
          ],
          [
            74.92915052275526,
            -196.1951049866214
          ],
          [
            73.63732573286102,
            -196.93321954180172
          ],
          [
            71.97641507867483,
            -197.67131600515185
          ],
          [
            70.68459028878058,
            -198.40943056033217
          ],
          [
            69.20821650052227,
            -199.33208053874387
          ],
          [
            67.73185484470017,
            -199.8856415788626
          ],
          [
            66.07094419051398,
            -200.62373804221272
          ],
          [
            64.96366839898381,
            -201.1773171741617
          ],
          [
            64.04094160581774,
            -201.5463608828792
          ],
          [
            62.56457994999563,
            -202.09992192299794
          ],
          [
            61.2727612263195,
            -202.65349200903177
          ],
          [
            60.719108165009146,
            -203.39164274787242
          ],
          [
            59.4272833751149,
            -204.12975730305274
          ],
          [
            58.135458585220654,
            -204.86787185823306
          ],
          [
            56.65909086318044,
            -205.60597736749824
          ],
          [
            55.18272314114024,
            -206.34408287676348
          ],
          [
            53.7063493528819,
            -207.26673285517518
          ],
          [
            52.229987697059805,
            -207.82029389529393
          ],
          [
            50.569077042873616,
            -208.55839035864406
          ],
          [
            50.015436113999485,
            -208.92745215919177
          ]
        ]
      },
      "properties": {
        "type": "variant",
        "id": 1,
        "color": "#ff4444",
        "vzdal_m": 1724,
        "prevyseni_m": 6,
        "cas_s": 474,
        "tempo_str": "4:34"
      }
    },
    {
      "type": "Feature",
      "geometry": {
        "type": "LineString",
        "coordinates": [
          [
            102.42666616675233,
            -177.37291697502846
          ],
          [
            101.68849443816843,
            -177.3728807913681
          ],
          [
            101.13485957551241,
            -177.5573981227693
          ],
          [
            100.76578584365669,
            -177.18829109264618
          ],
          [
            99.47396711998056,
            -177.74186117868
          ],
          [
            98.55125245925069,
            -177.7418159491046
          ],
          [
            97.81307466444869,
            -177.9263242345907
          ],
          [
            97.07490293586481,
            -177.92628805093037
          ],
          [
            96.33672514106281,
            -178.1107963364165
          ],
          [
            95.59855947869704,
            -177.92621568360968
          ],
          [
            94.86038775011316,
            -177.92617949994934
          ],
          [
            93.75312409101923,
            -178.1106696936053
          ],
          [
            93.19949529458131,
            -178.11064255586004
          ],
          [
            92.46132356599743,
            -178.1106063721997
          ],
          [
            91.72315183741354,
            -178.11057018853936
          ],
          [
            90.98498010882966,
            -178.110534004879
          ],
          [
            90.06225938188169,
            -178.29503324445005
          ],
          [
            89.69317351758974,
            -178.29501515261987
          ],
          [
            89.26038774413905,
            -178.42931415457434
          ],
          [
            87.97357841558642,
            -179.1073020575355
          ],
          [
            87.60937808888131,
            -179.30090115143162
          ],
          [
            87.24504315686295,
            -179.49438502840542
          ],
          [
            86.52000301104016,
            -180.41567952849914
          ],
          [
            85.264064285251,
            -180.69387614956202
          ],
          [
            84.52589255666712,
            -180.69383996590167
          ],
          [
            83.60316576350102,
            -181.0628836746192
          ],
          [
            82.31135310604301,
            -181.43190929150657
          ],
          [
            80.83499145022091,
            -181.98547033162532
          ],
          [
            80.28136265378299,
            -181.98544319388003
          ],
          [
            79.17408686225284,
            -182.53902232582897
          ],
          [
            78.43592119988705,
            -182.35444167302214
          ],
          [
            77.32865754079312,
            -182.5389318666781
          ],
          [
            76.03683275089888,
            -183.27704642185842
          ],
          [
            74.56045896264055,
            -184.1996964002701
          ],
          [
            73.26864023896442,
            -184.75326648630394
          ],
          [
            72.34590131336212,
            -185.49139913331442
          ],
          [
            71.79224825205176,
            -186.2295498721551
          ],
          [
            71.05404619237733,
            -187.15223603422712
          ],
          [
            70.3158562651391,
            -187.70583325800624
          ],
          [
            69.57766027168277,
            -188.4439749509318
          ],
          [
            68.80014986443226,
            -189.2447693032682
          ],
          [
            68.10126828477011,
            -189.92025833678295
          ],
          [
            66.62490056272989,
            -190.6583638460482
          ],
          [
            65.33308183905376,
            -191.21193393208202
          ],
          [
            65.1485389069078,
            -191.2119248861669
          ],
          [
            64.6575668185351,
            -191.416682052752
          ],
          [
            64.77690558230762,
            -192.13504853941723
          ],
          [
            64.41030044992469,
            -193.24187786311785
          ],
          [
            64.0411903207603,
            -193.9800376478736
          ],
          [
            63.85663525617811,
            -194.34911754025143
          ],
          [
            63.67208019159591,
            -194.71819743262932
          ],
          [
            63.48752512701372,
            -195.08727732500716
          ],
          [
            63.30297006243152,
            -195.45635721738506
          ],
          [
            62.564768002757084,
            -196.3790433794571
          ],
          [
            61.82656594308264,
            -197.30172954152914
          ],
          [
            61.642016944718556,
            -197.48626496476055
          ],
          [
            61.27292501420851,
            -197.67079134207685
          ],
          [
            60.53472902075218,
            -198.4089330350024
          ],
          [
            60.16563102402401,
            -198.77800388146522
          ],
          [
            59.796539093513964,
            -198.96253025878153
          ],
          [
            59.242892098421706,
            -199.51613652847567
          ],
          [
            58.320147106601304,
            -200.43881364463263
          ],
          [
            57.397408180999,
            -201.17694629164313
          ],
          [
            56.84375511968864,
            -201.9150970304838
          ],
          [
            56.10554699379609,
            -203.0223276617023
          ],
          [
            55.367326735467316,
            -204.49864723121377
          ],
          [
            55.18277167088512,
            -204.86772712359166
          ],
          [
            54.44457567742879,
            -205.60586881651722
          ],
          [
            54.075483746918735,
            -205.79039519383352
          ],
          [
            53.337287753462405,
            -206.52853688675913
          ],
          [
            52.599091760006075,
            -207.26667857968468
          ],
          [
            51.67635283440377,
            -208.00481122669515
          ],
          [
            50.384521978291424,
            -208.92747025102196
          ],
          [
            50.015436113999485,
            -208.92745215919177
          ]
        ]
      },
      "properties": {
        "type": "variant",
        "id": 2,
        "color": "#4444ff",
        "vzdal_m": 1784,
        "prevyseni_m": 10,
        "cas_s": 486,
        "tempo_str": "4:32"
      }
    },
    {
      "type": "Feature",
      "geometry": {
        "type": "LineString",
        "coordinates": [
          [
            102.42666616675233,
            -177.37291697502846
          ],
          [
            101.31938430900404,
            -178.11104057612386
          ],
          [
            100.39663931718363,
            -179.0337176922808
          ],
          [
            100.21209031881955,
            -179.21825311551217
          ],
          [
            99.8429983883095,
            -179.4027794928285
          ],
          [
            99.10480239485317,
            -180.14092118575405
          ],
          [
            98.36660033517872,
            -181.06360734782612
          ],
          [
            97.62839220928616,
            -182.17083797904462
          ],
          [
            96.89019621582985,
            -182.9089796719702
          ],
          [
            96.15199415615538,
            -183.83166583404224
          ],
          [
            95.41380422891719,
            -184.38526305782133
          ],
          [
            94.49105923709678,
            -185.30794017397832
          ],
          [
            93.9374001095683,
            -186.23063538196544
          ],
          [
            93.19918591745763,
            -187.52241048233046
          ],
          [
            92.46097779156509,
            -188.62964111354896
          ],
          [
            91.53821460109033,
            -190.10595163714538
          ],
          [
            90.80000647519779,
            -191.2131822683639
          ],
          [
            90.06179228308713,
            -192.5049573687289
          ],
          [
            89.32359022341268,
            -193.42764353080096
          ],
          [
            88.58538209752012,
            -194.5348741620195
          ],
          [
            87.66264317191782,
            -195.27300680902997
          ],
          [
            87.47809417355374,
            -195.45754223226135
          ],
          [
            87.10900224304369,
            -195.64206860957768
          ],
          [
            85.81718351936756,
            -196.1956386956115
          ],
          [
            85.07900572456556,
            -196.38014698109765
          ],
          [
            83.9717299330354,
            -196.93372611304653
          ],
          [
            82.31081927884922,
            -197.67182257639666
          ],
          [
            81.3880742870288,
            -198.59449969255363
          ],
          [
            79.91170049877049,
            -199.51714967096535
          ],
          [
            79.1735348364047,
            -199.33256901815852
          ],
          [
            78.25081410945674,
            -199.5170682577296
          ],
          [
            77.51264238087286,
            -199.51703207406922
          ],
          [
            76.03627465883264,
            -200.25513758333446
          ],
          [
            75.29810293024876,
            -200.25510139967412
          ],
          [
            73.82173520820854,
            -200.99320690893936
          ],
          [
            72.16082455402235,
            -201.7313033722895
          ],
          [
            70.8689997641281,
            -202.4694179274698
          ],
          [
            69.3926320420879,
            -203.207523436735
          ],
          [
            68.654460313504,
            -203.20748725307465
          ],
          [
            68.28536838299397,
            -203.39201363039098
          ],
          [
            67.91628251870202,
            -203.3919955385608
          ],
          [
            67.54719058819197,
            -203.5765219158771
          ],
          [
            66.80901885960807,
            -203.57648573221675
          ],
          [
            65.85762944190789,
            -203.7707602969943
          ],
          [
            65.14812640407622,
            -203.76094878812745
          ],
          [
            64.40995467549234,
            -203.76091260446714
          ],
          [
            63.11813595181621,
            -204.3144826905009
          ],
          [
            62.19541522486825,
            -204.49898193007198
          ],
          [
            61.27269449792028,
            -204.68348116964302
          ],
          [
            60.165424772608226,
            -205.0525158324455
          ],
          [
            59.42725304402434,
            -205.05247964878512
          ],
          [
            58.50453231707638,
            -205.2369788883562
          ],
          [
            57.397262591764324,
            -205.6060135511586
          ],
          [
            56.47453579859825,
            -205.97505725987614
          ],
          [
            54.99817414277615,
            -206.5286182999949
          ],
          [
            53.521806420735935,
            -207.2667238092601
          ],
          [
            52.04543869869572,
            -208.00482931852534
          ],
          [
            50.569077042873616,
            -208.55839035864406
          ],
          [
            50.015436113999485,
            -208.92745215919177
          ]
        ]
      },
      "properties": {
        "type": "variant",
        "id": 3,
        "color": "#44ff44",
        "vzdal_m": 1743,
        "prevyseni_m": 3,
        "cas_s": 479,
        "tempo_str": "4:35"
      }
    }
  ]
}