{
  "type": "FeatureCollection",
  "features": [
    {
      "type": "Feature",
      "geometry": {
        "type": "Point",
        "coordinates": [
          96.92494315644034,
          -36.141937695511444
        ]
      },
      "properties": {
        "type": "start",
        "isom": "419"
      }
    },
    {
      "type": "Feature",
      "geometry": {
        "type": "Point",
        "coordinates": [
          102.1173193359512,
          -61.89334297133944
        ]
      },
      "properties": {
        "type": "end",
        "isom": "109"
      }
    },
    {
      "type": "Feature",
      "geometry": {
        "type": "LineString",
        "coordinates": [
          [
            96.90506569477114,
            -36.14187637010631
          ],
          [
            96.90505356233494,
            -36.51096530871681
          ],
          [
            96.62821793235264,
            -37.15685738175448
          ],
          [
            96.53592523451628,
            -37.802758501145945
          ],
          [
            96.351364103716,
            -38.35638286270789
          ],
          [
            95.98226307387884,
            -38.8177259432634
          ],
          [
            95.70542744389651,
            -39.463618016301055
          ],
          [
            95.52086631309625,
            -40.017242377863
          ],
          [
            95.33630518229597,
            -40.570866739424936
          ],
          [
            95.24401855067772,
            -41.03222338951116
          ],
          [
            94.96718292069542,
            -41.67811546254882
          ],
          [
            94.5980727915311,
            -42.4162752470622
          ],
          [
            94.50578615991284,
            -42.87763189714842
          ],
          [
            94.22895052993053,
            -43.52352397018608
          ],
          [
            94.3212159297854,
            -43.70807296266824
          ],
          [
            94.32120379734918,
            -44.07716190127874
          ],
          [
            94.22892626505809,
            -44.26170184740708
          ],
          [
            94.04436513425783,
            -44.815326208969026
          ],
          [
            94.13662143478554,
            -45.27669190540906
          ],
          [
            94.32114616827717,
            -45.83033435967862
          ],
          [
            94.59793933473273,
            -46.47625357177772
          ],
          [
            94.87473250118829,
            -47.122172783876806
          ],
          [
            95.24379410060777,
            -47.86036875380543
          ],
          [
            95.61286783246346,
            -48.22947578512357
          ],
          [
            95.70512413299117,
            -48.69084148156359
          ],
          [
            95.79738043351888,
            -49.15220717800362
          ],
          [
            95.88963673404659,
            -49.61357287444366
          ],
          [
            95.98189606768335,
            -49.98266633623107
          ],
          [
            96.25868923413891,
            -50.62858554833016
          ],
          [
            96.25867710170269,
            -50.99767448694066
          ],
          [
            96.25866496926648,
            -51.36676342555116
          ],
          [
            96.25865283683028,
            -51.735852364161666
          ],
          [
            96.25864070439404,
            -52.10494130277217
          ],
          [
            96.25862857195784,
            -52.474030241382664
          ],
          [
            96.25861643952163,
            -52.84311917999317
          ],
          [
            96.2586043070854,
            -53.21220811860367
          ],
          [
            96.35086060761311,
            -53.6735738150437
          ],
          [
            96.3508484751769,
            -54.042662753654206
          ],
          [
            96.35083634274069,
            -54.41175169226471
          ],
          [
            96.4430926432684,
            -54.87311738870474
          ],
          [
            96.44308051083217,
            -55.242206327315245
          ],
          [
            96.44306837839598,
            -55.61129526592575
          ],
          [
            96.44305624595977,
            -55.98038420453625
          ],
          [
            96.71984941241531,
            -56.62630341663534
          ],
          [
            97.181194610344,
            -56.995414971130366
          ],
          [
            97.73481127434563,
            -57.364531048802306
          ],
          [
            98.10388197309227,
            -57.825910314773054
          ],
          [
            98.2884067065839,
            -58.37955276904262
          ],
          [
            98.65746830600338,
            -59.117748738971244
          ],
          [
            99.11881957015017,
            -59.30231582416103
          ],
          [
            99.30335946918707,
            -59.394597105167456
          ],
          [
            99.9492475992617,
            -59.7637177060163
          ],
          [
            100.41058976408131,
            -60.225101495163955
          ],
          [
            100.87192889579187,
            -60.778757518964234
          ],
          [
            101.42554555979353,
            -61.147873596636174
          ],
          [
            101.79461929164921,
            -61.5169806279543
          ],
          [
            102.07142155743193,
            -61.88608313609551
          ]
        ]
      },
      "properties": {
        "type": "variant",
        "id": 1,
        "color": "#ff4444",
        "vzdal_m": 1593,
        "prevyseni_m": 5,
        "cas_s": 415,
        "tempo_str": "4:20"
      }
    },
    {
      "type": "Feature",
      "geometry": {
        "type": "LineString",
        "coordinates": [
          [
            96.90506569477114,
            -36.14187637010631
          ],
          [
            96.90505356233494,
            -36.51096530871681
          ],
          [
            96.62821793235264,
            -37.15685738175448
          ],
          [
            96.53592523451628,
            -37.802758501145945
          ],
          [
            96.53591310208006,
            -38.17184743975645
          ],
          [
            96.4436204042437,
            -38.81774855914792
          ],
          [
            96.44360827180749,
            -39.18683749775842
          ],
          [
            96.4435961393713,
            -39.55592643636892
          ],
          [
            96.72038930582683,
            -40.201845648468016
          ],
          [
            97.08945090524631,
            -40.94004161839665
          ],
          [
            97.36624710481094,
            -41.49368859584311
          ],
          [
            97.55077183830257,
            -42.04733105011268
          ],
          [
            97.55075970586635,
            -42.416419988723185
          ],
          [
            97.5507566727573,
            -42.50869222337581
          ],
          [
            97.18165867602917,
            -42.877763069278686
          ],
          [
            96.81255461308294,
            -43.43137838448681
          ],
          [
            96.90482001293782,
            -43.61592737696897
          ],
          [
            97.36617127708459,
            -43.800494462158746
          ],
          [
            97.55070814301244,
            -43.985047977817814
          ],
          [
            97.45843061072136,
            -44.16958792394615
          ],
          [
            97.27386947992109,
            -44.7232122855081
          ],
          [
            97.18157678208473,
            -45.369113404899565
          ],
          [
            96.90474115210242,
            -46.01500547793723
          ],
          [
            96.81245452048418,
            -46.47636212802345
          ],
          [
            96.81244238804797,
            -46.845451066633956
          ],
          [
            96.81243025561174,
            -47.21454000524446
          ],
          [
            96.99695498910339,
            -47.76818245951402
          ],
          [
            96.99694285666716,
            -48.137271398124525
          ],
          [
            96.99693072423095,
            -48.50636033673503
          ],
          [
            96.99691859179475,
            -48.87544927534553
          ],
          [
            96.99690645935853,
            -49.24453821395603
          ],
          [
            96.99689432692232,
            -49.61362715256653
          ],
          [
            96.81233319612204,
            -50.167251514128466
          ],
          [
            96.72004656450379,
            -50.62860816421469
          ],
          [
            96.72003443206758,
            -50.99769710282519
          ],
          [
            96.62774780044934,
            -51.45905375291141
          ],
          [
            96.44318666964905,
            -52.01267811447335
          ],
          [
            96.25862553884878,
            -52.56630247603529
          ],
          [
            96.25861340641258,
            -52.93539141464579
          ],
          [
            96.25860127397637,
            -53.304480353256295
          ],
          [
            96.35085757450408,
            -53.76584604969633
          ],
          [
            96.35084544206785,
            -54.13493498830683
          ],
          [
            96.35083330963164,
            -54.504023926917334
          ],
          [
            96.44308961015935,
            -54.96538962335737
          ],
          [
            96.44307747772314,
            -55.33447856196787
          ],
          [
            96.44306534528691,
            -55.70356750057837
          ],
          [
            96.44305321285071,
            -56.072656439188876
          ],
          [
            96.81211784537925,
            -56.71858017446487
          ],
          [
            97.36573450938089,
            -57.08769625213681
          ],
          [
            97.82707970730957,
            -57.456807806631836
          ],
          [
            98.10387893998322,
            -57.91818254942568
          ],
          [
            98.38067210643878,
            -58.56410176152477
          ],
          [
            98.7497367389673,
            -59.21002549680078
          ],
          [
            99.11881957015017,
            -59.30231582416103
          ],
          [
            99.30335946918707,
            -59.394597105167456
          ],
          [
            99.9492475992617,
            -59.7637177060163
          ],
          [
            100.41058976408131,
            -60.225101495163955
          ],
          [
            100.87192889579187,
            -60.778757518964234
          ],
          [
            101.42554555979353,
            -61.147873596636174
          ],
          [
            101.79461929164921,
            -61.5169806279543
          ],
          [
            102.07142155743193,
            -61.88608313609551
          ]
        ]
      },
      "properties": {
        "type": "variant",
        "id": 2,
        "color": "#4444ff",
        "vzdal_m": 1600,
        "prevyseni_m": 5,
        "cas_s": 51705,
        "tempo_str": "538:28"
      }
    },
    {
      "type": "Feature",
      "geometry": {
        "type": "LineString",
        "coordinates": [
          [
            96.90506569477114,
            -36.14187637010631
          ],
          [
            96.90505356233494,
            -36.51096530871681
          ],
          [
            96.62821793235264,
            -37.15685738175448
          ],
          [
            96.53592523451628,
            -37.802758501145945
          ],
          [
            96.351364103716,
            -38.35638286270789
          ],
          [
            95.98226307387884,
            -38.8177259432634
          ],
          [
            95.70542744389651,
            -39.463618016301055
          ],
          [
            95.52086631309625,
            -40.017242377863
          ],
          [
            95.33630518229597,
            -40.570866739424936
          ],
          [
            95.24401855067772,
            -41.03222338951116
          ],
          [
            94.87490842151338,
            -41.77038317402454
          ],
          [
            94.5980727915311,
            -42.4162752470622
          ],
          [
            94.32123716154877,
            -43.06216732009986
          ],
          [
            94.04440153156646,
            -43.70805939313752
          ],
          [
            93.67530050172928,
            -44.169402473693026
          ],
          [
            93.30619643878306,
            -44.72301778890115
          ],
          [
            92.93709237583684,
            -45.27663310410929
          ],
          [
            92.93708630961872,
            -45.46117757341454
          ],
          [
            92.84479967800048,
            -45.922534223500755
          ],
          [
            92.93705597852819,
            -46.38389991994079
          ],
          [
            92.93704384609198,
            -46.75298885855129
          ],
          [
            92.93703171365576,
            -47.12207779716179
          ],
          [
            93.30609634618429,
            -47.7680015324378
          ],
          [
            93.30608724685713,
            -48.04481823639567
          ],
          [
            93.12152611605686,
            -48.59844259795761
          ],
          [
            93.12151398362064,
            -48.96753153656811
          ],
          [
            92.93695285282037,
            -49.52115589813006
          ],
          [
            92.93694072038414,
            -49.890244836740564
          ],
          [
            92.93692858794795,
            -50.25933377535106
          ],
          [
            93.30599928669459,
            -50.72071304132181
          ],
          [
            93.67506998544123,
            -51.18209230729256
          ],
          [
            94.04413158486071,
            -51.92028827722118
          ],
          [
            94.22865631835234,
            -52.473930731490746
          ],
          [
            94.22864418591612,
            -52.84301967010125
          ],
          [
            94.50543735237169,
            -53.488938882200344
          ],
          [
            94.87449895179117,
            -54.22713485212896
          ],
          [
            95.15129211824673,
            -54.873054064228064
          ],
          [
            95.1512799858105,
            -55.24214300283857
          ],
          [
            95.15126785337429,
            -55.61123194144907
          ],
          [
            95.243524153902,
            -56.072597637889096
          ],
          [
            95.2435120214658,
            -56.44168657649959
          ],
          [
            95.24349988902956,
            -56.810775515110095
          ],
          [
            95.33575922266634,
            -57.1798689768975
          ],
          [
            95.70483598763109,
            -57.456703773563
          ],
          [
            96.07390668637774,
            -57.91808303953376
          ],
          [
            96.44298041823342,
            -58.287190070851885
          ],
          [
            96.99659708223508,
            -58.65630614852382
          ],
          [
            97.73475667838267,
            -59.02543127254956
          ],
          [
            98.10383041023837,
            -59.394538303867684
          ],
          [
            98.56517560816704,
            -59.76364985836272
          ],
          [
            99.11879833838678,
            -59.9482214667294
          ],
          [
            99.85695793453438,
            -60.31734659075514
          ],
          [
            100.41057459853604,
            -60.68646266842708
          ],
          [
            101.14873419468364,
            -61.055587792452826
          ],
          [
            101.70235085868528,
            -61.424703870124766
          ],
          [
            102.07142459054099,
            -61.79381090144288
          ],
          [
            102.07142155743193,
            -61.88608313609551
          ]
        ]
      },
      "properties": {
        "type": "variant",
        "id": 3,
        "color": "#44ff44",
        "vzdal_m": 1687,
        "prevyseni_m": 0,
        "cas_s": 436,
        "tempo_str": "4:18"
      }
    }
  ]
}