{
  "type": "FeatureCollection",
  "features": [
    {
      "type": "Feature",
      "geometry": {
        "type": "Point",
        "coordinates": [
          177.43447723732422,
          -186.36698277913678
        ]
      },
      "properties": {
        "type": "start",
        "isom": "109"
      }
    },
    {
      "type": "Feature",
      "geometry": {
        "type": "Point",
        "coordinates": [
          110.55591313135298,
          -226.29986589495948
        ]
      },
      "properties": {
        "type": "end",
        "isom": "204"
      }
    },
    {
      "type": "Feature",
      "geometry": {
        "type": "LineString",
        "coordinates": [
          [
            177.35079937332915,
            -186.41926860473092
          ],
          [
            175.87443165128892,
            -187.15737411399613
          ],
          [
            174.95169272568663,
            -187.89550676100663
          ],
          [
            174.02895380008434,
            -188.6336394080171
          ],
          [
            173.290757806628,
            -189.37178110094268
          ],
          [
            172.3680188810257,
            -190.1099137479532
          ],
          [
            171.62982288756936,
            -190.84805544087874
          ],
          [
            171.44527388920528,
            -191.03259086411015
          ],
          [
            171.2607188246231,
            -191.401670756488
          ],
          [
            169.96889403472886,
            -192.1397853116683
          ],
          [
            169.0461733077809,
            -192.32428455123937
          ],
          [
            168.30798944676079,
            -192.69333730587198
          ],
          [
            167.38525658737657,
            -193.24692548373596
          ],
          [
            166.27799292828266,
            -193.43141567739195
          ],
          [
            165.72436413184474,
            -193.43138853964666
          ],
          [
            164.4325454081686,
            -193.9849586256805
          ],
          [
            163.325245351766,
            -195.27671563421535
          ],
          [
            162.03343269430798,
            -195.64574125110272
          ],
          [
            160.3725220401218,
            -196.38383771445285
          ],
          [
            159.08069725022756,
            -197.12195226963317
          ],
          [
            157.60432346196922,
            -198.04460224804484
          ],
          [
            156.1279618061471,
            -198.5981632881636
          ],
          [
            154.65160015032504,
            -199.1517243282823
          ],
          [
            153.35977536043077,
            -199.88983888346263
          ],
          [
            151.88340157217246,
            -200.81248886187436
          ],
          [
            151.14521164493422,
            -201.36608608565342
          ],
          [
            149.668843922894,
            -202.10419159491866
          ],
          [
            148.37701913299978,
            -202.84230615009898
          ],
          [
            146.90064534474143,
            -203.76495612851068
          ],
          [
            145.9779306840116,
            -203.76491089893523
          ],
          [
            144.68611802655357,
            -204.1339365158226
          ],
          [
            143.39429323665934,
            -204.87205107100291
          ],
          [
            143.20974423829523,
            -205.05658649423432
          ],
          [
            143.02518917371304,
            -205.42566638661216
          ],
          [
            142.47155431105705,
            -205.6101837180134
          ],
          [
            142.10246238054697,
            -205.7947100953297
          ],
          [
            141.17972952116278,
            -206.3482982731937
          ],
          [
            140.77402789662202,
            -206.6918475591178
          ],
          [
            139.8574082470808,
            -206.4808090804974
          ],
          [
            138.9426926659668,
            -206.2716525876097
          ],
          [
            138.0215596440521,
            -206.0795089385423
          ],
          [
            137.31373278794965,
            -205.93293707363674
          ],
          [
            136.55908093477362,
            -205.83004306746378
          ],
          [
            136.01148753622627,
            -205.97688186908758
          ],
          [
            135.6341902005991,
            -206.14044398492663
          ],
          [
            134.74584354574972,
            -207.09736243005514
          ],
          [
            134.01608011423662,
            -208.39518650373017
          ],
          [
            133.33227322085412,
            -209.4102302602058
          ],
          [
            132.70427637046643,
            -210.23375127491667
          ],
          [
            131.97509991433316,
            -211.16646661833798
          ],
          [
            131.690413217262,
            -211.92061887193768
          ],
          [
            131.55898695111227,
            -212.30716839316585
          ],
          [
            131.33583161394,
            -212.97024849955469
          ],
          [
            131.09157518333484,
            -213.74706556143872
          ],
          [
            130.94016400874366,
            -214.15405336415895
          ],
          [
            130.81314944848603,
            -214.37210381515925
          ],
          [
            130.60587069826516,
            -214.72794667976285
          ],
          [
            130.3985919480443,
            -215.08378954436643
          ],
          [
            130.1923756918537,
            -215.43995125239775
          ],
          [
            129.39997578770522,
            -216.06696841038217
          ],
          [
            128.4898095456891,
            -216.2992991559418
          ],
          [
            127.14455339302418,
            -216.64482976594607
          ],
          [
            126.41595523730324,
            -216.68218557420042
          ],
          [
            125.697405031027,
            -216.76445209316253
          ],
          [
            124.5663776936081,
            -217.03368901137307
          ],
          [
            124.0009157315448,
            -217.16958918604797
          ],
          [
            123.63512182826204,
            -217.25538752093178
          ],
          [
            123.45166397888849,
            -217.2694907523392
          ],
          [
            123.00072884124128,
            -217.47297070847992
          ],
          [
            122.66824971982143,
            -217.7088441537935
          ],
          [
            122.45825006153468,
            -217.857402829367
          ],
          [
            122.11984869514602,
            -218.10613170802517
          ],
          [
            121.4331481989447,
            -218.89629715373454
          ],
          [
            120.6722517766005,
            -219.60851032107675
          ],
          [
            120.0171668588269,
            -220.41071553590606
          ],
          [
            119.52631945917037,
            -221.1885030438437
          ],
          [
            119.3085067510509,
            -221.5360515480863
          ],
          [
            119.17372111648717,
            -221.7516924110836
          ],
          [
            118.97021108367433,
            -222.0873710990661
          ],
          [
            118.79212150421267,
            -222.4805864274564
          ],
          [
            118.57712488553248,
            -222.83098759312185
          ],
          [
            118.44439129839904,
            -223.04731659373604
          ],
          [
            118.22928908388312,
            -223.39772421647828
          ],
          [
            118.01414701684833,
            -223.74801766472962
          ],
          [
            117.1977546640179,
            -224.8063049341453
          ],
          [
            116.26580279477311,
            -225.5397018658908
          ],
          [
            115.52763106618923,
            -225.53966568223046
          ],
          [
            114.78942294029667,
            -226.64689631344896
          ],
          [
            113.68216534742085,
            -226.6468420379585
          ],
          [
            112.94399361883697,
            -226.64680585429812
          ],
          [
            112.021272891889,
            -226.8313050938692
          ],
          [
            111.4676501616692,
            -226.64673348697747
          ],
          [
            110.54494763337554,
            -226.27759931910904
          ]
        ]
      },
      "properties": {
        "type": "variant",
        "id": 1,
        "color": "#ff4444",
        "vzdal_m": 2259,
        "prevyseni_m": 110,
        "cas_s": 776,
        "tempo_str": "5:43"
      }
    },
    {
      "type": "Feature",
      "geometry": {
        "type": "LineString",
        "coordinates": [
          [
            177.35079937332915,
            -186.41926860473092
          ],
          [
            175.87443165128892,
            -187.15737411399613
          ],
          [
            174.95168665946852,
            -188.08005123015312
          ],
          [
            174.2134906660122,
            -188.81819292307867
          ],
          [
            173.47528860633776,
            -189.7408790851507
          ],
          [
            172.7370926128814,
            -190.47902077807632
          ],
          [
            172.55254361451733,
            -190.6635562013077
          ],
          [
            172.36798854993515,
            -191.03263609368557
          ],
          [
            171.99887842077075,
            -191.7707958784413
          ],
          [
            171.81432335618857,
            -192.1398757708192
          ],
          [
            171.26067636109633,
            -192.69348204051335
          ],
          [
            171.07612129651412,
            -193.06256193289124
          ],
          [
            170.15337023847562,
            -194.1697835181947
          ],
          [
            169.2306313128733,
            -194.90791616520517
          ],
          [
            168.49242318698074,
            -196.0151467964237
          ],
          [
            167.3851473954506,
            -196.56872592837257
          ],
          [
            167.01605546494054,
            -196.75325230568887
          ],
          [
            166.27783520661177,
            -198.2295718752004
          ],
          [
            165.53961494828297,
            -199.70589144471188
          ],
          [
            164.80141288860855,
            -200.6285776067839
          ],
          [
            163.87866183057002,
            -201.73579919208734
          ],
          [
            163.14047190333181,
            -202.28939641586643
          ],
          [
            162.2177329777295,
            -203.0275290628769
          ],
          [
            161.66407991641915,
            -203.7656798017176
          ],
          [
            160.9258717905266,
            -204.8729104329361
          ],
          [
            160.0031389311424,
            -205.4264986108001
          ],
          [
            158.89585707339413,
            -206.16462221189548
          ],
          [
            158.15767321237402,
            -206.53367496652814
          ],
          [
            157.78858128186397,
            -206.71820134384444
          ],
          [
            156.49676255818784,
            -207.27177142987827
          ],
          [
            155.2049438345117,
            -207.8253415159121
          ],
          [
            154.07152497103272,
            -208.3123266589627
          ],
          [
            153.15304015239232,
            -208.10868484505048
          ],
          [
            152.43610982174903,
            -208.01814993123895
          ],
          [
            151.70279840507294,
            -207.9584251903314
          ],
          [
            150.96319304363345,
            -207.9174949694029
          ],
          [
            150.2256734835678,
            -207.89553932607762
          ],
          [
            149.2982942115797,
            -207.8679316399558
          ],
          [
            148.56139693872112,
            -207.865736348192
          ],
          [
            147.82322521013725,
            -207.86570016453166
          ],
          [
            147.08505348155336,
            -207.86566398087132
          ],
          [
            146.3503702598793,
            -207.79922751484327
          ],
          [
            145.62556093774856,
            -207.70078946174053
          ],
          [
            145.27544629866912,
            -207.65035015528454
          ],
          [
            144.88493717869963,
            -207.57018164494528
          ],
          [
            144.14026335190627,
            -207.41730585196166
          ],
          [
            143.39602916497535,
            -207.26262813862618
          ],
          [
            142.261679957331,
            -207.02044722381305
          ],
          [
            141.55567809692474,
            -206.86971747034676
          ],
          [
            141.02996541462275,
            -206.75077348815262
          ],
          [
            140.6391130254421,
            -206.66078535226754
          ],
          [
            139.50689674017377,
            -206.40010885200715
          ],
          [
            138.37526050533725,
            -206.15328913374614
          ],
          [
            137.667858782767,
            -206.00572874333838
          ],
          [
            136.9593665665447,
            -205.86070180506863
          ],
          [
            136.1783844329862,
            -205.8992395914151
          ],
          [
            135.6341902005991,
            -206.14044398492663
          ],
          [
            134.74584354574972,
            -207.09736243005514
          ],
          [
            134.01608011423662,
            -208.39518650373017
          ],
          [
            133.33227322085412,
            -209.4102302602058
          ],
          [
            132.70427637046643,
            -210.23375127491667
          ],
          [
            131.97509991433316,
            -211.16646661833798
          ],
          [
            131.690413217262,
            -211.92061887193768
          ],
          [
            131.55898695111227,
            -212.30716839316585
          ],
          [
            131.33583161394,
            -212.97024849955469
          ],
          [
            131.09157518333484,
            -213.74706556143872
          ],
          [
            130.94016400874366,
            -214.15405336415895
          ],
          [
            130.81314944848603,
            -214.37210381515925
          ],
          [
            130.60587069826516,
            -214.72794667976285
          ],
          [
            130.3985919480443,
            -215.08378954436643
          ],
          [
            130.1923756918537,
            -215.43995125239775
          ],
          [
            129.39997578770522,
            -216.06696841038217
          ],
          [
            128.4898095456891,
            -216.2992991559418
          ],
          [
            127.14455339302418,
            -216.64482976594607
          ],
          [
            126.41595523730324,
            -216.68218557420042
          ],
          [
            125.697405031027,
            -216.76445209316253
          ],
          [
            124.5663776936081,
            -217.03368901137307
          ],
          [
            124.0009157315448,
            -217.16958918604797
          ],
          [
            123.63512182826204,
            -217.25538752093178
          ],
          [
            123.45166397888849,
            -217.2694907523392
          ],
          [
            123.00072884124128,
            -217.47297070847992
          ],
          [
            122.66824971982143,
            -217.7088441537935
          ],
          [
            122.45825006153468,
            -217.857402829367
          ],
          [
            122.11984869514602,
            -218.10613170802517
          ],
          [
            121.4331481989447,
            -218.89629715373454
          ],
          [
            120.6722517766005,
            -219.60851032107675
          ],
          [
            120.0171668588269,
            -220.41071553590606
          ],
          [
            119.52631945917037,
            -221.1885030438437
          ],
          [
            119.3085067510509,
            -221.5360515480863
          ],
          [
            119.17372111648717,
            -221.7516924110836
          ],
          [
            118.97021108367433,
            -222.0873710990661
          ],
          [
            118.79212150421267,
            -222.4805864274564
          ],
          [
            118.57712488553248,
            -222.83098759312185
          ],
          [
            118.44439129839904,
            -223.04731659373604
          ],
          [
            118.22928908388312,
            -223.39772421647828
          ],
          [
            118.01414701684833,
            -223.74801766472962
          ],
          [
            117.1977546640179,
            -224.8063049341453
          ],
          [
            116.26580279477311,
            -225.5397018658908
          ],
          [
            115.52763106618923,
            -225.53966568223046
          ],
          [
            114.78942294029667,
            -226.64689631344896
          ],
          [
            113.68216534742085,
            -226.6468420379585
          ],
          [
            112.94399361883697,
            -226.64680585429812
          ],
          [
            112.20582189025308,
            -226.64676967063778
          ],
          [
            111.4676501616692,
            -226.64673348697747
          ],
          [
            110.54494763337554,
            -226.27759931910904
          ]
        ]
      },
      "properties": {
        "type": "variant",
        "id": 2,
        "color": "#4444ff",
        "vzdal_m": 2362,
        "prevyseni_m": 111,
        "cas_s": 781,
        "tempo_str": "5:30"
      }
    },
    {
      "type": "Feature",
      "geometry": {
        "type": "LineString",
        "coordinates": [
          [
            177.35079937332915,
            -186.41926860473092
          ],
          [
            175.87443165128892,
            -187.15737411399613
          ],
          [
            174.3980639292487,
            -187.89547962326137
          ],
          [
            172.92169620720853,
            -188.63358513252658
          ],
          [
            171.62987748353237,
            -189.18715521856043
          ],
          [
            170.89169362251226,
            -189.55620797319304
          ],
          [
            170.5226016920022,
            -189.74073435050937
          ],
          [
            169.78442996341832,
            -189.74069816684903
          ],
          [
            168.49261730596032,
            -190.10972378373637
          ],
          [
            167.75443951115832,
            -190.2942320692225
          ],
          [
            167.01626778257443,
            -190.29419588556215
          ],
          [
            165.90902232213483,
            -189.9250526717787
          ],
          [
            165.17085059355094,
            -189.92501648811833
          ],
          [
            164.43267886496707,
            -189.924980304458
          ],
          [
            163.50994600558286,
            -190.47856848232198
          ],
          [
            162.77174394590844,
            -191.40125464439402
          ],
          [
            162.0335479524521,
            -192.13939633731962
          ],
          [
            161.1108150930679,
            -192.69298451518364
          ],
          [
            160.00354536775586,
            -193.06201917798606
          ],
          [
            159.26537363917197,
            -193.0619829943257
          ],
          [
            158.15810391385992,
            -193.43101765712817
          ],
          [
            157.05083418854787,
            -193.8000523199306
          ],
          [
            155.94356446323582,
            -194.169086982733
          ],
          [
            154.83629473792377,
            -194.53812164553548
          ],
          [
            153.9135740109758,
            -194.72262088510652
          ],
          [
            153.1754022823919,
            -194.72258470144618
          ],
          [
            151.8835835587158,
            -195.27615478748
          ],
          [
            150.59176483503964,
            -195.82972487351384
          ],
          [
            149.85359310645578,
            -195.82968868985347
          ],
          [
            148.9308723795078,
            -196.01418792942454
          ],
          [
            148.1927006509239,
            -196.01415174576417
          ],
          [
            147.0854309256119,
            -196.38318640856664
          ],
          [
            145.42452027142568,
            -197.12128287191678
          ],
          [
            144.13269548153144,
            -197.85939742709706
          ],
          [
            143.5790545526573,
            -198.22845922764478
          ],
          [
            142.65631562705502,
            -198.96659187465522
          ],
          [
            141.54903376930673,
            -199.70471547575065
          ],
          [
            140.44175191155847,
            -200.44283907684604
          ],
          [
            138.96538418951823,
            -201.18094458611128
          ],
          [
            138.0426634625703,
            -201.36544382568232
          ],
          [
            137.11994273562232,
            -201.54994306525333
          ],
          [
            136.7175871398118,
            -201.72604649073193
          ],
          [
            135.64356894736397,
            -202.47259304366506
          ],
          [
            134.16720122532377,
            -203.2106985529303
          ],
          [
            132.87537643542953,
            -203.9488131081106
          ],
          [
            131.5835577117534,
            -204.50238319414444
          ],
          [
            130.1071899897132,
            -205.24048870340965
          ],
          [
            129.55354906083906,
            -205.60955050395737
          ],
          [
            129.36899399625685,
            -205.9786303963352
          ],
          [
            128.26171213850859,
            -206.71675399743063
          ],
          [
            127.89262020799853,
            -206.90128037474693
          ],
          [
            126.78532621781405,
            -208.00849291413527
          ],
          [
            126.0471302243577,
            -208.74663460706086
          ],
          [
            125.30892816468327,
            -209.6693207691329
          ],
          [
            124.57073217122692,
            -210.40746246205845
          ],
          [
            123.83251797911626,
            -211.69923756242343
          ],
          [
            123.65162428098563,
            -212.06843668271247
          ],
          [
            122.39740355255604,
            -212.72504730418189
          ],
          [
            121.25519087314638,
            -213.38829650594758
          ],
          [
            120.51066633965334,
            -214.09815283485614
          ],
          [
            119.77247034619701,
            -214.8362945277817
          ],
          [
            119.40337841568696,
            -215.020820905098
          ],
          [
            118.2960965579387,
            -215.7589445061934
          ],
          [
            118.11155362579272,
            -215.7589354602783
          ],
          [
            117.74246169528267,
            -215.9434618375946
          ],
          [
            117.37336976477262,
            -216.1279882149109
          ],
          [
            117.00427783426255,
            -216.31251459222722
          ],
          [
            116.26608184080624,
            -217.0506562851528
          ],
          [
            115.52787978113179,
            -217.97334244722484
          ],
          [
            114.789659522803,
            -219.4496620167363
          ],
          [
            114.23599432905642,
            -220.55690169386995
          ],
          [
            114.05143926447423,
            -220.92598158624784
          ],
          [
            113.31323113858168,
            -222.03321221746634
          ],
          [
            113.12868214021759,
            -222.21774764069772
          ],
          [
            112.75959020970755,
            -222.40227401801405
          ],
          [
            112.3904982791975,
            -222.58680039533036
          ],
          [
            111.65231441817738,
            -222.95585314996296
          ],
          [
            111.28322248766733,
            -223.14037952727926
          ],
          [
            111.09866742308513,
            -223.50945941965713
          ],
          [
            111.0986431582127,
            -224.24763729624306
          ],
          [
            111.09861889334024,
            -224.98581517282898
          ],
          [
            110.72950269795776,
            -225.90851942673117
          ],
          [
            110.54494763337554,
            -226.27759931910904
          ]
        ]
      },
      "properties": {
        "type": "variant",
        "id": 3,
        "color": "#44ff44",
        "vzdal_m": 2226,
        "prevyseni_m": 100,
        "cas_s": 780,
        "tempo_str": "5:50"
      }
    }
  ]
}