{
  "type": "FeatureCollection",
  "features": [
    {
      "type": "Feature",
      "geometry": {
        "type": "Point",
        "coordinates": [
          21.92133605622165,
          -98.12859377881499
        ]
      },
      "properties": {
        "type": "start",
        "isom": "204"
      }
    },
    {
      "type": "Feature",
      "geometry": {
        "type": "Point",
        "coordinates": [
          76.7363867298027,
          -84.49990358300883
        ]
      },
      "properties": {
        "type": "end",
        "isom": "417"
      }
    },
    {
      "type": "Feature",
      "geometry": {
        "type": "LineString",
        "coordinates": [
          [
            21.88632552815687,
            -98.14514071384633
          ],
          [
            22.439969490139998,
            -97.68380667964463
          ],
          [
            22.80906748686812,
            -97.31473583374174
          ],
          [
            23.362708415742198,
            -96.94567403419268
          ],
          [
            23.873248440631336,
            -96.6962798039567
          ],
          [
            24.193172842162365,
            -96.29980910021645
          ],
          [
            24.74681377103644,
            -95.93074730066738
          ],
          [
            25.48499763205647,
            -95.56169454747214
          ],
          [
            26.2231814930765,
            -95.19264179427688
          ],
          [
            26.869093888023553,
            -94.8235845179047
          ],
          [
            27.607277749043583,
            -94.45453176470944
          ],
          [
            28.345461610063612,
            -94.0854790115142
          ],
          [
            29.099208318557537,
            -93.72865539050468
          ],
          [
            29.453879322371396,
            -93.34896468373279
          ],
          [
            29.910619408841324,
            -93.06129883830928
          ],
          [
            30.5698940924593,
            -92.8192998201909
          ],
          [
            31.29820312036184,
            -92.42472352942791
          ],
          [
            31.667301117089963,
            -92.05565268352503
          ],
          [
            31.759575616271995,
            -91.96338497204931
          ],
          [
            32.40728026752174,
            -91.59432778353413
          ],
          [
            32.95912287387502,
            -91.40981036543333
          ],
          [
            33.60503223571301,
            -91.1330253237138
          ],
          [
            33.97411810000492,
            -91.13304341642142
          ],
          [
            34.52775296266089,
            -90.9485260861776
          ],
          [
            35.265936823680924,
            -90.57947333298235
          ],
          [
            36.00412068470096,
            -90.21042057978708
          ],
          [
            36.465481048174894,
            -90.11817096101899
          ],
          [
            36.8345669124668,
            -90.11818905372661
          ],
          [
            37.29592727594074,
            -90.02593943495852
          ],
          [
            37.76589042855455,
            -89.92399439614442
          ],
          [
            38.12637350370659,
            -89.93370790889804
          ],
          [
            38.49545936799849,
            -89.93372600160566
          ],
          [
            38.8645452322904,
            -89.93374409431328
          ],
          [
            39.41818009494637,
            -89.74922676406946
          ],
          [
            39.971821023820446,
            -89.3801649645204
          ],
          [
            40.71000488484047,
            -89.01111221132514
          ],
          [
            41.33279612339571,
            -88.64340331498805
          ],
          [
            41.632743810442676,
            -88.2729795658732
          ],
          [
            42.3709276714627,
            -87.90392681267794
          ],
          [
            42.832297134263804,
            -87.53486048995197
          ],
          [
            43.53950228393408,
            -87.24634465540286
          ],
          [
            44.03185045808493,
            -86.79674141403073
          ],
          [
            44.493219920886034,
            -86.42767509130476
          ],
          [
            44.95458938368713,
            -86.0586087685788
          ],
          [
            45.32368738041525,
            -85.68953792267591
          ],
          [
            45.69278537714337,
            -85.32046707677303
          ],
          [
            46.154154839944475,
            -84.95140075404706
          ],
          [
            46.8923387009645,
            -84.58234800085181
          ],
          [
            47.50544862885603,
            -84.20788530864355
          ],
          [
            47.8983156244573,
            -83.81812224597883
          ],
          [
            48.465522978387796,
            -83.68968148962846
          ],
          [
            48.93030680468677,
            -83.6155942480681
          ],
          [
            49.567509926604984,
            -83.28899260673386
          ],
          [
            50.13599535091669,
            -82.96541204534965
          ],
          [
            50.65078394582487,
            -82.52586161968152
          ],
          [
            51.35250070576339,
            -82.32372440448573
          ],
          [
            51.69709742950242,
            -82.21347086625705
          ],
          [
            52.04738525813223,
            -82.22602817707003
          ],
          [
            52.2565437801161,
            -82.25176646458453
          ],
          [
            52.79159768969405,
            -82.52657980578388
          ],
          [
            53.17341548689703,
            -82.53536509629453
          ],
          [
            53.699234219684264,
            -82.69266742447527
          ],
          [
            54.181845182910756,
            -82.73726063877483
          ],
          [
            54.55093104720267,
            -82.73727873148246
          ],
          [
            54.92001691149458,
            -82.73729682419008
          ],
          [
            55.307561218205514,
            -82.75084609207025
          ],
          [
            55.658188640078386,
            -82.73733300960532
          ],
          [
            56.119549003552336,
            -82.64508339083723
          ],
          [
            56.48863486784424,
            -82.64510148354485
          ],
          [
            56.857720732136144,
            -82.64511957625247
          ],
          [
            57.503630093974145,
            -82.36833453453293
          ],
          [
            57.87271595826605,
            -82.36835262724055
          ],
          [
            58.24180485566701,
            -82.27609848529555
          ],
          [
            58.703174318468115,
            -81.90703216256958
          ],
          [
            59.16453468194205,
            -81.81478254380148
          ],
          [
            59.722601802298236,
            -81.974239583772
          ],
          [
            59.99103566537395,
            -82.02167403556804
          ],
          [
            60.45560249187067,
            -82.11844412239739
          ],
          [
            60.82846925225337,
            -82.13445908671778
          ],
          [
            61.19457422314477,
            -82.09203618877785
          ],
          [
            61.56531273551349,
            -82.08681309652886
          ],
          [
            62.27921550890832,
            -82.49296621602537
          ],
          [
            62.76042729956696,
            -82.83369556211991
          ],
          [
            63.18742278224428,
            -83.25622213820233
          ],
          [
            63.74512362442187,
            -83.6183515198176
          ],
          [
            64.33167308673863,
            -83.75275276941333
          ],
          [
            64.70075895103055,
            -83.75277086212095
          ],
          [
            65.06984481532245,
            -83.75278895482857
          ],
          [
            65.43893067961436,
            -83.7528070475362
          ],
          [
            66.1078934307635,
            -83.51597322042855
          ],
          [
            66.71135320988068,
            -83.16752056037808
          ],
          [
            66.88673207713325,
            -83.06026745240602
          ],
          [
            67.28438123283728,
            -83.10699186850593
          ],
          [
            67.6534670971292,
            -83.10700996121356
          ],
          [
            68.0225529614211,
            -83.10702805392118
          ],
          [
            68.391638825713,
            -83.1070461466288
          ],
          [
            68.76072469000492,
            -83.10706423933642
          ],
          [
            69.12981055429682,
            -83.10708233204404
          ],
          [
            69.6834454169528,
            -82.92256500180024
          ],
          [
            70.0525312812447,
            -82.92258309450786
          ],
          [
            70.42161714553662,
            -82.92260118721548
          ],
          [
            70.79070300982852,
            -82.9226192799231
          ],
          [
            71.25206337330245,
            -82.830369661155
          ],
          [
            71.65920735653975,
            -82.92956137741216
          ],
          [
            72.26704040077803,
            -83.10723612005883
          ],
          [
            72.63612626506995,
            -83.10725421276646
          ],
          [
            73.00521212936185,
            -83.10727230547408
          ],
          [
            73.37429799365376,
            -83.1072903981817
          ],
          [
            73.74338385794566,
            -83.10730849088932
          ],
          [
            74.2047381552015,
            -83.19960334142648
          ],
          [
            74.94289775134911,
            -83.56872846545222
          ],
          [
            75.58878588142373,
            -83.93784906630107
          ],
          [
            76.32694547757133,
            -84.30697419032681
          ],
          [
            76.69602527564513,
            -84.4915367523397
          ]
        ]
      },
      "properties": {
        "type": "variant",
        "id": 1,
        "color": "#ff4444",
        "vzdal_m": 3293,
        "prevyseni_m": 67,
        "cas_s": 902,
        "tempo_str": "4:33"
      }
    },
    {
      "type": "Feature",
      "geometry": {
        "type": "LineString",
        "coordinates": [
          [
            21.88632552815687,
            -98.14514071384633
          ],
          [
            22.532213658231495,
            -98.51426131469516
          ],
          [
            22.901299522523402,
            -98.51427940740278
          ],
          [
            23.27038538681531,
            -98.5142975001104
          ],
          [
            23.731739684071144,
            -98.60659235064755
          ],
          [
            24.100825548363048,
            -98.60661044335518
          ],
          [
            24.469911412654955,
            -98.60662853606281
          ],
          [
            24.701870297829345,
            -98.55079614772991
          ],
          [
            25.004321419269488,
            -98.80594360184645
          ],
          [
            25.5416888235149,
            -99.21527821543056
          ],
          [
            26.098577519247232,
            -99.57283134180715
          ],
          [
            26.48763310442424,
            -99.90095732255976
          ],
          [
            26.890151783347928,
            -100.24109245225725
          ],
          [
            27.22434446262337,
            -100.13311668773193
          ],
          [
            27.514580954315008,
            -100.08172745379181
          ],
          [
            27.872477569599976,
            -100.01905157474792
          ],
          [
            28.06728168804352,
            -99.98431890256717
          ],
          [
            28.44521996110749,
            -99.93331311841688
          ],
          [
            28.80055634266471,
            -100.04249243853343
          ],
          [
            29.360259684105042,
            -99.80640731492294
          ],
          [
            30.10068773159326,
            -99.440538089907
          ],
          [
            30.48731315584704,
            -99.08117323177306
          ],
          [
            30.93168231848198,
            -98.7029671515351
          ],
          [
            31.43250497452286,
            -98.29272940771862
          ],
          [
            31.94392139632947,
            -97.96108927082378
          ],
          [
            32.52188371518711,
            -97.77538378281922
          ],
          [
            32.866642123277344,
            -97.77659003328758
          ],
          [
            33.32800248675128,
            -97.6843404145195
          ],
          [
            33.789362850225224,
            -97.59209079575139
          ],
          [
            34.52754671124526,
            -97.22303804255613
          ],
          [
            34.988907074719194,
            -97.13078842378805
          ],
          [
            35.45026743819313,
            -97.03853880501994
          ],
          [
            36.09617680003113,
            -96.7617537633004
          ],
          [
            36.6498116626871,
            -96.57723643305658
          ],
          [
            37.18387809425323,
            -96.78155093199526
          ],
          [
            37.637463823577356,
            -97.19363914029516
          ],
          [
            38.146371154311126,
            -97.50562882799034
          ],
          [
            38.68244659131623,
            -97.3167289761126
          ],
          [
            39.14112608111221,
            -97.03871973209615
          ],
          [
            39.510211945404116,
            -97.03873782480379
          ],
          [
            39.87929780969603,
            -97.03875591751142
          ],
          [
            40.24838367398794,
            -97.03877401021903
          ],
          [
            40.61746953827984,
            -97.03879210292666
          ],
          [
            40.98655540257175,
            -97.03881019563427
          ],
          [
            41.35564126686366,
            -97.0388282883419
          ],
          [
            41.72472713115557,
            -97.03884638104954
          ],
          [
            42.278349861375325,
            -97.2234179894162
          ],
          [
            42.64743572566723,
            -97.22343608212383
          ],
          [
            43.10879608914117,
            -97.13118646335573
          ],
          [
            43.8469799501612,
            -96.76213371016047
          ],
          [
            44.40062087903527,
            -96.39307191061143
          ],
          [
            45.04653327398233,
            -96.02401463423925
          ],
          [
            45.814403100675584,
            -95.6369094079471
          ],
          [
            46.430626496840354,
            -95.37817683932445
          ],
          [
            47.16881035786039,
            -95.00912408612919
          ],
          [
            47.717415828669466,
            -94.62868063363057
          ],
          [
            48.15186675305816,
            -94.2299291040859
          ],
          [
            48.55089246664476,
            -93.90013705808714
          ],
          [
            49.04059213646633,
            -93.56705693649518
          ],
          [
            49.7551145926354,
            -93.16874661188425
          ],
          [
            50.02476301136354,
            -93.05981912872402
          ],
          [
            50.4906959364429,
            -92.97768052902101
          ],
          [
            50.965599476733765,
            -93.1461786594724
          ],
          [
            51.428794014342195,
            -93.06169499887964
          ],
          [
            51.88425450185992,
            -92.90902053123511
          ],
          [
            52.62526622354037,
            -92.5612977177328
          ],
          [
            52.96448776837032,
            -92.4641095250128
          ],
          [
            53.17293760255995,
            -92.50937051334853
          ],
          [
            53.637933317466484,
            -92.87461699948058
          ],
          [
            54.34733661487603,
            -93.28998050059049
          ],
          [
            54.91099287697374,
            -93.46795818378523
          ],
          [
            55.46886439417466,
            -93.64618678710927
          ],
          [
            56.026791311367866,
            -93.81033727235602
          ],
          [
            56.493741373657194,
            -93.97897606484038
          ],
          [
            56.9372423694047,
            -94.13020633028967
          ],
          [
            57.38817215305048,
            -94.25900138679346
          ],
          [
            57.873720677243575,
            -94.2727403639763
          ],
          [
            58.432083689801686,
            -94.44316349144717
          ],
          [
            58.88829215467526,
            -94.56157921208768
          ],
          [
            59.3518892337471,
            -94.48064122084936
          ],
          [
            59.72789396119734,
            -94.48775297460234
          ],
          [
            60.348804352172046,
            -94.07311127532651
          ],
          [
            60.825029800187735,
            -93.71798223117446
          ],
          [
            61.27305138732855,
            -93.37625349535979
          ],
          [
            61.840154102563055,
            -93.25867081680961
          ],
          [
            62.485940454373754,
            -92.97988577113776
          ],
          [
            63.22412431539378,
            -92.6108330179425
          ],
          [
            63.962308176413806,
            -92.24178026474725
          ],
          [
            64.70049203743383,
            -91.87272751155199
          ],
          [
            65.44433233000377,
            -91.46512859340623
          ],
          [
            66.07259232904914,
            -91.11262938322805
          ],
          [
            66.70053170019992,
            -90.72961234221056
          ],
          [
            67.1716474364947,
            -90.37513101812587
          ],
          [
            67.26635945994592,
            -90.28546374337405
          ],
          [
            67.43587659216732,
            -90.15636148369722
          ],
          [
            68.10813413614711,
            -89.92936751805496
          ],
          [
            68.4769287421862,
            -89.63431838997188
          ],
          [
            68.76343739675384,
            -89.6487314210401
          ],
          [
            69.2218627852636,
            -89.77658432691818
          ],
          [
            69.74603238018193,
            -89.66193060022655
          ],
          [
            70.42900691512543,
            -89.30374053051861
          ],
          [
            71.06731722284991,
            -89.01260033652709
          ],
          [
            71.71322961779697,
            -88.64354306015494
          ],
          [
            72.15901607695301,
            -88.22697976098833
          ],
          [
            72.57416783735128,
            -87.92195983646478
          ],
          [
            72.89841196184356,
            -87.52269099653857
          ],
          [
            73.27359250043972,
            -87.15896288046349
          ],
          [
            73.74407202585549,
            -86.78848775874347
          ],
          [
            74.28939551071684,
            -86.41862400564521
          ],
          [
            74.76905646864193,
            -86.07681228633234
          ],
          [
            75.12737092198682,
            -85.69099890881643
          ],
          [
            75.70701541464753,
            -85.35967427610572
          ],
          [
            76.35651532789083,
            -85.01794927320623
          ],
          [
            76.69602527564513,
            -84.4915367523397
          ]
        ]
      },
      "properties": {
        "type": "variant",
        "id": 2,
        "color": "#4444ff",
        "vzdal_m": 3335,
        "prevyseni_m": 96,
        "cas_s": 904,
        "tempo_str": "4:31"
      }
    },
    {
      "type": "Feature",
      "geometry": {
        "type": "LineString",
        "coordinates": [
          [
            21.88632552815687,
            -98.14514071384633
          ],
          [
            22.439969490139998,
            -97.68380667964463
          ],
          [
            22.80906748686812,
            -97.31473583374174
          ],
          [
            23.362708415742198,
            -96.94567403419268
          ],
          [
            23.873248440631336,
            -96.6962798039567
          ],
          [
            24.193172842162365,
            -96.29980910021645
          ],
          [
            24.74681377103644,
            -95.93074730066738
          ],
          [
            25.48499763205647,
            -95.56169454747214
          ],
          [
            26.2231814930765,
            -95.19264179427688
          ],
          [
            26.869093888023553,
            -94.8235845179047
          ],
          [
            27.607277749043583,
            -94.45453176470944
          ],
          [
            28.345461610063612,
            -94.0854790115142
          ],
          [
            29.099208318557537,
            -93.72865539050468
          ],
          [
            29.453879322371396,
            -93.34896468373279
          ],
          [
            29.910619408841324,
            -93.06129883830928
          ],
          [
            30.45957071320804,
            -92.86175929208807
          ],
          [
            31.116628191687635,
            -92.62770224264956
          ],
          [
            31.481303350861307,
            -92.62555291498427
          ],
          [
            31.856029970067326,
            -92.60734255636652
          ],
          [
            32.2332810060102,
            -92.61006198717828
          ],
          [
            32.58999757916541,
            -92.60933132320983
          ],
          [
            32.959083443457324,
            -92.60934941591745
          ],
          [
            33.32816930774923,
            -92.60936750862508
          ],
          [
            33.881804170405196,
            -92.42485017838126
          ],
          [
            34.5277135322432,
            -92.14806513666173
          ],
          [
            34.8967993965351,
            -92.14808322936935
          ],
          [
            35.45043425919108,
            -91.96356589912554
          ],
          [
            36.1886181202111,
            -91.59451314593028
          ],
          [
            36.834527482049104,
            -91.31772810421074
          ],
          [
            37.203613346341015,
            -91.31774619691836
          ],
          [
            37.57269921063292,
            -91.31776428962598
          ],
          [
            37.94178507492483,
            -91.3177823823336
          ],
          [
            38.310870939216734,
            -91.31780047504124
          ],
          [
            38.76848702639645,
            -91.23299280251719
          ],
          [
            39.233591666164614,
            -91.13330123750504
          ],
          [
            39.60267753045652,
            -91.13331933021266
          ],
          [
            39.97176339474843,
            -91.13333742292028
          ],
          [
            40.70994725576846,
            -90.76428466972503
          ],
          [
            41.263582118424424,
            -90.57976733948121
          ],
          [
            41.632667982716335,
            -90.57978543218883
          ],
          [
            42.00175384700824,
            -90.57980352489645
          ],
          [
            42.37083971130015,
            -90.57982161760408
          ],
          [
            42.73992557559206,
            -90.5798397103117
          ],
          [
            43.234573854948145,
            -90.4156552074839
          ],
          [
            43.52628783724313,
            -89.97770048625095
          ],
          [
            43.748342792863795,
            -89.82929654151326
          ],
          [
            44.49848205012631,
            -89.48017067133163
          ],
          [
            44.83342932417546,
            -89.12038413855048
          ],
          [
            45.22297703701732,
            -88.70811970143704
          ],
          [
            45.894280335132414,
            -88.51412744616931
          ],
          [
            46.34114551355164,
            -88.38265844843356
          ],
          [
            46.9249104440965,
            -87.92750264800947
          ],
          [
            47.26385799864948,
            -87.53811236285627
          ],
          [
            47.835592182117054,
            -87.17795720491664
          ],
          [
            47.96485464479197,
            -86.60627746581606
          ],
          [
            48.36863059527822,
            -86.15104836077693
          ],
          [
            48.7377316251154,
            -85.68970528022142
          ],
          [
            49.199104121025556,
            -85.22836672284281
          ],
          [
            49.93728798204559,
            -84.85931396964756
          ],
          [
            50.675471843065615,
            -84.49026121645231
          ],
          [
            51.41365570408564,
            -84.12120846325705
          ],
          [
            52.05956506592364,
            -83.84442342153751
          ],
          [
            52.42865093021556,
            -83.84444151424513
          ],
          [
            52.797736794507465,
            -83.84445960695275
          ],
          [
            53.259091091763295,
            -83.93675445748991
          ],
          [
            53.812713821983046,
            -84.12132606585659
          ],
          [
            54.45860498516672,
            -84.39817443205281
          ],
          [
            55.02633558359278,
            -84.68866488156058
          ],
          [
            55.82541579520824,
            -85.0735449254479
          ],
          [
            56.37420728981879,
            -85.30146433751798
          ],
          [
            56.854370768263244,
            -85.28603905765534
          ],
          [
            57.031827218768704,
            -85.34552932306173
          ],
          [
            57.5035320194422,
            -85.35192532079641
          ],
          [
            57.877081584314155,
            -85.32594317016144
          ],
          [
            58.24522859918985,
            -85.34481153039818
          ],
          [
            58.709429196435536,
            -85.4404766115972
          ],
          [
            59.06073231965503,
            -85.45073254869332
          ],
          [
            59.32327343083718,
            -85.55699412522794
          ],
          [
            59.89200967106747,
            -85.74077119219075
          ],
          [
            60.3601120951265,
            -85.75209119431938
          ],
          [
            60.761315225786184,
            -85.71801557216035
          ],
          [
            61.10210504578527,
            -85.7825836205794
          ],
          [
            61.471190910077176,
            -85.78260171328702
          ],
          [
            61.84027677436908,
            -85.78261980599464
          ],
          [
            62.209362638660984,
            -85.78263789870226
          ],
          [
            62.5784485029529,
            -85.78265599140988
          ],
          [
            62.947534367244806,
            -85.7826740841175
          ],
          [
            63.27829575243046,
            -85.74710988056107
          ],
          [
            63.68570609582862,
            -85.78271026953276
          ],
          [
            64.05479196012054,
            -85.78272836224038
          ],
          [
            64.42387782441244,
            -85.782746454948
          ],
          [
            64.79296368870435,
            -85.78276454765562
          ],
          [
            65.16204955299625,
            -85.78278264036324
          ],
          [
            65.53113541728817,
            -85.78280073307086
          ],
          [
            65.93059360628783,
            -85.89346006761643
          ],
          [
            66.36157557883591,
            -85.87511367631564
          ],
          [
            66.73066144312781,
            -85.87513176902327
          ],
          [
            67.09975034052877,
            -85.78287762707826
          ],
          [
            67.65337307074853,
            -85.96744923544495
          ],
          [
            68.20699580096829,
            -86.15202084381163
          ],
          [
            68.66835009822411,
            -86.24431569434878
          ],
          [
            69.12970439547995,
            -86.33661054488593
          ],
          [
            69.58547656989273,
            -86.20566666457204
          ],
          [
            70.32826326621803,
            -85.87357617625598
          ],
          [
            70.79060291722975,
            -85.96760302345974
          ],
          [
            71.15968878152165,
            -85.96762111616736
          ],
          [
            71.71331151174141,
            -86.15219272453405
          ],
          [
            72.17466580899725,
            -86.2444875750712
          ],
          [
            72.90613801633415,
            -86.63454482622626
          ],
          [
            73.37243902526768,
            -86.77283938615885
          ],
          [
            73.92781456505664,
            -86.52139021939028
          ],
          [
            74.6036354623046,
            -86.19422398011905
          ],
          [
            75.08860213598265,
            -85.85459910062347
          ],
          [
            75.60133916907998,
            -85.43249296346207
          ],
          [
            76.16880112656312,
            -85.10327926613837
          ],
          [
            76.60374774335405,
            -84.67607669846804
          ],
          [
            76.69602527564513,
            -84.4915367523397
          ]
        ]
      },
      "properties": {
        "type": "variant",
        "id": 3,
        "color": "#44ff44",
        "vzdal_m": 3291,
        "prevyseni_m": 76,
        "cas_s": 907,
        "tempo_str": "4:35"
      }
    }
  ]
}