{
  "type": "FeatureCollection",
  "features": [
    {
      "type": "Feature",
      "geometry": {
        "type": "Point",
        "coordinates": [
          87.68865984679408,
          -239.2434349506469
        ]
      },
      "properties": {
        "type": "start",
        "isom": "417"
      }
    },
    {
      "type": "Feature",
      "geometry": {
        "type": "Point",
        "coordinates": [
          158.28770303310966,
          -230.14885322700096
        ]
      },
      "properties": {
        "type": "end",
        "isom": "418"
      }
    },
    {
      "type": "Feature",
      "geometry": {
        "type": "LineString",
        "coordinates": [
          [
            87.69245547822545,
            -239.29129599674536
          ],
          [
            88.43062114059124,
            -239.4758766495522
          ],
          [
            89.16879893539323,
            -239.29136836406605
          ],
          [
            89.9069706639771,
            -239.2914045477264
          ],
          [
            90.6451484587791,
            -239.10689626224027
          ],
          [
            91.38331412114488,
            -239.29147691504707
          ],
          [
            92.12148584972876,
            -239.2915130987074
          ],
          [
            92.85965151209453,
            -239.47609375151424
          ],
          [
            93.59782930689653,
            -239.29158546602812
          ],
          [
            94.33600103548042,
            -239.29162164968844
          ],
          [
            95.25870356377405,
            -239.66075581755686
          ],
          [
            96.18140002584958,
            -240.21443445457174
          ],
          [
            96.91956568821536,
            -240.39901510737852
          ],
          [
            97.65774348301736,
            -240.2145068218924
          ],
          [
            98.39591521160123,
            -240.21454300555277
          ],
          [
            99.31862380611298,
            -240.39913270427468
          ],
          [
            100.05679553469686,
            -240.39916888793502
          ],
          [
            100.79496726328075,
            -240.39920507159533
          ],
          [
            101.16405312757269,
            -240.39922316342552
          ],
          [
            102.58643014908782,
            -241.2637358170401
          ],
          [
            103.56754513763359,
            -241.3776413011425
          ],
          [
            104.25955366405076,
            -241.2435051850839
          ],
          [
            105.2141645516672,
            -241.05231322394567
          ],
          [
            105.91143598184512,
            -240.9617149756504
          ],
          [
            106.3137671038272,
            -240.8518528922151
          ],
          [
            106.67218177652467,
            -240.7900199769577
          ],
          [
            107.06152160903453,
            -240.722851920782
          ],
          [
            107.78232045188537,
            -240.6085832256637
          ],
          [
            108.92728068899397,
            -240.4717752379746
          ],
          [
            109.65282288520862,
            -240.38236124302142
          ],
          [
            109.95934951571017,
            -240.27319314734473
          ],
          [
            110.32735643770438,
            -240.0895721980841
          ],
          [
            110.76029166538129,
            -240.21514908186356
          ],
          [
            111.12938359589134,
            -240.03062270454726
          ],
          [
            111.86756745691146,
            -239.6615699499146
          ],
          [
            112.42119625334936,
            -239.66159708765989
          ],
          [
            113.34389878164299,
            -240.03073125552828
          ],
          [
            113.71297857971683,
            -240.21529381650492
          ],
          [
            114.26660130993663,
            -240.39986542339665
          ],
          [
            114.63569324044668,
            -240.21533904608035
          ],
          [
            115.7429387008863,
            -240.58448225986382
          ],
          [
            116.8501841613259,
            -240.9536254736473
          ],
          [
            117.77289275583765,
            -241.1382151723692
          ],
          [
            118.88015641493159,
            -240.95372497871327
          ],
          [
            119.61833420973359,
            -240.7692166932271
          ],
          [
            120.9101408009735,
            -240.58473554548627
          ],
          [
            122.20195952464961,
            -240.03116545945244
          ],
          [
            123.30923531617978,
            -239.47758632750347
          ],
          [
            124.41647471040127,
            -240.03127401043346
          ],
          [
            125.3391772386949,
            -240.40040817830183
          ],
          [
            126.26190403186098,
            -240.0313644695843
          ],
          [
            126.8155328282989,
            -240.03139160732954
          ],
          [
            127.73824748902875,
            -240.031436836905
          ],
          [
            128.66097428219484,
            -239.6623931281875
          ],
          [
            129.58368287670658,
            -239.8469828269094
          ],
          [
            130.50640966987265,
            -239.47793911819187
          ],
          [
            131.24458139845655,
            -239.4779753018522
          ],
          [
            131.9827531270404,
            -239.47801148551252
          ],
          [
            132.90547385398838,
            -239.2935122459415
          ],
          [
            133.64364558257228,
            -239.29354842960183
          ],
          [
            134.19727437901017,
            -239.29357556734712
          ],
          [
            134.56636630952025,
            -239.1090491900308
          ],
          [
            135.3045380381041,
            -239.10908537369113
          ],
          [
            136.0427158329061,
            -238.924577088205
          ],
          [
            137.7036264870923,
            -238.18648062485488
          ],
          [
            138.6263593464765,
            -237.63289244699087
          ],
          [
            139.36455533993282,
            -236.8947507540653
          ],
          [
            140.10275133338916,
            -236.1566090611397
          ],
          [
            140.8409533930636,
            -235.2339228990677
          ],
          [
            141.19323406357933,
            -235.05577512314738
          ],
          [
            141.9607032155966,
            -235.15143188329628
          ],
          [
            142.65931063258728,
            -235.14585529264636
          ],
          [
            143.56142832181095,
            -235.40002909001637
          ],
          [
            143.9781893057632,
            -235.04953221047765
          ],
          [
            145.27000802943937,
            -234.49596212444382
          ],
          [
            146.56182068689736,
            -234.12693650755648
          ],
          [
            148.0381944751557,
            -233.20428652914478
          ],
          [
            148.96092126832175,
            -232.83524282042725
          ],
          [
            150.0681849274157,
            -232.65075262677132
          ],
          [
            150.62181979007173,
            -232.46623529537007
          ],
          [
            150.99090565436367,
            -232.46625338720025
          ],
          [
            151.72908344916567,
            -232.28174510171414
          ],
          [
            152.83635317447772,
            -231.9127104389117
          ],
          [
            153.57452490306162,
            -231.91274662257203
          ],
          [
            154.3126966316455,
            -231.9127828062324
          ],
          [
            155.23540522615724,
            -232.09737250495428
          ],
          [
            156.3426749514693,
            -231.72833784215183
          ],
          [
            157.08087094492564,
            -230.99019614922628
          ],
          [
            158.00360987052792,
            -230.25206350221578
          ],
          [
            158.37270180103798,
            -230.06753712489947
          ]
        ]
      },
      "properties": {
        "type": "variant",
        "id": 1,
        "color": "#ff4444",
        "vzdal_m": 2047,
        "prevyseni_m": 38,
        "cas_s": 614,
        "tempo_str": "4:59"
      }
    },
    {
      "type": "Feature",
      "geometry": {
        "type": "LineString",
        "coordinates": [
          [
            87.69245547822545,
            -239.29129599674536
          ],
          [
            88.43062114059124,
            -239.4758766495522
          ],
          [
            89.16879893539323,
            -239.29136836406605
          ],
          [
            89.9069706639771,
            -239.2914045477264
          ],
          [
            90.6451484587791,
            -239.10689626224027
          ],
          [
            91.38331412114488,
            -239.29147691504707
          ],
          [
            92.12148584972876,
            -239.2915130987074
          ],
          [
            92.85965151209453,
            -239.47609375151424
          ],
          [
            93.59782930689653,
            -239.29158546602812
          ],
          [
            94.33600103548042,
            -239.29162164968844
          ],
          [
            95.25870356377405,
            -239.66075581755686
          ],
          [
            96.18140002584958,
            -240.21443445457174
          ],
          [
            96.91956568821536,
            -240.39901510737852
          ],
          [
            97.65774348301736,
            -240.2145068218924
          ],
          [
            98.39591521160123,
            -240.21454300555277
          ],
          [
            99.31862380611298,
            -240.39913270427468
          ],
          [
            100.05679553469686,
            -240.39916888793502
          ],
          [
            100.79496726328075,
            -240.39920507159533
          ],
          [
            101.16405312757269,
            -240.39922316342552
          ],
          [
            102.58643014908782,
            -241.2637358170401
          ],
          [
            103.56754513763359,
            -241.3776413011425
          ],
          [
            104.25955366405076,
            -241.2435051850839
          ],
          [
            105.2141645516672,
            -241.05231322394567
          ],
          [
            105.91143598184512,
            -240.9617149756504
          ],
          [
            106.3137671038272,
            -240.8518528922151
          ],
          [
            106.67218177652467,
            -240.7900199769577
          ],
          [
            107.06152160903453,
            -240.722851920782
          ],
          [
            107.78232045188537,
            -240.6085832256637
          ],
          [
            108.92728068899397,
            -240.4717752379746
          ],
          [
            109.88477537813604,
            -240.31020409669716
          ],
          [
            111.27657422407893,
            -239.45046722794046
          ],
          [
            112.23668365229395,
            -238.7388656960124
          ],
          [
            113.5285084421882,
            -238.00075114083208
          ],
          [
            113.89760643891636,
            -237.6316802943693
          ],
          [
            114.6358084985908,
            -236.70899413229728
          ],
          [
            115.18945549368304,
            -236.15538786260308
          ],
          [
            115.5585474241931,
            -235.97086148528678
          ],
          [
            116.29674341764944,
            -235.23271979236122
          ],
          [
            116.85039041274167,
            -234.67911352266702
          ],
          [
            117.21948234325173,
            -234.49458714535072
          ],
          [
            118.32676420100002,
            -233.7564635442553
          ],
          [
            119.61858899089425,
            -233.018348989075
          ],
          [
            120.54132791649654,
            -232.28021634206456
          ],
          [
            122.01769563853676,
            -231.54211083279932
          ],
          [
            123.30950829599479,
            -231.17308521591195
          ],
          [
            124.60133915210714,
            -230.25042619158518
          ],
          [
            125.89316394200138,
            -229.51231163640486
          ],
          [
            127.36951346538726,
            -229.32783953457908
          ],
          [
            128.10768519397115,
            -229.3278757182394
          ],
          [
            129.03040592091912,
            -229.14337647866836
          ],
          [
            129.95311451543085,
            -229.3279661773903
          ],
          [
            130.6912741115785,
            -229.69709129934358
          ],
          [
            131.61399483852648,
            -229.51259205977254
          ],
          [
            132.35216656711037,
            -229.51262824343289
          ],
          [
            133.45941202754997,
            -229.88177145721636
          ],
          [
            134.19758375613387,
            -229.88180764087673
          ],
          [
            134.75120648635368,
            -230.06637924776845
          ],
          [
            136.22753781108523,
            -230.43554055338208
          ],
          [
            137.51932013745267,
            -230.98923728222712
          ],
          [
            138.25749186603656,
            -230.98927346588746
          ],
          [
            138.99566359462045,
            -230.98930964954783
          ],
          [
            139.73383532320432,
            -230.98934583320818
          ],
          [
            140.4720070517882,
            -230.9893820168685
          ],
          [
            141.2101787803721,
            -230.98941820052886
          ],
          [
            141.94835050895597,
            -230.9894543841892
          ],
          [
            142.87105910346773,
            -231.1740440829111
          ],
          [
            143.60923083205162,
            -231.17408026657148
          ],
          [
            144.53193942656335,
            -231.3586699652934
          ],
          [
            145.27011115514725,
            -231.3587061489537
          ],
          [
            146.37735661558685,
            -231.72784936273717
          ],
          [
            147.85367580788215,
            -232.46609960664378
          ],
          [
            148.77637226995768,
            -233.01977824365866
          ],
          [
            149.88364199526973,
            -232.65074358085621
          ],
          [
            150.43727685792575,
            -232.46622624945502
          ],
          [
            150.9909117205818,
            -232.2817089180538
          ],
          [
            151.72908344916567,
            -232.28174510171414
          ],
          [
            152.83634710825962,
            -232.09725490805815
          ],
          [
            153.57452490306162,
            -231.91274662257203
          ],
          [
            154.3126966316455,
            -231.9127828062324
          ],
          [
            155.23540522615724,
            -232.09737250495428
          ],
          [
            156.3426749514693,
            -231.72833784215183
          ],
          [
            157.08087094492564,
            -230.99019614922628
          ],
          [
            158.00360987052792,
            -230.25206350221578
          ],
          [
            158.37270180103798,
            -230.06753712489947
          ]
        ]
      },
      "properties": {
        "type": "variant",
        "id": 2,
        "color": "#4444ff",
        "vzdal_m": 2076,
        "prevyseni_m": 37,
        "cas_s": 618,
        "tempo_str": "4:57"
      }
    },
    {
      "type": "Feature",
      "geometry": {
        "type": "LineString",
        "coordinates": [
          [
            87.69245547822545,
            -239.29129599674536
          ],
          [
            88.43062114059124,
            -239.4758766495522
          ],
          [
            89.16879893539323,
            -239.29136836406605
          ],
          [
            89.9069706639771,
            -239.2914045477264
          ],
          [
            90.6451484587791,
            -239.10689626224027
          ],
          [
            91.38331412114488,
            -239.29147691504707
          ],
          [
            92.12148584972876,
            -239.2915130987074
          ],
          [
            92.85965151209453,
            -239.47609375151424
          ],
          [
            93.59782930689653,
            -239.29158546602812
          ],
          [
            94.7050990322086,
            -238.92255080322568
          ],
          [
            95.99688135857605,
            -239.47624753207072
          ],
          [
            96.73505308715993,
            -239.47628371573106
          ],
          [
            97.47322481574382,
            -239.47631989939143
          ],
          [
            98.39593341025555,
            -239.66090959811334
          ],
          [
            99.50317887069515,
            -240.03005281189678
          ],
          [
            100.24135059927904,
            -240.03008899555712
          ],
          [
            101.57737874478967,
            -240.55366350346236
          ],
          [
            103.01721366558145,
            -241.42142680530355
          ],
          [
            103.75085615429924,
            -241.36314010563038
          ],
          [
            104.40355603923577,
            -241.1671035164292
          ],
          [
            105.39629761797158,
            -241.03136869481548
          ],
          [
            105.91143598184512,
            -240.9617149756504
          ],
          [
            106.3137671038272,
            -240.8518528922151
          ],
          [
            106.67218177652467,
            -240.7900199769577
          ],
          [
            107.06152160903453,
            -240.722851920782
          ],
          [
            107.24215549827079,
            -240.69384621890157
          ],
          [
            107.62303755402733,
            -240.95317317789298
          ],
          [
            108.9148138141767,
            -241.69141437588448
          ],
          [
            110.39113300647202,
            -242.4296646197911
          ],
          [
            111.68291533283947,
            -242.98336134863615
          ],
          [
            112.60562392735123,
            -243.16795104735806
          ],
          [
            113.34379565593512,
            -243.1679872310184
          ],
          [
            114.26650425044686,
            -243.3525769297403
          ],
          [
            115.1892128449586,
            -243.53716662846222
          ],
          [
            115.92738457354248,
            -243.53720281212256
          ],
          [
            116.85009316805423,
            -243.72179251084447
          ],
          [
            117.7728138950022,
            -243.53729327127343
          ],
          [
            118.51098562358608,
            -243.53732945493377
          ],
          [
            119.5601501313455,
            -243.3941627299786
          ],
          [
            119.70477104753202,
            -242.95171380075936
          ],
          [
            120.17189627777226,
            -242.79923299158364
          ],
          [
            121.09460487228401,
            -242.98382269030554
          ],
          [
            121.83277660086789,
            -242.98385887396591
          ],
          [
            122.57094832945178,
            -242.98389505762623
          ],
          [
            124.047316051492,
            -242.24578954836102
          ],
          [
            124.23185291741986,
            -242.43034306342255
          ],
          [
            124.60093271549368,
            -242.61490562439923
          ],
          [
            124.97001251356751,
            -242.79946818537587
          ],
          [
            125.89270897564303,
            -243.35314682239073
          ],
          [
            126.63088070422691,
            -243.3531830060511
          ],
          [
            126.81542363637288,
            -243.35319205196618
          ],
          [
            127.18451556688294,
            -243.16866567464987
          ],
          [
            127.92268729546683,
            -243.16870185831021
          ],
          [
            129.02995702077888,
            -242.79966719550777
          ],
          [
            129.76812874936277,
            -242.7997033791681
          ],
          [
            130.6908373438745,
            -242.98429307789002
          ],
          [
            131.4290090724584,
            -242.98432926155039
          ],
          [
            132.1671808010423,
            -242.98436544521073
          ],
          [
            133.08990152799024,
            -242.7998662056397
          ],
          [
            133.82807325657413,
            -242.79990238930003
          ],
          [
            134.93534298188618,
            -242.43086772649758
          ],
          [
            136.2271556393442,
            -242.0618421096102
          ],
          [
            137.14988243251028,
            -241.69279840089268
          ],
          [
            138.07260922567636,
            -241.32375469217519
          ],
          [
            138.62624408833238,
            -241.13923736077396
          ],
          [
            138.99533601884244,
            -240.95471098345766
          ],
          [
            140.28714867630046,
            -240.58568536657032
          ],
          [
            140.65624667302862,
            -240.21661452010753
          ],
          [
            141.02533860353867,
            -240.03208814279122
          ],
          [
            141.20988760190278,
            -239.84755271955981
          ],
          [
            142.31716945965104,
            -239.10942911846445
          ],
          [
            143.23990231903522,
            -238.55584094060043
          ],
          [
            143.60899424954528,
            -238.37131456328413
          ],
          [
            143.97808618005533,
            -238.1867881859678
          ],
          [
            144.1626412446375,
            -237.81770829358993
          ],
          [
            144.34719630921973,
            -237.44862840121206
          ],
          [
            145.63902109911396,
            -236.71051384603174
          ],
          [
            146.008113029624,
            -236.52598746871544
          ],
          [
            146.19267416042433,
            -235.97236310719111
          ],
          [
            146.93087015388065,
            -235.2342214142655
          ],
          [
            147.48452321519102,
            -234.4960706754249
          ],
          [
            148.4072621407933,
            -233.7579380284144
          ],
          [
            148.77634800508525,
            -233.7579561202446
          ],
          [
            149.51452579988725,
            -233.5734478347584
          ],
          [
            150.25269752847112,
            -233.57348401841878
          ],
          [
            151.1754182554191,
            -233.3889847788477
          ],
          [
            152.28270617938549,
            -232.46631670860586
          ],
          [
            153.20543297255156,
            -232.09727299988833
          ],
          [
            154.12814763328143,
            -232.09731822946375
          ],
          [
            154.8663193618653,
            -232.09735441312412
          ],
          [
            155.97357695474113,
            -232.09740868861462
          ],
          [
            156.71177294819745,
            -231.35926699568904
          ],
          [
            157.4499689416538,
            -230.6211253027635
          ],
          [
            158.00360987052792,
            -230.25206350221578
          ],
          [
            158.37270180103798,
            -230.06753712489947
          ]
        ]
      },
      "properties": {
        "type": "variant",
        "id": 3,
        "color": "#44ff44",
        "vzdal_m": 2094,
        "prevyseni_m": 33,
        "cas_s": 626,
        "tempo_str": "4:58"
      }
    }
  ]
}