{
  "type": "FeatureCollection",
  "features": [
    {
      "type": "Feature",
      "geometry": {
        "type": "Point",
        "coordinates": [
          95.58776414385662,
          -104.6504987933962
        ]
      },
      "properties": {
        "type": "start",
        "isom": "419"
      }
    },
    {
      "type": "Feature",
      "geometry": {
        "type": "Point",
        "coordinates": [
          79.1026193865514,
          -85.51445917767904
        ]
      },
      "properties": {
        "type": "end",
        "isom": "112"
      }
    },
    {
      "type": "Feature",
      "geometry": {
        "type": "LineString",
        "coordinates": [
          [
            95.59538353661364,
            -104.65173062718294
          ],
          [
            95.50312723608593,
            -104.19036493074292
          ],
          [
            95.41086183623108,
            -104.00581593826075
          ],
          [
            95.22632497030322,
            -103.82126242260169
          ],
          [
            95.13405957044836,
            -103.63671343011953
          ],
          [
            94.94953180384768,
            -103.1753432105026
          ],
          [
            94.94954393628389,
            -102.8062542718921
          ],
          [
            94.76501616968321,
            -102.34488405227516
          ],
          [
            94.67275076982833,
            -102.160335059793
          ],
          [
            94.48821390390049,
            -101.97578154413394
          ],
          [
            94.0268687059718,
            -101.60666998963892
          ],
          [
            93.65780407344327,
            -100.9607462543629
          ],
          [
            93.65781620587947,
            -100.5916573157524
          ],
          [
            93.56555990535176,
            -100.13029161931237
          ],
          [
            93.1964983059323,
            -99.39209564938373
          ],
          [
            93.10423290607743,
            -99.2075466569016
          ],
          [
            92.73516220733079,
            -98.74616739093084
          ],
          [
            92.18154554332912,
            -98.37705131325892
          ],
          [
            91.72020034540047,
            -98.00793975876387
          ],
          [
            91.35112661354476,
            -97.63883272744575
          ],
          [
            91.16658974761692,
            -97.4542792117867
          ],
          [
            90.70524151657919,
            -97.17743989194427
          ],
          [
            90.3361617185054,
            -96.99287732993142
          ],
          [
            89.69027055532172,
            -96.71602896373518
          ],
          [
            88.9521109591741,
            -96.34690383970944
          ],
          [
            88.58304632664559,
            -95.70098010443346
          ],
          [
            88.21398169411705,
            -95.05505636915746
          ],
          [
            88.02945696062541,
            -94.50141391488788
          ],
          [
            88.02946909306164,
            -94.13232497627737
          ],
          [
            87.75267592660607,
            -93.48640576417827
          ],
          [
            87.6604105267512,
            -93.30185677169612
          ],
          [
            87.2913428611136,
            -92.74820527107275
          ],
          [
            86.92228126169414,
            -92.01000930114412
          ],
          [
            86.73775652820251,
            -91.45636684687456
          ],
          [
            86.46095729552884,
            -90.99499210408072
          ],
          [
            86.09188659678219,
            -90.53361283810997
          ],
          [
            85.72281589803555,
            -90.07223357213921
          ],
          [
            85.35374519928892,
            -89.61085430616846
          ],
          [
            85.07694596661526,
            -89.14947956337463
          ],
          [
            84.70787223475956,
            -88.7803725320565
          ],
          [
            84.33879850290387,
            -88.41126550073838
          ],
          [
            83.60063890675626,
            -88.04214037671262
          ],
          [
            82.95475077668164,
            -87.67301977586379
          ],
          [
            82.40113411267998,
            -87.30390369819186
          ],
          [
            81.84751744867835,
            -86.93478762051991
          ],
          [
            81.6629805827505,
            -86.75023410486085
          ],
          [
            81.4784406837136,
            -86.65795282385442
          ],
          [
            81.29389775156764,
            -86.6579437775006
          ],
          [
            81.10935785253074,
            -86.56566249649417
          ],
          [
            80.92481795349384,
            -86.47338121548773
          ],
          [
            80.55573208920194,
            -86.47336312278011
          ],
          [
            80.00210935898217,
            -86.28879151441342
          ],
          [
            79.63302349469026,
            -86.2887734217058
          ],
          [
            79.07940986379768,
            -85.82738510938124
          ],
          [
            79.07941896312484,
            -85.55056840542336
          ]
        ]
      },
      "properties": {
        "type": "variant",
        "id": 1,
        "color": "#ff4444",
        "vzdal_m": 1457,
        "prevyseni_m": 26,
        "cas_s": 360,
        "tempo_str": "4:06"
      }
    },
    {
      "type": "Feature",
      "geometry": {
        "type": "LineString",
        "coordinates": [
          [
            95.59538353661364,
            -104.65173062718294
          ],
          [
            95.6876701682319,
            -104.19037397709673
          ],
          [
            95.87223129903217,
            -103.63674961553477
          ],
          [
            95.87224343146838,
            -103.26766067692427
          ],
          [
            95.8722555639046,
            -102.89857173831376
          ],
          [
            95.87226769634081,
            -102.52948279970326
          ],
          [
            95.87227982877702,
            -102.16039386109276
          ],
          [
            95.78002352824932,
            -101.69902816465274
          ],
          [
            95.41094979639362,
            -101.32992113333461
          ],
          [
            95.04188213075604,
            -100.77626963271123
          ],
          [
            94.76508896430049,
            -100.13035042061215
          ],
          [
            94.21147230029882,
            -99.7612343429402
          ],
          [
            93.93466700140705,
            -99.48440406945163
          ],
          [
            93.28877887133243,
            -99.11528346860277
          ],
          [
            92.82743064029471,
            -98.83844414876037
          ],
          [
            92.36608544236603,
            -98.46933259426534
          ],
          [
            91.81246877836438,
            -98.1002165165934
          ],
          [
            91.4433950465087,
            -97.73110948527527
          ],
          [
            91.16658974761692,
            -97.4542792117867
          ],
          [
            90.70524151657919,
            -97.17743989194427
          ],
          [
            90.3361617185054,
            -96.99287732993142
          ],
          [
            89.69027055532172,
            -96.71602896373518
          ],
          [
            88.9521109591741,
            -96.34690383970944
          ],
          [
            88.58303722731843,
            -95.97779680839133
          ],
          [
            88.4907687943545,
            -95.8855200505618
          ],
          [
            87.93715213035286,
            -95.51640397288985
          ],
          [
            87.56807839849715,
            -95.14729694157174
          ],
          [
            87.19900466664147,
            -94.77818991025362
          ],
          [
            86.82993093478576,
            -94.40908287893548
          ],
          [
            86.46086023603912,
            -93.94770361296473
          ],
          [
            86.09179560351059,
            -93.30177987768873
          ],
          [
            85.63045040558193,
            -92.9326683231937
          ],
          [
            85.16910520765326,
            -92.56355676869867
          ],
          [
            84.80003147579755,
            -92.19444973738055
          ],
          [
            84.43095774394187,
            -91.82534270606241
          ],
          [
            84.06188401208617,
            -91.45623567474429
          ],
          [
            83.69281331333953,
            -90.99485640877354
          ],
          [
            83.32374261459289,
            -90.5334771428028
          ],
          [
            82.9546749489553,
            -89.97982564217942
          ],
          [
            82.58560728331771,
            -89.42617414155605
          ],
          [
            82.40107041738986,
            -89.24162062589699
          ],
          [
            82.21653051835297,
            -89.14933934489055
          ],
          [
            82.12426511849809,
            -88.96479035240839
          ],
          [
            81.75519138664241,
            -88.59568332109026
          ],
          [
            81.29384618871373,
            -88.22657176659523
          ],
          [
            80.92477245685804,
            -87.85746473527712
          ],
          [
            80.55569872500234,
            -87.488357703959
          ],
          [
            80.18662499314665,
            -87.11925067264087
          ],
          [
            79.81755429440001,
            -86.65787140667013
          ],
          [
            79.44848056254432,
            -86.28876437535199
          ],
          [
            79.07940986379768,
            -85.82738510938124
          ],
          [
            79.07941896312484,
            -85.55056840542336
          ]
        ]
      },
      "properties": {
        "type": "variant",
        "id": 2,
        "color": "#4444ff",
        "vzdal_m": 1446,
        "prevyseni_m": 24,
        "cas_s": 378,
        "tempo_str": "4:21"
      }
    },
    {
      "type": "Feature",
      "geometry": {
        "type": "LineString",
        "coordinates": [
          [
            95.59538353661364,
            -104.65173062718294
          ],
          [
            95.6876701682319,
            -104.19037397709673
          ],
          [
            95.87223129903217,
            -103.63674961553477
          ],
          [
            95.87224343146838,
            -103.26766067692427
          ],
          [
            95.8722555639046,
            -102.89857173831376
          ],
          [
            95.87226769634081,
            -102.52948279970326
          ],
          [
            95.87227982877702,
            -102.16039386109276
          ],
          [
            95.78002352824932,
            -101.69902816465274
          ],
          [
            95.41096192882983,
            -100.96083219472412
          ],
          [
            95.13416876237429,
            -100.31491298262502
          ],
          [
            94.94964402888264,
            -99.76127052835547
          ],
          [
            94.58058242946316,
            -99.02307455842683
          ],
          [
            94.39605769597152,
            -98.46943210415726
          ],
          [
            94.11925846329787,
            -98.00805736136341
          ],
          [
            93.65791326536919,
            -97.63894580686839
          ],
          [
            93.19656806744052,
            -97.26983425237336
          ],
          [
            92.82749433558483,
            -96.90072722105523
          ],
          [
            92.36614913765615,
            -96.5316156665602
          ],
          [
            91.99707540580046,
            -96.16250863524209
          ],
          [
            91.35118727572583,
            -95.79338803439323
          ],
          [
            90.79757061172418,
            -95.4242719567213
          ],
          [
            90.42849687986849,
            -95.05516492540319
          ],
          [
            90.0594231480128,
            -94.68605789408507
          ],
          [
            89.41353501793817,
            -94.31693729323621
          ],
          [
            88.95218982000951,
            -93.94782573874117
          ],
          [
            88.21403022386191,
            -93.57870061471543
          ],
          [
            87.66041659296931,
            -93.11731230239087
          ],
          [
            87.29134589422267,
            -92.65593303642012
          ],
          [
            86.92228126169414,
            -92.01000930114412
          ],
          [
            86.73775652820251,
            -91.45636684687456
          ],
          [
            86.46095729552884,
            -90.99499210408072
          ],
          [
            86.09188659678219,
            -90.53361283810997
          ],
          [
            85.72281589803555,
            -90.07223357213921
          ],
          [
            85.35374519928892,
            -89.61085430616846
          ],
          [
            85.07694596661526,
            -89.14947956337463
          ],
          [
            84.70787223475956,
            -88.7803725320565
          ],
          [
            84.33879850290387,
            -88.41126550073838
          ],
          [
            83.60063890675626,
            -88.04214037671262
          ],
          [
            82.95475077668164,
            -87.67301977586379
          ],
          [
            82.40113411267998,
            -87.30390369819186
          ],
          [
            81.84751744867835,
            -86.93478762051991
          ],
          [
            81.6629805827505,
            -86.75023410486085
          ],
          [
            81.4784406837136,
            -86.65795282385442
          ],
          [
            81.29389775156764,
            -86.6579437775006
          ],
          [
            81.10935785253074,
            -86.56566249649417
          ],
          [
            80.92481795349384,
            -86.47338121548773
          ],
          [
            80.55573208920194,
            -86.47336312278011
          ],
          [
            80.00210935898217,
            -86.28879151441342
          ],
          [
            79.63302349469026,
            -86.2887734217058
          ],
          [
            79.07940986379768,
            -85.82738510938124
          ],
          [
            79.07941896312484,
            -85.55056840542336
          ]
        ]
      },
      "properties": {
        "type": "variant",
        "id": 3,
        "color": "#44ff44",
        "vzdal_m": 1480,
        "prevyseni_m": 25,
        "cas_s": 381,
        "tempo_str": "4:17"
      }
    }
  ]
}