{
  "type": "FeatureCollection",
  "features": [
    {
      "type": "Feature",
      "geometry": {
        "type": "Point",
        "coordinates": [
          116.21128276787417,
          -249.36525177527557
        ]
      },
      "properties": {
        "type": "start",
        "isom": "204"
      }
    },
    {
      "type": "Feature",
      "geometry": {
        "type": "Point",
        "coordinates": [
          114.02625078787146,
          -172.09600622442932
        ]
      },
      "properties": {
        "type": "end",
        "isom": "204"
      }
    },
    {
      "type": "Feature",
      "geometry": {
        "type": "LineString",
        "coordinates": [
          [
            116.29627631885486,
            -249.44264391664007
          ],
          [
            117.03449051096553,
            -248.15086881627502
          ],
          [
            117.40360064012992,
            -247.41270903151928
          ],
          [
            117.58815570471211,
            -247.04362913914144
          ],
          [
            117.58817996958456,
            -246.30545126255552
          ],
          [
            117.588204234457,
            -245.56727338596963
          ],
          [
            117.40369163340159,
            -244.6445419943221
          ],
          [
            117.03463003398208,
            -243.90634602590603
          ],
          [
            116.85009923427235,
            -243.537248041698
          ],
          [
            116.85012349914479,
            -242.79907016511208
          ],
          [
            117.03469676238133,
            -241.87635686529475
          ],
          [
            117.40381902398192,
            -240.76910814224607
          ],
          [
            117.40384328885436,
            -240.03093026566015
          ],
          [
            117.40386755372683,
            -239.29275238907425
          ],
          [
            117.40389181859926,
            -238.55457451248833
          ],
          [
            117.95756307856395,
            -237.26279036620826
          ],
          [
            118.32666714151023,
            -236.70917505059896
          ],
          [
            118.51122220609241,
            -236.34009515822112
          ],
          [
            118.69577727067461,
            -235.97101526584322
          ],
          [
            118.88033233525681,
            -235.60193537346538
          ],
          [
            119.0648934660571,
            -235.04831101194102
          ],
          [
            119.06490559849333,
            -234.67922207364805
          ],
          [
            119.24946066307552,
            -234.3101421812702
          ],
          [
            119.24948492794796,
            -233.5719643046843
          ],
          [
            119.4340581911845,
            -232.64925100486698
          ],
          [
            119.98772945114919,
            -231.35746685858686
          ],
          [
            120.72593151082363,
            -230.43478069651485
          ],
          [
            120.91048657540583,
            -230.06570080413698
          ],
          [
            121.09505983864236,
            -229.14298750431968
          ],
          [
            121.27963310187887,
            -228.22027420450235
          ],
          [
            121.27965736675134,
            -227.48209632791642
          ],
          [
            121.27968163162376,
            -226.7439184513305
          ],
          [
            121.2796998302781,
            -226.19028504389107
          ],
          [
            121.27973016136866,
            -225.26756269815868
          ],
          [
            120.91068069438538,
            -224.1602777914497
          ],
          [
            120.91070495925784,
            -223.42209991486376
          ],
          [
            120.91072922413026,
            -222.68392203827784
          ],
          [
            120.91075348900273,
            -221.94574416169195
          ],
          [
            120.91077775387517,
            -221.20756628510603
          ],
          [
            121.27990001547577,
            -220.10031756205728
          ],
          [
            121.29102756022584,
            -219.3748079324225
          ],
          [
            121.27994854522066,
            -218.62396180888547
          ],
          [
            121.27997281009311,
            -217.88578393229955
          ],
          [
            121.27999100874744,
            -217.3321505248601
          ],
          [
            121.64911933656616,
            -216.04035733266494
          ],
          [
            122.20279666274897,
            -214.56402871723841
          ],
          [
            122.94101085485963,
            -213.27225361687337
          ],
          [
            122.75649825380422,
            -212.3495222252259
          ],
          [
            122.75652251867666,
            -211.61134434864
          ],
          [
            122.75654678354911,
            -210.8731664720541
          ],
          [
            122.75657104842155,
            -210.13498859546817
          ],
          [
            122.75659531329401,
            -209.39681071888225
          ],
          [
            122.018472114455,
            -207.92041878205006
          ],
          [
            121.46487364910766,
            -206.99766929857242
          ],
          [
            121.64944691234417,
            -206.07495599875512
          ],
          [
            121.46493431128876,
            -205.15222460710766
          ],
          [
            121.46495857616121,
            -204.41404673052173
          ],
          [
            121.46498284103365,
            -203.6758688539358
          ],
          [
            121.46498890725177,
            -203.49132438478935
          ],
          [
            121.28045810754202,
            -203.12222640058127
          ],
          [
            121.0959455064866,
            -202.1994950089338
          ],
          [
            120.9114329054312,
            -201.27676361728635
          ],
          [
            120.72691423815766,
            -200.53857669478532
          ],
          [
            120.91148143517609,
            -199.80040786411453
          ],
          [
            120.91150570004852,
            -199.0622299875286
          ],
          [
            121.46517696001321,
            -197.77044584124852
          ],
          [
            121.64973809081353,
            -197.21682147972413
          ],
          [
            121.64976235568597,
            -196.47864360313824
          ],
          [
            121.64977448812219,
            -196.10955466484526
          ],
          [
            121.46524368841244,
            -195.74045668063724
          ],
          [
            120.72711442335535,
            -194.44860921295154
          ],
          [
            120.17352809044421,
            -193.15677079118095
          ],
          [
            119.98899729073445,
            -192.78767280697286
          ],
          [
            119.98900335695255,
            -192.6031283378264
          ],
          [
            119.8044725572428,
            -192.23403035361838
          ],
          [
            119.80447862346092,
            -192.0494858844719
          ],
          [
            119.61994782375118,
            -191.68038790026384
          ],
          [
            119.61995388996928,
            -191.49584343111735
          ],
          [
            119.43542309025953,
            -191.12674544690933
          ],
          [
            119.43544735513198,
            -190.3885675703234
          ],
          [
            119.06639788814871,
            -189.28128266361438
          ],
          [
            118.69734842116543,
            -188.17399775690532
          ],
          [
            118.69737268603788,
            -187.4358198803194
          ],
          [
            119.25104394600258,
            -186.1440357340393
          ],
          [
            119.25106821087502,
            -185.40585785745338
          ],
          [
            119.25109247574746,
            -184.66767998086746
          ],
          [
            119.25111067440179,
            -184.11404657342803
          ],
          [
            118.88206120741852,
            -183.006761666719
          ],
          [
            118.51301174043523,
            -181.89947676000995
          ],
          [
            118.32849913937983,
            -180.9767453683625
          ],
          [
            118.32852340425227,
            -180.23856749177656
          ],
          [
            117.77493707134113,
            -178.94672907000594
          ],
          [
            117.03681387250214,
            -177.47033713317379
          ],
          [
            116.29869067366315,
            -175.9939451963416
          ],
          [
            115.56056747482415,
            -174.51755325950944
          ],
          [
            114.82243820976704,
            -173.22570579182374
          ],
          [
            114.08430287849183,
            -172.11840279328453
          ]
        ]
      },
      "properties": {
        "type": "variant",
        "id": 1,
        "color": "#ff4444",
        "vzdal_m": 2218,
        "prevyseni_m": 69,
        "cas_s": 662,
        "tempo_str": "4:58"
      }
    },
    {
      "type": "Feature",
      "geometry": {
        "type": "LineString",
        "coordinates": [
          [
            116.29627631885486,
            -249.44264391664007
          ],
          [
            117.03449051096553,
            -248.15086881627502
          ],
          [
            117.40360064012992,
            -247.41270903151928
          ],
          [
            117.58815570471211,
            -247.04362913914144
          ],
          [
            117.58817996958456,
            -246.30545126255552
          ],
          [
            117.588204234457,
            -245.56727338596963
          ],
          [
            117.40369163340159,
            -244.6445419943221
          ],
          [
            117.03463003398208,
            -243.90634602590603
          ],
          [
            116.85009923427235,
            -243.537248041698
          ],
          [
            116.85012349914479,
            -242.79907016511208
          ],
          [
            117.03469676238133,
            -241.87635686529475
          ],
          [
            117.40381902398192,
            -240.76910814224607
          ],
          [
            117.40384328885436,
            -240.03093026566015
          ],
          [
            117.40386755372683,
            -239.29275238907425
          ],
          [
            117.40389181859926,
            -238.55457451248833
          ],
          [
            117.95756307856395,
            -237.26279036620826
          ],
          [
            118.14211814314615,
            -236.89371047383037
          ],
          [
            117.9575873434364,
            -236.52461248962234
          ],
          [
            117.95761160830884,
            -235.78643461303645
          ],
          [
            117.95763587318127,
            -235.04825673645053
          ],
          [
            118.14220913641782,
            -234.1255434366332
          ],
          [
            118.14222733507214,
            -233.57191002919376
          ],
          [
            118.1422576661627,
            -232.64918768346138
          ],
          [
            118.6959289261274,
            -231.35740353718126
          ],
          [
            118.69595925721795,
            -230.43468119144887
          ],
          [
            118.88052645423637,
            -229.6965123607781
          ],
          [
            118.88055071910881,
            -228.95833448419216
          ],
          [
            118.88057498398125,
            -228.22015660760624
          ],
          [
            118.51152551699799,
            -227.1128717008972
          ],
          [
            117.773402318159,
            -225.636479764065
          ],
          [
            117.49267120886388,
            -224.5745930070583
          ],
          [
            116.85076651826458,
            -223.23735643558535
          ],
          [
            116.48171705128131,
            -222.13007152887633
          ],
          [
            116.48174131615374,
            -221.3918936522904
          ],
          [
            116.4817655810262,
            -220.65371577570448
          ],
          [
            116.48178984589863,
            -219.9155378991186
          ],
          [
            116.48181411077108,
            -219.17736002253267
          ],
          [
            116.48183837564352,
            -218.43918214594675
          ],
          [
            116.48186264051598,
            -217.70100426936082
          ],
          [
            116.66642983753438,
            -216.96283543869004
          ],
          [
            117.40465009586316,
            -215.48651586917853
          ],
          [
            117.77377842368189,
            -214.19472267698336
          ],
          [
            118.14289461906438,
            -213.27201842308114
          ],
          [
            118.3274618160828,
            -212.5338495924103
          ],
          [
            119.06568814062969,
            -210.87298555375233
          ],
          [
            119.25026140386622,
            -209.95027225393505
          ],
          [
            119.25028566873866,
            -209.21209437734913
          ],
          [
            119.06575486902891,
            -208.84299639314108
          ],
          [
            118.88122406931916,
            -208.47389840893305
          ],
          [
            118.69669326960943,
            -208.104800424725
          ],
          [
            117.95857007077043,
            -206.62840848789284
          ],
          [
            117.774057469715,
            -205.70567709624535
          ],
          [
            117.58952667000527,
            -205.33657911203733
          ],
          [
            117.40500193651361,
            -204.78293665868276
          ],
          [
            117.40500800273173,
            -204.5983921895363
          ],
          [
            117.40502013516796,
            -204.22930325124332
          ],
          [
            117.22048933545821,
            -203.8602052670353
          ],
          [
            117.22051360033065,
            -203.1220273904494
          ],
          [
            117.03600099927523,
            -202.1992959988019
          ],
          [
            116.8514762657836,
            -201.6456535454474
          ],
          [
            116.66698792960064,
            -199.98474427721402
          ],
          [
            116.4824753285452,
            -199.0620128855665
          ],
          [
            115.92888899563408,
            -197.7701744637959
          ],
          [
            115.74437032836056,
            -197.03198754129488
          ],
          [
            115.92893752537897,
            -196.2938187106241
          ],
          [
            115.92896179025142,
            -195.55564083403817
          ],
          [
            115.55991232326815,
            -194.44835592732912
          ],
          [
            115.37539972221272,
            -193.52562453568166
          ],
          [
            115.19088105493921,
            -192.78743761318066
          ],
          [
            115.37544825195762,
            -192.04926878250984
          ],
          [
            115.37547251683004,
            -191.31109090592392
          ],
          [
            115.37549678170251,
            -190.57291302933803
          ],
          [
            115.37552104657495,
            -189.8347351527521
          ],
          [
            115.3755453114474,
            -189.09655727616615
          ],
          [
            115.37556957631983,
            -188.35837939958023
          ],
          [
            115.37559384119228,
            -187.6202015229943
          ],
          [
            114.63747064235329,
            -186.14380958616215
          ],
          [
            114.63749490722573,
            -185.40563170957623
          ],
          [
            114.6375191720982,
            -184.66745383299033
          ],
          [
            114.63753737075251,
            -184.1138204255509
          ],
          [
            114.45300657104276,
            -183.74472244134284
          ],
          [
            114.26849396998735,
            -182.82199104969536
          ],
          [
            113.89944450300406,
            -181.7147061429863
          ],
          [
            113.71493190194867,
            -180.79197475133884
          ],
          [
            113.7149561668211,
            -180.05379687475292
          ],
          [
            113.53044356576571,
            -179.13106548310543
          ],
          [
            113.7150107627841,
            -178.39289665243462
          ],
          [
            113.71504109387466,
            -177.47017430670223
          ],
          [
            113.8996143571112,
            -176.54746100688493
          ],
          [
            113.71509568983767,
            -175.8092740843839
          ],
          [
            113.89966288685609,
            -175.07110525371309
          ],
          [
            113.89968715172853,
            -174.33292737712716
          ],
          [
            113.89970535038287,
            -173.77929396968773
          ],
          [
            113.89973568147342,
            -172.85657162395535
          ],
          [
            114.08430287849183,
            -172.11840279328453
          ]
        ]
      },
      "properties": {
        "type": "variant",
        "id": 2,
        "color": "#4444ff",
        "vzdal_m": 2180,
        "prevyseni_m": 74,
        "cas_s": 692,
        "tempo_str": "5:17"
      }
    },
    {
      "type": "Feature",
      "geometry": {
        "type": "LineString",
        "coordinates": [
          [
            116.29627631885486,
            -249.44264391664007
          ],
          [
            117.03449051096553,
            -248.15086881627502
          ],
          [
            117.40360064012992,
            -247.41270903151928
          ],
          [
            117.58815570471211,
            -247.04362913914144
          ],
          [
            117.58817996958456,
            -246.30545126255552
          ],
          [
            117.588204234457,
            -245.56727338596963
          ],
          [
            117.40369163340159,
            -244.6445419943221
          ],
          [
            117.03463003398208,
            -243.90634602590603
          ],
          [
            116.85009923427235,
            -243.537248041698
          ],
          [
            116.85012349914479,
            -242.79907016511208
          ],
          [
            117.03469676238133,
            -241.87635686529475
          ],
          [
            117.40381902398192,
            -240.76910814224607
          ],
          [
            117.40384328885436,
            -240.03093026566015
          ],
          [
            117.40386755372683,
            -239.29275238907425
          ],
          [
            117.40389181859926,
            -238.55457451248833
          ],
          [
            117.95756307856395,
            -237.26279036620826
          ],
          [
            118.32666714151023,
            -236.70917505059896
          ],
          [
            118.51122220609241,
            -236.34009515822112
          ],
          [
            118.69577727067461,
            -235.97101526584322
          ],
          [
            118.88033233525681,
            -235.60193537346538
          ],
          [
            119.0648934660571,
            -235.04831101194102
          ],
          [
            119.06490559849333,
            -234.67922207364805
          ],
          [
            119.24946066307552,
            -234.3101421812702
          ],
          [
            119.24948492794796,
            -233.5719643046843
          ],
          [
            119.4340581911845,
            -232.64925100486698
          ],
          [
            119.98772945114919,
            -231.35746685858686
          ],
          [
            120.72593151082363,
            -230.43478069651485
          ],
          [
            120.91048657540583,
            -230.06570080413698
          ],
          [
            121.09505983864236,
            -229.14298750431968
          ],
          [
            121.27963310187887,
            -228.22027420450235
          ],
          [
            121.27965736675134,
            -227.48209632791642
          ],
          [
            121.8333164942798,
            -226.55940111992933
          ],
          [
            122.38697562180828,
            -225.6367059119422
          ],
          [
            122.38699988668071,
            -224.89852803535626
          ],
          [
            122.38702415155315,
            -224.16035015877034
          ],
          [
            122.3870484164256,
            -223.42217228218445
          ],
          [
            122.38706661507993,
            -222.868538874745
          ],
          [
            122.57162167966213,
            -222.49945898236712
          ],
          [
            123.30984193799091,
            -221.02313941285564
          ],
          [
            123.67895206715531,
            -220.2849796280999
          ],
          [
            123.86350713173748,
            -219.915899735722
          ],
          [
            124.97079505570387,
            -218.99323166548015
          ],
          [
            125.89352791508806,
            -218.43964348761614
          ],
          [
            126.81627290690847,
            -217.51696637145918
          ],
          [
            126.81630323799904,
            -216.5942440257268
          ],
          [
            127.18541943338153,
            -215.67153977182457
          ],
          [
            127.92363362549219,
            -214.37976467145958
          ],
          [
            128.2927619533109,
            -213.0879714792644
          ],
          [
            128.10823721981927,
            -212.53432902590987
          ],
          [
            128.10827361712794,
            -211.427062211031
          ],
          [
            127.92376101607252,
            -210.50433081938354
          ],
          [
            127.18563781723353,
            -209.02793888255135
          ],
          [
            126.81658835025024,
            -207.9206539758423
          ],
          [
            126.81660654890459,
            -207.36702056840286
          ],
          [
            126.26302021599345,
            -206.07518214663227
          ],
          [
            126.26304448086591,
            -205.33700427004635
          ],
          [
            126.26306874573835,
            -204.59882639346046
          ],
          [
            126.26309301061079,
            -203.86064851687453
          ],
          [
            126.26310514304701,
            -203.4915595785816
          ],
          [
            126.07857434333727,
            -203.12246159437356
          ],
          [
            125.89403747740941,
            -202.93790807931197
          ],
          [
            125.70950667769965,
            -202.56881009510394
          ],
          [
            124.97137741264255,
            -201.27696262741824
          ],
          [
            124.23324814758546,
            -199.98511515973252
          ],
          [
            123.86418048194783,
            -199.43146366046292
          ],
          [
            123.86420474682029,
            -198.693285783877
          ],
          [
            123.31061841390915,
            -197.4014473621064
          ],
          [
            122.38792801805174,
            -196.66322425594507
          ],
          [
            121.64978055434031,
            -195.9250101956988
          ],
          [
            120.91164522306508,
            -194.81770719715962
          ],
          [
            120.35805889015394,
            -193.52586877538897
          ],
          [
            120.17352809044421,
            -193.15677079118095
          ],
          [
            119.98899729073445,
            -192.78767280697286
          ],
          [
            119.98900335695255,
            -192.6031283378264
          ],
          [
            119.8044725572428,
            -192.23403035361838
          ],
          [
            119.80447862346092,
            -192.0494858844719
          ],
          [
            119.61994782375118,
            -191.68038790026384
          ],
          [
            119.61995388996928,
            -191.49584343111735
          ],
          [
            119.43542309025953,
            -191.12674544690933
          ],
          [
            119.43544735513198,
            -190.3885675703234
          ],
          [
            119.06639788814871,
            -189.28128266361438
          ],
          [
            118.69734842116543,
            -188.17399775690532
          ],
          [
            118.69737268603788,
            -187.4358198803194
          ],
          [
            119.25104394600258,
            -186.1440357340393
          ],
          [
            119.25106821087502,
            -185.40585785745338
          ],
          [
            119.25109247574746,
            -184.66767998086746
          ],
          [
            119.25111067440179,
            -184.11404657342803
          ],
          [
            118.88206120741852,
            -183.006761666719
          ],
          [
            118.51301174043523,
            -181.89947676000995
          ],
          [
            118.32849913937983,
            -180.9767453683625
          ],
          [
            118.32852340425227,
            -180.23856749177656
          ],
          [
            117.77493707134113,
            -178.94672907000594
          ],
          [
            117.03681387250214,
            -177.47033713317379
          ],
          [
            116.29869067366315,
            -175.9939451963416
          ],
          [
            115.56056747482415,
            -174.51755325950944
          ],
          [
            114.82243820976704,
            -173.22570579182374
          ],
          [
            114.08430287849183,
            -172.11840279328453
          ]
        ]
      },
      "properties": {
        "type": "variant",
        "id": 3,
        "color": "#44ff44",
        "vzdal_m": 2305,
        "prevyseni_m": 72,
        "cas_s": 704,
        "tempo_str": "5:05"
      }
    }
  ]
}