{
  "type": "FeatureCollection",
  "features": [
    {
      "type": "Feature",
      "geometry": {
        "type": "Point",
        "coordinates": [
          142.28391564241707,
          -122.15206329192308
        ]
      },
      "properties": {
        "type": "start",
        "isom": "204"
      }
    },
    {
      "type": "Feature",
      "geometry": {
        "type": "Point",
        "coordinates": [
          195.15799223872688,
          -169.38756571130503
        ]
      },
      "properties": {
        "type": "end",
        "isom": "419"
      }
    },
    {
      "type": "Feature",
      "geometry": {
        "type": "LineString",
        "coordinates": [
          [
            142.43086036219583,
            -121.97411156239785
          ],
          [
            144.6453628786557,
            -123.8197144883034
          ],
          [
            146.1217458938959,
            -123.81976131662556
          ],
          [
            146.85992300023594,
            -124.18889126747109
          ],
          [
            147.47183273626996,
            -125.68604049343604
          ],
          [
            149.44350686922579,
            -126.40361243714169
          ],
          [
            150.1816839755658,
            -126.77274238798722
          ],
          [
            151.65803818824583,
            -127.5110022896783
          ],
          [
            153.50348815473592,
            -128.24927389844993
          ],
          [
            154.97987116997615,
            -128.24932072677205
          ],
          [
            156.08714403012624,
            -128.61846238469815
          ],
          [
            156.82532113646624,
            -128.9875923355437
          ],
          [
            158.30170415170647,
            -128.98763916386585
          ],
          [
            159.77808716694673,
            -128.98768599218798
          ],
          [
            161.25447018218696,
            -128.9877328205101
          ],
          [
            162.7308531974272,
            -128.98777964883226
          ],
          [
            163.83813233232044,
            -128.61870823267483
          ],
          [
            165.31451534756067,
            -128.61875506099696
          ],
          [
            166.7908983628009,
            -128.61880188931912
          ],
          [
            169.74360678816097,
            -130.09532169270128
          ],
          [
            170.8508364444708,
            -131.5717829606808
          ],
          [
            173.43446351730088,
            -132.67918452029795
          ],
          [
            174.1726406236409,
            -133.0483144711435
          ],
          [
            174.91081772998092,
            -133.41744442198905
          ],
          [
            176.38712873882068,
            -135.26302393373354
          ],
          [
            176.75619569007054,
            -136.00124871418302
          ],
          [
            178.23252110019038,
            -137.47772168924305
          ],
          [
            179.70878890518983,
            -140.43062081104097
          ],
          [
            181.1850567101893,
            -143.3835199328389
          ],
          [
            182.66133891646882,
            -145.96731251795237
          ],
          [
            184.13764992530858,
            -147.81289202969685
          ],
          [
            185.61397533542842,
            -149.2893650047569
          ],
          [
            186.35213804048834,
            -150.02760149228692
          ],
          [
            187.8284058454878,
            -152.98050061408483
          ],
          [
            188.56655414926763,
            -154.08784363829935
          ],
          [
            188.9356211005175,
            -154.82606841874883
          ],
          [
            190.41188890551695,
            -157.77896754054674
          ],
          [
            191.51907535798645,
            -160.36274841857966
          ],
          [
            191.51901775286606,
            -161.83917456531756
          ],
          [
            191.88804150027562,
            -163.68471895582047
          ],
          [
            192.9952423540252,
            -165.8993932971689
          ],
          [
            193.3643093052751,
            -166.63761807761838
          ],
          [
            193.73339065780502,
            -167.00673632138339
          ],
          [
            194.10245760905488,
            -167.74496110183287
          ],
          [
            195.2096872653647,
            -169.22142236981236
          ]
        ]
      },
      "properties": {
        "type": "variant",
        "id": 1,
        "color": "#ff4444",
        "vzdal_m": 1059,
        "prevyseni_m": 34,
        "cas_s": 348,
        "tempo_str": "5:28"
      }
    },
    {
      "type": "Feature",
      "geometry": {
        "type": "LineString",
        "coordinates": [
          [
            142.43086036219583,
            -121.97411156239785
          ],
          [
            144.6453628786557,
            -123.8197144883034
          ],
          [
            146.1217458938959,
            -123.81976131662556
          ],
          [
            146.85992300023594,
            -124.18889126747109
          ],
          [
            147.47183273626996,
            -125.68604049343604
          ],
          [
            149.44350686922579,
            -126.40361243714169
          ],
          [
            150.1816839755658,
            -126.77274238798722
          ],
          [
            151.28892803315566,
            -127.88009711928225
          ],
          [
            152.02703313309522,
            -130.09475975355016
          ],
          [
            153.50334414193495,
            -131.94033926529465
          ],
          [
            154.61060260080492,
            -132.67858745990523
          ],
          [
            154.9796695520548,
            -133.4168122403547
          ],
          [
            156.825133919825,
            -133.78597731244184
          ],
          [
            158.30151693506522,
            -133.786024140764
          ],
          [
            160.14698130283543,
            -134.15518921285113
          ],
          [
            161.62336431807563,
            -134.15523604117328
          ],
          [
            164.20696886308875,
            -135.2626376000759
          ],
          [
            166.79059593591887,
            -136.37003915969305
          ],
          [
            169.00511285365883,
            -137.84653554891415
          ],
          [
            170.48143826377867,
            -139.32300852397418
          ],
          [
            171.9577636738985,
            -140.79948149903421
          ],
          [
            173.43403147889796,
            -143.75238062083216
          ],
          [
            175.27940943898756,
            -146.33618491302613
          ],
          [
            176.75572044782731,
            -148.18176442477065
          ],
          [
            178.23204585794718,
            -149.65823739983068
          ],
          [
            178.60104080279655,
            -152.24199486370253
          ],
          [
            180.81554331925642,
            -154.0875977896081
          ],
          [
            182.29185432809615,
            -155.9331773013526
          ],
          [
            183.7681653369359,
            -157.77875681309712
          ],
          [
            184.87538059196558,
            -159.6243246177611
          ],
          [
            186.7208161571756,
            -160.73170276321719
          ],
          [
            187.08989750970554,
            -161.1008210069822
          ],
          [
            187.4589788622355,
            -161.4699392507472
          ],
          [
            188.19715596857552,
            -161.83906920159274
          ],
          [
            188.93533307491555,
            -162.20819915243828
          ],
          [
            189.67351018125555,
            -162.57732910328383
          ],
          [
            190.04260593506564,
            -162.57734081036438
          ],
          [
            191.51893134518545,
            -164.05381378542438
          ],
          [
            192.9952423540252,
            -165.8993932971689
          ],
          [
            193.3643093052751,
            -166.63761807761838
          ],
          [
            193.73339065780502,
            -167.00673632138339
          ],
          [
            194.10245760905488,
            -167.74496110183287
          ],
          [
            195.2096872653647,
            -169.22142236981236
          ]
        ]
      },
      "properties": {
        "type": "variant",
        "id": 2,
        "color": "#4444ff",
        "vzdal_m": 1017,
        "prevyseni_m": 43,
        "cas_s": 351,
        "tempo_str": "5:44"
      }
    },
    {
      "type": "Feature",
      "geometry": {
        "type": "LineString",
        "coordinates": [
          [
            142.43086036219583,
            -121.97411156239785
          ],
          [
            144.6453628786557,
            -123.8197144883034
          ],
          [
            146.1217458938959,
            -123.81976131662556
          ],
          [
            146.85992300023594,
            -124.18889126747109
          ],
          [
            147.5763658761051,
            -125.00436594319673
          ],
          [
            147.57998556499905,
            -126.34598181117086
          ],
          [
            147.03063299695555,
            -127.22451859699245
          ],
          [
            146.85972138231458,
            -129.35638278105372
          ],
          [
            146.49055362210404,
            -131.20190375739554
          ],
          [
            146.49049601698363,
            -132.67832990413345
          ],
          [
            147.9667638219831,
            -135.6312290259314
          ],
          [
            148.70486892192264,
            -137.8458916601993
          ],
          [
            150.1811367269221,
            -140.7987907819972
          ],
          [
            151.65744773576182,
            -142.64437029374173
          ],
          [
            153.1337731458817,
            -144.12084326880176
          ],
          [
            154.6100985560015,
            -145.5973162438618
          ],
          [
            156.08636636100098,
            -148.5502153656597
          ],
          [
            157.5626773698407,
            -150.39579487740423
          ],
          [
            158.6699214274306,
            -151.50314960869923
          ],
          [
            159.03898837868047,
            -152.24137438914872
          ],
          [
            160.5152993875202,
            -154.08695390089323
          ],
          [
            161.99162479764007,
            -155.56342687595327
          ],
          [
            162.36069174888993,
            -156.30165165640275
          ],
          [
            163.83698022991265,
            -158.14723116743272
          ],
          [
            164.94423868878263,
            -158.88547936204327
          ],
          [
            166.78970305655284,
            -159.2546444341304
          ],
          [
            168.26605726923287,
            -159.99290433582152
          ],
          [
            169.00426317813307,
            -159.6238212132981
          ],
          [
            170.48064619337333,
            -159.62386804162023
          ],
          [
            172.69519191367348,
            -160.36215135747238
          ],
          [
            173.43338342129357,
            -160.36217477163348
          ],
          [
            174.1715605276336,
            -160.731304722479
          ],
          [
            176.0170248954038,
            -161.10046979456615
          ],
          [
            177.8624604606138,
            -162.20784794002225
          ],
          [
            180.07697737835375,
            -163.68434432924334
          ],
          [
            182.2914942960937,
            -165.16084071846444
          ],
          [
            184.1369298613037,
            -166.26821886392054
          ],
          [
            186.72058573669403,
            -166.63740735016876
          ],
          [
            188.93513145699418,
            -167.37569066602092
          ],
          [
            190.41151447223444,
            -167.37573749434307
          ],
          [
            192.2569788400046,
            -167.7449025664302
          ],
          [
            195.2096872653647,
            -169.22142236981236
          ]
        ]
      },
      "properties": {
        "type": "variant",
        "id": 3,
        "color": "#44ff44",
        "vzdal_m": 1073,
        "prevyseni_m": 38,
        "cas_s": 348,
        "tempo_str": "5:24"
      }
    }
  ]
}