{
  "type": "FeatureCollection",
  "features": [
    {
      "type": "Feature",
      "geometry": {
        "type": "Point",
        "coordinates": [
          149.85396780754684,
          -181.1954329833357
        ]
      },
      "properties": {
        "type": "start",
        "isom": "109"
      }
    },
    {
      "type": "Feature",
      "geometry": {
        "type": "Point",
        "coordinates": [
          77.3892230036518,
          -178.22735855339792
        ]
      },
      "properties": {
        "type": "end",
        "isom": "204"
      }
    },
    {
      "type": "Feature",
      "geometry": {
        "type": "LineString",
        "coordinates": [
          [
            149.85407233768657,
            -181.25067562728165
          ],
          [
            149.6695354717587,
            -181.0661221122201
          ],
          [
            149.48499860583084,
            -180.88156859715855
          ],
          [
            148.37775314539124,
            -180.51242538337507
          ],
          [
            147.4550445508795,
            -180.32783568465314
          ],
          [
            147.27050161873353,
            -180.32782663873806
          ],
          [
            146.9014218206597,
            -180.14326407776142
          ],
          [
            146.16326222451204,
            -179.7741389558081
          ],
          [
            145.42509049592815,
            -179.77410277214778
          ],
          [
            144.50238190141638,
            -179.58951307342585
          ],
          [
            144.3178389692704,
            -179.58950402751077
          ],
          [
            143.9487591711966,
            -179.40494146653413
          ],
          [
            143.02605057668484,
            -179.22035176781222
          ],
          [
            142.28787884810097,
            -179.22031558415188
          ],
          [
            141.54970711951708,
            -179.22027940049153
          ],
          [
            140.8115353909332,
            -179.22024321683116
          ],
          [
            140.07336366234932,
            -179.22020703317082
          ],
          [
            139.33519193376543,
            -179.22017084951048
          ],
          [
            138.59702020518154,
            -179.22013466585014
          ],
          [
            137.6743116106698,
            -179.03554496712823
          ],
          [
            136.9361398820859,
            -179.0355087834679
          ],
          [
            136.1979560210658,
            -179.4045615381005
          ],
          [
            135.82887622299197,
            -179.21999897712385
          ],
          [
            134.72163076255237,
            -178.85085576334038
          ],
          [
            133.98348329884095,
            -178.1126417030941
          ],
          [
            133.4298848334936,
            -177.18989221961647
          ],
          [
            133.24535403378383,
            -176.8207942354084
          ],
          [
            133.06082323407406,
            -176.4516962512004
          ],
          [
            132.5072126362905,
            -175.89803570601566
          ],
          [
            131.21544244235926,
            -174.97525003887768
          ],
          [
            129.73912325006393,
            -174.23699979497107
          ],
          [
            128.2628040577686,
            -173.4987495510645
          ],
          [
            127.34010759569308,
            -172.9450709140496
          ],
          [
            126.60196619819976,
            -172.02231238465689
          ],
          [
            125.12564700590444,
            -171.28406214075028
          ],
          [
            124.38747527732056,
            -171.2840259570899
          ],
          [
            123.64929748251856,
            -171.46853424257606
          ],
          [
            122.91113182015279,
            -171.28395358976923
          ],
          [
            122.1729600915689,
            -171.28391740610888
          ],
          [
            121.43478836298502,
            -171.28388122244854
          ],
          [
            120.69661663440114,
            -171.2838450387882
          ],
          [
            119.95844490581725,
            -171.28380885512786
          ],
          [
            119.40481610937934,
            -171.2837817173826
          ],
          [
            119.0357363113055,
            -171.09921915640592
          ],
          [
            118.85119337915954,
            -171.09921011049087
          ],
          [
            118.48211358108571,
            -170.9146475495142
          ],
          [
            118.11303378301186,
            -170.73008498853756
          ],
          [
            117.19032518850011,
            -170.54549528981565
          ],
          [
            116.45215345991623,
            -170.5454591061553
          ],
          [
            115.52944486540449,
            -170.3608694074334
          ],
          [
            114.7912731368206,
            -170.36083322377306
          ],
          [
            114.05310140823671,
            -170.3607970401127
          ],
          [
            113.31492967965283,
            -170.36076085645237
          ],
          [
            112.20768421921323,
            -169.99161764266887
          ],
          [
            111.46951249062936,
            -169.99158145900853
          ],
          [
            110.73134076204546,
            -169.9915452753482
          ],
          [
            109.43954630324178,
            -169.80693748479612
          ],
          [
            108.3323129752384,
            -169.06870533271967
          ],
          [
            107.409622579381,
            -168.33048222655833
          ],
          [
            105.7487543887216,
            -167.7767674058831
          ],
          [
            105.19513165850177,
            -167.59219579899138
          ],
          [
            104.27241699777191,
            -167.59215056941594
          ],
          [
            103.53423920296993,
            -167.77665885490208
          ],
          [
            102.79606747438605,
            -167.77662267124174
          ],
          [
            102.05788967958405,
            -167.96113095672786
          ],
          [
            100.950619954272,
            -168.3301656195303
          ],
          [
            99.65880123059586,
            -168.88373570556413
          ],
          [
            98.92062343579387,
            -169.06824399105025
          ],
          [
            97.62879864589962,
            -169.80635854623057
          ],
          [
            96.3369859884416,
            -170.17538416311794
          ],
          [
            94.67607533425542,
            -170.91348062646807
          ],
          [
            93.38425054436118,
            -171.65159518164836
          ],
          [
            91.90787675610285,
            -172.5742451600601
          ],
          [
            90.43151510028075,
            -173.12780620017884
          ],
          [
            88.77060444609457,
            -173.86590266352897
          ],
          [
            87.84787765292847,
            -174.2349463722465
          ],
          [
            86.74058366274399,
            -175.34215891163484
          ],
          [
            85.63332000365006,
            -175.5266491052908
          ],
          [
            84.52605634455611,
            -175.71113929894676
          ],
          [
            83.78787854975413,
            -175.8956475844329
          ],
          [
            82.49606589229609,
            -176.26467320132025
          ],
          [
            81.20425323483808,
            -176.63369881820762
          ],
          [
            79.72789157901597,
            -177.18725985832637
          ],
          [
            78.62061578748582,
            -177.74083899027525
          ],
          [
            77.32879706380969,
            -178.29440907630908
          ]
        ]
      },
      "properties": {
        "type": "variant",
        "id": 1,
        "color": "#ff4444",
        "vzdal_m": 2151,
        "prevyseni_m": 61,
        "cas_s": 650,
        "tempo_str": "5:02"
      }
    },
    {
      "type": "Feature",
      "geometry": {
        "type": "LineString",
        "coordinates": [
          [
            149.85407233768657,
            -181.25067562728165
          ],
          [
            149.6695354717587,
            -181.0661221122201
          ],
          [
            149.48499860583084,
            -180.88156859715855
          ],
          [
            148.37775314539124,
            -180.51242538337507
          ],
          [
            147.4550445508795,
            -180.32783568465314
          ],
          [
            147.27050161873353,
            -180.32782663873806
          ],
          [
            146.9014218206597,
            -180.14326407776142
          ],
          [
            146.16326222451204,
            -179.7741389558081
          ],
          [
            145.42509049592815,
            -179.77410277214778
          ],
          [
            144.50238190141638,
            -179.58951307342585
          ],
          [
            144.3178389692704,
            -179.58950402751077
          ],
          [
            143.9487591711966,
            -179.40494146653413
          ],
          [
            143.02605057668484,
            -179.22035176781222
          ],
          [
            142.28787884810097,
            -179.22031558415188
          ],
          [
            141.54970711951708,
            -179.22027940049153
          ],
          [
            140.8115353909332,
            -179.22024321683116
          ],
          [
            140.07336366234932,
            -179.22020703317082
          ],
          [
            139.33519193376543,
            -179.22017084951048
          ],
          [
            138.59702020518154,
            -179.22013466585014
          ],
          [
            137.6743116106698,
            -179.03554496712823
          ],
          [
            137.12068281423188,
            -179.03551782938297
          ],
          [
            136.75159088372183,
            -179.22004420669927
          ],
          [
            136.01340095648362,
            -179.77364143047836
          ],
          [
            135.4597660938276,
            -179.9581587618796
          ],
          [
            134.90613123117157,
            -180.1426760932808
          ],
          [
            133.7988554396414,
            -180.69625522522972
          ],
          [
            132.69157358189312,
            -181.43437882632512
          ],
          [
            131.9533775884368,
            -182.1725205192507
          ],
          [
            131.21518159498046,
            -182.91066221217625
          ],
          [
            130.8460896644704,
            -183.09518858949258
          ],
          [
            130.1078936710141,
            -183.83333028241813
          ],
          [
            129.36970374377586,
            -184.38692750619722
          ],
          [
            129.0005996808296,
            -184.94054282180647
          ],
          [
            128.26240368737325,
            -185.67868451473205
          ],
          [
            127.70876275849913,
            -186.04774631527974
          ],
          [
            126.416944034823,
            -186.6013164013136
          ],
          [
            125.30967430951094,
            -186.97035106411602
          ],
          [
            124.3869657149992,
            -186.7857613653941
          ],
          [
            124.01788591692538,
            -186.60119880441746
          ],
          [
            123.64880611885154,
            -186.41663624344082
          ],
          [
            122.91063439026766,
            -186.41660005978045
          ],
          [
            121.98791366331969,
            -186.60109929935152
          ],
          [
            121.80337073117371,
            -186.6010902534364
          ],
          [
            121.43427880066366,
            -186.78561663075274
          ],
          [
            120.88063180557143,
            -187.3392229004469
          ],
          [
            120.69607674098923,
            -187.70830279282478
          ],
          [
            119.77333781538691,
            -188.44643543983526
          ],
          [
            118.85061708843897,
            -188.63093467940632
          ],
          [
            118.11244535985509,
            -188.63089849574595
          ],
          [
            117.18972463290712,
            -188.81539773531702
          ],
          [
            115.89794230653963,
            -188.26170100647198
          ],
          [
            114.79068471366381,
            -188.26164673098145
          ],
          [
            113.68343925322421,
            -187.89250351719798
          ],
          [
            112.57619379278461,
            -187.5233603034145
          ],
          [
            112.02256499634669,
            -187.52333316566924
          ],
          [
            111.65348519827286,
            -187.3387706046926
          ],
          [
            111.28440540019903,
            -187.15420804371593
          ],
          [
            110.9153195359071,
            -187.15418995188577
          ],
          [
            110.54623973783326,
            -186.96962739090912
          ],
          [
            109.2544574114658,
            -186.41593066206408
          ],
          [
            107.77813821917047,
            -185.67768041815748
          ],
          [
            106.67089882494898,
            -185.12399273522752
          ],
          [
            106.30181902687514,
            -184.93943017425087
          ],
          [
            105.93273922880131,
            -184.75486761327423
          ],
          [
            104.45642003650597,
            -184.01661736936762
          ],
          [
            103.71826044035832,
            -183.6474922474143
          ],
          [
            103.3491806422845,
            -183.46292968643766
          ],
          [
            101.87286144998919,
            -182.72467944253106
          ],
          [
            100.58108518983983,
            -181.98643824453953
          ],
          [
            99.6583887277643,
            -181.43275960752467
          ],
          [
            98.92022913161662,
            -181.06363448557136
          ],
          [
            97.81298367117702,
            -180.69449127178788
          ],
          [
            97.07481194259314,
            -180.69445508812757
          ],
          [
            96.33664021400926,
            -180.6944189044672
          ],
          [
            95.41393161949752,
            -180.5098292057453
          ],
          [
            94.67575989091362,
            -180.50979302208495
          ],
          [
            93.75305129640189,
            -180.32520332336304
          ],
          [
            93.014879567818,
            -180.3251671397027
          ],
          [
            91.9076341073784,
            -179.95602392591923
          ],
          [
            90.98492551286665,
            -179.77143422719732
          ],
          [
            90.0622169183549,
            -179.5868445284754
          ],
          [
            89.13950832384317,
            -179.4022548297535
          ],
          [
            88.33725645407411,
            -179.1280279028784
          ],
          [
            87.68582801458214,
            -179.26030161864182
          ],
          [
            86.55590120758146,
            -179.58667265608878
          ],
          [
            86.00227241114355,
            -179.58664551834352
          ],
          [
            85.44863754848751,
            -179.7711628497447
          ],
          [
            84.8950087520496,
            -179.77113571199948
          ],
          [
            84.52591682153955,
            -179.95566208931578
          ],
          [
            83.78773902673755,
            -180.14017037480193
          ],
          [
            83.04957336437178,
            -179.95558972199507
          ],
          [
            82.3114016357879,
            -179.95555353833475
          ],
          [
            81.57322990720402,
            -179.95551735467438
          ],
          [
            80.83505817862013,
            -179.95548117101404
          ],
          [
            79.91234958410838,
            -179.77089147229213
          ],
          [
            79.72781271818052,
            -179.58633795723057
          ],
          [
            78.43603039181306,
            -179.03264122838553
          ],
          [
            77.32879706380969,
            -178.29440907630908
          ]
        ]
      },
      "properties": {
        "type": "variant",
        "id": 2,
        "color": "#4444ff",
        "vzdal_m": 2146,
        "prevyseni_m": 77,
        "cas_s": 637,
        "tempo_str": "4:57"
      }
    },
    {
      "type": "Feature",
      "geometry": {
        "type": "LineString",
        "coordinates": [
          [
            149.85407233768657,
            -181.25067562728165
          ],
          [
            149.6695354717587,
            -181.0661221122201
          ],
          [
            149.48499860583084,
            -180.88156859715855
          ],
          [
            148.00867941353553,
            -180.14331835325194
          ],
          [
            146.71690315338617,
            -179.40507715526041
          ],
          [
            145.79421275752875,
            -178.66685404909907
          ],
          [
            144.87151629545323,
            -178.1131754120842
          ],
          [
            143.579746101522,
            -177.1903897449462
          ],
          [
            142.84159863781053,
            -176.45217568469997
          ],
          [
            141.5498223776612,
            -175.71393448670844
          ],
          [
            141.1807425795874,
            -175.5293719257318
          ],
          [
            140.9962057136595,
            -175.3448184106702
          ],
          [
            140.62712591558568,
            -175.16025584969356
          ],
          [
            139.5198925875823,
            -174.42202369761713
          ],
          [
            138.412665325797,
            -173.49924707639423
          ],
          [
            138.0435915939413,
            -173.1301400462711
          ],
          [
            137.6745117958675,
            -172.94557748529445
          ],
          [
            136.5672784678641,
            -172.207345333218
          ],
          [
            135.4600451398607,
            -171.46911318114158
          ],
          [
            135.0909653417869,
            -171.2845506201649
          ],
          [
            134.57640631148763,
            -171.11006370818174
          ],
          [
            133.98373808000161,
            -170.361773998942
          ],
          [
            132.69195575363415,
            -169.808077270097
          ],
          [
            131.2156365613388,
            -169.06982702619038
          ],
          [
            129.82867601091928,
            -168.39441619943977
          ],
          [
            128.9127981571261,
            -168.39788594573682
          ],
          [
            128.28934403879316,
            -167.57321682183283
          ],
          [
            127.75728273445274,
            -167.1512235205079
          ],
          [
            127.41465751449526,
            -166.9263522015212
          ],
          [
            126.93982379814203,
            -166.75013738113333
          ],
          [
            126.21356828234588,
            -166.1469952422806
          ],
          [
            125.36704287324179,
            -165.29897751020764
          ],
          [
            125.03476441638188,
            -165.06266682814083
          ],
          [
            124.82438575456673,
            -164.91310946598344
          ],
          [
            124.49021900740719,
            -164.67876148900154
          ],
          [
            124.09236661966976,
            -164.37368680450606
          ],
          [
            123.7050819784161,
            -164.13785282401082
          ],
          [
            123.2176064744497,
            -163.99089188211744
          ],
          [
            122.91137446887723,
            -163.9021748239101
          ],
          [
            122.17320274029333,
            -163.90213864024975
          ],
          [
            121.43503101170946,
            -163.9021024565894
          ],
          [
            120.69685928312558,
            -163.90206627292906
          ],
          [
            119.95868755454168,
            -163.90203008926872
          ],
          [
            119.2205158259578,
            -163.90199390560835
          ],
          [
            118.85141782922965,
            -164.27106475207117
          ],
          [
            118.11325216686389,
            -164.08648409926434
          ],
          [
            117.37508043828,
            -164.086447915604
          ],
          [
            116.08326778082197,
            -164.45547353249134
          ],
          [
            115.52963898438405,
            -164.45544639474608
          ],
          [
            114.79146118958205,
            -164.63995468023222
          ],
          [
            114.05329552721629,
            -164.4553740274254
          ],
          [
            113.3151237986324,
            -164.45533784376505
          ],
          [
            112.57695813626663,
            -164.27075719095822
          ],
          [
            111.65423134310055,
            -164.63980089967575
          ],
          [
            110.7315227485888,
            -164.45521120095384
          ],
          [
            109.9933449537868,
            -164.63971948643996
          ],
          [
            109.07063029305695,
            -164.63967425686454
          ],
          [
            108.33245856447306,
            -164.6396380732042
          ],
          [
            107.59428683588918,
            -164.63960188954385
          ],
          [
            106.8561151073053,
            -164.63956570588348
          ],
          [
            106.1179433787214,
            -164.63952952222314
          ],
          [
            105.19523478420966,
            -164.45493982350126
          ],
          [
            104.4570691218439,
            -164.2703591706944
          ],
          [
            103.71889739326001,
            -164.2703229870341
          ],
          [
            102.98072566467613,
            -164.27028680337372
          ],
          [
            102.24254786987413,
            -164.45479508885987
          ],
          [
            101.50436400885401,
            -164.82384784349247
          ],
          [
            101.13527207834397,
            -165.00837422080878
          ],
          [
            100.76618014783392,
            -165.19290059812508
          ],
          [
            99.8434412222316,
            -165.93103324513558
          ],
          [
            98.36707350019141,
            -166.6691387544008
          ],
          [
            97.25980377487934,
            -167.03817341720324
          ],
          [
            96.33708304793137,
            -167.22267265677428
          ],
          [
            95.96799111742132,
            -167.4071990340906
          ],
          [
            95.59889918691128,
            -167.59172541140688
          ],
          [
            94.86070319345494,
            -168.32986710433246
          ],
          [
            93.93796426785265,
            -169.06799975134294
          ],
          [
            93.1997682743963,
            -169.80614144426852
          ],
          [
            92.27702934879402,
            -170.544274091279
          ],
          [
            91.72337628748366,
            -171.28242483011965
          ],
          [
            90.98517422780921,
            -172.2051109921917
          ],
          [
            90.246984300571,
            -172.75870821597078
          ],
          [
            89.3242453749687,
            -173.49684086298126
          ],
          [
            88.5860615139486,
            -173.8658936176139
          ],
          [
            87.47876752376409,
            -174.97310615700223
          ],
          [
            86.00240586794199,
            -175.526667197121
          ],
          [
            84.89514220884806,
            -175.71115739077695
          ],
          [
            84.34151341241014,
            -175.71113025303168
          ],
          [
            83.23424368709809,
            -176.08016491583413
          ],
          [
            81.75788203127598,
            -176.63372595595285
          ],
          [
            80.65061837218205,
            -176.81821614960882
          ],
          [
            79.17424458392372,
            -177.7408661280205
          ],
          [
            77.8824319264657,
            -178.10989174490788
          ],
          [
            77.32879706380969,
            -178.29440907630908
          ]
        ]
      },
      "properties": {
        "type": "variant",
        "id": 3,
        "color": "#44ff44",
        "vzdal_m": 2242,
        "prevyseni_m": 50,
        "cas_s": 672,
        "tempo_str": "4:59"
      }
    }
  ]
}