{
  "type": "FeatureCollection",
  "features": [
    {
      "type": "Feature",
      "geometry": {
        "type": "Point",
        "coordinates": [
          45.35352627979364,
          -105.98721526219259
        ]
      },
      "properties": {
        "type": "start",
        "isom": "204"
      }
    },
    {
      "type": "Feature",
      "geometry": {
        "type": "Point",
        "coordinates": [
          34.557422007931045,
          -116.41344858293608
        ]
      },
      "properties": {
        "type": "end",
        "isom": "204"
      }
    },
    {
      "type": "Feature",
      "geometry": {
        "type": "LineString",
        "coordinates": [
          [
            45.35352627979364,
            -105.98721526219259
          ],
          [
            44.984428283065476,
            -106.35628610865538
          ],
          [
            44.61533028633731,
            -106.72535695511816
          ],
          [
            44.246235322718206,
            -107.0021555670077
          ],
          [
            43.87713732599004,
            -107.3712264134705
          ],
          [
            43.50803932926188,
            -107.74029725993329
          ],
          [
            43.138929200097486,
            -108.47845704468902
          ],
          [
            42.76982513715121,
            -109.03207236029827
          ],
          [
            42.400727140423044,
            -109.40114320676108
          ],
          [
            42.03162914369488,
            -109.77021405322385
          ],
          [
            41.662531146966714,
            -110.13928489968663
          ],
          [
            41.29343315023855,
            -110.5083557461494
          ],
          [
            40.924335153510384,
            -110.87742659261221
          ],
          [
            40.55523715678222,
            -111.24649743907499
          ],
          [
            40.186139160054054,
            -111.61556828553776
          ],
          [
            39.81704116332589,
            -111.98463913200057
          ],
          [
            39.44794013348867,
            -112.44598221303659
          ],
          [
            39.07884213676051,
            -112.81505305949936
          ],
          [
            38.70974414003234,
            -113.18412390596214
          ],
          [
            38.24837467723119,
            -113.55319022946739
          ],
          [
            37.87927364739397,
            -114.01453331050342
          ],
          [
            37.51017565066581,
            -114.3836041569662
          ],
          [
            37.048806187864656,
            -114.75267048047145
          ],
          [
            36.49516525899052,
            -115.12173228101913
          ],
          [
            35.94152433011638,
            -115.49079408156682
          ],
          [
            35.29561193516926,
            -115.85985135915698
          ],
          [
            34.83424247236811,
            -116.22891768266223
          ],
          [
            34.557422007931045,
            -116.41344858293608
          ]
        ]
      },
      "properties": {
        "type": "variant",
        "id": 1,
        "color": "#ff4444",
        "vzdal_m": 821,
        "prevyseni_m": 0,
        "cas_s": 207,
        "tempo_str": "4:12"
      }
    },
    {
      "type": "Feature",
      "geometry": {
        "type": "LineString",
        "coordinates": [
          [
            45.35352627979364,
            -105.98721526219259
          ],
          [
            44.707616917955576,
            -106.2640003052095
          ],
          [
            43.96943305693547,
            -106.63305305984213
          ],
          [
            43.50806359413432,
            -107.00211938334736
          ],
          [
            42.862151199187196,
            -107.37117666093752
          ],
          [
            42.49305320245903,
            -107.7402475074003
          ],
          [
            41.93941227358489,
            -108.10930930794801
          ],
          [
            41.38577134471076,
            -108.47837110849571
          ],
          [
            41.0166733479826,
            -108.84744195495848
          ],
          [
            40.37076095303547,
            -109.21649923254863
          ],
          [
            39.81712002416133,
            -109.58556103309634
          ],
          [
            39.35575056136019,
            -109.95462735660156
          ],
          [
            38.89438109855904,
            -110.32369368010681
          ],
          [
            38.52528310183087,
            -110.69276452656962
          ],
          [
            38.15618510510271,
            -111.0618353730324
          ],
          [
            37.78708710837454,
            -111.43090621949517
          ],
          [
            37.41798911164638,
            -111.79997706595795
          ],
          [
            37.04889111491821,
            -112.16904791242075
          ],
          [
            36.587512552789896,
            -112.81493093964569
          ],
          [
            36.495231987389744,
            -113.09174312040787
          ],
          [
            36.31068602213471,
            -113.18400630906602
          ],
          [
            36.21840848984362,
            -113.36854625525497
          ],
          [
            35.941572859861274,
            -114.014438328395
          ],
          [
            35.572465763805944,
            -114.66032587857751
          ],
          [
            35.203355634641554,
            -115.39848566333325
          ],
          [
            34.834251571695276,
            -115.95210097894251
          ],
          [
            34.557422007931045,
            -116.41344858293608
          ]
        ]
      },
      "properties": {
        "type": "variant",
        "id": 2,
        "color": "#4444ff",
        "vzdal_m": 835,
        "prevyseni_m": 0,
        "cas_s": 216,
        "tempo_str": "4:18"
      }
    }
  ]
}