{
  "type": "FeatureCollection",
  "features": [
    {
      "type": "Feature",
      "geometry": {
        "type": "Point",
        "coordinates": [
          45.63081080991622,
          -91.68503247221314
        ]
      },
      "properties": {
        "type": "start",
        "isom": "419"
      }
    },
    {
      "type": "Feature",
      "geometry": {
        "type": "Point",
        "coordinates": [
          41.38555296085875,
          -115.12197199776892
        ]
      },
      "properties": {
        "type": "end",
        "isom": "204"
      }
    },
    {
      "type": "Feature",
      "geometry": {
        "type": "LineString",
        "coordinates": [
          [
            45.63081080991622,
            -91.68503247221314
          ],
          [
            45.261709780079,
            -92.14637555324916
          ],
          [
            44.89260875024178,
            -92.60771863428519
          ],
          [
            44.61577312025943,
            -93.25361070742522
          ],
          [
            44.523486488641176,
            -93.71496735733388
          ],
          [
            44.154376359476785,
            -94.45312714208963
          ],
          [
            44.06208972785852,
            -94.91448379199828
          ],
          [
            44.062077595422295,
            -95.28357273029123
          ],
          [
            44.06206546298607,
            -95.65266166858419
          ],
          [
            44.06205333054985,
            -96.02175060687715
          ],
          [
            44.062041198113626,
            -96.39083954517011
          ],
          [
            44.0620290656774,
            -96.75992848346306
          ],
          [
            43.69291893651302,
            -97.49808826821882
          ],
          [
            43.508363871930825,
            -97.86716816059669
          ],
          [
            42.95472294305669,
            -98.23622996114437
          ],
          [
            42.49335044714648,
            -98.69756851922286
          ],
          [
            42.40106381552822,
            -99.15892516913152
          ],
          [
            42.216502684727914,
            -99.71254953065586
          ],
          [
            41.84739255556352,
            -100.4507093154116
          ],
          [
            41.47828242639914,
            -101.18886910016734
          ],
          [
            41.201446796416796,
            -101.83476117330738
          ],
          [
            41.20143466398057,
            -102.20385011160035
          ],
          [
            41.109148032362306,
            -102.66520676150901
          ],
          [
            40.924589934671054,
            -103.12655888846011
          ],
          [
            40.924577802234836,
            -103.49564782675307
          ],
          [
            41.2013709686904,
            -104.14156703763837
          ],
          [
            41.20135883625418,
            -104.51065597593133
          ],
          [
            41.20134670381796,
            -104.87974491422428
          ],
          [
            41.201334571381736,
            -105.24883385251724
          ],
          [
            41.10904793976347,
            -105.7101905024259
          ],
          [
            41.109035807327245,
            -106.07927944071886
          ],
          [
            41.10902367489103,
            -106.44836837901181
          ],
          [
            41.1090115424548,
            -106.81745731730477
          ],
          [
            41.20126784298251,
            -107.2788230131285
          ],
          [
            41.385792576474145,
            -107.83246546648303
          ],
          [
            41.662585742929714,
            -108.47838467736833
          ],
          [
            41.75484204345742,
            -108.93975037319207
          ],
          [
            41.754829911021204,
            -109.30883931148503
          ],
          [
            41.57026878022089,
            -109.86246367300937
          ],
          [
            41.20115865105651,
            -110.60062345776511
          ],
          [
            41.016597520256205,
            -111.15424781928947
          ],
          [
            41.01658538781998,
            -111.52333675758241
          ],
          [
            41.20111012131162,
            -112.07697921093694
          ],
          [
            41.2010979888754,
            -112.4460681492299
          ],
          [
            41.477891155330965,
            -113.0919873601152
          ],
          [
            41.47787902289474,
            -113.46107629840816
          ],
          [
            41.47786689045852,
            -113.8301652367011
          ],
          [
            41.477854758022296,
            -114.19925417499407
          ],
          [
            41.47784262558607,
            -114.56834311328703
          ],
          [
            41.385555993967806,
            -115.02969976319568
          ],
          [
            41.38555296085875,
            -115.12197199776892
          ]
        ]
      },
      "properties": {
        "type": "variant",
        "id": 1,
        "color": "#ff4444",
        "vzdal_m": 1366,
        "prevyseni_m": 0,
        "cas_s": 17777,
        "tempo_str": "216:55"
      }
    },
    {
      "type": "Feature",
      "geometry": {
        "type": "LineString",
        "coordinates": [
          [
            45.63081080991622,
            -91.68503247221314
          ],
          [
            45.261709780079,
            -92.14637555324916
          ],
          [
            44.89260875024178,
            -92.60771863428519
          ],
          [
            44.52349862107739,
            -93.34587841904091
          ],
          [
            44.43121198945913,
            -93.80723506894957
          ],
          [
            44.06210186029474,
            -94.54539485370532
          ],
          [
            43.692991731130356,
            -95.28355463846107
          ],
          [
            43.69297959869413,
            -95.65264357675403
          ],
          [
            43.692967466257905,
            -96.02173251504699
          ],
          [
            43.60068083463965,
            -96.48308916495563
          ],
          [
            43.23157070547526,
            -97.22124894971138
          ],
          [
            42.770204275783165,
            -97.49804303864337
          ],
          [
            42.401118411491225,
            -97.49802494681322
          ],
          [
            42.03203254719928,
            -97.49800685498303
          ],
          [
            41.57067218372529,
            -97.59025647476857
          ],
          [
            41.10930272092414,
            -97.9593227982738
          ],
          [
            40.8324670909418,
            -98.60521487141384
          ],
          [
            40.83245495850557,
            -98.9743038097068
          ],
          [
            40.647893827705275,
            -99.52792817123114
          ],
          [
            40.18651829868601,
            -100.08153896388286
          ],
          [
            39.725139736557686,
            -100.72742199110782
          ],
          [
            39.3560296073933,
            -101.46558177586355
          ],
          [
            39.26374297577504,
            -101.92693842577222
          ],
          [
            39.26373084333882,
            -102.29602736406518
          ],
          [
            39.263718710902594,
            -102.66511630235813
          ],
          [
            39.26370657846637,
            -103.03420524065109
          ],
          [
            39.26369444603015,
            -103.40329417894405
          ],
          [
            39.263682313593925,
            -103.77238311723701
          ],
          [
            39.26367018115771,
            -104.14147205552996
          ],
          [
            39.26365804872149,
            -104.51056099382292
          ],
          [
            39.26364591628526,
            -104.87964993211588
          ],
          [
            39.26363378384904,
            -105.24873887040883
          ],
          [
            39.26362165141282,
            -105.61782780870179
          ],
          [
            39.35587795194052,
            -106.07919350452552
          ],
          [
            39.724939551360016,
            -106.81738947294161
          ],
          [
            39.7249274189238,
            -107.18647841123457
          ],
          [
            39.72491528648758,
            -107.55556734952752
          ],
          [
            39.724903154051354,
            -107.92465628782048
          ],
          [
            39.72489102161513,
            -108.29374522611344
          ],
          [
            40.0016841880707,
            -108.93966443699874
          ],
          [
            40.093940488598406,
            -109.40103013282248
          ],
          [
            40.18619678912611,
            -109.86239582864621
          ],
          [
            40.18618465668989,
            -110.23148476693918
          ],
          [
            40.186172524253664,
            -110.60057370523214
          ],
          [
            40.27842882478138,
            -111.06193940105588
          ],
          [
            40.278416692345154,
            -111.43102833934884
          ],
          [
            40.64747829176465,
            -112.1692243077649
          ],
          [
            41.01655202362037,
            -112.53833133788805
          ],
          [
            41.38561968925798,
            -113.09198283715766
          ],
          [
            41.38560755682175,
            -113.46107177545062
          ],
          [
            41.385595424385535,
            -113.83016071374358
          ],
          [
            41.38558329194931,
            -114.19924965203653
          ],
          [
            41.385571159513084,
            -114.56833859032949
          ],
          [
            41.385559027076866,
            -114.93742752862245
          ],
          [
            41.38555296085875,
            -115.12197199776892
          ]
        ]
      },
      "properties": {
        "type": "variant",
        "id": 2,
        "color": "#4444ff",
        "vzdal_m": 1446,
        "prevyseni_m": 0,
        "cas_s": 373,
        "tempo_str": "4:18"
      }
    },
    {
      "type": "Feature",
      "geometry": {
        "type": "LineString",
        "coordinates": [
          [
            45.63081080991622,
            -91.68503247221314
          ],
          [
            45.26170674696994,
            -92.2386477878224
          ],
          [
            44.98487415009666,
            -92.7922676263892
          ],
          [
            44.98486201766043,
            -93.16135656468215
          ],
          [
            45.07711831818814,
            -93.6227222605059
          ],
          [
            45.44617991760764,
            -94.36091822892199
          ],
          [
            45.538436218135345,
            -94.82228392474573
          ],
          [
            45.53842408569912,
            -95.19137286303868
          ],
          [
            45.353862954898815,
            -95.74499722456304
          ],
          [
            45.07702732491647,
            -96.39088929770308
          ],
          [
            45.077015192480246,
            -96.75997823599604
          ],
          [
            45.07700306004403,
            -97.12906717428899
          ],
          [
            44.89244192924372,
            -97.68269153581335
          ],
          [
            44.61560629926137,
            -98.3285836089534
          ],
          [
            44.431054267788234,
            -98.60539126675802
          ],
          [
            44.338776735497134,
            -98.78993121294697
          ],
          [
            44.24649010387888,
            -99.2512878628556
          ],
          [
            44.15420347226061,
            -99.71264451276427
          ],
          [
            43.78510547553245,
            -100.08171535922705
          ],
          [
            43.41600747880428,
            -100.45078620568982
          ],
          [
            43.046903415858004,
            -101.0044015212991
          ],
          [
            42.677793286693614,
            -101.74256130605484
          ],
          [
            42.308686190638284,
            -102.38844885623733
          ],
          [
            41.939585160801066,
            -102.84979193727338
          ],
          [
            41.57047503163668,
            -103.58795172202912
          ],
          [
            41.29363940165433,
            -104.23384379516914
          ],
          [
            41.29362726921811,
            -104.6029327334621
          ],
          [
            41.29361513678189,
            -104.97202167175506
          ],
          [
            41.109054005981584,
            -105.52564603327943
          ],
          [
            41.109041873545365,
            -105.89473497157238
          ],
          [
            41.10902974110914,
            -106.26382390986534
          ],
          [
            41.109017608672914,
            -106.6329128481583
          ],
          [
            41.20127390920062,
            -107.09427854398203
          ],
          [
            41.2012617767644,
            -107.46336748227498
          ],
          [
            41.57032337618389,
            -108.20156345069107
          ],
          [
            41.754848109675535,
            -108.7552059040456
          ],
          [
            41.75483597723931,
            -109.12429484233856
          ],
          [
            41.75482384480309,
            -109.4933837806315
          ],
          [
            41.754811712366866,
            -109.86247271892447
          ],
          [
            41.75479957993064,
            -110.23156165721743
          ],
          [
            41.4779639499483,
            -110.87745373035746
          ],
          [
            41.29340281914799,
            -111.4310780918818
          ],
          [
            41.293390686711774,
            -111.80016703017476
          ],
          [
            41.293372488057436,
            -112.3538004376142
          ],
          [
            41.38562575547609,
            -112.90743836801119
          ],
          [
            41.47788205600379,
            -113.36880406383492
          ],
          [
            41.477869923567575,
            -113.73789300212788
          ],
          [
            41.477857791131356,
            -114.10698194042082
          ],
          [
            41.47784565869513,
            -114.47607087871378
          ],
          [
            41.385559027076866,
            -114.93742752862245
          ],
          [
            41.38555296085875,
            -115.12197199776892
          ]
        ]
      },
      "properties": {
        "type": "variant",
        "id": 3,
        "color": "#44ff44",
        "vzdal_m": 1362,
        "prevyseni_m": 5,
        "cas_s": 341,
        "tempo_str": "4:10"
      }
    }
  ]
}