{
  "type": "FeatureCollection",
  "features": [
    {
      "type": "Feature",
      "geometry": {
        "type": "Point",
        "coordinates": [
          52.03334683272886,
          -123.64481780935417
        ]
      },
      "properties": {
        "type": "start",
        "isom": "419"
      }
    },
    {
      "type": "Feature",
      "geometry": {
        "type": "Point",
        "coordinates": [
          56.18812694621206,
          -96.16653449864957
        ]
      },
      "properties": {
        "type": "end",
        "isom": "419"
      }
    },
    {
      "type": "Feature",
      "geometry": {
        "type": "LineString",
        "coordinates": [
          [
            52.04262672970347,
            -123.65767602612432
          ],
          [
            52.134913361321715,
            -123.1963193760381
          ],
          [
            52.08563205953496,
            -122.66840580159902
          ],
          [
            51.7658608612294,
            -122.18130670215159
          ],
          [
            51.39679016248276,
            -121.71992743618085
          ],
          [
            51.21226239588207,
            -121.25855721656391
          ],
          [
            50.82932940722148,
            -120.57226892963938
          ],
          [
            50.65788869865115,
            -119.96726115253661
          ],
          [
            50.257204790255344,
            -119.24667725503612
          ],
          [
            49.95931588618954,
            -118.47801890000422
          ],
          [
            49.849962684701175,
            -118.14450554776222
          ],
          [
            49.580083936486155,
            -117.50370638902533
          ],
          [
            49.55151552958495,
            -117.01395300535884
          ],
          [
            49.55152766202116,
            -116.64486406674834
          ],
          [
            49.566686559159955,
            -116.17777663532665
          ],
          [
            49.64382642607561,
            -115.81441847805162
          ],
          [
            49.64281406690931,
            -115.44671677140379
          ],
          [
            49.604547375073444,
            -114.86270755449772
          ],
          [
            49.98077226384159,
            -114.3139370249002
          ],
          [
            50.37326556700262,
            -113.96223418439615
          ],
          [
            50.604119392950594,
            -113.52595401955774
          ],
          [
            50.6510102592327,
            -113.12061956786334
          ],
          [
            50.542184752243294,
            -112.77735915391371
          ],
          [
            50.496212479641514,
            -112.40535989856633
          ],
          [
            50.596764044621885,
            -112.00754595687562
          ],
          [
            51.02965361437225,
            -111.38832901437435
          ],
          [
            51.36894975008675,
            -111.11319642146145
          ],
          [
            51.578164410075196,
            -110.55375362182627
          ],
          [
            51.83032217150265,
            -109.8905542752608
          ],
          [
            51.95303277309306,
            -109.35705532397775
          ],
          [
            52.01877161787362,
            -108.98424208366754
          ],
          [
            51.76631582758742,
            -108.34047150425778
          ],
          [
            51.58179109409579,
            -107.78682904998823
          ],
          [
            51.581803226532,
            -107.41774011137773
          ],
          [
            51.58181535896822,
            -107.04865117276722
          ],
          [
            51.78483490997104,
            -106.60945475330065
          ],
          [
            52.04804681681176,
            -106.03474714377275
          ],
          [
            52.09837049791935,
            -105.56834331329722
          ],
          [
            52.10662520899844,
            -105.20241868545659
          ],
          [
            52.11675104240869,
            -104.8336542103405
          ],
          [
            52.41235258000567,
            -104.18825260712799
          ],
          [
            52.7878446787621,
            -103.73518789170359
          ],
          [
            52.890306610473935,
            -103.65613824693692
          ],
          [
            53.01797591044807,
            -103.46962417008878
          ],
          [
            53.03816501167369,
            -103.0856927258253
          ],
          [
            53.26470742137074,
            -102.45569680105986
          ],
          [
            53.21451377614865,
            -102.06586095950861
          ],
          [
            53.20695572143198,
            -101.69364184913579
          ],
          [
            53.4431269620669,
            -101.15117137646203
          ],
          [
            53.490018356720846,
            -100.67167264551597
          ],
          [
            53.59775409006816,
            -100.2170439545218
          ],
          [
            53.89028297370973,
            -99.66719729791403
          ],
          [
            54.04196473727327,
            -99.0967284871763
          ],
          [
            54.4269427086814,
            -98.36448763246699
          ],
          [
            54.814254415805536,
            -97.91605852616217
          ],
          [
            55.094412336165526,
            -97.2625496614926
          ],
          [
            55.549825075211174,
            -96.80662762293274
          ],
          [
            55.9189230719393,
            -96.43755677702987
          ],
          [
            56.19574656948539,
            -96.1607536426027
          ]
        ]
      },
      "properties": {
        "type": "variant",
        "id": 1,
        "color": "#ff4444",
        "vzdal_m": 1637,
        "prevyseni_m": 37,
        "cas_s": 418,
        "tempo_str": "4:15"
      }
    },
    {
      "type": "Feature",
      "geometry": {
        "type": "LineString",
        "coordinates": [
          [
            52.04262672970347,
            -123.65767602612432
          ],
          [
            52.41173079264969,
            -123.1040607109162
          ],
          [
            52.50401742426794,
            -122.64270406082997
          ],
          [
            52.50402955670416,
            -122.27361512221948
          ],
          [
            52.504041689140365,
            -121.90452618360898
          ],
          [
            52.50405382157658,
            -121.53543724499848
          ],
          [
            52.5040659540128,
            -121.16634830638797
          ],
          [
            52.50407808644901,
            -120.79725936777747
          ],
          [
            52.50039074268381,
            -120.39600380355431
          ],
          [
            52.55281183332056,
            -120.06212528242602
          ],
          [
            52.57232082658819,
            -119.68923804115214
          ],
          [
            52.85824108451868,
            -119.05116914324084
          ],
          [
            52.816369953871366,
            -118.66877032223111
          ],
          [
            52.87324887779442,
            -118.21365489021157
          ],
          [
            52.96553550941267,
            -117.75229824012536
          ],
          [
            53.057822141030904,
            -117.29094159003913
          ],
          [
            53.33465473790416,
            -116.73732175165411
          ],
          [
            53.601460339864275,
            -116.21273195023923
          ],
          [
            54.09520378198224,
            -115.9022931491948
          ],
          [
            54.037173083148296,
            -115.54069560598458
          ],
          [
            53.699541915218994,
            -114.80376320990977
          ],
          [
            53.62738686221604,
            -114.44049934580318
          ],
          [
            53.637411013484034,
            -114.05072912969828
          ],
          [
            53.76521665591144,
            -113.66229740627846
          ],
          [
            54.00134345138125,
            -113.23208345337486
          ],
          [
            53.974430826933286,
            -112.86281910160983
          ],
          [
            53.885855045219024,
            -112.40133858006348
          ],
          [
            53.89115571269972,
            -112.03173018065856
          ],
          [
            53.980724854522,
            -111.57010827334541
          ],
          [
            54.2448998467773,
            -110.92271345174574
          ],
          [
            54.30365517695824,
            -110.55512952067915
          ],
          [
            54.26805639003173,
            -110.27283572202765
          ],
          [
            54.14505288324297,
            -109.82640431639163
          ],
          [
            53.8178045494628,
            -109.1793431251107
          ],
          [
            53.71343668819419,
            -108.61337628147957
          ],
          [
            53.2783412407651,
            -108.0182985396093
          ],
          [
            53.006959368268724,
            -107.44169721943511
          ],
          [
            53.44503004783986,
            -106.70471975832159
          ],
          [
            53.61785687808515,
            -106.49994327240115
          ],
          [
            53.893800390633984,
            -105.7491225202077
          ],
          [
            54.35002000333861,
            -105.20334217502189
          ],
          [
            54.71912709939388,
            -104.55745462516113
          ],
          [
            55.088228129231055,
            -104.09611154460563
          ],
          [
            55.36506375921337,
            -103.45021947156795
          ],
          [
            55.365075891649575,
            -103.08113053295745
          ],
          [
            55.36508802408579,
            -102.71204159434694
          ],
          [
            55.365100156522,
            -102.34295265573645
          ],
          [
            55.365112288958215,
            -101.97386371712595
          ],
          [
            55.457398920576466,
            -101.51250706703972
          ],
          [
            55.73423455055877,
            -100.86661499400208
          ],
          [
            55.91879568135904,
            -100.31299063244013
          ],
          [
            56.103356812159326,
            -99.7593662708782
          ],
          [
            56.10336894459553,
            -99.3902773322677
          ],
          [
            56.10338107703175,
            -99.0211883936572
          ],
          [
            56.10339320946796,
            -98.6520994550467
          ],
          [
            56.10340534190418,
            -98.28301051643619
          ],
          [
            56.10341747434039,
            -97.91392157782569
          ],
          [
            56.19570410595863,
            -97.45256492773945
          ],
          [
            56.19571623839485,
            -97.08347598912894
          ],
          [
            56.19572837083106,
            -96.71438705051845
          ],
          [
            56.195740503267274,
            -96.34529811190795
          ],
          [
            56.19574656948539,
            -96.1607536426027
          ]
        ]
      },
      "properties": {
        "type": "variant",
        "id": 2,
        "color": "#4444ff",
        "vzdal_m": 1589,
        "prevyseni_m": 35,
        "cas_s": 429,
        "tempo_str": "4:30"
      }
    },
    {
      "type": "Feature",
      "geometry": {
        "type": "LineString",
        "coordinates": [
          [
            52.04262672970347,
            -123.65767602612432
          ],
          [
            52.41172472643159,
            -123.28860518022145
          ],
          [
            52.780831822486874,
            -122.64271763036068
          ],
          [
            53.14993285232404,
            -122.18137454980518
          ],
          [
            53.61130231512515,
            -121.8123082270792
          ],
          [
            53.70357681430718,
            -121.72004051560349
          ],
          [
            53.98040637807138,
            -121.25869291187108
          ],
          [
            54.34951650723571,
            -120.52053312735771
          ],
          [
            54.71962633020621,
            -120.05163633307434
          ],
          [
            55.52602259765599,
            -119.68291205666522
          ],
          [
            55.85842126112637,
            -119.25162431428508
          ],
          [
            56.09691330447391,
            -118.94658730206427
          ],
          [
            56.4729426765994,
            -118.2143809343
          ],
          [
            56.68636864061718,
            -117.53875032753932
          ],
          [
            57.03604391412314,
            -116.79155940212037
          ],
          [
            57.44740580409595,
            -116.06892034149315
          ],
          [
            57.84428669092027,
            -115.36743855994241
          ],
          [
            57.9591832655685,
            -115.17305071642461
          ],
          [
            57.94829173684314,
            -114.79983098279425
          ],
          [
            57.94830386927935,
            -114.43074204418375
          ],
          [
            57.856047568751634,
            -113.96937634774372
          ],
          [
            57.57925440229609,
            -113.32345713564462
          ],
          [
            57.2421415588112,
            -112.57233115686857
          ],
          [
            57.38295224779433,
            -112.15609827717753
          ],
          [
            57.4175540978412,
            -111.93880965525081
          ],
          [
            57.30852424787429,
            -111.66071647490966
          ],
          [
            56.93342996751158,
            -111.01661960709065
          ],
          [
            56.620910512139815,
            -110.4285506306952
          ],
          [
            56.214926339054195,
            -109.71793919285216
          ],
          [
            56.12202328391287,
            -109.26687071971006
          ],
          [
            56.300046484332455,
            -108.7229560289294
          ],
          [
            56.41536715139435,
            -108.5483580467831
          ],
          [
            56.526501379313906,
            -108.3755548548409
          ],
          [
            56.55224946010295,
            -107.85447838225504
          ],
          [
            56.656733860545735,
            -107.41798888610754
          ],
          [
            56.65674599298195,
            -107.04889994749703
          ],
          [
            56.93358162296426,
            -106.40300787445938
          ],
          [
            57.17853108917097,
            -106.0389520453203
          ],
          [
            57.21727265026403,
            -105.57314111128193
          ],
          [
            57.2477589868255,
            -105.20658724746092
          ],
          [
            57.286500547918564,
            -104.74077631342253
          ],
          [
            57.31698688448005,
            -104.37422244960153
          ],
          [
            57.347473221041525,
            -104.00766858578051
          ],
          [
            57.37795955760301,
            -103.64111472195951
          ],
          [
            57.40145795041533,
            -103.35858071983162
          ],
          [
            57.431944286976815,
            -102.99202685601063
          ],
          [
            57.4624306235383,
            -102.62547299218961
          ],
          [
            57.522702093551544,
            -102.16716138281204
          ],
          [
            57.856460071582916,
            -101.42035243498665
          ],
          [
            58.133295701565224,
            -100.77446036194898
          ],
          [
            58.13330783400144,
            -100.40537142333848
          ],
          [
            58.041051533473734,
            -99.94400572689845
          ],
          [
            57.67198993405425,
            -99.20580975696984
          ],
          [
            57.30292530152572,
            -98.55988602169383
          ],
          [
            56.93386370210624,
            -97.82169005176522
          ],
          [
            56.65707053565068,
            -97.17577083966611
          ],
          [
            56.2880089362312,
            -96.43757486973747
          ],
          [
            56.19574656948539,
            -96.1607536426027
          ]
        ]
      },
      "properties": {
        "type": "variant",
        "id": 3,
        "color": "#44ff44",
        "vzdal_m": 1674,
        "prevyseni_m": 34,
        "cas_s": 429,
        "tempo_str": "4:16"
      }
    }
  ]
}