{
  "type": "FeatureCollection",
  "features": [
    {
      "type": "Feature",
      "geometry": {
        "type": "Point",
        "coordinates": [
          77.23245710781467,
          -186.54735372946175
        ]
      },
      "properties": {
        "type": "start",
        "isom": "203"
      }
    },
    {
      "type": "Feature",
      "geometry": {
        "type": "Point",
        "coordinates": [
          38.920298881619594,
          -218.3517150548854
        ]
      },
      "properties": {
        "type": "end",
        "isom": "419"
      }
    },
    {
      "type": "Feature",
      "geometry": {
        "type": "LineString",
        "coordinates": [
          [
            77.1439811518487,
            -186.59890114198555
          ],
          [
            76.40577909217426,
            -187.5215873040576
          ],
          [
            75.48304016657195,
            -188.25971995106806
          ],
          [
            74.74484417311562,
            -188.99786164399367
          ],
          [
            74.0066481796593,
            -189.73600333691923
          ],
          [
            73.083909254057,
            -190.47413598392973
          ],
          [
            72.53025619274665,
            -191.21228672277036
          ],
          [
            71.60750513470812,
            -192.31950830807378
          ],
          [
            70.68477227532392,
            -192.8730964859378
          ],
          [
            69.76203334972162,
            -193.6112291329483
          ],
          [
            69.20838028841126,
            -194.34937987178895
          ],
          [
            68.47017822873683,
            -195.272066033861
          ],
          [
            67.73198830149862,
            -195.82566325764006
          ],
          [
            66.80924937589631,
            -196.56379590465056
          ],
          [
            66.07105338243998,
            -197.3019375975761
          ],
          [
            64.96376545847359,
            -198.22460566781803
          ],
          [
            63.671946734797466,
            -198.77817575385185
          ],
          [
            62.74920780919516,
            -199.51630840086233
          ],
          [
            62.1955486816667,
            -200.43900360884945
          ],
          [
            62.010999683302614,
            -200.62353903208086
          ],
          [
            61.64190168657444,
            -200.99260987854362
          ],
          [
            60.903711759336225,
            -201.5462071023227
          ],
          [
            60.165515765879896,
            -202.28434879524832
          ],
          [
            58.87369097598566,
            -203.0224633504286
          ],
          [
            57.58186618609142,
            -203.76057790560893
          ],
          [
            56.659127260489115,
            -204.49871055261937
          ],
          [
            55.920931267032785,
            -205.23685224554498
          ],
          [
            55.182729207358335,
            -206.15953840761702
          ],
          [
            54.44453928012012,
            -206.71313563139609
          ],
          [
            52.9681715580799,
            -207.45124114066132
          ],
          [
            51.67635283440377,
            -208.00481122669515
          ],
          [
            50.01544218021759,
            -208.74290769004529
          ],
          [
            48.72361739032334,
            -209.4810222452256
          ],
          [
            47.43179260042911,
            -210.21913680040592
          ],
          [
            46.693596606972775,
            -210.95727849333147
          ],
          [
            45.77085161515236,
            -211.87995560948843
          ],
          [
            45.217198553842,
            -212.61810634832912
          ],
          [
            44.47900256038567,
            -213.35624804125467
          ],
          [
            43.74080656692934,
            -214.09438973418023
          ],
          [
            43.002610573473014,
            -214.83253142710578
          ],
          [
            42.07987164787071,
            -215.57066407411628
          ],
          [
            41.341669588196275,
            -216.49335023618835
          ],
          [
            40.418936728812085,
            -217.0469384140523
          ],
          [
            39.680740735355755,
            -217.78508010697792
          ],
          [
            38.94255080811754,
            -218.33867733075698
          ]
        ]
      },
      "properties": {
        "type": "variant",
        "id": 1,
        "color": "#ff4444",
        "vzdal_m": 1364,
        "prevyseni_m": 4,
        "cas_s": 381,
        "tempo_str": "4:39"
      }
    },
    {
      "type": "Feature",
      "geometry": {
        "type": "LineString",
        "coordinates": [
          [
            77.1439811518487,
            -186.59890114198555
          ],
          [
            76.40577302595615,
            -187.70613177320408
          ],
          [
            75.66755883384548,
            -188.9979068735691
          ],
          [
            74.74480777580696,
            -190.10512845887254
          ],
          [
            74.19113044962415,
            -191.5814570742991
          ],
          [
            73.45293445616782,
            -192.31959876722468
          ],
          [
            72.53018339812931,
            -193.4268203525281
          ],
          [
            71.9765060719465,
            -194.90314896795468
          ],
          [
            71.42284694441803,
            -195.82584417594182
          ],
          [
            70.50008375394329,
            -197.30215469953822
          ],
          [
            69.94640642776048,
            -198.77848331496475
          ],
          [
            69.20820436808604,
            -199.70116947703684
          ],
          [
            68.47001444084782,
            -200.2547667008159
          ],
          [
            67.54727551524552,
            -200.9928993478264
          ],
          [
            67.3627083182271,
            -201.7310681784972
          ],
          [
            67.17815325364491,
            -202.1001480708751
          ],
          [
            66.99359212284462,
            -202.65377243239945
          ],
          [
            66.8090370582624,
            -203.02285232477732
          ],
          [
            66.25536579829772,
            -204.3146364710574
          ],
          [
            65.33260260782298,
            -205.7909469946538
          ],
          [
            64.77894348029452,
            -206.71364220264093
          ],
          [
            63.856186356037874,
            -208.00540825709083
          ],
          [
            63.67161915901946,
            -208.74357708776168
          ],
          [
            62.933417099345014,
            -209.66626324983372
          ],
          [
            61.81462580910567,
            -210.41178511293276
          ],
          [
            60.580488817606486,
            -211.0724383094737
          ],
          [
            59.276376045278546,
            -211.59623197759225
          ],
          [
            58.194558425704535,
            -212.02890391195072
          ],
          [
            56.62147513529869,
            -212.52020829593215
          ],
          [
            56.46018864650721,
            -212.58144816938423
          ],
          [
            55.9150811464145,
            -212.7884234378867
          ],
          [
            54.60290569318697,
            -213.289021048162
          ],
          [
            54.234305286997085,
            -213.46960161069043
          ],
          [
            53.848372154398135,
            -213.6067320243355
          ],
          [
            53.12656054003256,
            -213.8882807007754
          ],
          [
            52.23500923614922,
            -214.1159954106711
          ],
          [
            51.844179929507646,
            -214.2124146744945
          ],
          [
            51.437186719649034,
            -214.3439202571331
          ],
          [
            51.06166610195548,
            -214.51427582327446
          ],
          [
            50.68513995646116,
            -214.68637634430715
          ],
          [
            50.29625282967011,
            -214.98540768869591
          ],
          [
            48.856217488979624,
            -215.66068379898857
          ],
          [
            48.04047143244115,
            -216.50118107846978
          ],
          [
            47.471968497616466,
            -216.9557501668397
          ],
          [
            47.14687538276714,
            -217.07696583939486
          ],
          [
            46.80248410931855,
            -217.2996867027023
          ],
          [
            46.434442558969316,
            -217.5731851043781
          ],
          [
            45.963191108042864,
            -217.8780039359504
          ],
          [
            45.52980021995563,
            -218.0712582005116
          ],
          [
            44.174561163118085,
            -218.98836099410528
          ],
          [
            43.18701398260242,
            -219.0770632633899
          ],
          [
            42.44884225401854,
            -219.07702707972953
          ],
          [
            41.71067052543466,
            -219.0769908960692
          ],
          [
            40.78796193092291,
            -218.89240119734728
          ],
          [
            40.234333134485,
            -218.89237405960202
          ],
          [
            39.86525333641117,
            -218.70781149862538
          ],
          [
            38.94255080811754,
            -218.33867733075698
          ]
        ]
      },
      "properties": {
        "type": "variant",
        "id": 2,
        "color": "#4444ff",
        "vzdal_m": 1462,
        "prevyseni_m": 8,
        "cas_s": 393,
        "tempo_str": "4:28"
      }
    },
    {
      "type": "Feature",
      "geometry": {
        "type": "LineString",
        "coordinates": [
          [
            77.1439811518487,
            -186.59890114198555
          ],
          [
            75.85216242817258,
            -187.15247122801935
          ],
          [
            74.9294417012246,
            -187.33697046759042
          ],
          [
            73.63762297754847,
            -187.89054055362425
          ],
          [
            72.16125525550825,
            -188.62864606288946
          ],
          [
            70.50034460132207,
            -189.36674252623965
          ],
          [
            69.57759960950166,
            -190.2894196423966
          ],
          [
            68.10122582124333,
            -191.21206962080828
          ],
          [
            67.36303589400512,
            -191.76566684458737
          ],
          [
            66.07121110411087,
            -192.5037813997677
          ],
          [
            65.33302117687266,
            -193.0573786235468
          ],
          [
            64.9103397472225,
            -193.2450264455731
          ],
          [
            64.93112688581493,
            -193.60357326088052
          ],
          [
            64.41028225127036,
            -193.79551127055728
          ],
          [
            63.856629189959996,
            -194.53366200939791
          ],
          [
            63.67208019159591,
            -194.71819743262932
          ],
          [
            63.48752512701372,
            -195.08727732500716
          ],
          [
            63.30297006243152,
            -195.45635721738506
          ],
          [
            62.564768002757084,
            -196.3790433794571
          ],
          [
            61.82656594308264,
            -197.30172954152914
          ],
          [
            61.642016944718556,
            -197.48626496476055
          ],
          [
            61.27292501420851,
            -197.67079134207685
          ],
          [
            60.53472902075218,
            -198.4089330350024
          ],
          [
            60.16563102402401,
            -198.77800388146522
          ],
          [
            59.796539093513964,
            -198.96253025878153
          ],
          [
            58.50471430361972,
            -199.70064481396182
          ],
          [
            57.58199357667175,
            -199.88514405353288
          ],
          [
            56.29017485299562,
            -200.4387141395667
          ],
          [
            54.813807130955404,
            -201.17681964883192
          ],
          [
            53.70653740564336,
            -201.54585431163434
          ],
          [
            52.783810612477275,
            -201.91489802035187
          ],
          [
            52.23015755116691,
            -202.65304875919253
          ],
          [
            51.491955491492476,
            -203.57573492126457
          ],
          [
            51.30740042691028,
            -203.94481481364247
          ],
          [
            51.12284536232809,
            -204.3138947060203
          ],
          [
            50.75375343181803,
            -204.49842108333664
          ],
          [
            50.75374736559992,
            -204.68296555248313
          ],
          [
            50.56919230101773,
            -205.05204544486097
          ],
          [
            50.38463723643553,
            -205.42112533723886
          ],
          [
            49.6464412429792,
            -206.15926703016441
          ],
          [
            49.277349312469156,
            -206.34379340748072
          ],
          [
            48.539153319012826,
            -207.08193510040627
          ],
          [
            47.06278559697261,
            -207.8200406096715
          ],
          [
            45.95551587166056,
            -208.18907527247393
          ],
          [
            45.032776946058256,
            -208.92720791948443
          ],
          [
            44.11003802045596,
            -209.66534056649493
          ],
          [
            43.74092182507346,
            -210.58804482039713
          ],
          [
            43.55635462805505,
            -211.32621365106797
          ],
          [
            43.37179956347285,
            -211.6952935434458
          ],
          [
            42.633579305144075,
            -213.17161311295735
          ],
          [
            41.895359046815294,
            -214.64793268246882
          ],
          [
            41.15716305335897,
            -215.38607437539437
          ],
          [
            40.41896099368453,
            -216.3087605374664
          ],
          [
            39.68075286779198,
            -217.41599116868497
          ],
          [
            38.94255080811754,
            -218.33867733075698
          ]
        ]
      },
      "properties": {
        "type": "variant",
        "id": 3,
        "color": "#44ff44",
        "vzdal_m": 1402,
        "prevyseni_m": 4,
        "cas_s": 387,
        "tempo_str": "4:36"
      }
    }
  ]
}