{
  "type": "FeatureCollection",
  "features": [
    {
      "type": "Feature",
      "geometry": {
        "type": "Point",
        "coordinates": [
          92.43605512326396,
          -210.31078573879805
        ]
      },
      "properties": {
        "type": "start",
        "isom": "204"
      }
    },
    {
      "type": "Feature",
      "geometry": {
        "type": "Point",
        "coordinates": [
          123.56805529197749,
          -222.2523389384503
        ]
      },
      "properties": {
        "type": "end",
        "isom": "312"
      }
    },
    {
      "type": "Feature",
      "geometry": {
        "type": "LineString",
        "coordinates": [
          [
            92.49152411026418,
            -210.31804953454048
          ],
          [
            93.04514684048398,
            -210.5026211414322
          ],
          [
            94.33694736550578,
            -210.5026844628378
          ],
          [
            95.81327869023733,
            -210.8718457684515
          ],
          [
            96.92052415067693,
            -211.24098898223494
          ],
          [
            97.65868981304271,
            -211.42556963504177
          ],
          [
            98.76596560457286,
            -210.87199050309286
          ],
          [
            100.05779039446712,
            -210.13387594791254
          ],
          [
            101.53415205028921,
            -209.5803149077938
          ],
          [
            102.2723298450912,
            -209.39580662230767
          ],
          [
            102.64142784181938,
            -209.02673577584488
          ],
          [
            103.56414856876735,
            -208.84223653627384
          ],
          [
            104.33396936107579,
            -208.7951491123893
          ],
          [
            105.7981764753999,
            -209.54580885805962
          ],
          [
            107.22296538364807,
            -210.37268787720387
          ],
          [
            108.67716409595116,
            -211.16560315729754
          ],
          [
            109.61814200542571,
            -211.55157686781777
          ],
          [
            110.73872297369579,
            -211.87269167252433
          ],
          [
            111.63898513631746,
            -212.13447804498148
          ],
          [
            112.5745509589417,
            -212.27643249778114
          ],
          [
            113.6950513448349,
            -212.59846498902817
          ],
          [
            114.64910572932169,
            -212.82629429645223
          ],
          [
            115.7473714523311,
            -213.26331673183785
          ],
          [
            116.85792126837976,
            -213.61968855432232
          ],
          [
            117.95831528960974,
            -214.37927619204493
          ],
          [
            118.69646275332119,
            -215.11749025229116
          ],
          [
            119.43461628325073,
            -215.67115984339097
          ],
          [
            119.80369608132456,
            -215.8557224043676
          ],
          [
            119.98823294725241,
            -216.04027591942915
          ],
          [
            120.35731274532627,
            -216.22483848040582
          ],
          [
            120.54184961125412,
            -216.40939199546742
          ],
          [
            120.72638041096387,
            -216.77848997967544
          ],
          [
            121.4645218084572,
            -217.7012485090682
          ],
          [
            122.01810814136834,
            -218.99308693083879
          ],
          [
            122.20263894107808,
            -219.36218491504684
          ],
          [
            122.38716974078783,
            -219.73128289925486
          ],
          [
            122.94077427235331,
            -220.46948791358602
          ],
          [
            123.12530507206304,
            -220.8385858977941
          ],
          [
            123.6788974711923,
            -221.9458798504182
          ],
          [
            123.4943424066101,
            -222.3149597427961
          ]
        ]
      },
      "properties": {
        "type": "variant",
        "id": 1,
        "color": "#ff4444",
        "vzdal_m": 1017,
        "prevyseni_m": 17,
        "cas_s": 294,
        "tempo_str": "4:48"
      }
    },
    {
      "type": "Feature",
      "geometry": {
        "type": "LineString",
        "coordinates": [
          [
            92.49152411026418,
            -210.31804953454048
          ],
          [
            93.0451104431753,
            -211.60988795631107
          ],
          [
            93.96780690525082,
            -212.16356659332598
          ],
          [
            94.89049123489013,
            -213.0863341686338
          ],
          [
            95.62862656616535,
            -214.193637167173
          ],
          [
            96.36674976500436,
            -215.67002910400518
          ],
          [
            97.10489116249767,
            -216.5927876333979
          ],
          [
            97.84301436133666,
            -218.0691795702301
          ],
          [
            98.58115575883,
            -218.9919380996228
          ],
          [
            99.31930322254145,
            -219.73015215986908
          ],
          [
            100.42654261676293,
            -220.28383984279904
          ],
          [
            100.79562241483676,
            -220.46840240377566
          ],
          [
            102.27194160713209,
            -221.2066526476823
          ],
          [
            103.19465020164384,
            -221.3912423464042
          ],
          [
            104.11735879615557,
            -221.5758320451261
          ],
          [
            105.40912899008683,
            -222.4986177122641
          ],
          [
            107.06999718074623,
            -223.05233253293932
          ],
          [
            107.99270577525796,
            -223.23692223166123
          ],
          [
            108.73087750384185,
            -223.23695841532157
          ],
          [
            109.65358609835359,
            -223.42154811404347
          ],
          [
            110.57629469286533,
            -223.60613781276538
          ],
          [
            111.68356441817738,
            -223.23710314996296
          ],
          [
            112.4217482791975,
            -222.86805039533036
          ],
          [
            112.79084020970755,
            -222.68352401801405
          ],
          [
            113.15993214021759,
            -222.49899764069772
          ],
          [
            113.89810386880148,
            -222.49903382435807
          ],
          [
            114.82081246331322,
            -222.68362352307997
          ],
          [
            115.74353319026119,
            -222.4991242835089
          ],
          [
            116.48169885262696,
            -222.68370493631576
          ],
          [
            117.21987664742896,
            -222.49919665082965
          ],
          [
            117.95804837601284,
            -222.49923283449
          ],
          [
            119.24985496725276,
            -222.3147516867491
          ],
          [
            119.98802669583664,
            -222.31478787040942
          ],
          [
            120.35711256012858,
            -222.3148059622396
          ],
          [
            120.72619235820241,
            -222.49936852321628
          ],
          [
            121.09528428871248,
            -222.31484214589997
          ],
          [
            121.4643640867863,
            -222.49940470687662
          ],
          [
            121.64890701893228,
            -222.4994137527917
          ],
          [
            121.83344995107824,
            -222.4994227987068
          ],
          [
            122.01799288322421,
            -222.49943184462185
          ],
          [
            122.38708481373428,
            -222.31490546730558
          ],
          [
            122.75617067802621,
            -222.31492355913574
          ],
          [
            123.12525047610004,
            -222.4994861201124
          ],
          [
            123.4943424066101,
            -222.3149597427961
          ]
        ]
      },
      "properties": {
        "type": "variant",
        "id": 2,
        "color": "#4444ff",
        "vzdal_m": 1014,
        "prevyseni_m": 10,
        "cas_s": 290,
        "tempo_str": "4:46"
      }
    },
    {
      "type": "Feature",
      "geometry": {
        "type": "LineString",
        "coordinates": [
          [
            92.49152411026418,
            -210.31804953454048
          ],
          [
            93.04514684048398,
            -210.5026211414322
          ],
          [
            94.33694736550578,
            -210.5026844628378
          ],
          [
            95.81327869023733,
            -210.8718457684515
          ],
          [
            96.92052415067693,
            -211.24098898223494
          ],
          [
            97.47414688089674,
            -211.4255605891267
          ],
          [
            98.39686760784468,
            -211.24106134955565
          ],
          [
            99.31957620235643,
            -211.42565104827756
          ],
          [
            100.24228479686819,
            -211.61024074699947
          ],
          [
            100.98045652545208,
            -211.6102769306598
          ],
          [
            101.71862825403596,
            -211.61031311432018
          ],
          [
            102.45678785018362,
            -211.97943823627344
          ],
          [
            103.93311917491516,
            -212.3485995418871
          ],
          [
            104.30219897298899,
            -212.53316210286377
          ],
          [
            104.48674190513496,
            -212.53317114877882
          ],
          [
            104.67128483728094,
            -212.53318019469395
          ],
          [
            105.40943230099238,
            -213.27139425494016
          ],
          [
            106.14756763226761,
            -214.3786972534794
          ],
          [
            106.70118429626929,
            -214.7478133295176
          ],
          [
            107.07026409434312,
            -214.93237589049426
          ],
          [
            108.54658328663844,
            -215.6706261344009
          ],
          [
            109.46928581493208,
            -216.03976030226926
          ],
          [
            109.8383656130059,
            -216.22432286324593
          ],
          [
            110.20744541107973,
            -216.40888542422255
          ],
          [
            110.57652520915356,
            -216.5934479851992
          ],
          [
            111.49920953879287,
            -217.51621556050705
          ],
          [
            112.97552873108819,
            -218.25446580441363
          ],
          [
            113.34460852916202,
            -218.4390283653903
          ],
          [
            114.26731712367378,
            -218.6236180641122
          ],
          [
            115.00548885225764,
            -218.62365424777255
          ],
          [
            115.74366058084152,
            -218.62369043143286
          ],
          [
            116.66636917535328,
            -218.80828013015483
          ],
          [
            117.40454090393717,
            -218.80831631381514
          ],
          [
            118.14270656630295,
            -218.99289696662197
          ],
          [
            118.51178636437677,
            -219.17745952759861
          ],
          [
            119.98810555667208,
            -219.91570977150522
          ],
          [
            121.09535101711171,
            -220.2848529852887
          ],
          [
            122.20259041133319,
            -220.83854066821868
          ],
          [
            122.38712727726104,
            -221.02309418328022
          ],
          [
            122.57165807697079,
            -221.39219216748825
          ],
          [
            123.30980554068223,
            -222.1304062277345
          ],
          [
            123.4943424066101,
            -222.3149597427961
          ]
        ]
      },
      "properties": {
        "type": "variant",
        "id": 3,
        "color": "#44ff44",
        "vzdal_m": 937,
        "prevyseni_m": 19,
        "cas_s": 291,
        "tempo_str": "5:10"
      }
    }
  ]
}