{
  "type": "FeatureCollection",
  "features": [
    {
      "type": "Feature",
      "geometry": {
        "type": "Point",
        "coordinates": [
          166.43517434205833,
          -68.1815817615228
        ]
      },
      "properties": {
        "type": "start",
        "isom": "417"
      }
    },
    {
      "type": "Feature",
      "geometry": {
        "type": "Point",
        "coordinates": [
          192.14291388641564,
          -96.6676498496507
        ]
      },
      "properties": {
        "type": "end",
        "isom": "109"
      }
    },
    {
      "type": "Feature",
      "geometry": {
        "type": "LineString",
        "coordinates": [
          [
            166.46665482252618,
            -68.12573017284815
          ],
          [
            167.20480228623762,
            -68.86394423309441
          ],
          [
            167.94294974994904,
            -69.60215829334066
          ],
          [
            168.68109114744237,
            -70.5249168227334
          ],
          [
            169.97287347380984,
            -71.07861355157844
          ],
          [
            171.44919266610518,
            -71.81686379548505
          ],
          [
            172.9530532289462,
            -72.69873620795714
          ],
          [
            173.66510297123867,
            -72.56258587881415
          ],
          [
            174.3862196389288,
            -72.44861441338222
          ],
          [
            174.56687299828354,
            -72.4221123248501
          ],
          [
            175.50908257735352,
            -73.47796302793526
          ],
          [
            176.24723004106497,
            -74.21617708818151
          ],
          [
            176.43176084077473,
            -74.58527507238955
          ],
          [
            177.72354316714217,
            -75.13897180123459
          ],
          [
            178.092622965216,
            -75.32353436221125
          ],
          [
            178.46170276328985,
            -75.50809692318789
          ],
          [
            178.6462335629996,
            -75.87719490739595
          ],
          [
            179.3843567618386,
            -77.35358684422812
          ],
          [
            179.75341836125807,
            -78.0917828126442
          ],
          [
            180.1224981593319,
            -78.27634537362086
          ],
          [
            180.30702895904167,
            -78.6454433578289
          ],
          [
            180.30700469416922,
            -79.38362123441482
          ],
          [
            180.67608449224304,
            -79.56818379539146
          ],
          [
            180.99404056631374,
            -79.97344936888221
          ],
          [
            180.8269237766759,
            -80.67196123308582
          ],
          [
            180.70150653603469,
            -81.60392018678942
          ],
          [
            180.55432182229748,
            -82.3051600326788
          ],
          [
            180.86051823246302,
            -82.88999328594316
          ],
          [
            181.59866569617446,
            -83.62820734618941
          ],
          [
            182.15227022773993,
            -84.36641236052058
          ],
          [
            182.33680102744967,
            -84.73551034472864
          ],
          [
            182.89041162523327,
            -85.28917088991332
          ],
          [
            183.25949142330708,
            -85.47373345088998
          ],
          [
            183.44402828923495,
            -85.65828696595155
          ],
          [
            183.8131080873088,
            -85.84284952692819
          ],
          [
            184.5512555510202,
            -86.58106358717444
          ],
          [
            185.28940301473165,
            -87.3192776474207
          ],
          [
            186.02753227978877,
            -88.6111251151064
          ],
          [
            186.7656797435002,
            -89.34933917535267
          ],
          [
            187.50381507477542,
            -90.45664217389188
          ],
          [
            188.24196253848686,
            -91.19485623413814
          ],
          [
            188.9801100021983,
            -91.9330702943844
          ],
          [
            189.1646408019081,
            -92.30216827859243
          ],
          [
            189.3491716016178,
            -92.67126626280049
          ],
          [
            190.08729480045682,
            -94.14765819963266
          ],
          [
            190.82543013173202,
            -95.25496119817187
          ],
          [
            191.0099669976599,
            -95.43951471323344
          ],
          [
            191.19449779736965,
            -95.80861269744149
          ],
          [
            191.9326452610811,
            -96.54682675768774
          ],
          [
            192.11718212700893,
            -96.7313802727493
          ]
        ]
      },
      "properties": {
        "type": "variant",
        "id": 1,
        "color": "#ff4444",
        "vzdal_m": 1110,
        "prevyseni_m": 26,
        "cas_s": 340,
        "tempo_str": "5:06"
      }
    },
    {
      "type": "Feature",
      "geometry": {
        "type": "LineString",
        "coordinates": [
          [
            166.46665482252618,
            -68.12573017284815
          ],
          [
            167.20480228623762,
            -68.86394423309441
          ],
          [
            167.94293761751283,
            -69.97124723163363
          ],
          [
            168.49653001664205,
            -71.07854118425776
          ],
          [
            168.49650575176963,
            -71.81671906084367
          ],
          [
            168.68101835282505,
            -72.73945045249114
          ],
          [
            168.69062808019623,
            -73.42358091899955
          ],
          [
            168.86552488766233,
            -73.8467263132851
          ],
          [
            169.0500556873721,
            -74.21582429749314
          ],
          [
            169.7881910186473,
            -75.32312729603235
          ],
          [
            170.3418016164309,
            -75.87678784121705
          ],
          [
            170.52633241614063,
            -76.2458858254251
          ],
          [
            171.079930881488,
            -77.16863530890275
          ],
          [
            172.0026212773454,
            -77.9068584150641
          ],
          [
            172.92531167320283,
            -78.64508152122545
          ],
          [
            173.10984247291256,
            -79.01417950543348
          ],
          [
            173.29437327262232,
            -79.38327748964153
          ],
          [
            174.03252073633377,
            -80.12149154988779
          ],
          [
            174.77066820004518,
            -80.85970561013404
          ],
          [
            175.50880959753852,
            -81.78246413952678
          ],
          [
            176.24695706125,
            -82.52067819977304
          ],
          [
            176.80055552659732,
            -83.44342768325069
          ],
          [
            178.0923439191829,
            -83.81257994294926
          ],
          [
            179.38412624555036,
            -84.3662766717943
          ],
          [
            180.49135957355372,
            -85.10450882387072
          ],
          [
            181.0449580389011,
            -86.02725830734838
          ],
          [
            181.9676545009766,
            -86.58093694436324
          ],
          [
            182.70579589846994,
            -87.50369547375598
          ],
          [
            183.4439433621814,
            -88.24190953400225
          ],
          [
            183.99752362887443,
            -89.71829242491933
          ],
          [
            184.9202018922956,
            -90.82560446937363
          ],
          [
            185.65834935600705,
            -91.5638185296199
          ],
          [
            186.58103975186447,
            -92.30204163578122
          ],
          [
            187.31918721557588,
            -93.04025569602749
          ],
          [
            188.42642054357927,
            -93.77848784810392
          ],
          [
            189.3491109394367,
            -94.51671095426526
          ],
          [
            190.08725840314813,
            -95.25492501451154
          ],
          [
            190.2717892028579,
            -95.62402299871957
          ],
          [
            190.45632606878578,
            -95.80857651378113
          ],
          [
            190.8254058668596,
            -95.99313907475779
          ],
          [
            191.19448566493344,
            -96.17770163573444
          ],
          [
            192.11718212700893,
            -96.7313802727493
          ]
        ]
      },
      "properties": {
        "type": "variant",
        "id": 2,
        "color": "#4444ff",
        "vzdal_m": 1081,
        "prevyseni_m": 33,
        "cas_s": 350,
        "tempo_str": "5:23"
      }
    },
    {
      "type": "Feature",
      "geometry": {
        "type": "LineString",
        "coordinates": [
          [
            166.46665482252618,
            -68.12573017284815
          ],
          [
            166.46663055765373,
            -68.86390804943406
          ],
          [
            166.46660629278128,
            -69.60208592601998
          ],
          [
            166.46658202790883,
            -70.34026380260589
          ],
          [
            166.46655776303638,
            -71.0784416791918
          ],
          [
            166.46653349816395,
            -71.81661955577772
          ],
          [
            166.4665092332915,
            -72.55479743236363
          ],
          [
            166.65084733385257,
            -73.46567783371393
          ],
          [
            166.83553443540234,
            -74.40026021565859
          ],
          [
            167.02004703645773,
            -75.32299160730607
          ],
          [
            167.20457176994938,
            -75.87663406066059
          ],
          [
            167.94271923366082,
            -76.61484812090684
          ],
          [
            168.49631163279005,
            -77.72214207353097
          ],
          [
            169.23443483162904,
            -79.19853401036315
          ],
          [
            169.7880332969764,
            -80.1212834938408
          ],
          [
            170.71072975905193,
            -80.67496213085568
          ],
          [
            171.81796308705532,
            -81.4131942829321
          ],
          [
            172.55609235211244,
            -82.7050417506178
          ],
          [
            173.10969081745978,
            -83.62779123409544
          ],
          [
            174.0323751470991,
            -84.55055880940327
          ],
          [
            174.77051654459243,
            -85.47331733879601
          ],
          [
            175.50865187586763,
            -86.58062033733522
          ],
          [
            176.06223820877878,
            -87.87245875910583
          ],
          [
            176.8003856724902,
            -88.61067281935209
          ],
          [
            177.53852706998353,
            -89.53343134874483
          ],
          [
            178.17895085076123,
            -90.78015411813546
          ],
          [
            178.83027299904234,
            -91.19439489246874
          ],
          [
            179.93751845948194,
            -91.56353810625221
          ],
          [
            181.41383765177727,
            -92.30178835015882
          ],
          [
            182.89015684407258,
            -93.04003859406542
          ],
          [
            184.3664760363679,
            -93.77828883797203
          ],
          [
            185.84279522866322,
            -94.51653908187863
          ],
          [
            186.9500285566666,
            -95.25477123395507
          ],
          [
            187.68818208659616,
            -95.80844082505483
          ],
          [
            188.6108785486717,
            -96.36211946206971
          ],
          [
            189.53358714318344,
            -96.54670916079162
          ],
          [
            189.90266694125728,
            -96.73127172176828
          ],
          [
            190.2717467393311,
            -96.91583428274491
          ],
          [
            191.00991846791499,
            -96.91587046640527
          ],
          [
            191.93263919486296,
            -96.73137122683421
          ],
          [
            192.11718212700893,
            -96.7313802727493
          ]
        ]
      },
      "properties": {
        "type": "variant",
        "id": 3,
        "color": "#44ff44",
        "vzdal_m": 1142,
        "prevyseni_m": 30,
        "cas_s": 349,
        "tempo_str": "5:05"
      }
    }
  ]
}