{
  "type": "FeatureCollection",
  "features": [
    {
      "type": "Feature",
      "geometry": {
        "type": "Point",
        "coordinates": [
          51.25621623220892,
          -129.87684645264295
        ]
      },
      "properties": {
        "type": "start",
        "isom": "204"
      }
    },
    {
      "type": "Feature",
      "geometry": {
        "type": "Point",
        "coordinates": [
          47.82643368657618,
          -103.39270149092904
        ]
      },
      "properties": {
        "type": "end",
        "isom": "204"
      }
    },
    {
      "type": "Feature",
      "geometry": {
        "type": "LineString",
        "coordinates": [
          [
            51.21198031674009,
            -129.83987503925806
          ],
          [
            51.48881594672239,
            -129.1939829662204
          ],
          [
            51.48882807915861,
            -128.8248940276099
          ],
          [
            51.48884021159483,
            -128.45580508899943
          ],
          [
            51.48885234403103,
            -128.08671615038892
          ],
          [
            51.58113594254023,
            -127.71763173495532
          ],
          [
            51.58114807497644,
            -127.34854279634482
          ],
          [
            51.30434884230277,
            -126.88716805355097
          ],
          [
            50.84300667748316,
            -126.4257842644033
          ],
          [
            50.473932945627475,
            -126.05667723308518
          ],
          [
            50.104862246880835,
            -125.59529796711443
          ],
          [
            49.73580064746135,
            -124.85710199718582
          ],
          [
            49.29369985304641,
            -124.0997863963235
          ],
          [
            49.41220469742653,
            -123.6455352150247
          ],
          [
            49.49128547920782,
            -123.29190598574745
          ],
          [
            49.56268396876674,
            -122.9456882478644
          ],
          [
            49.72577756134835,
            -122.2722008908018
          ],
          [
            49.75993348945757,
            -121.99957773306234
          ],
          [
            49.38811126064009,
            -121.25625130748202
          ],
          [
            49.348897240067,
            -120.89135821297846
          ],
          [
            49.31440989023816,
            -120.52754321200953
          ],
          [
            49.366869471731164,
            -120.15119993719429
          ],
          [
            49.37868473263257,
            -119.66585224892809
          ],
          [
            49.47331851906811,
            -119.20427485558137
          ],
          [
            49.578075771964514,
            -118.86777186354871
          ],
          [
            49.61959735424731,
            -118.49915355464873
          ],
          [
            49.65846085990219,
            -118.12122506546899
          ],
          [
            49.667480568019045,
            -117.70147487917734
          ],
          [
            49.53392217799212,
            -117.33710581964479
          ],
          [
            49.55151552958495,
            -117.01395300535884
          ],
          [
            49.55152766202116,
            -116.64486406674834
          ],
          [
            49.566686559159955,
            -116.17777663532665
          ],
          [
            49.64382642607561,
            -115.81441847805162
          ],
          [
            49.53877887712901,
            -115.37103916606637
          ],
          [
            49.459313825020196,
            -114.89168708517155
          ],
          [
            49.45932595745641,
            -114.52259814656105
          ],
          [
            49.459338089892626,
            -114.15350920795055
          ],
          [
            49.45935022232884,
            -113.78442026934005
          ],
          [
            49.459362354765055,
            -113.41533133072954
          ],
          [
            49.45937448720127,
            -113.04624239211904
          ],
          [
            49.45938661963748,
            -112.67715345350854
          ],
          [
            49.459398752073696,
            -112.30806451489804
          ],
          [
            49.459410884509914,
            -111.93897557628753
          ],
          [
            49.45942301694612,
            -111.56988663767703
          ],
          [
            49.45943514938234,
            -111.20079769906654
          ],
          [
            49.459447281818555,
            -110.83170876045604
          ],
          [
            49.459459414254766,
            -110.46261982184554
          ],
          [
            49.36720311372705,
            -110.0012541254055
          ],
          [
            49.36721524616327,
            -109.63216518679499
          ],
          [
            48.949700657249906,
            -108.97269939997236
          ],
          [
            48.998165779180006,
            -108.52488027825586
          ],
          [
            48.99817791161622,
            -108.15579133964536
          ],
          [
            48.998190044052436,
            -107.78670240103486
          ],
          [
            48.629128444632954,
            -107.04850643110625
          ],
          [
            48.536872144105246,
            -106.5871407346662
          ],
          [
            48.536884276541464,
            -106.2180517960557
          ],
          [
            48.260091110085895,
            -105.5721325839566
          ],
          [
            47.98329794363035,
            -104.92621337185753
          ],
          [
            47.983310076066566,
            -104.55712443324703
          ],
          [
            47.98332220850277,
            -104.18803549463652
          ],
          [
            47.79879747501114,
            -103.63439304036696
          ],
          [
            47.79880657433831,
            -103.35757633640908
          ]
        ]
      },
      "properties": {
        "type": "variant",
        "id": 1,
        "color": "#ff4444",
        "vzdal_m": 1507,
        "prevyseni_m": 52,
        "cas_s": 430,
        "tempo_str": "4:45"
      }
    },
    {
      "type": "Feature",
      "geometry": {
        "type": "LineString",
        "coordinates": [
          [
            51.21198031674009,
            -129.83987503925806
          ],
          [
            51.48881594672239,
            -129.1939829662204
          ],
          [
            51.48882807915861,
            -128.8248940276099
          ],
          [
            51.48884021159483,
            -128.45580508899943
          ],
          [
            51.48885234403103,
            -128.08671615038892
          ],
          [
            51.58113594254023,
            -127.71763173495532
          ],
          [
            51.58114807497644,
            -127.34854279634482
          ],
          [
            51.58116020741266,
            -126.97945385773431
          ],
          [
            51.58117233984887,
            -126.61036491912381
          ],
          [
            51.58118447228509,
            -126.24127598051331
          ],
          [
            51.581196604721306,
            -125.8721870419028
          ],
          [
            51.58120873715751,
            -125.5030981032923
          ],
          [
            51.58122086959373,
            -125.1340091646818
          ],
          [
            51.58123300202995,
            -124.76492022607131
          ],
          [
            51.58124513446615,
            -124.39583128746081
          ],
          [
            51.6735317660844,
            -123.93447463737456
          ],
          [
            52.04263886213968,
            -123.28858708751382
          ],
          [
            52.197010816917626,
            -122.71494724851406
          ],
          [
            51.85812929419331,
            -122.27358345998113
          ],
          [
            51.489055562337626,
            -121.904476428663
          ],
          [
            51.21226239588207,
            -121.25855721656391
          ],
          [
            51.027737662390436,
            -120.70491476229434
          ],
          [
            50.65788869865115,
            -119.96726115253661
          ],
          [
            50.381927465498535,
            -119.29145361526675
          ],
          [
            49.99438329592834,
            -118.58845800534121
          ],
          [
            49.849962684701175,
            -118.14450554776222
          ],
          [
            49.580083936486155,
            -117.50370638902533
          ],
          [
            49.55151552958495,
            -117.01395300535884
          ],
          [
            49.45925922905724,
            -116.5525873089188
          ],
          [
            49.36700292852953,
            -116.09122161247878
          ],
          [
            49.27474056178371,
            -115.81440038534399
          ],
          [
            49.182475161928835,
            -115.62985139286184
          ],
          [
            48.81340143007315,
            -115.26074436154371
          ],
          [
            48.44433983065367,
            -114.52254839161509
          ],
          [
            48.35208353012596,
            -114.06118269517505
          ],
          [
            48.352095662562164,
            -113.69209375656455
          ],
          [
            48.35210779499838,
            -113.32300481795404
          ],
          [
            48.3521199274346,
            -112.95391587934354
          ],
          [
            48.35213205987081,
            -112.58482694073304
          ],
          [
            48.35214419230702,
            -112.21573800212254
          ],
          [
            48.35215632474324,
            -111.84664906351205
          ],
          [
            48.25990002421553,
            -111.385283367072
          ],
          [
            48.259912156651744,
            -111.0161944284615
          ],
          [
            48.25992428908796,
            -110.647105489851
          ],
          [
            48.25993642152417,
            -110.2780165512405
          ],
          [
            48.259948553960385,
            -109.90892761263
          ],
          [
            47.98315538750483,
            -109.26300840053092
          ],
          [
            47.98316751994105,
            -108.89391946192042
          ],
          [
            47.98317965237725,
            -108.52483052330992
          ],
          [
            47.98319178481347,
            -108.15574158469941
          ],
          [
            47.98320391724969,
            -107.78665264608891
          ],
          [
            47.9832160496859,
            -107.41756370747841
          ],
          [
            47.98322818212212,
            -107.0484747688679
          ],
          [
            47.98324031455834,
            -106.6793858302574
          ],
          [
            47.98325244699454,
            -106.3102968916469
          ],
          [
            47.98326457943076,
            -105.94120795303641
          ],
          [
            47.89100827890305,
            -105.47984225659637
          ],
          [
            47.89102041133927,
            -105.11075331798587
          ],
          [
            47.79876411081156,
            -104.64938762154583
          ],
          [
            47.798776243247765,
            -104.28029868293534
          ],
          [
            47.79878837568398,
            -103.91120974432484
          ],
          [
            47.7988005081202,
            -103.54212080571433
          ],
          [
            47.79880657433831,
            -103.35757633640908
          ]
        ]
      },
      "properties": {
        "type": "variant",
        "id": 2,
        "color": "#4444ff",
        "vzdal_m": 1505,
        "prevyseni_m": 54,
        "cas_s": 431,
        "tempo_str": "4:46"
      }
    },
    {
      "type": "Feature",
      "geometry": {
        "type": "LineString",
        "coordinates": [
          [
            51.21198031674009,
            -129.83987503925806
          ],
          [
            51.48881594672239,
            -129.1939829662204
          ],
          [
            51.48882807915861,
            -128.8248940276099
          ],
          [
            51.48884021159483,
            -128.45580508899943
          ],
          [
            51.48885234403103,
            -128.08671615038892
          ],
          [
            51.58113594254023,
            -127.71763173495532
          ],
          [
            51.58114807497644,
            -127.34854279634482
          ],
          [
            51.58116020741266,
            -126.97945385773431
          ],
          [
            51.58117233984887,
            -126.61036491912381
          ],
          [
            51.58118447228509,
            -126.24127598051331
          ],
          [
            51.581196604721306,
            -125.8721870419028
          ],
          [
            51.58120873715751,
            -125.5030981032923
          ],
          [
            51.58122086959373,
            -125.1340091646818
          ],
          [
            51.58123300202995,
            -124.76492022607131
          ],
          [
            51.58124513446615,
            -124.39583128746081
          ],
          [
            51.6735317660844,
            -123.93447463737456
          ],
          [
            52.04263886213968,
            -123.28858708751382
          ],
          [
            52.30838957430027,
            -122.76148869542905
          ],
          [
            52.1349467255213,
            -122.18132479485922
          ],
          [
            52.227230324030494,
            -121.81224037942563
          ],
          [
            52.319516955648744,
            -121.3508837293394
          ],
          [
            52.41180358726698,
            -120.88952707925318
          ],
          [
            52.3980959703727,
            -120.40848224254457
          ],
          [
            52.54085757772516,
            -120.1671780206636
          ],
          [
            52.41183998457562,
            -119.78226026342168
          ],
          [
            52.41185211701184,
            -119.41317132481117
          ],
          [
            52.31959581648413,
            -118.95180562837115
          ],
          [
            52.227327383520205,
            -118.85952887054161
          ],
          [
            51.76597915248249,
            -118.5826895506992
          ],
          [
            51.441810720126405,
            -118.16723204976064
          ],
          [
            51.02783472188015,
            -117.75220325341033
          ],
          [
            50.93557842135244,
            -117.29083755697029
          ],
          [
            50.72374830386067,
            -116.7091893016141
          ],
          [
            50.84334031947905,
            -116.27583845261451
          ],
          [
            50.815613338534035,
            -115.93448658689782
          ],
          [
            50.84336458435148,
            -115.5376605753935
          ],
          [
            50.65883985085985,
            -114.98401812112395
          ],
          [
            50.56658355033214,
            -114.52265242468393
          ],
          [
            50.474327249804425,
            -114.06128672824389
          ],
          [
            50.567104959377374,
            -113.6001789212778
          ],
          [
            50.56662601385889,
            -113.23084113954717
          ],
          [
            50.56911730545513,
            -112.86095348409802
          ],
          [
            50.50198865329748,
            -112.49606335850142
          ],
          [
            50.5542161190045,
            -112.11881021821662
          ],
          [
            50.47440611063982,
            -111.66220862727563
          ],
          [
            50.47441824307604,
            -111.29311968866513
          ],
          [
            50.47443037551224,
            -110.92403075005463
          ],
          [
            50.10536877609276,
            -110.18583478012599
          ],
          [
            49.828575609637205,
            -109.53991556802691
          ],
          [
            49.828587742073424,
            -109.17082662941641
          ],
          [
            49.828599874509635,
            -108.80173769080591
          ],
          [
            49.688108867898094,
            -108.31612366584262
          ],
          [
            49.275013541598526,
            -107.5098992666077
          ],
          [
            48.905951942179044,
            -106.77170329667909
          ],
          [
            48.53689034275956,
            -106.03350732675045
          ],
          [
            48.16782571023103,
            -105.38758359147445
          ],
          [
            47.9833009767394,
            -104.8339411372049
          ],
          [
            47.98331310917561,
            -104.4648521985944
          ],
          [
            47.98332524161183,
            -104.0957632599839
          ],
          [
            47.7988005081202,
            -103.54212080571433
          ],
          [
            47.79880657433831,
            -103.35757633640908
          ]
        ]
      },
      "properties": {
        "type": "variant",
        "id": 3,
        "color": "#44ff44",
        "vzdal_m": 1522,
        "prevyseni_m": 56,
        "cas_s": 444,
        "tempo_str": "4:52"
      }
    }
  ]
}