{
  "type": "FeatureCollection",
  "features": [
    {
      "type": "Feature",
      "geometry": {
        "type": "Point",
        "coordinates": [
          32.67837899772305,
          -97.05138139003597
        ]
      },
      "properties": {
        "type": "start",
        "isom": "111"
      }
    },
    {
      "type": "Feature",
      "geometry": {
        "type": "Point",
        "coordinates": [
          49.49205283251466,
          -75.59097559823077
        ]
      },
      "properties": {
        "type": "end",
        "isom": "419"
      }
    },
    {
      "type": "Feature",
      "geometry": {
        "type": "LineString",
        "coordinates": [
          [
            32.68212345600382,
            -97.03840310971279
          ],
          [
            32.95895908598612,
            -96.3925110366751
          ],
          [
            33.1435202167864,
            -95.83888667511317
          ],
          [
            33.512624279732634,
            -95.28527135990505
          ],
          [
            33.60491091135088,
            -94.82391470981884
          ],
          [
            33.88174654133318,
            -94.17802263678115
          ],
          [
            34.2508445380613,
            -93.80895179087827
          ],
          [
            34.61995163411659,
            -93.16306424101752
          ],
          [
            34.98904963084471,
            -92.79399339511464
          ],
          [
            35.358147627572826,
            -92.42492254921176
          ],
          [
            35.81951709037393,
            -92.05585622648579
          ],
          [
            36.46542948532098,
            -91.68679895011363
          ],
          [
            36.926798948122084,
            -91.31773262738766
          ],
          [
            37.38816841092318,
            -90.94866630466167
          ],
          [
            38.126352271943205,
            -90.57961355146642
          ],
          [
            38.679993200817286,
            -90.21055175191735
          ],
          [
            39.23363412969137,
            -89.84148995236829
          ],
          [
            39.78727505856544,
            -89.4724281528192
          ],
          [
            40.43318745351249,
            -89.10337087644706
          ],
          [
            40.80228545024062,
            -88.73430003054418
          ],
          [
            41.17138344696874,
            -88.3652291846413
          ],
          [
            41.54048144369686,
            -87.99615833873841
          ],
          [
            42.00185090649796,
            -87.62709201601244
          ],
          [
            42.370958002553245,
            -86.9812044661517
          ],
          [
            42.64779059942649,
            -86.42758462776665
          ],
          [
            42.74007723104474,
            -85.96622797768043
          ],
          [
            42.74008936348095,
            -85.59713903906993
          ],
          [
            42.740101495917166,
            -85.22805010045943
          ],
          [
            42.83238812753541,
            -84.76669345037321
          ],
          [
            43.20149825669975,
            -84.02853366585983
          ],
          [
            43.570608385864084,
            -83.29037388134644
          ],
          [
            43.93971851502842,
            -82.55221409683305
          ],
          [
            44.30882864419276,
            -81.81405431231968
          ],
          [
            44.67792967402993,
            -81.35271123176418
          ],
          [
            45.047033736976154,
            -80.79909591655606
          ],
          [
            45.41613173370428,
            -80.43002507065317
          ],
          [
            45.78524186286862,
            -79.69186528613979
          ],
          [
            46.1543489589239,
            -79.04597773627903
          ],
          [
            46.52344695565202,
            -78.67690689037615
          ],
          [
            46.89254495238015,
            -78.30783604447328
          ],
          [
            47.26164294910827,
            -77.9387651985704
          ],
          [
            47.907555344055325,
            -77.56970792219823
          ],
          [
            48.46119323982034,
            -77.29291835730179
          ],
          [
            49.01483416869442,
            -76.92385655775273
          ],
          [
            49.291660699349556,
            -76.55478118867293
          ],
          [
            49.19941046503996,
            -75.90887102292766
          ],
          [
            49.47623396258606,
            -75.6320678885005
          ]
        ]
      },
      "properties": {
        "type": "variant",
        "id": 1,
        "color": "#ff4444",
        "vzdal_m": 1542,
        "prevyseni_m": 10,
        "cas_s": 397,
        "tempo_str": "4:17"
      }
    },
    {
      "type": "Feature",
      "geometry": {
        "type": "LineString",
        "coordinates": [
          [
            32.68212345600382,
            -97.03840310971279
          ],
          [
            32.49759265629408,
            -96.66930512474846
          ],
          [
            32.49760478873029,
            -96.30021618613796
          ],
          [
            32.405348488202584,
            -95.83885048969793
          ],
          [
            32.313092187674876,
            -95.37748479325789
          ],
          [
            32.313104320111094,
            -95.00839585464739
          ],
          [
            32.22084801958338,
            -94.54703015820735
          ],
          [
            32.2208601520196,
            -94.17794121959685
          ],
          [
            32.22087228445581,
            -93.80885228098634
          ],
          [
            32.220890483110125,
            -93.25521887307059
          ],
          [
            32.40544858080135,
            -92.79386674616129
          ],
          [
            32.86681804360245,
            -92.42480042343531
          ],
          [
            33.23591604033057,
            -92.05572957753243
          ],
          [
            33.605014037058694,
            -91.68665873162955
          ],
          [
            33.97411203378682,
            -91.31758788572667
          ],
          [
            34.34321003051494,
            -90.94851703982378
          ],
          [
            34.71230802724306,
            -90.57944619392092
          ],
          [
            35.081406023971184,
            -90.21037534801803
          ],
          [
            35.450504020699306,
            -89.84130450211515
          ],
          [
            35.91187348350041,
            -89.47223817938918
          ],
          [
            36.3732429463015,
            -89.10317185666321
          ],
          [
            36.92688387517558,
            -88.73411005711414
          ],
          [
            37.57279627012264,
            -88.36505278074198
          ],
          [
            38.12643719899671,
            -87.9959909811929
          ],
          [
            38.49553519572483,
            -87.62692013529002
          ],
          [
            38.86463925867106,
            -87.07330482008189
          ],
          [
            39.32600872147216,
            -86.70423849735592
          ],
          [
            39.69511278441839,
            -86.1506231821478
          ],
          [
            40.06421684736462,
            -85.59700786693966
          ],
          [
            40.43332697652895,
            -84.85884808242629
          ],
          [
            40.802437105693286,
            -84.1206882979129
          ],
          [
            41.17154116863952,
            -83.56707298270477
          ],
          [
            41.54064523158575,
            -83.01345766749664
          ],
          [
            41.90974322831387,
            -82.64438682159377
          ],
          [
            42.278841225041994,
            -82.27531597569089
          ],
          [
            42.64795135420633,
            -81.5371561911775
          ],
          [
            43.01706148337067,
            -80.79899640666412
          ],
          [
            43.20162261417094,
            -80.24537204510219
          ],
          [
            43.201634746607155,
            -79.87628310649168
          ],
          [
            43.66300724251731,
            -79.41494454911309
          ],
          [
            44.124367605991246,
            -79.322694930345
          ],
          [
            44.49345347028315,
            -79.32271302305261
          ],
          [
            44.954813833757086,
            -79.2304634042845
          ],
          [
            45.323899698049,
            -79.23048149699213
          ],
          [
            45.78526006152293,
            -79.13823187822403
          ],
          [
            46.24662952432404,
            -78.76916555549806
          ],
          [
            46.70799898712514,
            -78.40009923277209
          ],
          [
            47.16936844992624,
            -78.03103291004612
          ],
          [
            47.723009378800306,
            -77.66197111049705
          ],
          [
            48.36891874063831,
            -77.3851860687775
          ],
          [
            48.92255966951239,
            -77.01612426922844
          ],
          [
            49.29165766624051,
            -76.64705342332556
          ],
          [
            49.107132932748875,
            -76.09341096905601
          ],
          [
            49.47623396258606,
            -75.6320678885005
          ]
        ]
      },
      "properties": {
        "type": "variant",
        "id": 2,
        "color": "#4444ff",
        "vzdal_m": 1620,
        "prevyseni_m": 21,
        "cas_s": 413,
        "tempo_str": "4:15"
      }
    },
    {
      "type": "Feature",
      "geometry": {
        "type": "LineString",
        "coordinates": [
          [
            32.68212345600382,
            -97.03840310971279
          ],
          [
            33.051233585168156,
            -96.30024332519939
          ],
          [
            33.328069215150464,
            -95.65435125216173
          ],
          [
            33.88171317713359,
            -95.19301721796003
          ],
          [
            34.43535410600767,
            -94.82395541841097
          ],
          [
            34.80445210273579,
            -94.45488457250808
          ],
          [
            35.17355009946391,
            -94.08581372660521
          ],
          [
            35.634922595374064,
            -93.62447516922661
          ],
          [
            36.37310645639409,
            -93.25542241603135
          ],
          [
            37.01901885134115,
            -92.88636513965918
          ],
          [
            37.664931246288205,
            -92.51730786328702
          ],
          [
            38.03402924301632,
            -92.14823701738415
          ],
          [
            38.772213104036354,
            -91.77918426418888
          ],
          [
            39.233582566837455,
            -91.41011794146291
          ],
          [
            39.78722349571153,
            -91.04105614191384
          ],
          [
            40.248592958512624,
            -90.67198981918787
          ],
          [
            40.61769095524075,
            -90.30291897328499
          ],
          [
            40.89452051900495,
            -89.84157136955258
          ],
          [
            41.26363064816928,
            -89.1034115850392
          ],
          [
            41.355917279787526,
            -88.64205493495298
          ],
          [
            41.72502740895187,
            -87.9038951504396
          ],
          [
            42.09412843878904,
            -87.44255206988409
          ],
          [
            42.46323553484432,
            -86.79666452002334
          ],
          [
            42.647793632535546,
            -86.33531239311402
          ],
          [
            42.74008026415379,
            -85.8739557430278
          ],
          [
            42.74009239659,
            -85.5048668044173
          ],
          [
            42.74010452902622,
            -85.1357778658068
          ],
          [
            42.924665659826495,
            -84.58215350424486
          ],
          [
            43.29377578899083,
            -83.84399371973149
          ],
          [
            43.66288591815517,
            -83.1058339352181
          ],
          [
            44.0319960473195,
            -82.36767415070472
          ],
          [
            44.401106176483836,
            -81.62951436619133
          ],
          [
            44.77020417321196,
            -81.26044352028845
          ],
          [
            45.139308236158186,
            -80.70682820508033
          ],
          [
            45.50840926599537,
            -80.24548512452483
          ],
          [
            45.8775193951597,
            -79.50732534001145
          ],
          [
            46.24662345810593,
            -78.95371002480331
          ],
          [
            46.61572145483405,
            -78.58463917890043
          ],
          [
            46.984819451562174,
            -78.21556833299755
          ],
          [
            47.3539174482903,
            -77.84649748709468
          ],
          [
            47.9998268101283,
            -77.56971244537513
          ],
          [
            48.64573920507535,
            -77.20065516900299
          ],
          [
            49.10710866787645,
            -76.831588846277
          ],
          [
            49.291663732458616,
            -76.46250895402031
          ],
          [
            49.29168496422199,
            -75.81660331145193
          ],
          [
            49.47623396258606,
            -75.6320678885005
          ]
        ]
      },
      "properties": {
        "type": "variant",
        "id": 3,
        "color": "#44ff44",
        "vzdal_m": 1540,
        "prevyseni_m": 9,
        "cas_s": 399,
        "tempo_str": "4:19"
      }
    }
  ]
}