{
  "type": "FeatureCollection",
  "features": [
    {
      "type": "Feature",
      "geometry": {
        "type": "Point",
        "coordinates": [
          127.31538435259881,
          -248.13967992376192
        ]
      },
      "properties": {
        "type": "start",
        "isom": "111"
      }
    },
    {
      "type": "Feature",
      "geometry": {
        "type": "Point",
        "coordinates": [
          115.95961161275467,
          -172.82578712922572
        ]
      },
      "properties": {
        "type": "end",
        "isom": "419"
      }
    },
    {
      "type": "Feature",
      "geometry": {
        "type": "LineString",
        "coordinates": [
          [
            127.3376386449218,
            -248.05466985666638
          ],
          [
            127.52220584194023,
            -247.31650102599554
          ],
          [
            127.15314424252072,
            -246.57830505757943
          ],
          [
            127.33769930710292,
            -246.2092251652016
          ],
          [
            127.33772963819347,
            -245.2865028194692
          ],
          [
            127.70684583357597,
            -244.36379856556695
          ],
          [
            127.70687009844842,
            -243.62562068898103
          ],
          [
            127.89144336168494,
            -242.70290738916376
          ],
          [
            127.33785702877381,
            -241.41106896739313
          ],
          [
            127.15333229528217,
            -240.8574265140386
          ],
          [
            126.96883182666298,
            -239.5656061840982
          ],
          [
            126.23070862782399,
            -238.089214247266
          ],
          [
            125.86166522705882,
            -236.7973848714105
          ],
          [
            124.93899302985575,
            -235.5055283578097
          ],
          [
            124.56994356287247,
            -234.39824345110065
          ],
          [
            124.56996782774492,
            -233.66006557451473
          ],
          [
            124.56999209261735,
            -232.9218876979288
          ],
          [
            124.57001635748979,
            -232.18370982134292
          ],
          [
            125.08204405086553,
            -230.86135783530008
          ],
          [
            125.86867729810942,
            -229.78967294310456
          ],
          [
            126.72252220096388,
            -228.8110235859858
          ],
          [
            127.59164114085705,
            -228.01439119579123
          ],
          [
            127.9871452889943,
            -227.70073797238408
          ],
          [
            127.70740999186032,
            -227.20116293494445
          ],
          [
            127.70741605807844,
            -227.01661846579796
          ],
          [
            127.52288525836867,
            -226.64752048158994
          ],
          [
            127.33837265731327,
            -225.72478908994248
          ],
          [
            127.15386005625786,
            -224.802057698295
          ],
          [
            126.96934138898432,
            -224.063870775794
          ],
          [
            127.52300658273091,
            -222.95663109866038
          ],
          [
            127.15395104952952,
            -222.03389066109781
          ],
          [
            127.33850611411172,
            -221.66481076871995
          ],
          [
            127.33854251142039,
            -220.55754395384108
          ],
          [
            127.70765870680287,
            -219.63483969993882
          ],
          [
            127.52313397331125,
            -219.08119724658434
          ],
          [
            127.70768903789345,
            -218.71211735420644
          ],
          [
            127.89224410247563,
            -218.3430374618286
          ],
          [
            128.63044009593196,
            -217.60489576890302
          ],
          [
            129.18410528967854,
            -216.49765609176941
          ],
          [
            128.81504975647715,
            -215.57491565420685
          ],
          [
            129.18416595185965,
            -214.65221140030462
          ],
          [
            129.36873314887808,
            -213.91404256963378
          ],
          [
            129.18421448160453,
            -213.1758556471328
          ],
          [
            129.18423874647698,
            -212.43767777054688
          ],
          [
            128.2615665492739,
            -211.1458212569461
          ],
          [
            127.70799234879901,
            -209.4848938968825
          ],
          [
            127.33894288181573,
            -208.3776089901735
          ],
          [
            126.78535654890459,
            -207.08577056840286
          ],
          [
            126.23177021599345,
            -205.79393214663227
          ],
          [
            126.23179448086591,
            -205.05575427004635
          ],
          [
            126.23181874573835,
            -204.31757639346046
          ],
          [
            126.23184301061079,
            -203.57939851687453
          ],
          [
            126.23185514304701,
            -203.2103095785816
          ],
          [
            126.04732434333727,
            -202.84121159437356
          ],
          [
            125.86278747740941,
            -202.65665807931197
          ],
          [
            125.67825667769965,
            -202.28756009510394
          ],
          [
            124.94012741264255,
            -200.99571262741824
          ],
          [
            124.20199814758546,
            -199.70386515973252
          ],
          [
            123.46386281631023,
            -198.59656216119333
          ],
          [
            122.7257214188169,
            -197.67380363180058
          ],
          [
            121.8030431553957,
            -196.5664915873463
          ],
          [
            121.61852448812219,
            -195.82830466484526
          ],
          [
            121.43399368841244,
            -195.45920668063724
          ],
          [
            120.69586442335535,
            -194.16735921295154
          ],
          [
            120.14227809044421,
            -192.87552079118095
          ],
          [
            119.95774729073445,
            -192.50642280697286
          ],
          [
            119.95775335695255,
            -192.3218783378264
          ],
          [
            119.7732225572428,
            -191.95278035361838
          ],
          [
            119.77322862346092,
            -191.7682358844719
          ],
          [
            119.58869782375118,
            -191.39913790026384
          ],
          [
            119.58870388996928,
            -191.21459343111735
          ],
          [
            119.40417309025953,
            -190.84549544690933
          ],
          [
            119.40419735513198,
            -190.1073175703234
          ],
          [
            119.03514788814871,
            -189.00003266361438
          ],
          [
            118.66609842116543,
            -187.89274775690532
          ],
          [
            118.66612268603788,
            -187.1545698803194
          ],
          [
            119.21979394600258,
            -185.8627857340393
          ],
          [
            119.21981821087502,
            -185.12460785745338
          ],
          [
            119.21984247574746,
            -184.38642998086746
          ],
          [
            119.21986067440179,
            -183.83279657342803
          ],
          [
            118.85081120741852,
            -182.725511666719
          ],
          [
            118.48176174043523,
            -181.61822676000995
          ],
          [
            118.29724913937983,
            -180.6954953683625
          ],
          [
            118.29727340425227,
            -179.95731749177656
          ],
          [
            117.928223937269,
            -178.8500325850675
          ],
          [
            117.55916840406762,
            -177.92729214750494
          ],
          [
            117.3746558030122,
            -177.00456075585748
          ],
          [
            117.00560633602892,
            -175.89727584914843
          ],
          [
            117.00563060090137,
            -175.15909797256253
          ],
          [
            116.45204426799023,
            -173.8672595507919
          ],
          [
            115.89845186886099,
            -172.75996559816778
          ]
        ]
      },
      "properties": {
        "type": "variant",
        "id": 1,
        "color": "#ff4444",
        "vzdal_m": 2223,
        "prevyseni_m": 103,
        "cas_s": 759,
        "tempo_str": "5:41"
      }
    },
    {
      "type": "Feature",
      "geometry": {
        "type": "LineString",
        "coordinates": [
          [
            127.3376386449218,
            -248.05466985666638
          ],
          [
            127.33766290979426,
            -247.31649198008046
          ],
          [
            126.96861344281098,
            -246.2092070733714
          ],
          [
            126.96863770768341,
            -245.4710291967855
          ],
          [
            126.41504530855417,
            -244.36373524416135
          ],
          [
            125.67689784484274,
            -243.6255211839151
          ],
          [
            124.9387564473494,
            -242.70276265452236
          ],
          [
            124.75422564763966,
            -242.33366467031433
          ],
          [
            124.01607211771011,
            -241.77999507921453
          ],
          [
            123.27794285265301,
            -240.48814761152883
          ],
          [
            122.35524639057748,
            -239.93446897451398
          ],
          [
            122.35528278788614,
            -238.8272021596351
          ],
          [
            122.17077018683074,
            -237.90447076798765
          ],
          [
            122.11426337318531,
            -237.12518839422296
          ],
          [
            122.28981921904176,
            -236.883739618867
          ],
          [
            121.98629398308398,
            -235.87447256146126
          ],
          [
            121.43270765017284,
            -234.58263413969067
          ],
          [
            121.06365818318956,
            -233.4753492329816
          ],
          [
            121.06368244806202,
            -232.73717135639572
          ],
          [
            120.87916378078849,
            -231.99898443389472
          ],
          [
            121.06373097780691,
            -231.26081560322388
          ],
          [
            121.06375524267935,
            -230.52263772663798
          ],
          [
            121.0637795075518,
            -229.78445985005206
          ],
          [
            121.06380377242424,
            -229.04628197346614
          ],
          [
            121.24837703566078,
            -228.12356867364883
          ],
          [
            121.24840130053322,
            -227.3853907970629
          ],
          [
            121.24842556540565,
            -226.647212920477
          ],
          [
            121.43299276242408,
            -225.9090440898062
          ],
          [
            121.24848016136866,
            -224.98631269815868
          ],
          [
            120.87943069438538,
            -223.8790277914497
          ],
          [
            120.87945495925784,
            -223.14084991486376
          ],
          [
            120.87947922413026,
            -222.40267203827784
          ],
          [
            120.87950348900273,
            -221.66449416169195
          ],
          [
            120.87952775387517,
            -220.92631628510603
          ],
          [
            121.24865001547577,
            -219.81906756205728
          ],
          [
            121.25977756022584,
            -219.0935579324225
          ],
          [
            121.24869854522066,
            -218.34271180888547
          ],
          [
            121.24872281009311,
            -217.60453393229955
          ],
          [
            121.24874100874744,
            -217.0509005248601
          ],
          [
            121.61786933656616,
            -215.75910733266494
          ],
          [
            122.17154666274897,
            -214.28277871723841
          ],
          [
            122.90976085485963,
            -212.99100361687337
          ],
          [
            122.72524825380422,
            -212.0682722252259
          ],
          [
            122.54073565274881,
            -211.1455408335784
          ],
          [
            122.54075991762126,
            -210.4073629569925
          ],
          [
            122.5407841824937,
            -209.66918508040658
          ],
          [
            122.17173471551042,
            -208.56190017369758
          ],
          [
            121.43361151667142,
            -207.0855082368654
          ],
          [
            121.249098915616,
            -206.16277684521788
          ],
          [
            121.0645863145606,
            -205.24004545357042
          ],
          [
            121.06461057943304,
            -204.50186757698452
          ],
          [
            121.0646348443055,
            -203.7636897003986
          ],
          [
            121.0646469767417,
            -203.39460076210565
          ],
          [
            120.88011617703197,
            -203.02550277789763
          ],
          [
            120.69560357597653,
            -202.1027713862501
          ],
          [
            120.695627840849,
            -201.3645935096642
          ],
          [
            120.51110917357546,
            -200.62640658716322
          ],
          [
            120.69567637059389,
            -199.88823775649237
          ],
          [
            120.69570063546632,
            -199.15005987990645
          ],
          [
            120.69572490033877,
            -198.41188200332056
          ],
          [
            121.06484109572126,
            -197.48917774941833
          ],
          [
            121.43393909244944,
            -197.12010690295554
          ],
          [
            121.61849415703163,
            -196.75102701057767
          ],
          [
            121.61851842190407,
            -196.01284913399175
          ],
          [
            121.61852448812219,
            -195.82830466484526
          ],
          [
            121.43399368841244,
            -195.45920668063724
          ],
          [
            120.69586442335535,
            -194.16735921295154
          ],
          [
            120.14227809044421,
            -192.87552079118095
          ],
          [
            119.95774729073445,
            -192.50642280697286
          ],
          [
            119.95775335695255,
            -192.3218783378264
          ],
          [
            119.7732225572428,
            -191.95278035361838
          ],
          [
            119.77322862346092,
            -191.7682358844719
          ],
          [
            119.58869782375118,
            -191.39913790026384
          ],
          [
            119.58870388996928,
            -191.21459343111735
          ],
          [
            119.40417309025953,
            -190.84549544690933
          ],
          [
            119.40419735513198,
            -190.1073175703234
          ],
          [
            119.03514788814871,
            -189.00003266361438
          ],
          [
            118.66609842116543,
            -187.89274775690532
          ],
          [
            118.66612268603788,
            -187.1545698803194
          ],
          [
            119.21979394600258,
            -185.8627857340393
          ],
          [
            119.21981821087502,
            -185.12460785745338
          ],
          [
            119.21984247574746,
            -184.38642998086746
          ],
          [
            119.21986067440179,
            -183.83279657342803
          ],
          [
            118.85081120741852,
            -182.725511666719
          ],
          [
            118.48176174043523,
            -181.61822676000995
          ],
          [
            118.29724913937983,
            -180.6954953683625
          ],
          [
            118.29727340425227,
            -179.95731749177656
          ],
          [
            117.928223937269,
            -178.8500325850675
          ],
          [
            117.55916840406762,
            -177.92729214750494
          ],
          [
            117.3746558030122,
            -177.00456075585748
          ],
          [
            117.00560633602892,
            -175.89727584914843
          ],
          [
            117.00563060090137,
            -175.15909797256253
          ],
          [
            116.45204426799023,
            -173.8672595507919
          ],
          [
            115.89845186886099,
            -172.75996559816778
          ]
        ]
      },
      "properties": {
        "type": "variant",
        "id": 2,
        "color": "#4444ff",
        "vzdal_m": 2167,
        "prevyseni_m": 104,
        "cas_s": 718,
        "tempo_str": "5:31"
      }
    },
    {
      "type": "Feature",
      "geometry": {
        "type": "LineString",
        "coordinates": [
          [
            127.3376386449218,
            -248.05466985666638
          ],
          [
            127.33766290979426,
            -247.31649198008046
          ],
          [
            127.33767504223046,
            -246.9474030417875
          ],
          [
            127.52223010681267,
            -246.5783231494096
          ],
          [
            127.70680337004919,
            -245.65560984959228
          ],
          [
            128.44499936350553,
            -244.91746815666673
          ],
          [
            129.1832074893981,
            -243.81023752544823
          ],
          [
            129.73688481558088,
            -242.33390891002165
          ],
          [
            129.92145201259927,
            -241.59574007935083
          ],
          [
            129.92147627747175,
            -240.8575622027649
          ],
          [
            129.92149447612607,
            -240.30392879532548
          ],
          [
            129.73698187507065,
            -239.381197403678
          ],
          [
            129.7370061399431,
            -238.64301952709206
          ],
          [
            129.73703040481556,
            -237.90484165050614
          ],
          [
            130.29070166478024,
            -236.6130575042261
          ],
          [
            131.0289097906728,
            -235.50582687300755
          ],
          [
            131.21348912012743,
            -234.3985691040438
          ],
          [
            131.0289583204177,
            -234.0294711198357
          ],
          [
            130.84442752070794,
            -233.66037313562768
          ],
          [
            130.65991491965252,
            -232.7376417439802
          ],
          [
            131.213574047181,
            -231.81494653599307
          ],
          [
            131.95177004063734,
            -231.0768048430675
          ],
          [
            132.68997816652987,
            -229.96957421184896
          ],
          [
            133.42818629242242,
            -228.86234358063044
          ],
          [
            133.7972964215868,
            -228.12418379587473
          ],
          [
            133.981851486169,
            -227.75510390349683
          ],
          [
            134.52688845559416,
            -226.65255828962756
          ],
          [
            135.08918793988028,
            -225.35608008008313
          ],
          [
            135.64285919984496,
            -224.06429593380304
          ],
          [
            136.01198146144557,
            -222.95704721075435
          ],
          [
            136.196548658464,
            -222.2188783800835
          ],
          [
            136.19657292333642,
            -221.4807005034976
          ],
          [
            136.01204212362668,
            -221.11160251928956
          ],
          [
            136.01205425606292,
            -220.74251358099662
          ],
          [
            135.45846185693367,
            -219.63521962837248
          ],
          [
            134.59545707380568,
            -218.75631280202595
          ],
          [
            134.2461805498624,
            -217.76180597307237
          ],
          [
            134.1105230540379,
            -217.37554380900514
          ],
          [
            133.89519006733693,
            -216.69451839439543
          ],
          [
            133.83322960611295,
            -215.9312930274092
          ],
          [
            133.92705996066425,
            -215.19483186154028
          ],
          [
            134.5910327995313,
            -213.657834703097
          ],
          [
            135.20563941722432,
            -212.41963732148824
          ],
          [
            135.412467043899,
            -211.50492548969225
          ],
          [
            135.35618840876447,
            -210.79769877939765
          ],
          [
            135.16632251725792,
            -210.0156299287584
          ],
          [
            135.00786336161391,
            -209.6248028892162
          ],
          [
            134.8350027337666,
            -209.24754938985816
          ],
          [
            134.6680003167264,
            -208.88334526637271
          ],
          [
            134.5271368115202,
            -208.49827364223734
          ],
          [
            134.2045819841548,
            -208.02813359378732
          ],
          [
            133.98251270394312,
            -207.63975676653067
          ],
          [
            133.79798190423338,
            -207.27065878232264
          ],
          [
            133.05983444052194,
            -206.53244472207638
          ],
          [
            132.32169910924674,
            -205.42514172353717
          ],
          [
            131.5835516455353,
            -204.68692766329093
          ],
          [
            130.84542238047817,
            -203.39508019560523
          ],
          [
            130.10729918163918,
            -201.91868825877305
          ],
          [
            129.55371284872805,
            -200.62684983700245
          ],
          [
            129.36919418145453,
            -199.88866291450142
          ],
          [
            129.55376137847293,
            -199.1504940838306
          ],
          [
            129.5537856433454,
            -198.4123162072447
          ],
          [
            129.00019931043425,
            -197.12047778547407
          ],
          [
            128.26207611159526,
            -195.6440858486419
          ],
          [
            127.3394039143922,
            -194.35222933504116
          ],
          [
            127.33944031170086,
            -193.24496252016226
          ],
          [
            127.33946457657329,
            -192.50678464357637
          ],
          [
            126.9704029771538,
            -191.76858867516026
          ],
          [
            126.78589037609838,
            -190.84585728351277
          ],
          [
            126.78591464097083,
            -190.10767940692685
          ],
          [
            126.2323283080597,
            -188.81584098515623
          ],
          [
            126.2323404404959,
            -188.44675204686328
          ],
          [
            126.04780964078617,
            -188.07765406265523
          ],
          [
            126.04781570700428,
            -187.89310959350877
          ],
          [
            125.30968644194718,
            -186.60126212582307
          ],
          [
            124.3870142447441,
            -185.30940561222226
          ],
          [
            123.83344004426918,
            -183.64847825215872
          ],
          [
            123.09531684543019,
            -182.17208631532654
          ],
          [
            122.91080424437477,
            -181.24935492367905
          ],
          [
            122.35721791146364,
            -179.95751650190846
          ],
          [
            121.61908258018842,
            -178.85021350336925
          ],
          [
            120.88095331513131,
            -177.55836603568355
          ],
          [
            119.95826898549203,
            -176.63559846037575
          ],
          [
            119.40465838770842,
            -176.08193791519102
          ],
          [
            119.22012758799869,
            -175.712839930983
          ],
          [
            118.48198012428726,
            -174.97462587073673
          ],
          [
            117.55928366221173,
            -174.42094723372185
          ],
          [
            116.8211422647184,
            -173.49818870432912
          ],
          [
            115.89845186886099,
            -172.75996559816778
          ]
        ]
      },
      "properties": {
        "type": "variant",
        "id": 3,
        "color": "#44ff44",
        "vzdal_m": 2302,
        "prevyseni_m": 95,
        "cas_s": 720,
        "tempo_str": "5:12"
      }
    }
  ]
}