{
  "type": "FeatureCollection",
  "features": [
    {
      "type": "Feature",
      "geometry": {
        "type": "Point",
        "coordinates": [
          122.4199587597385,
          -229.5380983147614
        ]
      },
      "properties": {
        "type": "start",
        "isom": "204"
      }
    },
    {
      "type": "Feature",
      "geometry": {
        "type": "Point",
        "coordinates": [
          47.793706529657975,
          -253.30376795368522
        ]
      },
      "properties": {
        "type": "end",
        "isom": "111"
      }
    },
    {
      "type": "Feature",
      "geometry": {
        "type": "LineString",
        "coordinates": [
          [
            122.38684823122793,
            -229.51213976401823
          ],
          [
            121.46410930562563,
            -230.2502724110287
          ],
          [
            120.91045624431526,
            -230.9884231498694
          ],
          [
            119.803174386567,
            -231.72654675096476
          ],
          [
            119.06497839311068,
            -232.4646884438903
          ],
          [
            118.32677633343623,
            -233.38737460596235
          ],
          [
            117.58858640619802,
            -233.94097182974147
          ],
          [
            116.85039041274167,
            -234.67911352266702
          ],
          [
            116.11219441928536,
            -235.41725521559258
          ],
          [
            115.92763935470316,
            -235.78633510797047
          ],
          [
            115.74308429012096,
            -236.1554150003483
          ],
          [
            115.55852922553878,
            -236.5244948927262
          ],
          [
            114.82033323208243,
            -237.26263658565176
          ],
          [
            114.08213723862612,
            -238.00077827857737
          ],
          [
            113.34394124516977,
            -238.73891997150292
          ],
          [
            112.05211645527554,
            -239.47703452668324
          ],
          [
            111.12938359589134,
            -240.03062270454726
          ],
          [
            110.76029166538129,
            -240.21514908186356
          ],
          [
            110.03284286868175,
            -240.23671858856272
          ],
          [
            108.89641986127457,
            -240.47708752433488
          ],
          [
            108.18016096767957,
            -240.60378115949132
          ],
          [
            107.45064021720975,
            -240.6609376951957
          ],
          [
            106.52389959998834,
            -240.8156012936682
          ],
          [
            105.59938404588623,
            -241.00801461808626
          ],
          [
            104.87201514873486,
            -241.0927529803164
          ],
          [
            103.75085615429924,
            -241.36314010563038
          ],
          [
            103.01721366558145,
            -241.42142680530355
          ],
          [
            101.57737874478967,
            -240.55366350346236
          ],
          [
            100.97951019542671,
            -240.39921411751044
          ],
          [
            100.24133846684283,
            -240.3991779338501
          ],
          [
            99.50316673825895,
            -240.39914175018973
          ],
          [
            98.58044601131098,
            -240.5836409897608
          ],
          [
            97.84228641516331,
            -240.2145158678075
          ],
          [
            97.10411468657944,
            -240.21447968414716
          ],
          [
            96.36594295799556,
            -240.2144435004868
          ],
          [
            95.62777122941166,
            -240.21440731682645
          ],
          [
            94.52052576897205,
            -239.845264103043
          ],
          [
            93.78234797417007,
            -240.02977238852912
          ],
          [
            93.04418231180429,
            -239.84519173572227
          ],
          [
            92.3060105832204,
            -239.84515555206195
          ],
          [
            91.56784492085463,
            -239.66057489925512
          ],
          [
            90.82966712605263,
            -239.84508318474124
          ],
          [
            90.09149539746875,
            -239.8450470010809
          ],
          [
            89.35331760266675,
            -240.02955528656705
          ],
          [
            88.61515194030098,
            -239.84497463376022
          ],
          [
            87.8769802117171,
            -239.84493845009987
          ],
          [
            87.1388084831332,
            -239.84490226643956
          ],
          [
            85.92057339266259,
            -239.50110659417604
          ],
          [
            85.91142303608298,
            -239.46104181881825
          ],
          [
            85.4779402924738,
            -239.29118744576434
          ],
          [
            84.18611550257957,
            -240.02930200094465
          ],
          [
            83.0788457772675,
            -240.39833666374707
          ],
          [
            82.15612505031955,
            -240.5828359033181
          ],
          [
            81.23340432337157,
            -240.76733514288918
          ],
          [
            80.31068359642362,
            -240.95183438246022
          ],
          [
            79.57251186783972,
            -240.95179819879988
          ],
          [
            78.83434013925584,
            -240.9517620151395
          ],
          [
            78.09616841067195,
            -240.95172583147917
          ],
          [
            77.54253961423404,
            -240.9516986937339
          ],
          [
            77.17345981616022,
            -240.76713613275726
          ],
          [
            76.43528808757632,
            -240.76709994909695
          ],
          [
            75.69711635899245,
            -240.76706376543657
          ],
          [
            75.51257342684647,
            -240.76705471952147
          ],
          [
            75.14348149633642,
            -240.95158109683783
          ],
          [
            74.77438956582637,
            -241.13610747415413
          ],
          [
            73.29802184378616,
            -241.8742129834193
          ],
          [
            71.63711118959996,
            -242.61230944676944
          ],
          [
            70.71438439643389,
            -242.98135315548697
          ],
          [
            69.42255960653965,
            -243.7194677106673
          ],
          [
            67.94619795071753,
            -244.27302875078607
          ],
          [
            67.5771060202075,
            -244.45755512810234
          ],
          [
            67.20801408969743,
            -244.64208150541864
          ],
          [
            65.9161953660213,
            -245.19565159145247
          ],
          [
            65.54710343551125,
            -245.38017796876878
          ],
          [
            65.1780175712193,
            -245.38015987693862
          ],
          [
            64.80892564070925,
            -245.56468625425492
          ],
          [
            63.88620491376129,
            -245.74918549382596
          ],
          [
            62.96348418681332,
            -245.93368473339703
          ],
          [
            62.040763459865346,
            -246.11818397296807
          ],
          [
            60.9334937345533,
            -246.4872186357705
          ],
          [
            60.195322005969416,
            -246.48718245211018
          ],
          [
            59.272601279021444,
            -246.6716816916812
          ],
          [
            58.534429550437565,
            -246.67164550802087
          ],
          [
            57.4271537589074,
            -247.22522463996978
          ],
          [
            57.05806182839735,
            -247.40975101728608
          ],
          [
            56.873518896251376,
            -247.409741971371
          ],
          [
            56.50442696574133,
            -247.5942683486873
          ],
          [
            55.58170623879336,
            -247.77876758825835
          ],
          [
            54.84353451020947,
            -247.778731404598
          ],
          [
            54.10536278162559,
            -247.77869522093764
          ],
          [
            53.644549515635994,
            -247.86695061204074
          ],
          [
            52.888963362249065,
            -248.58683954143896
          ],
          [
            52.133936920967386,
            -249.30591825256624
          ],
          [
            51.8464270292381,
            -249.57697877119412
          ],
          [
            51.0870888272019,
            -250.2926706964787
          ],
          [
            50.32940382228671,
            -250.94910481824945
          ],
          [
            49.643312198117826,
            -251.81177218722647
          ],
          [
            48.75346002772153,
            -252.57658908720862
          ],
          [
            47.83072110211923,
            -253.3147217342191
          ]
        ]
      },
      "properties": {
        "type": "variant",
        "id": 1,
        "color": "#ff4444",
        "vzdal_m": 2266,
        "prevyseni_m": 30,
        "cas_s": 657,
        "tempo_str": "4:50"
      }
    },
    {
      "type": "Feature",
      "geometry": {
        "type": "LineString",
        "coordinates": [
          [
            122.38684823122793,
            -229.51213976401823
          ],
          [
            121.4640911069713,
            -230.80390581846814
          ],
          [
            120.91042591322471,
            -231.91114549560177
          ],
          [
            120.17221778733216,
            -233.0183761268203
          ],
          [
            119.43399752900339,
            -234.49469569633175
          ],
          [
            118.88033233525681,
            -235.60193537346538
          ],
          [
            118.69577727067461,
            -235.97101526584322
          ],
          [
            118.51122220609241,
            -236.34009515822112
          ],
          [
            118.14211207692803,
            -237.07825494297686
          ],
          [
            117.40391608347171,
            -237.8163966359024
          ],
          [
            116.66570189136105,
            -239.10817173626745
          ],
          [
            116.11205489626879,
            -239.6617780059616
          ],
          [
            115.92749983168659,
            -240.0308578983395
          ],
          [
            115.74294476710439,
            -240.39993779071733
          ],
          [
            115.00473664121185,
            -241.5071684219359
          ],
          [
            114.45108964611961,
            -242.06077469163003
          ],
          [
            114.08199771560956,
            -242.24530106894636
          ],
          [
            113.15925879000724,
            -242.9834337159568
          ],
          [
            112.0519890646952,
            -243.35246837875928
          ],
          [
            111.12929260261967,
            -242.79878974174443
          ],
          [
            110.39112087403579,
            -242.79875355808406
          ],
          [
            110.20657794188982,
            -242.79874451216895
          ],
          [
            109.09930215035966,
            -243.3523236441179
          ],
          [
            108.36110615690333,
            -244.09046533704347
          ],
          [
            107.62291622966512,
            -244.64406256082253
          ],
          [
            106.1465485076249,
            -245.38216807008777
          ],
          [
            105.40834644795046,
            -246.3048542321598
          ],
          [
            104.48560752234818,
            -247.04298687917031
          ],
          [
            103.74741152889183,
            -247.78112857209587
          ],
          [
            103.0092094692174,
            -248.70381473416793
          ],
          [
            102.27101954197917,
            -249.257411957947
          ],
          [
            100.79465181993896,
            -249.9955174672122
          ],
          [
            99.5028270300447,
            -250.73363202239253
          ],
          [
            98.0264593080045,
            -251.47173753165777
          ],
          [
            97.10373251483841,
            -251.8407812403753
          ],
          [
            96.36555472003641,
            -252.0252895258614
          ],
          [
            95.62738905767064,
            -251.84070887305458
          ],
          [
            94.88921732908676,
            -251.84067268939427
          ],
          [
            94.15104560050288,
            -251.84063650573393
          ],
          [
            93.412873871919,
            -251.84060032207356
          ],
          [
            92.67470214333511,
            -251.84056413841324
          ],
          [
            91.75198141638715,
            -252.02506337798425
          ],
          [
            91.01380968780326,
            -252.02502719432394
          ],
          [
            90.27563795921938,
            -252.02499101066357
          ],
          [
            89.53746623063549,
            -252.02495482700323
          ],
          [
            89.16838036634356,
            -252.02493673517304
          ],
          [
            88.79928843583349,
            -252.20946311248935
          ],
          [
            87.32292071379328,
            -252.94756862175458
          ],
          [
            86.21565098848123,
            -253.316603284557
          ],
          [
            85.47747925989735,
            -253.3165671008967
          ],
          [
            84.5547706653856,
            -253.13197740217478
          ],
          [
            83.44752520494599,
            -252.7628341883913
          ],
          [
            82.70935347636211,
            -252.76279800473094
          ],
          [
            81.78663274941415,
            -252.947297244302
          ],
          [
            81.04846102083026,
            -252.94726106064164
          ],
          [
            80.31029535846449,
            -252.76268040783484
          ],
          [
            79.5721175636625,
            -252.94718869332098
          ],
          [
            78.83394583507861,
            -252.9471525096606
          ],
          [
            78.09576804027661,
            -253.13166079514673
          ],
          [
            77.35760237791084,
            -252.94708014233996
          ],
          [
            76.61943064932696,
            -252.9470439586796
          ],
          [
            75.88125892074306,
            -252.94700777501922
          ],
          [
            75.14308719215919,
            -252.9469715913589
          ],
          [
            74.77399526164913,
            -253.1314979686752
          ],
          [
            74.03582353306524,
            -253.13146178501486
          ],
          [
            73.48218867040922,
            -253.3159791164161
          ],
          [
            73.11309673989918,
            -253.5005054937324
          ],
          [
            72.1903760129512,
            -253.68500473330343
          ],
          [
            71.45220428436731,
            -253.6849685496431
          ],
          [
            70.71403255578343,
            -253.68493236598272
          ],
          [
            69.97586689341766,
            -253.5003517131759
          ],
          [
            69.60678709534383,
            -253.31578915219927
          ],
          [
            68.86861536675995,
            -253.31575296853893
          ],
          [
            68.13044363817606,
            -253.31571678487856
          ],
          [
            67.39227190959218,
            -253.31568060121822
          ],
          [
            66.65410018100829,
            -253.3156444175579
          ],
          [
            65.91592845242441,
            -253.31560823389754
          ],
          [
            64.99320772547644,
            -253.5001074734686
          ],
          [
            63.885938000164394,
            -253.86914213627102
          ],
          [
            62.96321727321642,
            -254.05364137584206
          ],
          [
            62.225045544632536,
            -254.05360519218172
          ],
          [
            61.48687381604865,
            -254.0535690085214
          ],
          [
            60.74870208746477,
            -254.05353282486104
          ],
          [
            60.010530358880885,
            -254.0534966412007
          ],
          [
            59.08780963193291,
            -254.23799588077173
          ],
          [
            58.34963790334903,
            -254.2379596971114
          ],
          [
            57.42692930883729,
            -254.05336999838948
          ],
          [
            56.6887575802534,
            -254.05333381472911
          ],
          [
            55.950585851669516,
            -254.0532976310688
          ],
          [
            55.027877257157776,
            -253.8687079323469
          ],
          [
            54.47424846071986,
            -253.8686807946016
          ],
          [
            54.10516866264603,
            -253.68411823362496
          ],
          [
            53.36699693406215,
            -253.68408204996464
          ],
          [
            52.25972720875009,
            -254.05311671276706
          ],
          [
            51.52155548016621,
            -254.0530805291067
          ],
          [
            50.59883475321825,
            -254.23757976867776
          ],
          [
            49.86066302463436,
            -254.2375435850174
          ],
          [
            48.753417564194756,
            -253.86840037123395
          ],
          [
            47.83072110211923,
            -253.3147217342191
          ]
        ]
      },
      "properties": {
        "type": "variant",
        "id": 2,
        "color": "#4444ff",
        "vzdal_m": 2340,
        "prevyseni_m": 21,
        "cas_s": 662,
        "tempo_str": "4:42"
      }
    },
    {
      "type": "Feature",
      "geometry": {
        "type": "LineString",
        "coordinates": [
          [
            122.38684823122793,
            -229.51213976401823
          ],
          [
            121.46410930562563,
            -230.2502724110287
          ],
          [
            120.91045624431526,
            -230.9884231498694
          ],
          [
            119.803174386567,
            -231.72654675096476
          ],
          [
            119.06497839311068,
            -232.4646884438903
          ],
          [
            118.32677633343623,
            -233.38737460596235
          ],
          [
            117.58858640619802,
            -233.94097182974147
          ],
          [
            116.85039041274167,
            -234.67911352266702
          ],
          [
            116.11219441928536,
            -235.41725521559258
          ],
          [
            115.92763935470316,
            -235.78633510797047
          ],
          [
            115.74308429012096,
            -236.1554150003483
          ],
          [
            115.55852922553878,
            -236.5244948927262
          ],
          [
            114.82033323208243,
            -237.26263658565176
          ],
          [
            114.08213723862612,
            -238.00077827857737
          ],
          [
            113.34394124516977,
            -238.73891997150292
          ],
          [
            112.05211645527554,
            -239.47703452668324
          ],
          [
            111.12938359589134,
            -240.03062270454726
          ],
          [
            110.76029166538129,
            -240.21514908186356
          ],
          [
            110.03284286868175,
            -240.23671858856272
          ],
          [
            108.89641986127457,
            -240.47708752433488
          ],
          [
            108.18016096767957,
            -240.60378115949132
          ],
          [
            107.45064021720975,
            -240.6609376951957
          ],
          [
            106.52389959998834,
            -240.8156012936682
          ],
          [
            105.59938404588623,
            -241.00801461808626
          ],
          [
            104.87201514873486,
            -241.0927529803164
          ],
          [
            103.75085615429924,
            -241.36314010563038
          ],
          [
            103.01721366558145,
            -241.42142680530355
          ],
          [
            101.90219452506601,
            -241.32198169281827
          ],
          [
            100.97944346702748,
            -242.42920327812172
          ],
          [
            100.24124747357116,
            -243.16734497104727
          ],
          [
            99.13396561582287,
            -243.9054685721427
          ],
          [
            98.76488581774905,
            -243.72090601116602
          ],
          [
            98.39580601967522,
            -243.53634345018938
          ],
          [
            97.65763429109134,
            -243.536307266529
          ],
          [
            97.28854236058129,
            -243.7208336438453
          ],
          [
            97.1039872959991,
            -244.0899135362232
          ],
          [
            95.81216857232296,
            -244.64348362225704
          ],
          [
            95.44307664181291,
            -244.82800999957334
          ],
          [
            94.70490491322902,
            -244.82797381591297
          ],
          [
            94.15127611679111,
            -244.82794667816773
          ],
          [
            93.96673318464514,
            -244.82793763225266
          ],
          [
            93.59764125413508,
            -245.01246400956896
          ],
          [
            92.6749023285328,
            -245.75059665657946
          ],
          [
            91.93671846751268,
            -246.11964941121207
          ],
          [
            91.56762653700262,
            -246.30417578852834
          ],
          [
            90.09125881496242,
            -247.04228129779355
          ],
          [
            89.16851988936011,
            -247.78041394480405
          ],
          [
            88.79942795885006,
            -247.96494032212036
          ],
          [
            88.06125623026617,
            -247.96490413846004
          ],
          [
            87.32307843546417,
            -248.14941242394616
          ],
          [
            86.5849127730984,
            -247.9648317711393
          ],
          [
            85.84674104451452,
            -247.964795587479
          ],
          [
            84.37038545491053,
            -248.33381215845125
          ],
          [
            83.0785667312344,
            -248.88738224448508
          ],
          [
            81.78674800755826,
            -249.4409523305189
          ],
          [
            80.31038028551805,
            -250.17905783978415
          ],
          [
            78.83401256347784,
            -250.91716334904936
          ],
          [
            77.72674283816578,
            -251.2861980118518
          ],
          [
            76.80400391256347,
            -252.02433065886225
          ],
          [
            76.6194609804175,
            -252.0243216129472
          ],
          [
            76.25036904990746,
            -252.2088479902635
          ],
          [
            75.14309932459541,
            -252.57788265306596
          ],
          [
            73.66673160255519,
            -253.31598816233117
          ],
          [
            73.48218867040922,
            -253.3159791164161
          ],
          [
            73.11309673989918,
            -253.5005054937324
          ],
          [
            72.1903760129512,
            -253.68500473330343
          ],
          [
            71.45220428436731,
            -253.6849685496431
          ],
          [
            70.71403255578343,
            -253.68493236598272
          ],
          [
            69.97586689341766,
            -253.5003517131759
          ],
          [
            69.60678709534383,
            -253.31578915219927
          ],
          [
            68.86861536675995,
            -253.31575296853893
          ],
          [
            68.13044363817606,
            -253.31571678487856
          ],
          [
            67.39227190959218,
            -253.31568060121822
          ],
          [
            66.65410018100829,
            -253.3156444175579
          ],
          [
            65.91592845242441,
            -253.31560823389754
          ],
          [
            64.99320772547644,
            -253.5001074734686
          ],
          [
            63.885938000164394,
            -253.86914213627102
          ],
          [
            62.96321727321642,
            -254.05364137584206
          ],
          [
            62.225045544632536,
            -254.05360519218172
          ],
          [
            61.48687381604865,
            -254.0535690085214
          ],
          [
            60.74870208746477,
            -254.05353282486104
          ],
          [
            60.010530358880885,
            -254.0534966412007
          ],
          [
            59.08780963193291,
            -254.23799588077173
          ],
          [
            58.34963790334903,
            -254.2379596971114
          ],
          [
            57.42692930883729,
            -254.05336999838948
          ],
          [
            56.6887575802534,
            -254.05333381472911
          ],
          [
            55.950585851669516,
            -254.0532976310688
          ],
          [
            55.027877257157776,
            -253.8687079323469
          ],
          [
            54.47424846071986,
            -253.8686807946016
          ],
          [
            54.10516866264603,
            -253.68411823362496
          ],
          [
            53.36699693406215,
            -253.68408204996464
          ],
          [
            52.25972720875009,
            -254.05311671276706
          ],
          [
            51.52155548016621,
            -254.0530805291067
          ],
          [
            50.59883475321825,
            -254.23757976867776
          ],
          [
            49.86066302463436,
            -254.2375435850174
          ],
          [
            48.753417564194756,
            -253.86840037123395
          ],
          [
            47.83072110211923,
            -253.3147217342191
          ]
        ]
      },
      "properties": {
        "type": "variant",
        "id": 3,
        "color": "#44ff44",
        "vzdal_m": 2261,
        "prevyseni_m": 29,
        "cas_s": 664,
        "tempo_str": "4:53"
      }
    }
  ]
}