{
  "type": "FeatureCollection",
  "features": [
    {
      "type": "Feature",
      "geometry": {
        "type": "Point",
        "coordinates": [
          109.93986821014454,
          -190.411475421719
        ]
      },
      "properties": {
        "type": "start",
        "isom": "204"
      }
    },
    {
      "type": "Feature",
      "geometry": {
        "type": "Point",
        "coordinates": [
          50.12508811486218,
          -178.7774436930198
        ]
      },
      "properties": {
        "type": "end",
        "isom": "419"
      }
    },
    {
      "type": "Feature",
      "geometry": {
        "type": "LineString",
        "coordinates": [
          [
            110.02375781568746,
            -190.388106228654
          ],
          [
            109.83921488354149,
            -190.38809718273893
          ],
          [
            109.65468408383174,
            -190.01899919853088
          ],
          [
            108.91653055390218,
            -189.46532960743107
          ],
          [
            108.54745075582835,
            -189.28076704645446
          ],
          [
            108.1783588253183,
            -189.46529342377076
          ],
          [
            107.80926689480823,
            -189.64981980108706
          ],
          [
            107.07109516622435,
            -189.64978361742672
          ],
          [
            106.88655223407838,
            -189.64977457151164
          ],
          [
            106.51747243600455,
            -189.465212010535
          ],
          [
            105.96384970578475,
            -189.28064040364328
          ],
          [
            105.22567797720087,
            -189.2806042199829
          ],
          [
            104.11840825188881,
            -189.64963888278533
          ],
          [
            103.74931632137877,
            -189.83416526010163
          ],
          [
            102.82660772686701,
            -189.64957556137972
          ],
          [
            101.90389913235528,
            -189.4649858626578
          ],
          [
            101.53481933428144,
            -189.28042330168117
          ],
          [
            100.79664760569756,
            -189.2803871180208
          ],
          [
            100.05847587711368,
            -189.28035093436048
          ],
          [
            99.1357551501657,
            -189.46485017393155
          ],
          [
            98.39758342158181,
            -189.46481399027118
          ],
          [
            97.29033796114221,
            -189.0956707764877
          ],
          [
            95.99855563477476,
            -188.54197404764267
          ],
          [
            95.07586523891734,
            -187.8037509414813
          ],
          [
            93.96863191091396,
            -187.06551878940488
          ],
          [
            93.23048444720253,
            -186.3273047291586
          ],
          [
            92.49233091727298,
            -185.77363513805884
          ],
          [
            92.12325111919914,
            -185.58907257708216
          ],
          [
            91.75417132112531,
            -185.40451001610555
          ],
          [
            91.38509152305149,
            -185.21994745512887
          ],
          [
            90.64693192690382,
            -184.85082233317559
          ],
          [
            90.27785212882999,
            -184.66625977219894
          ],
          [
            89.35514353431824,
            -184.481670073477
          ],
          [
            88.24790414009675,
            -183.92798239054707
          ],
          [
            87.50973241151287,
            -183.92794620688673
          ],
          [
            86.2179500851454,
            -183.3742494780417
          ],
          [
            85.1107046247058,
            -183.00510626425822
          ],
          [
            84.3725268299038,
            -183.18961454974433
          ],
          [
            83.63436116753803,
            -183.00503389693753
          ],
          [
            82.89618943895415,
            -183.00499771327716
          ],
          [
            82.15802377658838,
            -182.82041706047036
          ],
          [
            81.41984598178638,
            -183.00492534595648
          ],
          [
            80.68167425320249,
            -183.00488916229614
          ],
          [
            79.57441666032666,
            -183.0048348868056
          ],
          [
            78.836257064179,
            -182.63570976485232
          ],
          [
            78.09808533559512,
            -182.63567358119198
          ],
          [
            76.99082774271929,
            -182.63561930570145
          ],
          [
            76.06811914820754,
            -182.45102960697955
          ],
          [
            75.1454105536958,
            -182.26643990825764
          ],
          [
            74.22270195918406,
            -182.08185020953573
          ],
          [
            73.48453023060017,
            -182.08181402587536
          ],
          [
            72.56182163608842,
            -181.89722432715348
          ],
          [
            71.63910090914047,
            -182.08172356672452
          ],
          [
            71.08547817892067,
            -181.89715195983277
          ],
          [
            69.7936958525532,
            -181.34345523098773
          ],
          [
            68.31737666025788,
            -180.60520498708112
          ],
          [
            67.39466806574613,
            -180.42061528835922
          ],
          [
            66.65649633716224,
            -180.42057910469887
          ],
          [
            65.91832460857836,
            -180.42054292103853
          ],
          [
            64.87002047416983,
            -180.2359470658815
          ],
          [
            64.07290741955487,
            -180.05136352359472
          ],
          [
            63.33473569097098,
            -180.05132733993437
          ],
          [
            62.596563962387094,
            -180.051291156274
          ],
          [
            61.85839830002132,
            -179.8667105034672
          ],
          [
            61.12022050521932,
            -180.05121878895332
          ],
          [
            60.38204877663544,
            -180.05118260529298
          ],
          [
            59.45932804968748,
            -180.23568184486405
          ],
          [
            58.90570531946767,
            -180.0511102379723
          ],
          [
            57.61392299310022,
            -179.49741350912726
          ],
          [
            56.32214066673275,
            -178.94371678028222
          ],
          [
            55.583968938148864,
            -178.94368059662187
          ],
          [
            54.47671134527304,
            -178.94362632113135
          ],
          [
            53.92308861505324,
            -178.75905471423962
          ],
          [
            53.18491688646935,
            -178.75901853057925
          ],
          [
            52.44675122410357,
            -178.57443787777245
          ],
          [
            51.70857342930158,
            -178.75894616325857
          ],
          [
            50.970401700717694,
            -178.75890997959823
          ],
          [
            50.23222997213381,
            -178.7588737959379
          ],
          [
            50.04768703998784,
            -178.7588647500228
          ]
        ]
      },
      "properties": {
        "type": "variant",
        "id": 1,
        "color": "#ff4444",
        "vzdal_m": 1722,
        "prevyseni_m": 8,
        "cas_s": 472,
        "tempo_str": "4:34"
      }
    },
    {
      "type": "Feature",
      "geometry": {
        "type": "LineString",
        "coordinates": [
          [
            110.02375781568746,
            -190.388106228654
          ],
          [
            110.02376388190557,
            -190.20356175950752
          ],
          [
            109.8392330821958,
            -189.8344637752995
          ],
          [
            109.47018361521255,
            -188.72717886859044
          ],
          [
            109.28567101415713,
            -187.80444747694295
          ],
          [
            109.10114021444738,
            -187.4353494927349
          ],
          [
            109.1011462806655,
            -187.25080502358844
          ],
          [
            108.91661548095573,
            -186.8817070393804
          ],
          [
            108.54754174910002,
            -186.51260000925726
          ],
          [
            107.07122255680471,
            -185.77434976535065
          ],
          [
            106.70214882494898,
            -185.40524273522752
          ],
          [
            106.33306902687514,
            -185.22068017425087
          ],
          [
            105.96398922880131,
            -185.03611761327423
          ],
          [
            104.48767003650597,
            -184.29786736936762
          ],
          [
            103.74951044035832,
            -183.9287422474143
          ],
          [
            103.3804306422845,
            -183.74417968643766
          ],
          [
            101.90411144998919,
            -183.00592944253106
          ],
          [
            100.61233518983983,
            -182.26768824453953
          ],
          [
            99.6896387277643,
            -181.71400960752467
          ],
          [
            98.95147913161662,
            -181.34488448557136
          ],
          [
            97.84423367117702,
            -180.97574127178788
          ],
          [
            96.92151294422906,
            -181.16024051135895
          ],
          [
            96.36789021400926,
            -180.9756689044672
          ],
          [
            95.44518161949752,
            -180.7910792057453
          ],
          [
            94.70700989091362,
            -180.79104302208495
          ],
          [
            93.78430129640189,
            -180.60645332336304
          ],
          [
            93.046129567818,
            -180.6064171397027
          ],
          [
            91.9388841073784,
            -180.23727392591923
          ],
          [
            91.01617551286665,
            -180.05268422719732
          ],
          [
            90.0934669183549,
            -179.8680945284754
          ],
          [
            89.17075832384317,
            -179.6835048297535
          ],
          [
            88.36850645407411,
            -179.4092779028784
          ],
          [
            87.71707801458214,
            -179.54155161864182
          ],
          [
            86.58715120758146,
            -179.86792265608878
          ],
          [
            86.03352241114355,
            -179.86789551834352
          ],
          [
            85.47988754848751,
            -180.0524128497447
          ],
          [
            84.9262587520496,
            -180.05238571199948
          ],
          [
            84.55716682153955,
            -180.23691208931578
          ],
          [
            83.81898902673755,
            -180.42142037480193
          ],
          [
            83.08082336437178,
            -180.23683972199507
          ],
          [
            82.3426516357879,
            -180.23680353833475
          ],
          [
            81.60447990720402,
            -180.23676735467438
          ],
          [
            80.86630817862013,
            -180.23673117101404
          ],
          [
            79.94359958410838,
            -180.05214147229213
          ],
          [
            79.75906271818052,
            -179.86758795723057
          ],
          [
            79.02089098959664,
            -179.86755177357023
          ],
          [
            78.28271926101276,
            -179.86751558990989
          ],
          [
            77.54454753242887,
            -179.86747940624952
          ],
          [
            76.80637580384499,
            -179.8674432225892
          ],
          [
            76.0682040752611,
            -179.86740703892883
          ],
          [
            75.05043306452927,
            -179.42087826587897
          ],
          [
            73.92943059973622,
            -178.48837294802394
          ],
          [
            72.93102275852448,
            -178.39089750520057
          ],
          [
            72.1928510299406,
            -178.3908613215402
          ],
          [
            71.4546793013567,
            -178.39082513787986
          ],
          [
            70.71650757277283,
            -178.39078895421952
          ],
          [
            69.97833584418895,
            -178.39075277055917
          ],
          [
            69.24016411560507,
            -178.3907165868988
          ],
          [
            68.50199238702118,
            -178.3906804032385
          ],
          [
            67.7638206584373,
            -178.39064421957815
          ],
          [
            67.0256489298534,
            -178.39060803591778
          ],
          [
            66.10294033534166,
            -178.20601833719587
          ],
          [
            65.23970305161828,
            -178.0274186680321
          ],
          [
            64.25752314631818,
            -177.83683893975206
          ],
          [
            63.334802419370206,
            -178.0213381793231
          ],
          [
            62.227569091366824,
            -177.28310602724667
          ],
          [
            60.93578676499936,
            -176.72940929840163
          ],
          [
            60.19761503641547,
            -176.7293731147413
          ],
          [
            59.27490037568561,
            -176.72932788516587
          ],
          [
            58.352185714955766,
            -176.72928265559042
          ],
          [
            57.24492205586183,
            -176.91377284924639
          ],
          [
            56.50674426105983,
            -177.09828113473253
          ],
          [
            55.58401746789375,
            -177.46732484345006
          ],
          [
            54.84585180552797,
            -177.28274419064323
          ],
          [
            53.73858208021593,
            -177.65177885344565
          ],
          [
            52.815867419486075,
            -177.65173362387023
          ],
          [
            52.262238623048155,
            -177.65170648612497
          ],
          [
            50.78587090100794,
            -178.3898119953902
          ],
          [
            50.04768703998784,
            -178.7588647500228
          ]
        ]
      },
      "properties": {
        "type": "variant",
        "id": 2,
        "color": "#4444ff",
        "vzdal_m": 1784,
        "prevyseni_m": 6,
        "cas_s": 479,
        "tempo_str": "4:28"
      }
    },
    {
      "type": "Feature",
      "geometry": {
        "type": "LineString",
        "coordinates": [
          [
            110.02375781568746,
            -190.388106228654
          ],
          [
            109.47009262194088,
            -191.49534590578764
          ],
          [
            109.10100069143083,
            -191.67987228310395
          ],
          [
            108.1782981631372,
            -191.31073811523555
          ],
          [
            107.80921836506334,
            -191.1261755542589
          ],
          [
            107.62467543291737,
            -191.1261665083438
          ],
          [
            106.14830771087716,
            -191.86427201760904
          ],
          [
            104.85648898720103,
            -192.41784210364287
          ],
          [
            103.38012126516082,
            -193.1559476129081
          ],
          [
            102.45740053821285,
            -193.34044685247912
          ],
          [
            101.16559394697293,
            -193.52492800022
          ],
          [
            100.24286108758876,
            -194.078516178084
          ],
          [
            99.87376915707871,
            -194.2630425554003
          ],
          [
            99.13559742849482,
            -194.26300637173998
          ],
          [
            97.47468677430862,
            -195.0011028350901
          ],
          [
            96.18286198441439,
            -195.73921739027043
          ],
          [
            94.70649426237418,
            -196.47732289953564
          ],
          [
            93.23012654033396,
            -197.21542840880088
          ],
          [
            92.49194267931385,
            -197.58448116343348
          ],
          [
            92.1228507488038,
            -197.76900754074978
          ],
          [
            91.75375881829375,
            -197.95353391806609
          ],
          [
            90.46193402839951,
            -198.69164847324637
          ],
          [
            89.52787929317209,
            -198.96546341263718
          ],
          [
            88.80254906808783,
            -198.86531844293071
          ],
          [
            88.08230925562081,
            -198.71088608109676
          ],
          [
            87.5148261878925,
            -198.64409473604888
          ],
          [
            86.78196774515389,
            -198.56625224363918
          ],
          [
            86.02799590523904,
            -198.57846649578818
          ],
          [
            85.29121590049765,
            -198.6104645146658
          ],
          [
            84.58708023177209,
            -198.5336991308449
          ],
          [
            84.37704301735397,
            -198.50812864119672
          ],
          [
            84.00318214292973,
            -198.49786745707266
          ],
          [
            83.26544964464445,
            -198.47806665356234
          ],
          [
            82.57455600520575,
            -198.38754783653368
          ],
          [
            82.16830385644705,
            -198.326506551779
          ],
          [
            81.78940408113142,
            -198.30414836066376
          ],
          [
            80.85821474057637,
            -198.16325208671435
          ],
          [
            79.33880454645353,
            -197.49570554215896
          ],
          [
            78.07556189062257,
            -196.68714255872038
          ],
          [
            77.30716956065432,
            -195.94408633728247
          ],
          [
            76.8169255342399,
            -195.35217362004826
          ],
          [
            75.93182178256929,
            -194.73635567819917
          ],
          [
            75.56515589306963,
            -194.51368534603898
          ],
          [
            75.10424076405701,
            -194.30237762282718
          ],
          [
            74.27460479507432,
            -193.4708295476495
          ],
          [
            73.44746793930602,
            -192.82944260700563
          ],
          [
            72.64643901789044,
            -192.16782992175203
          ],
          [
            71.59366666502238,
            -191.36904050622354
          ],
          [
            70.51793597058345,
            -190.59199256396366
          ],
          [
            69.52624456800918,
            -189.9634901023388
          ],
          [
            68.26724154548899,
            -189.1754913755376
          ],
          [
            67.13369458214859,
            -188.48153349157943
          ],
          [
            65.85563304421729,
            -187.74568645230588
          ],
          [
            64.58964160199896,
            -186.93282380730935
          ],
          [
            64.44015054642028,
            -185.96254809277036
          ],
          [
            64.07272543301153,
            -185.58769759798906
          ],
          [
            63.70364563493769,
            -185.40313503701242
          ],
          [
            62.780937040425954,
            -185.2185453382905
          ],
          [
            61.30461784813063,
            -184.4802950943839
          ],
          [
            60.01284158798128,
            -183.74205389639238
          ],
          [
            58.905608259977896,
            -183.00382174431596
          ],
          [
            57.429289067682575,
            -182.26557150040935
          ],
          [
            55.95296987538725,
            -181.52732125650274
          ],
          [
            54.29210168472784,
            -180.97360643582755
          ],
          [
            53.000331490796604,
            -180.05082076868953
          ],
          [
            51.524012298501276,
            -179.31257052478293
          ],
          [
            50.41676683806167,
            -178.94342731099945
          ],
          [
            50.04768703998784,
            -178.7588647500228
          ]
        ]
      },
      "properties": {
        "type": "variant",
        "id": 3,
        "color": "#44ff44",
        "vzdal_m": 1867,
        "prevyseni_m": 12,
        "cas_s": 493,
        "tempo_str": "4:23"
      }
    }
  ]
}