{
  "type": "FeatureCollection",
  "features": [
    {
      "type": "Feature",
      "geometry": {
        "type": "Point",
        "coordinates": [
          153.33814354074752,
          -248.4074377197876
        ]
      },
      "properties": {
        "type": "start",
        "isom": "419"
      }
    },
    {
      "type": "Feature",
      "geometry": {
        "type": "Point",
        "coordinates": [
          92.59647025988497,
          -217.92435753663614
        ]
      },
      "properties": {
        "type": "end",
        "isom": "204"
      }
    },
    {
      "type": "Feature",
      "geometry": {
        "type": "LineString",
        "coordinates": [
          [
            153.35817994506752,
            -248.42503426898645
          ],
          [
            153.17366127779397,
            -247.68684734648548
          ],
          [
            152.80458147972016,
            -247.50228478550883
          ],
          [
            152.06640975113626,
            -247.50224860184846
          ],
          [
            151.32823802255237,
            -247.50221241818815
          ],
          [
            150.5900662939685,
            -247.50217623452778
          ],
          [
            149.8518945653846,
            -247.50214005086744
          ],
          [
            149.11372283680072,
            -247.50210386720713
          ],
          [
            148.37555110821685,
            -247.50206768354676
          ],
          [
            147.63737937963296,
            -247.5020314998864
          ],
          [
            146.89921371726717,
            -247.31745084707958
          ],
          [
            146.53013391919336,
            -247.1328882861029
          ],
          [
            146.1610480549014,
            -247.13287019427278
          ],
          [
            145.23832126173534,
            -247.50191390299028
          ],
          [
            144.31561266722358,
            -247.31732420426837
          ],
          [
            143.57744700485782,
            -247.13274355146157
          ],
          [
            142.47020761063632,
            -246.5790558685316
          ],
          [
            141.5474990161246,
            -246.3944661698097
          ],
          [
            140.8093272875407,
            -246.39442998614933
          ],
          [
            140.07115555895683,
            -246.394393802489
          ],
          [
            138.5948363666615,
            -245.65614355858241
          ],
          [
            138.22575656858766,
            -245.47158099760574
          ],
          [
            138.04121363644168,
            -245.47157195169066
          ],
          [
            137.67213383836787,
            -245.28700939071402
          ],
          [
            137.11850504192995,
            -245.28698225296873
          ],
          [
            136.7494252438561,
            -245.1024196919921
          ],
          [
            136.01125351527224,
            -245.10238350833177
          ],
          [
            135.6421737171984,
            -244.9178209473551
          ],
          [
            134.5349343229769,
            -244.36413326442513
          ],
          [
            133.42770099497352,
            -243.6259011123487
          ],
          [
            132.32046766697013,
            -242.88766896027226
          ],
          [
            131.39777727111274,
            -242.14944585411095
          ],
          [
            130.65962980740127,
            -241.41123179386466
          ],
          [
            130.47509294147343,
            -241.22667827880312
          ],
          [
            130.29056214176367,
            -240.8575802945951
          ],
          [
            130.1060313420539,
            -240.48848231038704
          ],
          [
            129.3678838783425,
            -239.75026825014075
          ],
          [
            128.44519348248508,
            -239.0120451439794
          ],
          [
            127.70703388633741,
            -238.64292002202612
          ],
          [
            126.41525762618808,
            -237.9046788240346
          ],
          [
            125.30802429818468,
            -237.16644667195817
          ],
          [
            124.01624803803534,
            -236.42820547396667
          ],
          [
            123.46263744025175,
            -235.87454492878197
          ],
          [
            122.88702460767522,
            -235.9431542161245
          ],
          [
            121.43269551773663,
            -234.95172307798364
          ],
          [
            120.69457231889763,
            -233.47533114115146
          ],
          [
            119.9564248551862,
            -232.73711708090516
          ],
          [
            119.03374052554689,
            -231.81434950559736
          ],
          [
            119.21831378878343,
            -230.8916362057801
          ],
          [
            119.21833805365587,
            -230.15345832919417
          ],
          [
            119.21836231852832,
            -229.41528045260824
          ],
          [
            118.84931285154504,
            -228.3079955458992
          ],
          [
            117.37298152681348,
            -227.93883424028553
          ],
          [
            116.45028506473797,
            -227.38515560327068
          ],
          [
            115.71211333615408,
            -227.3851194196103
          ],
          [
            114.9739416075702,
            -227.38508323595
          ],
          [
            114.2357698789863,
            -227.38504705228965
          ],
          [
            112.759450686691,
            -226.64679680838304
          ],
          [
            111.28313149439566,
            -225.90854656447644
          ],
          [
            109.80681230210035,
            -225.17029632056983
          ],
          [
            108.33049310980502,
            -224.43204607666323
          ],
          [
            107.03871684965567,
            -223.6938048786717
          ],
          [
            105.74693452328819,
            -223.14010814982666
          ],
          [
            104.27061533099288,
            -222.40185790592008
          ],
          [
            102.97883907084352,
            -221.66361670792855
          ],
          [
            102.24069160713209,
            -220.9254026476823
          ],
          [
            100.76437241483676,
            -220.18715240377566
          ],
          [
            100.39529261676293,
            -220.00258984279904
          ],
          [
            98.9189734244676,
            -219.26433959889243
          ],
          [
            97.811727964028,
            -218.89519638510896
          ],
          [
            96.88901936951625,
            -218.71060668638702
          ],
          [
            95.96629864256828,
            -218.8951059259581
          ],
          [
            95.41267591234848,
            -218.71053431906637
          ],
          [
            94.12089358598102,
            -218.15683759022133
          ],
          [
            93.38272185739713,
            -218.15680140656096
          ],
          [
            92.64455619503136,
            -217.97222075375416
          ]
        ]
      },
      "properties": {
        "type": "variant",
        "id": 1,
        "color": "#ff4444",
        "vzdal_m": 1978,
        "prevyseni_m": 118,
        "cas_s": 700,
        "tempo_str": "5:53"
      }
    },
    {
      "type": "Feature",
      "geometry": {
        "type": "LineString",
        "coordinates": [
          [
            153.35817994506752,
            -248.42503426898645
          ],
          [
            153.35820420993994,
            -247.68685639240056
          ],
          [
            153.54275927452215,
            -247.3177765000227
          ],
          [
            153.72731433910434,
            -246.94869660764482
          ],
          [
            153.91186940368655,
            -246.57961671526695
          ],
          [
            153.91189366855897,
            -245.84143883868106
          ],
          [
            153.9119058009952,
            -245.47234990038808
          ],
          [
            154.14101815552579,
            -245.0462336782064
          ],
          [
            153.22835298165546,
            -244.05696773009637
          ],
          [
            152.6760847955222,
            -242.8871958294602
          ],
          [
            152.38421008965273,
            -242.0758911890614
          ],
          [
            152.18086031899094,
            -241.71626826171402
          ],
          [
            151.976878211672,
            -241.35825278405167
          ],
          [
            151.85227240162106,
            -241.13955316774113
          ],
          [
            151.58402827933008,
            -240.78585034721408
          ],
          [
            151.17868734735697,
            -240.4285125558049
          ],
          [
            150.46269576533803,
            -240.02048630985502
          ],
          [
            150.10325413267392,
            -239.81726097164642
          ],
          [
            149.74384904492578,
            -239.61546667256903
          ],
          [
            149.29549743344387,
            -239.45676079345156
          ],
          [
            147.9935640199186,
            -239.04234952937665
          ],
          [
            146.62337586824975,
            -238.38342365685872
          ],
          [
            145.69914665475233,
            -237.58142527641047
          ],
          [
            145.3477852322582,
            -236.91418131061974
          ],
          [
            145.12899182345654,
            -236.56665413402516
          ],
          [
            144.99340154194567,
            -236.3512851795158
          ],
          [
            144.7730984909983,
            -236.0040220623224
          ],
          [
            144.55249934288884,
            -235.6579129554408
          ],
          [
            144.23697705653038,
            -235.3732608810586
          ],
          [
            143.79857700849243,
            -235.19587221329505
          ],
          [
            143.6280957579944,
            -235.1469042685415
          ],
          [
            143.23728853685307,
            -235.0357695952895
          ],
          [
            143.06624347855765,
            -234.98771400243388
          ],
          [
            142.676106997277,
            -234.87810405468448
          ],
          [
            141.9071898424186,
            -234.87290693105592
          ],
          [
            140.59654343530318,
            -234.4978101862946
          ],
          [
            139.2735360900156,
            -233.9621668495174
          ],
          [
            138.35677962378975,
            -233.31941311765124
          ],
          [
            137.7874553131227,
            -232.22067907092892
          ],
          [
            137.43917309692964,
            -231.55439013271018
          ],
          [
            137.2371186087315,
            -231.195148264156
          ],
          [
            136.19628781108523,
            -230.15429055338208
          ],
          [
            135.27357921657347,
            -229.96970085466018
          ],
          [
            134.35087062206173,
            -229.78511115593827
          ],
          [
            133.2436130291859,
            -229.78505688044774
          ],
          [
            132.32092263332848,
            -229.0468337742864
          ],
          [
            131.58277516961707,
            -228.30861971404016
          ],
          [
            130.8446277059056,
            -227.5704056537939
          ],
          [
            129.88567968044677,
            -226.55968195568215
          ],
          [
            128.99923478175455,
            -226.46304837976413
          ],
          [
            128.63015498368074,
            -226.27848581878752
          ],
          [
            127.8920075199693,
            -225.54027175854125
          ],
          [
            126.78477419196591,
            -224.8020396064648
          ],
          [
            126.41569439389208,
            -224.61747704548813
          ],
          [
            126.04661459581826,
            -224.4329144845115
          ],
          [
            125.67753479774443,
            -224.24835192353487
          ],
          [
            125.3084549996706,
            -224.06378936255823
          ],
          [
            125.12391813374272,
            -223.87923584749663
          ],
          [
            124.7548383356689,
            -223.69467328652001
          ],
          [
            124.38574640515883,
            -223.87919966383632
          ],
          [
            123.46301354577466,
            -224.43278784170033
          ],
          [
            122.54031101748103,
            -224.0636536738319
          ],
          [
            121.80213928889714,
            -224.0636174901716
          ],
          [
            121.06396756031326,
            -224.06358130651122
          ],
          [
            120.32579583172937,
            -224.06354512285088
          ],
          [
            119.58762410314549,
            -224.0635089391905
          ],
          [
            119.21854430507163,
            -223.8789463782139
          ],
          [
            119.03400137292567,
            -223.8789373322988
          ],
          [
            118.66492157485185,
            -223.69437477132212
          ],
          [
            118.2958357105599,
            -223.69435667949196
          ],
          [
            117.37312711604815,
            -223.50976698077005
          ],
          [
            116.63495538746427,
            -223.50973079710974
          ],
          [
            115.71224679295253,
            -223.3251410983878
          ],
          [
            114.78955033087702,
            -222.77146246137292
          ],
          [
            114.05139680094744,
            -222.21779287027317
          ],
          [
            113.31322507236357,
            -222.21775668661283
          ],
          [
            113.12868214021759,
            -222.21774764069772
          ],
          [
            112.75959020970755,
            -222.40227401801405
          ],
          [
            112.3904982791975,
            -222.58680039533036
          ],
          [
            111.65231441817738,
            -222.95585314996296
          ],
          [
            110.9141426895935,
            -222.9558169663026
          ],
          [
            110.54506289151968,
            -222.77125440532595
          ],
          [
            110.17598309344585,
            -222.58669184434928
          ],
          [
            109.80690936159012,
            -222.2175848142262
          ],
          [
            109.43782956351629,
            -222.03302225324953
          ],
          [
            108.8842128995146,
            -221.6639061772113
          ],
          [
            108.69966996736862,
            -221.6638971312962
          ],
          [
            108.14604723714882,
            -221.4793255244045
          ],
          [
            107.776967439075,
            -221.29476296342784
          ],
          [
            106.85425277834514,
            -221.29471773385242
          ],
          [
            105.93152598517906,
            -221.66376144256995
          ],
          [
            105.19335425659517,
            -221.66372525890958
          ],
          [
            104.45518252801129,
            -221.66368907524924
          ],
          [
            103.16340020164384,
            -221.1099923464042
          ],
          [
            102.24069160713209,
            -220.9254026476823
          ],
          [
            100.76437241483676,
            -220.18715240377566
          ],
          [
            100.39529261676293,
            -220.00258984279904
          ],
          [
            98.9189734244676,
            -219.26433959889243
          ],
          [
            97.811727964028,
            -218.89519638510896
          ],
          [
            96.88901936951625,
            -218.71060668638702
          ],
          [
            95.96629864256828,
            -218.8951059259581
          ],
          [
            95.41267591234848,
            -218.71053431906637
          ],
          [
            94.12089358598102,
            -218.15683759022133
          ],
          [
            93.38272185739713,
            -218.15680140656096
          ],
          [
            92.64455619503136,
            -217.97222075375416
          ]
        ]
      },
      "properties": {
        "type": "variant",
        "id": 2,
        "color": "#4444ff",
        "vzdal_m": 2056,
        "prevyseni_m": 114,
        "cas_s": 750,
        "tempo_str": "6:04"
      }
    },
    {
      "type": "Feature",
      "geometry": {
        "type": "LineString",
        "coordinates": [
          [
            153.35817994506752,
            -248.42503426898645
          ],
          [
            153.17366127779397,
            -247.68684734648548
          ],
          [
            152.80458147972016,
            -247.50228478550883
          ],
          [
            152.06640975113626,
            -247.50224860184846
          ],
          [
            151.32823802255237,
            -247.50221241818815
          ],
          [
            150.5900662939685,
            -247.50217623452778
          ],
          [
            149.8518945653846,
            -247.50214005086744
          ],
          [
            149.11372283680072,
            -247.50210386720713
          ],
          [
            148.37555110821685,
            -247.50206768354676
          ],
          [
            147.63737937963296,
            -247.5020314998864
          ],
          [
            146.89921371726717,
            -247.31745084707958
          ],
          [
            146.53013391919336,
            -247.1328882861029
          ],
          [
            146.1610480549014,
            -247.13287019427278
          ],
          [
            144.86922933122528,
            -247.6864402803066
          ],
          [
            143.39286160918508,
            -248.42454578957182
          ],
          [
            143.02378181111123,
            -248.23998322859515
          ],
          [
            141.7319994847438,
            -247.6862864997501
          ],
          [
            140.25568029244846,
            -246.94803625584353
          ],
          [
            139.14844696444507,
            -246.20980410376708
          ],
          [
            138.77937323258934,
            -245.84069707364395
          ],
          [
            138.41029343451552,
            -245.65613451266728
          ],
          [
            138.04121363644168,
            -245.47157195169066
          ],
          [
            137.67213383836787,
            -245.28700939071402
          ],
          [
            137.11850504192995,
            -245.28698225296873
          ],
          [
            136.7494252438561,
            -245.1024196919921
          ],
          [
            136.01125351527224,
            -245.10238350833177
          ],
          [
            135.6421737171984,
            -244.9178209473551
          ],
          [
            134.5349343229769,
            -244.36413326442513
          ],
          [
            133.42770099497352,
            -243.6259011123487
          ],
          [
            132.68954139882584,
            -243.25677599039543
          ],
          [
            132.32046160075203,
            -243.07221342941875
          ],
          [
            131.95138180267818,
            -242.8876508684421
          ],
          [
            131.21321007409432,
            -242.8876146847818
          ],
          [
            130.47503834551043,
            -242.88757850112142
          ],
          [
            130.1059585474366,
            -242.70301594014478
          ],
          [
            129.9214156152906,
            -242.7030068942297
          ],
          [
            128.814170154851,
            -242.3338636804462
          ],
          [
            127.33785096255569,
            -241.59561343653962
          ],
          [
            126.04607470240634,
            -240.8573722385481
          ],
          [
            125.12338430654893,
            -240.11914913238672
          ],
          [
            123.64706511425362,
            -239.38089888848015
          ],
          [
            122.35527065544993,
            -239.19629109792805
          ],
          [
            121.2480130625741,
            -239.19623682243753
          ],
          [
            120.75588134808292,
            -238.9155009926798
          ],
          [
            120.16659316171601,
            -239.76463746424685
          ],
          [
            120.08687777265119,
            -239.97547434921105
          ],
          [
            119.58710847460603,
            -239.74978881664117
          ],
          [
            118.66437561522184,
            -240.3033769945052
          ],
          [
            117.74164275583765,
            -240.8569651723692
          ],
          [
            116.81894629376212,
            -240.30328653535435
          ],
          [
            115.89624983168659,
            -239.7496078983395
          ],
          [
            115.52717003361276,
            -239.56504533736282
          ],
          [
            114.60448570397347,
            -238.64227776205502
          ],
          [
            114.6045039026278,
            -238.08864435461558
          ],
          [
            113.49724630975197,
            -238.08859007912503
          ],
          [
            113.312703377606,
            -238.08858103320998
          ],
          [
            112.94361144709595,
            -238.27310741052628
          ],
          [
            112.02089072014797,
            -238.45760665009732
          ],
          [
            110.91363312727215,
            -238.4575523746068
          ],
          [
            110.17546139868827,
            -238.45751619094642
          ],
          [
            109.9909184665423,
            -238.45750714503137
          ],
          [
            109.62183866846847,
            -238.2729445840547
          ],
          [
            109.4373018025406,
            -238.08839106899316
          ],
          [
            108.14552554239127,
            -237.35014987100163
          ],
          [
            107.40737807867981,
            -236.61193581075537
          ],
          [
            107.22284121275196,
            -236.42738229569383
          ],
          [
            106.85376141467813,
            -236.24281973471716
          ],
          [
            105.93107101882072,
            -235.50459662855582
          ],
          [
            105.19292355510929,
            -234.76638256830955
          ],
          [
            104.27022709303375,
            -234.2127039312947
          ],
          [
            103.53207962932233,
            -233.47448987104843
          ],
          [
            102.79393216561087,
            -232.73627581080217
          ],
          [
            101.6866988376075,
            -231.99804365872575
          ],
          [
            100.21037964531216,
            -231.25979341481911
          ],
          [
            98.91860338516283,
            -230.52155221682762
          ],
          [
            98.18047412010571,
            -229.2297047491419
          ],
          [
            97.4423387888305,
            -228.1224017506027
          ],
          [
            96.88876458835558,
            -226.4614743905391
          ],
          [
            96.1506413895166,
            -224.98508245370698
          ],
          [
            95.96612878846118,
            -224.06235106205946
          ],
          [
            95.04345659125809,
            -222.77049454845871
          ],
          [
            94.67441925671105,
            -221.29412070345668
          ],
          [
            94.30536978972776,
            -220.18683579674766
          ],
          [
            93.56723445845255,
            -219.07953279820848
          ],
          [
            92.82908699474112,
            -218.34131873796218
          ],
          [
            92.64455619503136,
            -217.97222075375416
          ]
        ]
      },
      "properties": {
        "type": "variant",
        "id": 3,
        "color": "#44ff44",
        "vzdal_m": 2081,
        "prevyseni_m": 107,
        "cas_s": 707,
        "tempo_str": "5:39"
      }
    }
  ]
}