{
  "type": "FeatureCollection",
  "features": [
    {
      "type": "Feature",
      "geometry": {
        "type": "Point",
        "coordinates": [
          26.033592433097787,
          -108.45368800005052
        ]
      },
      "properties": {
        "type": "start",
        "isom": "531"
      }
    },
    {
      "type": "Feature",
      "geometry": {
        "type": "Point",
        "coordinates": [
          29.677717153212843,
          -126.65179678372908
        ]
      },
      "properties": {
        "type": "end",
        "isom": "419"
      }
    },
    {
      "type": "Feature",
      "geometry": {
        "type": "LineString",
        "coordinates": [
          [
            26.022573760117787,
            -108.43148177255375
          ],
          [
            26.39163535953727,
            -109.16967774248236
          ],
          [
            26.48388862695592,
            -109.72331567357502
          ],
          [
            26.207052996973616,
            -110.3692077466127
          ],
          [
            26.483849196538227,
            -110.92285472405915
          ],
          [
            26.576114596393097,
            -111.10740371654131
          ],
          [
            26.94518832824879,
            -111.47651074785944
          ],
          [
            27.037450694994607,
            -111.75333197499423
          ],
          [
            27.129716094849478,
            -111.93788096747639
          ],
          [
            27.12970396241326,
            -112.30696990608689
          ],
          [
            27.129691829977048,
            -112.67605884469738
          ],
          [
            26.945130699176772,
            -113.22968320625932
          ],
          [
            26.76057260148555,
            -113.69103533316863
          ],
          [
            26.760560469049338,
            -114.06012427177913
          ],
          [
            26.94508520254097,
            -114.61376672604871
          ],
          [
            27.31414680196045,
            -115.35196269597732
          ],
          [
            27.590939968416002,
            -115.99788190807642
          ],
          [
            27.77546470190764,
            -116.55152436234599
          ],
          [
            27.775452569471422,
            -116.92061330095649
          ],
          [
            27.86770886999913,
            -117.38197899739653
          ],
          [
            27.86769673756292,
            -117.75106793600702
          ],
          [
            27.959953038090628,
            -118.21243363244706
          ],
          [
            27.95994697187252,
            -118.39697810175231
          ],
          [
            27.775385841072247,
            -118.95060246331424
          ],
          [
            27.867642141599955,
            -119.41196815975428
          ],
          [
            28.144435308055513,
            -120.05788737185338
          ],
          [
            28.328960041547145,
            -120.61152982612293
          ],
          [
            28.605753208002703,
            -121.25744903822203
          ],
          [
            28.605741075566485,
            -121.62653797683254
          ],
          [
            28.790265809058123,
            -122.1801804311021
          ],
          [
            29.159327408477598,
            -122.91837640103071
          ],
          [
            29.52838900789708,
            -123.65657237095935
          ],
          [
            29.712913741388714,
            -124.21021482522892
          ],
          [
            29.805179141243585,
            -124.39476381771108
          ],
          [
            29.897444541098455,
            -124.57931281019323
          ],
          [
            29.805157909480208,
            -125.04066946027945
          ],
          [
            29.805151843262102,
            -125.2252139295847
          ],
          [
            29.620590712461823,
            -125.77883829114664
          ],
          [
            29.62057858002561,
            -126.14792722975714
          ],
          [
            29.71283488055332,
            -126.60929292619717
          ]
        ]
      },
      "properties": {
        "type": "variant",
        "id": 1,
        "color": "#ff4444",
        "vzdal_m": 1051,
        "prevyseni_m": 0,
        "cas_s": 281,
        "tempo_str": "4:27"
      }
    },
    {
      "type": "Feature",
      "geometry": {
        "type": "LineString",
        "coordinates": [
          [
            26.022573760117787,
            -108.43148177255375
          ],
          [
            26.39163535953727,
            -109.16967774248236
          ],
          [
            26.57616312613795,
            -109.6310479620993
          ],
          [
            26.852971458138775,
            -109.81560600093528
          ],
          [
            27.314322722285553,
            -110.00017308612505
          ],
          [
            27.68339038792314,
            -110.55382458674843
          ],
          [
            28.052464119778836,
            -110.92293161806656
          ],
          [
            28.144729519633703,
            -111.10748061054872
          ],
          [
            28.23698582016141,
            -111.56884630698873
          ],
          [
            28.421510553653047,
            -112.1224887612583
          ],
          [
            28.51377292039886,
            -112.39930998839309
          ],
          [
            28.513769887289808,
            -112.49158222304571
          ],
          [
            28.606035287144678,
            -112.67613121552787
          ],
          [
            28.97509688656416,
            -113.4143271854565
          ],
          [
            29.159630719382953,
            -113.69115293576817
          ],
          [
            29.7132473833846,
            -114.06026901344012
          ],
          [
            30.082312015913136,
            -114.7061927487161
          ],
          [
            30.26684584873193,
            -114.9830184990278
          ],
          [
            30.35911428169585,
            -115.07529525685733
          ],
          [
            30.35910518236869,
            -115.35211196081521
          ],
          [
            29.989995053204353,
            -116.09027174532861
          ],
          [
            29.89770842158611,
            -116.55162839541482
          ],
          [
            29.8976962891499,
            -116.92071733402533
          ],
          [
            29.989952589677607,
            -117.38208303046535
          ],
          [
            29.98994045724139,
            -117.75117196907586
          ],
          [
            29.989928324805177,
            -118.12026090768636
          ],
          [
            30.082184625332886,
            -118.58162660412637
          ],
          [
            30.174440925860594,
            -119.04299230056641
          ],
          [
            30.174428793424383,
            -119.41208123917691
          ],
          [
            30.174416660988165,
            -119.78117017778742
          ],
          [
            30.082123963151812,
            -120.42707129717888
          ],
          [
            30.0821118307156,
            -120.79616023578939
          ],
          [
            30.08209969827939,
            -121.16524917439989
          ],
          [
            30.174355998807098,
            -121.62661487083992
          ],
          [
            30.174343866370887,
            -121.99570380945042
          ],
          [
            30.174331733934668,
            -122.36479274806092
          ],
          [
            30.174319601498453,
            -122.73388168667142
          ],
          [
            30.08203296988021,
            -123.19523833675764
          ],
          [
            30.082020837443995,
            -123.56432727536814
          ],
          [
            30.08200870500778,
            -123.93341621397865
          ],
          [
            30.08199657257157,
            -124.30250515258915
          ],
          [
            29.897435441771293,
            -124.8561295141511
          ],
          [
            29.805151843262102,
            -125.2252139295847
          ],
          [
            29.620590712461823,
            -125.77883829114664
          ],
          [
            29.62057858002561,
            -126.14792722975714
          ],
          [
            29.71283488055332,
            -126.60929292619717
          ]
        ]
      },
      "properties": {
        "type": "variant",
        "id": 2,
        "color": "#4444ff",
        "vzdal_m": 1083,
        "prevyseni_m": 5,
        "cas_s": 292,
        "tempo_str": "4:29"
      }
    },
    {
      "type": "Feature",
      "geometry": {
        "type": "LineString",
        "coordinates": [
          [
            26.022573760117787,
            -108.43148177255375
          ],
          [
            25.83801262931751,
            -108.98510613411568
          ],
          [
            25.745725997699264,
            -109.4464627842019
          ],
          [
            25.745713865263053,
            -109.8155517228124
          ],
          [
            25.65342723364481,
            -110.27690837289862
          ],
          [
            25.56114363513562,
            -110.64599278833222
          ],
          [
            25.192045638407492,
            -111.0150636342351
          ],
          [
            24.91521910775235,
            -111.38413900331489
          ],
          [
            24.91520697531614,
            -111.75322794192539
          ],
          [
            24.915197875988977,
            -112.03004464588327
          ],
          [
            24.915185743552758,
            -112.39913358449377
          ],
          [
            24.915173611116547,
            -112.76822252310427
          ],
          [
            25.007429911644255,
            -113.2295882195443
          ],
          [
            25.007417779208044,
            -113.5986771581548
          ],
          [
            25.007408679880882,
            -113.87549386211268
          ],
          [
            24.915122048262635,
            -114.3368505121989
          ],
          [
            24.91510991582642,
            -114.7059394508094
          ],
          [
            24.91509778339021,
            -115.0750283894199
          ],
          [
            24.91508565095399,
            -115.4441173280304
          ],
          [
            24.91507351851778,
            -115.8132062666409
          ],
          [
            25.007329819045488,
            -116.27457196308094
          ],
          [
            25.099586119573196,
            -116.73593765952097
          ],
          [
            24.82275048959089,
            -117.38182973255863
          ],
          [
            25.09954365604645,
            -118.02774894465773
          ],
          [
            25.468617387902146,
            -118.39685597597587
          ],
          [
            25.837678987321624,
            -119.13505194590448
          ],
          [
            25.929935287849336,
            -119.5964176423445
          ],
          [
            26.022191588377044,
            -120.05778333878455
          ],
          [
            26.206716321868676,
            -120.61142579305411
          ],
          [
            26.575787020615316,
            -121.07280505902484
          ],
          [
            26.94485771936196,
            -121.5341843249956
          ],
          [
            27.313925384999543,
            -122.08783582561897
          ],
          [
            27.5907185514551,
            -122.73375503771807
          ],
          [
            27.68297485198281,
            -123.19512073415811
          ],
          [
            27.959771051547413,
            -123.74876771160459
          ],
          [
            28.328841750294057,
            -124.21014697757532
          ],
          [
            28.69791548214975,
            -124.57925400889346
          ],
          [
            28.974714714823417,
            -125.04062875168731
          ],
          [
            29.066971015351125,
            -125.50199444812733
          ],
          [
            29.159236415205996,
            -125.68654344060947
          ],
          [
            29.528307113952632,
            -126.14792270658023
          ],
          [
            29.71283488055332,
            -126.60929292619717
          ]
        ]
      },
      "properties": {
        "type": "variant",
        "id": 3,
        "color": "#44ff44",
        "vzdal_m": 1083,
        "prevyseni_m": 0,
        "cas_s": 296,
        "tempo_str": "4:33"
      }
    }
  ]
}