{
  "type": "FeatureCollection",
  "features": [
    {
      "type": "Feature",
      "geometry": {
        "type": "Point",
        "coordinates": [
          114.70236557738606,
          -154.6156154347706
        ]
      },
      "properties": {
        "type": "start",
        "isom": "419"
      }
    },
    {
      "type": "Feature",
      "geometry": {
        "type": "Point",
        "coordinates": [
          121.17973328883956,
          -191.01437682830215
        ]
      },
      "properties": {
        "type": "end",
        "isom": "204"
      }
    },
    {
      "type": "Feature",
      "geometry": {
        "type": "LineString",
        "coordinates": [
          [
            114.79178876536007,
            -154.6745533463224
          ],
          [
            115.34536296583498,
            -156.33548070638594
          ],
          [
            116.26804122925617,
            -157.44279275084023
          ],
          [
            116.82163362838543,
            -158.55008670346436
          ],
          [
            116.82162149594919,
            -158.91917564175733
          ],
          [
            117.00615229565894,
            -159.2882736259654
          ],
          [
            117.0061280307865,
            -160.02645150255128
          ],
          [
            117.19065883049625,
            -160.39554948675934
          ],
          [
            117.37517143155166,
            -161.31828087840682
          ],
          [
            118.11329463039066,
            -162.79467281523898
          ],
          [
            118.85144209410208,
            -163.53288687548525
          ],
          [
            119.58959562403165,
            -164.08655646658502
          ],
          [
            119.95866935588737,
            -164.45566349670815
          ],
          [
            120.51226175501661,
            -165.56295744933226
          ],
          [
            120.69679255472636,
            -165.9320554335403
          ],
          [
            120.8813233544361,
            -166.30115341774837
          ],
          [
            120.88131122199987,
            -166.6702423560413
          ],
          [
            121.06584202170964,
            -167.03934034024937
          ],
          [
            121.25037282141938,
            -167.40843832445742
          ],
          [
            121.25034855654694,
            -168.14661620104332
          ],
          [
            121.6193980235302,
            -169.25390110775237
          ],
          [
            121.61936162622153,
            -170.36116792263124
          ],
          [
            121.98842322564104,
            -171.09936389104732
          ],
          [
            121.98839896076859,
            -171.83754176763324
          ],
          [
            122.54198529367973,
            -173.12938018940386
          ],
          [
            122.91102262822677,
            -174.60575403440583
          ],
          [
            123.46462109357414,
            -175.5285035178835
          ],
          [
            123.4645907624836,
            -176.4512258636159
          ],
          [
            123.46457256382925,
            -177.00485927105532
          ],
          [
            123.09546243466487,
            -177.74301905581106
          ],
          [
            122.91090737008267,
            -178.11209894818893
          ],
          [
            122.91088310521022,
            -178.85027682477482
          ],
          [
            122.72632804062803,
            -179.21935671715272
          ],
          [
            122.91085884033778,
            -179.58845470136075
          ],
          [
            122.91083457546532,
            -180.32663257794667
          ],
          [
            122.91081031059288,
            -181.0648104545326
          ],
          [
            122.91078604572046,
            -181.80298833111848
          ],
          [
            122.72621884870202,
            -182.54115716178933
          ],
          [
            122.91073751597555,
            -183.27934408429033
          ],
          [
            122.9107132511031,
            -184.01752196087622
          ],
          [
            122.91068898623067,
            -184.75569983746215
          ],
          [
            122.72611572299412,
            -185.67841313727948
          ],
          [
            122.91062832404954,
            -186.60114452892694
          ],
          [
            122.72605506081302,
            -187.52385782874427
          ],
          [
            122.35693279921242,
            -188.63110655179295
          ],
          [
            121.80325547302961,
            -190.10743516721956
          ],
          [
            121.24959634550113,
            -191.03013037520665
          ]
        ]
      },
      "properties": {
        "type": "variant",
        "id": 1,
        "color": "#ff4444",
        "vzdal_m": 1068,
        "prevyseni_m": 32,
        "cas_s": 335,
        "tempo_str": "5:14"
      }
    },
    {
      "type": "Feature",
      "geometry": {
        "type": "LineString",
        "coordinates": [
          [
            114.79178876536007,
            -154.6745533463224
          ],
          [
            114.60722156834164,
            -155.4127221769932
          ],
          [
            114.79174023561518,
            -156.1509090994942
          ],
          [
            114.79171597074273,
            -156.88908697608014
          ],
          [
            114.79169170587029,
            -157.62726485266603
          ],
          [
            114.79166744099783,
            -158.36544272925195
          ],
          [
            114.97618004205326,
            -159.2881741208994
          ],
          [
            114.60706384667075,
            -160.21087837480164
          ],
          [
            114.79158251394428,
            -160.94906529730264
          ],
          [
            114.79155824907184,
            -161.68724317388856
          ],
          [
            114.97607691634535,
            -162.42543009638956
          ],
          [
            114.79150971932695,
            -163.1635989270604
          ],
          [
            114.79148545445452,
            -163.9017768036463
          ],
          [
            114.60691219121797,
            -164.8244901034636
          ],
          [
            114.79143692470961,
            -165.37813255681814
          ],
          [
            115.34502325762075,
            -166.66997097858874
          ],
          [
            116.08314645645974,
            -168.14636291542092
          ],
          [
            116.63673278937088,
            -169.43820133719151
          ],
          [
            117.190319122282,
            -170.73003975896214
          ],
          [
            117.37483778955554,
            -171.46822668146314
          ],
          [
            118.11296098839453,
            -172.9446186182953
          ],
          [
            118.11294885595831,
            -173.31370755658824
          ],
          [
            118.29747965566807,
            -173.6828055407963
          ],
          [
            118.4820104553778,
            -174.05190352500435
          ],
          [
            118.48199832294158,
            -174.4209924632973
          ],
          [
            118.66652912265133,
            -174.79009044750535
          ],
          [
            118.666510923997,
            -175.34372385494478
          ],
          [
            118.4819558594148,
            -175.71280374732265
          ],
          [
            117.74374773352226,
            -176.82003437854115
          ],
          [
            117.37463153813977,
            -177.7427386324434
          ],
          [
            117.37461333948542,
            -178.29637203988284
          ],
          [
            117.55914413919517,
            -178.66547002409087
          ],
          [
            117.74367493890493,
            -179.0345680082989
          ],
          [
            117.74366887268681,
            -179.21911247744538
          ],
          [
            117.92819967239656,
            -179.58821046165343
          ],
          [
            117.92819360617844,
            -179.77275493079992
          ],
          [
            118.11272440588819,
            -180.14185291500795
          ],
          [
            118.48177387287146,
            -181.249137821717
          ],
          [
            118.48174960799902,
            -181.98731569830292
          ],
          [
            119.21987280683803,
            -183.46370763513508
          ],
          [
            119.21984854196556,
            -184.201885511721
          ],
          [
            119.21982427709312,
            -184.9400633883069
          ],
          [
            119.21980001222067,
            -185.67824126489282
          ],
          [
            119.03523281520226,
            -186.41641009556363
          ],
          [
            119.21976361491201,
            -186.7855080797717
          ],
          [
            119.957886813751,
            -188.26190001660387
          ],
          [
            120.51147314666214,
            -189.55373843837452
          ],
          [
            121.24959634550113,
            -191.03013037520665
          ]
        ]
      },
      "properties": {
        "type": "variant",
        "id": 2,
        "color": "#4444ff",
        "vzdal_m": 1049,
        "prevyseni_m": 45,
        "cas_s": 338,
        "tempo_str": "5:21"
      }
    },
    {
      "type": "Feature",
      "geometry": {
        "type": "LineString",
        "coordinates": [
          [
            114.79178876536007,
            -154.6745533463224
          ],
          [
            115.34538723070742,
            -155.59730282980001
          ],
          [
            116.26808369278295,
            -156.1509814668149
          ],
          [
            117.19078015485846,
            -156.70466010382975
          ],
          [
            117.92891548613369,
            -157.81196310236896
          ],
          [
            118.48251395148105,
            -158.73471258584664
          ],
          [
            119.40521041355656,
            -159.2883912228615
          ],
          [
            120.69698667370592,
            -160.02663242085302
          ],
          [
            121.43513413741735,
            -160.76484648109928
          ],
          [
            122.1732816011288,
            -161.50306054134552
          ],
          [
            122.35781846705666,
            -161.68761405640709
          ],
          [
            123.09594166589565,
            -163.16400599323927
          ],
          [
            123.78599300321426,
            -164.1643915445336
          ],
          [
            124.73763817911899,
            -164.85227421236513
          ],
          [
            125.57675960421075,
            -165.44812441610227
          ],
          [
            125.67945172266758,
            -165.93229967324766
          ],
          [
            125.86398252237733,
            -166.30139765745568
          ],
          [
            125.86395825750489,
            -167.0395755340416
          ],
          [
            126.0484708585603,
            -167.9623069256891
          ],
          [
            126.04844659368786,
            -168.70048480227499
          ],
          [
            125.86387939666943,
            -169.43865363294583
          ],
          [
            126.04839806394295,
            -170.17684055544683
          ],
          [
            126.0483737990705,
            -170.91501843203275
          ],
          [
            126.23288640012592,
            -171.8377498236802
          ],
          [
            126.2328621352535,
            -172.57592770026613
          ],
          [
            126.23283787038103,
            -173.31410557685206
          ],
          [
            126.04827067336262,
            -174.05227440752287
          ],
          [
            126.23278934063615,
            -174.79046133002387
          ],
          [
            126.23276507576371,
            -175.5286392066098
          ],
          [
            126.41728374303722,
            -176.2668261291108
          ],
          [
            126.23271654601882,
            -177.0049949597816
          ],
          [
            126.23269228114636,
            -177.74317283636753
          ],
          [
            126.04812508412795,
            -178.48134166703835
          ],
          [
            126.23264375140148,
            -179.21952858953935
          ],
          [
            126.04807048816495,
            -180.14224188935665
          ],
          [
            125.30984416361805,
            -181.80310592801465
          ],
          [
            125.12527696659964,
            -182.54127475868546
          ],
          [
            124.94070976958125,
            -183.27944358935628
          ],
          [
            124.57158144176252,
            -184.57123678155145
          ],
          [
            124.38700211230787,
            -185.67849455051524
          ],
          [
            124.38698391365355,
            -186.23212795795467
          ],
          [
            124.01787378448914,
            -186.9702877427104
          ],
          [
            123.09512879266875,
            -187.89296485886737
          ],
          [
            122.54147573135839,
            -188.63111559770803
          ],
          [
            121.80325547302961,
            -190.10743516721956
          ],
          [
            121.24959634550113,
            -191.03013037520665
          ]
        ]
      },
      "properties": {
        "type": "variant",
        "id": 3,
        "color": "#44ff44",
        "vzdal_m": 1155,
        "prevyseni_m": 32,
        "cas_s": 345,
        "tempo_str": "4:58"
      }
    }
  ]
}