{
  "type": "FeatureCollection",
  "features": [
    {
      "type": "Feature",
      "geometry": {
        "type": "Point",
        "coordinates": [
          60.460333043013264,
          -103.83456667140047
        ]
      },
      "properties": {
        "type": "start",
        "isom": "204"
      }
    },
    {
      "type": "Feature",
      "geometry": {
        "type": "Point",
        "coordinates": [
          63.79933310636988,
          -33.51729350755242
        ]
      },
      "properties": {
        "type": "end",
        "isom": "204"
      }
    },
    {
      "type": "Feature",
      "geometry": {
        "type": "LineString",
        "coordinates": [
          [
            60.47954567725702,
            -103.81350468844695
          ],
          [
            60.479574479817224,
            -103.07529161507802
          ],
          [
            60.29506260611243,
            -102.15251941982656
          ],
          [
            60.29509140867262,
            -101.41430634645761
          ],
          [
            60.11057953496784,
            -100.49153415120615
          ],
          [
            59.926067661263055,
            -99.5687619559547
          ],
          [
            59.92609646382326,
            -98.83054888258576
          ],
          [
            60.11068034392852,
            -97.90778839441484
          ],
          [
            60.110709146488716,
            -97.1695753210459
          ],
          [
            60.11073794904892,
            -96.43136224767694
          ],
          [
            60.11075235032901,
            -96.06225571099247
          ],
          [
            59.92621887470408,
            -95.69314332076773
          ],
          [
            59.92624767726427,
            -94.95493024739878
          ],
          [
            59.926269279184424,
            -94.40127044237207
          ],
          [
            59.92627647982447,
            -94.21671717402984
          ],
          [
            60.295415437474816,
            -93.10940927105695
          ],
          [
            60.47997771565994,
            -92.74030858791274
          ],
          [
            61.03365734957528,
            -91.81755980682236
          ],
          [
            61.218219627760405,
            -91.44845912367815
          ],
          [
            61.218226828400454,
            -91.2639058553359
          ],
          [
            61.40278910658557,
            -90.89480517219171
          ],
          [
            61.58734418413065,
            -90.71025775738974
          ],
          [
            61.58735858541075,
            -90.34115122070527
          ],
          [
            61.587365786050796,
            -90.15659795236303
          ],
          [
            62.14105982124623,
            -88.86474263458817
          ],
          [
            62.32562209943136,
            -88.49564195144397
          ],
          [
            62.510184377616476,
            -88.12654126829976
          ],
          [
            62.510191578256524,
            -87.94198799995753
          ],
          [
            62.69475385644165,
            -87.57288731681332
          ],
          [
            62.87931613462678,
            -87.20378663366911
          ],
          [
            63.06387841281191,
            -86.8346859505249
          ],
          [
            63.432988567902065,
            -86.46559112092098
          ],
          [
            63.61755084608719,
            -86.09649043777677
          ],
          [
            63.802134726192456,
            -85.17372994960584
          ],
          [
            63.986718606297735,
            -84.25096946143493
          ],
          [
            64.35585756394808,
            -83.14366155846204
          ],
          [
            64.72498212031833,
            -82.40546019217363
          ],
          [
            64.90954439850346,
            -82.03635950902942
          ],
          [
            65.0941066766886,
            -81.66725882588523
          ],
          [
            65.27866895487372,
            -81.29815814274102
          ],
          [
            65.27868335615382,
            -80.92905160605655
          ],
          [
            65.46324563433893,
            -80.55995092291234
          ],
          [
            65.46327443689913,
            -79.82173784954338
          ],
          [
            65.27874096127421,
            -79.45262545931865
          ],
          [
            65.2787697638344,
            -78.7144123859497
          ],
          [
            65.27879856639458,
            -77.97619931258076
          ],
          [
            65.27882736895478,
            -77.2379862392118
          ],
          [
            65.27883456959484,
            -77.05343297086957
          ],
          [
            65.46339684777996,
            -76.68433228772535
          ],
          [
            65.27886337215503,
            -76.31521989750063
          ],
          [
            65.0943298965301,
            -75.94610750727588
          ],
          [
            65.27889937535527,
            -75.39245355578944
          ],
          [
            65.83257180863056,
            -74.6542580430413
          ],
          [
            66.57080652009097,
            -73.54696184714894
          ],
          [
            66.75536879827608,
            -73.17786116400474
          ],
          [
            66.9399310764612,
            -72.80876048086053
          ],
          [
            67.12449335464633,
            -72.43965979771632
          ],
          [
            67.30905563283147,
            -72.0705591145721
          ],
          [
            67.30908443539167,
            -71.33234604120317
          ],
          [
            67.33235068119252,
            -70.59413370488583
          ],
          [
            67.30888286579761,
            -69.85860640690841
          ],
          [
            67.6782809981624,
            -68.7486119914924
          ],
          [
            67.67830980072259,
            -68.01039891812344
          ],
          [
            67.49379792701781,
            -67.08762672287199
          ],
          [
            67.67838180712309,
            -66.16486623470108
          ],
          [
            67.67841060968327,
            -65.42665316133213
          ],
          [
            67.49387713405835,
            -65.05754077110738
          ],
          [
            67.67844661288352,
            -64.50388681962094
          ],
          [
            67.67847541544371,
            -63.765673746252
          ],
          [
            67.67850421800391,
            -63.02746067288305
          ],
          [
            68.04762877437416,
            -62.28925930659463
          ],
          [
            68.23219105255929,
            -61.920158623450426
          ],
          [
            68.41675333074441,
            -61.55105794030622
          ],
          [
            68.60131560892954,
            -61.18195725716202
          ],
          [
            68.78587788711467,
            -60.812856574017815
          ],
          [
            69.15501684476502,
            -59.70554867104492
          ],
          [
            68.41686854098519,
            -58.598205646830436
          ],
          [
            67.86328971603055,
            -56.937208671129504
          ],
          [
            67.49422276478067,
            -56.19898389068002
          ],
          [
            67.49426596862098,
            -55.0916642806266
          ],
          [
            67.30975409491619,
            -54.16889208537515
          ],
          [
            66.75614646740135,
            -53.24610818304316
          ],
          [
            66.38706511487139,
            -52.876989939278154
          ],
          [
            66.01797656170137,
            -52.69242496385539
          ],
          [
            65.83343588543639,
            -52.50786584197288
          ],
          [
            64.35708167275637,
            -51.7696059402818
          ],
          [
            63.80347404524151,
            -50.846822037949806
          ],
          [
            63.98805792534679,
            -49.92406154977889
          ],
          [
            64.35718248171703,
            -49.18586018349048
          ],
          [
            64.54174475990216,
            -48.816759500346265
          ],
          [
            64.72630703808728,
            -48.44765881720206
          ],
          [
            64.91089091819256,
            -47.524898329031146
          ],
          [
            64.91089811883262,
            -47.34034506068891
          ],
          [
            64.72636464320769,
            -46.971232670464175
          ],
          [
            64.54183116758274,
            -46.60212028023943
          ],
          [
            64.35729769195781,
            -46.23300789001469
          ],
          [
            64.54187437142303,
            -45.49480067018601
          ],
          [
            65.28010908288346,
            -44.38750447429366
          ],
          [
            65.83381031871892,
            -42.91109588817657
          ],
          [
            66.20294927636928,
            -41.803787985203684
          ],
          [
            66.20297807892946,
            -41.06557491183473
          ],
          [
            66.20300688148967,
            -40.327361838465784
          ],
          [
            65.64939925397482,
            -39.4045779361338
          ],
          [
            65.2803251020849,
            -38.850906424026554
          ],
          [
            65.280339503365,
            -38.481799887342085
          ],
          [
            65.09580602774008,
            -38.11268749711734
          ],
          [
            64.35767212524034,
            -36.63623793621838
          ],
          [
            63.988605173990486,
            -35.89801315576889
          ],
          [
            63.98864837783077,
            -34.79069354571548
          ],
          [
            63.80413650412599,
            -33.86792135046402
          ],
          [
            63.80415090540609,
            -33.49881481377955
          ]
        ]
      },
      "properties": {
        "type": "variant",
        "id": 1,
        "color": "#ff4444",
        "vzdal_m": 2071,
        "prevyseni_m": 52,
        "cas_s": 667,
        "tempo_str": "5:21"
      }
    },
    {
      "type": "Feature",
      "geometry": {
        "type": "LineString",
        "coordinates": [
          [
            60.47954567725702,
            -103.81350468844695
          ],
          [
            60.479574479817224,
            -103.07529161507802
          ],
          [
            60.29506260611243,
            -102.15251941982656
          ],
          [
            60.29509140867262,
            -101.41430634645761
          ],
          [
            60.11057953496784,
            -100.49153415120615
          ],
          [
            59.926067661263055,
            -99.5687619559547
          ],
          [
            59.92609646382326,
            -98.83054888258576
          ],
          [
            60.11068034392852,
            -97.90778839441484
          ],
          [
            60.110709146488716,
            -97.1695753210459
          ],
          [
            60.11073794904892,
            -96.43136224767694
          ],
          [
            60.11075235032901,
            -96.06225571099247
          ],
          [
            59.92621887470408,
            -95.69314332076773
          ],
          [
            59.926233275984174,
            -95.32403678408326
          ],
          [
            59.741699800359235,
            -94.95492439385852
          ],
          [
            59.74171420163933,
            -94.58581785717404
          ],
          [
            59.557202327934554,
            -93.66304566192258
          ],
          [
            59.37269045422976,
            -92.74027346667113
          ],
          [
            59.18817858052498,
            -91.81750127141969
          ],
          [
            59.0036667068202,
            -90.89472907616823
          ],
          [
            58.63461415685043,
            -89.78739775903428
          ],
          [
            58.26556160688066,
            -88.68006644190032
          ],
          [
            58.450123885065786,
            -88.31096575875613
          ],
          [
            58.45013828634588,
            -87.94185922207166
          ],
          [
            58.634700564531016,
            -87.57275853892743
          ],
          [
            58.63472936709121,
            -86.83454546555849
          ],
          [
            58.45019589146627,
            -86.46543307533375
          ],
          [
            58.08112173957636,
            -85.9117615632265
          ],
          [
            58.819356451036775,
            -84.80446536733416
          ],
          [
            59.0039187292219,
            -84.43536468418995
          ],
          [
            59.18847380676698,
            -84.25081726938798
          ],
          [
            59.373036084952105,
            -83.88171658624377
          ],
          [
            59.557598363137224,
            -83.51261590309956
          ],
          [
            59.92672291950748,
            -82.77441453681115
          ],
          [
            60.29586187715783,
            -81.66710663383826
          ],
          [
            60.849541511073156,
            -80.74435785274788
          ],
          [
            61.58777622253357,
            -79.63706165685554
          ],
          [
            61.95690077890382,
            -78.89886029056711
          ],
          [
            62.14146305708895,
            -78.52975960742292
          ],
          [
            62.51058761345921,
            -77.79155824113451
          ],
          [
            62.69517149356448,
            -76.86879775296359
          ],
          [
            62.8797337717496,
            -76.49969706981938
          ],
          [
            63.248836726199706,
            -76.31515550855768
          ],
          [
            64.35614558955002,
            -75.76153082477258
          ],
          [
            65.27891377663536,
            -75.02334701910496
          ],
          [
            65.64801673108548,
            -74.83880545784326
          ],
          [
            65.8325790092706,
            -74.46970477469905
          ],
          [
            66.38624424190584,
            -73.91606253029315
          ],
          [
            66.57080652009097,
            -73.54696184714894
          ],
          [
            66.75536879827608,
            -73.17786116400474
          ],
          [
            66.9399310764612,
            -72.80876048086053
          ],
          [
            67.12449335464633,
            -72.43965979771632
          ],
          [
            67.30905563283147,
            -72.0705591145721
          ],
          [
            67.30908443539167,
            -71.33234604120317
          ],
          [
            67.33235068119252,
            -70.59413370488583
          ],
          [
            67.30888286579761,
            -69.85860640690841
          ],
          [
            67.6782809981624,
            -68.7486119914924
          ],
          [
            67.67830980072259,
            -68.01039891812344
          ],
          [
            67.49379792701781,
            -67.08762672287199
          ],
          [
            67.30927165203293,
            -66.533961064305
          ],
          [
            67.12473817640799,
            -66.16484867408026
          ],
          [
            66.75566402451808,
            -65.61117716197303
          ],
          [
            66.75568562643824,
            -65.05751735694632
          ],
          [
            66.5711521508133,
            -64.68840496672158
          ],
          [
            65.83301104767352,
            -63.39650867416485
          ],
          [
            65.64849917396874,
            -62.473736478913395
          ],
          [
            65.64852797652892,
            -61.73552340554445
          ],
          [
            65.64855677908913,
            -60.9973103321755
          ],
          [
            65.64858558164933,
            -60.259097258806555
          ],
          [
            65.64859998292941,
            -59.88999072212208
          ],
          [
            65.83316226111454,
            -59.520890038977875
          ],
          [
            66.2023012187649,
            -58.413582136005
          ],
          [
            66.01778934506011,
            -57.49080994075354
          ],
          [
            66.01781094698025,
            -56.93715013572683
          ],
          [
            65.79163985490277,
            -56.43852022109185
          ],
          [
            65.64876559765054,
            -55.645265550250635
          ],
          [
            66.20245243220592,
            -54.53796350081802
          ],
          [
            66.38701471039104,
            -54.168862817673805
          ],
          [
            66.57157698857617,
            -53.7997621345296
          ],
          [
            66.7561392667613,
            -53.4306614513854
          ],
          [
            66.57160579113636,
            -53.061549061160655
          ],
          [
            66.38706511487139,
            -52.876989939278154
          ],
          [
            66.01797656170137,
            -52.69242496385539
          ],
          [
            65.83343588543639,
            -52.50786584197288
          ],
          [
            64.35708167275637,
            -51.7696059402818
          ],
          [
            63.80347404524151,
            -50.846822037949806
          ],
          [
            63.98805792534679,
            -49.92406154977889
          ],
          [
            64.35718248171703,
            -49.18586018349048
          ],
          [
            64.54174475990216,
            -48.816759500346265
          ],
          [
            64.72630703808728,
            -48.44765881720206
          ],
          [
            64.91089091819256,
            -47.524898329031146
          ],
          [
            64.91089811883262,
            -47.34034506068891
          ],
          [
            64.72636464320769,
            -46.971232670464175
          ],
          [
            64.54183116758274,
            -46.60212028023943
          ],
          [
            64.35729769195781,
            -46.23300789001469
          ],
          [
            64.54187437142303,
            -45.49480067018601
          ],
          [
            65.28010908288346,
            -44.38750447429366
          ],
          [
            65.83381031871892,
            -42.91109588817657
          ],
          [
            66.20294927636928,
            -41.803787985203684
          ],
          [
            66.20297807892946,
            -41.06557491183473
          ],
          [
            66.20300688148967,
            -40.327361838465784
          ],
          [
            65.64939925397482,
            -39.4045779361338
          ],
          [
            65.2803251020849,
            -38.850906424026554
          ],
          [
            65.280339503365,
            -38.481799887342085
          ],
          [
            65.09580602774008,
            -38.11268749711734
          ],
          [
            64.35767212524034,
            -36.63623793621838
          ],
          [
            63.988605173990486,
            -35.89801315576889
          ],
          [
            63.98864837783077,
            -34.79069354571548
          ],
          [
            63.80413650412599,
            -33.86792135046402
          ],
          [
            63.80415090540609,
            -33.49881481377955
          ]
        ]
      },
      "properties": {
        "type": "variant",
        "id": 2,
        "color": "#4444ff",
        "vzdal_m": 2114,
        "prevyseni_m": 70,
        "cas_s": 666,
        "tempo_str": "5:15"
      }
    },
    {
      "type": "Feature",
      "geometry": {
        "type": "LineString",
        "coordinates": [
          [
            60.47954567725702,
            -103.81350468844695
          ],
          [
            60.479574479817224,
            -103.07529161507802
          ],
          [
            60.29506260611243,
            -102.15251941982656
          ],
          [
            60.29509140867262,
            -101.41430634645761
          ],
          [
            60.11057953496784,
            -100.49153415120615
          ],
          [
            59.926067661263055,
            -99.5687619559547
          ],
          [
            59.92609646382326,
            -98.83054888258576
          ],
          [
            60.11068034392852,
            -97.90778839441484
          ],
          [
            60.110709146488716,
            -97.1695753210459
          ],
          [
            60.11073794904892,
            -96.43136224767694
          ],
          [
            60.11075235032901,
            -96.06225571099247
          ],
          [
            59.92621887470408,
            -95.69314332076773
          ],
          [
            59.926233275984174,
            -95.32403678408326
          ],
          [
            59.741699800359235,
            -94.95492439385852
          ],
          [
            59.74171420163933,
            -94.58581785717404
          ],
          [
            59.557202327934554,
            -93.66304566192258
          ],
          [
            59.37269045422976,
            -92.74027346667113
          ],
          [
            59.18817858052498,
            -91.81750127141969
          ],
          [
            59.0036667068202,
            -90.89472907616823
          ],
          [
            58.63461415685043,
            -89.78739775903428
          ],
          [
            57.8964802543507,
            -88.31094819813532
          ],
          [
            57.711946778725775,
            -87.94183580791056
          ],
          [
            57.52741330310084,
            -87.57272341768584
          ],
          [
            57.52742050374089,
            -87.38817014934361
          ],
          [
            57.15834635185097,
            -86.83449863723635
          ],
          [
            57.89656666203128,
            -86.09630897802847
          ],
          [
            58.63479417285165,
            -85.17356605047836
          ],
          [
            58.819356451036775,
            -84.80446536733416
          ],
          [
            59.0039187292219,
            -84.43536468418995
          ],
          [
            59.18847380676698,
            -84.25081726938798
          ],
          [
            59.373036084952105,
            -83.88171658624377
          ],
          [
            59.557598363137224,
            -83.51261590309956
          ],
          [
            59.92672291950748,
            -82.77441453681115
          ],
          [
            60.29586187715783,
            -81.66710663383826
          ],
          [
            60.849541511073156,
            -80.74435785274788
          ],
          [
            61.58777622253357,
            -79.63706165685554
          ],
          [
            61.95690077890382,
            -78.89886029056711
          ],
          [
            62.14146305708895,
            -78.52975960742292
          ],
          [
            62.51058761345921,
            -77.79155824113451
          ],
          [
            62.69517149356448,
            -76.86879775296359
          ],
          [
            62.8797337717496,
            -76.49969706981938
          ],
          [
            63.248836726199706,
            -76.31515550855768
          ],
          [
            64.35614558955002,
            -75.76153082477258
          ],
          [
            65.27891377663536,
            -75.02334701910496
          ],
          [
            65.64801673108548,
            -74.83880545784326
          ],
          [
            65.8325790092706,
            -74.46970477469905
          ],
          [
            66.38624424190584,
            -73.91606253029315
          ],
          [
            66.57080652009097,
            -73.54696184714894
          ],
          [
            66.75536879827608,
            -73.17786116400474
          ],
          [
            66.9399310764612,
            -72.80876048086053
          ],
          [
            67.12449335464633,
            -72.43965979771632
          ],
          [
            67.30905563283147,
            -72.0705591145721
          ],
          [
            67.30908443539167,
            -71.33234604120317
          ],
          [
            67.33235068119252,
            -70.59413370488583
          ],
          [
            67.33238668439276,
            -69.67136736317464
          ],
          [
            68.30019581914738,
            -68.44351168201025
          ],
          [
            69.00673242038555,
            -67.66262955740774
          ],
          [
            69.62040044752352,
            -66.82147518398291
          ],
          [
            70.42231179100153,
            -65.95783773097556
          ],
          [
            71.30890220851623,
            -65.17083920424272
          ],
          [
            71.63252449381453,
            -64.90957547823038
          ],
          [
            72.47605660674753,
            -64.31855079124287
          ],
          [
            73.44651349471799,
            -63.649254943121434
          ],
          [
            73.75955568764161,
            -63.18342106277003
          ],
          [
            73.85333687961833,
            -62.08272779762306
          ],
          [
            74.24455320934486,
            -60.97256511067887
          ],
          [
            74.36698186622115,
            -60.074820522724806
          ],
          [
            74.46814649399126,
            -59.40861166384449
          ],
          [
            74.50792873730607,
            -58.59075042743206
          ],
          [
            74.53574530372674,
            -57.860186652762344
          ],
          [
            74.53575250436678,
            -57.67563338442011
          ],
          [
            74.41264499285323,
            -57.20730753788413
          ],
          [
            73.6010614802781,
            -56.537037131152545
          ],
          [
            72.57757666321564,
            -55.98613839318877
          ],
          [
            72.10201879133605,
            -55.58606264729237
          ],
          [
            71.55435526373186,
            -54.16902671680129
          ],
          [
            72.1998682298628,
            -52.9912585096118
          ],
          [
            72.96966865069408,
            -52.064044681179205
          ],
          [
            72.66174333412272,
            -51.585316081251584
          ],
          [
            72.10815010788797,
            -50.29342564223513
          ],
          [
            71.92361663226303,
            -49.924313252010386
          ],
          [
            71.7390831566381,
            -49.55520086178564
          ],
          [
            71.00093485285828,
            -48.447857837571156
          ],
          [
            70.63187510224846,
            -47.525079788779436
          ],
          [
            70.44736322854368,
            -46.60230759352798
          ],
          [
            70.2628369535588,
            -46.04864193496101
          ],
          [
            70.44739923174393,
            -45.6795412518168
          ],
          [
            70.44742083366407,
            -45.12588144679009
          ],
          [
            70.26288735803914,
            -44.75676905656535
          ],
          [
            70.07836108305425,
            -44.203103397998376
          ],
          [
            69.89382760742933,
            -43.83399100777363
          ],
          [
            69.70929413180438,
            -43.46487861754889
          ],
          [
            69.52476065617945,
            -43.09576622732415
          ],
          [
            69.34022718055452,
            -42.72665383709941
          ],
          [
            69.15568650428955,
            -42.542094715216905
          ],
          [
            68.9711530286646,
            -42.17298232499217
          ],
          [
            68.60208607741475,
            -41.434757544542684
          ],
          [
            68.41755260178982,
            -41.06564515431794
          ],
          [
            68.0484640486198,
            -40.881080178895175
          ],
          [
            67.86392337235483,
            -40.69652105701267
          ],
          [
            67.67938989672989,
            -40.327408666787925
          ],
          [
            67.31033014612008,
            -39.40463061799621
          ],
          [
            67.12579667049515,
            -39.03551822777147
          ],
          [
            66.75672971924529,
            -38.297293447321984
          ],
          [
            66.57219624362035,
            -37.92818105709724
          ],
          [
            65.83405514048057,
            -36.63628476454052
          ],
          [
            65.09590683670076,
            -35.528941740326026
          ],
          [
            64.35775853292093,
            -34.42159871611153
          ],
          [
            63.80415090540609,
            -33.49881481377955
          ]
        ]
      },
      "properties": {
        "type": "variant",
        "id": 3,
        "color": "#44ff44",
        "vzdal_m": 2206,
        "prevyseni_m": 73,
        "cas_s": 679,
        "tempo_str": "5:07"
      }
    },
    {
      "type": "Feature",
      "geometry": {
        "type": "LineString",
        "coordinates": [
          [
            60.47954567725702,
            -103.81350468844695
          ],
          [
            61.40233546626251,
            -102.52166107775263
          ],
          [
            62.69420660779795,
            -101.59893571082331
          ],
          [
            63.80152987242837,
            -100.67620449035374
          ],
          [
            64.53975018260869,
            -99.93801483114585
          ],
          [
            65.0934442178041,
            -98.646159513371
          ],
          [
            65.46258317545447,
            -97.53885161039813
          ],
          [
            65.83169333054462,
            -97.16975678079416
          ],
          [
            66.56988483816474,
            -97.16978019495525
          ],
          [
            67.30811954962515,
            -96.0624839990629
          ],
          [
            68.04636866236565,
            -94.58608126648606
          ],
          [
            68.23095254247092,
            -93.66332077831515
          ],
          [
            68.23098134503111,
            -92.9251077049462
          ],
          [
            68.2310101475913,
            -92.18689463157726
          ],
          [
            68.96925205969177,
            -90.89504516734267
          ],
          [
            69.70747957051213,
            -89.97230223979255
          ],
          [
            70.44571428197253,
            -88.86500604390021
          ],
          [
            70.99939391588786,
            -87.94225726280982
          ],
          [
            71.73762142670823,
            -87.01951433525971
          ],
          [
            71.73762862734827,
            -86.83496106691747
          ],
          [
            71.9221909055334,
            -86.46586038377326
          ],
          [
            72.10677478563866,
            -85.54309989560235
          ],
          [
            72.10680358819887,
            -84.8048868222334
          ],
          [
            72.10683239075907,
            -84.06667374886446
          ],
          [
            72.29141627086433,
            -83.14391326069354
          ],
          [
            72.29142347150437,
            -82.9593599923513
          ],
          [
            72.10688999587946,
            -82.59024760212657
          ],
          [
            71.36872729081954,
            -81.85201111459655
          ],
          [
            70.44601670885457,
            -81.11376877352626
          ],
          [
            70.2615048351498,
            -80.1909965782748
          ],
          [
            70.44606711333492,
            -79.82189589513061
          ],
          [
            70.63062939152005,
            -79.4527952119864
          ],
          [
            70.63067259536034,
            -78.34547560193297
          ],
          [
            70.4461391197354,
            -77.97636321170825
          ],
          [
            70.26162724603061,
            -77.05359101645679
          ],
          [
            70.07710817168578,
            -76.31537208954757
          ],
          [
            70.07711537232584,
            -76.13081882120534
          ],
          [
            69.8925818967009,
            -75.7617064309806
          ],
          [
            69.70804842107597,
            -75.39259404075585
          ],
          [
            69.33898146982611,
            -74.65436926030637
          ],
          [
            69.15444079356112,
            -74.46981013842387
          ],
          [
            69.3389958711062,
            -74.2852627236219
          ],
          [
            69.52355814929133,
            -73.91616204047769
          ],
          [
            69.3390246736664,
            -73.54704965025294
          ],
          [
            68.60087636988658,
            -72.43970662603846
          ],
          [
            67.8627208654667,
            -71.51691687016621
          ],
          [
            67.49366831549693,
            -70.40958555303224
          ],
          [
            67.49369711805713,
            -69.6713724796633
          ],
          [
            68.2319246288775,
            -68.74862955211319
          ],
          [
            68.9701593403379,
            -67.64133335622084
          ],
          [
            69.70837965051821,
            -66.90314369701295
          ],
          [
            70.44661436197862,
            -65.79584750112062
          ],
          [
            71.36938254906396,
            -65.057663695453
          ],
          [
            72.2921507361493,
            -64.31947988978538
          ],
          [
            72.84580876814448,
            -63.95039091372172
          ],
          [
            73.39946680013966,
            -63.58130193765805
          ],
          [
            73.58402907832479,
            -63.212201254513836
          ],
          [
            73.76861295843007,
            -62.28944076634293
          ],
          [
            74.13775191608042,
            -61.182132863370036
          ],
          [
            74.13776631736052,
            -60.81302632668556
          ],
          [
            74.32232859554564,
            -60.443925643541355
          ],
          [
            74.32235019746578,
            -59.890265838514644
          ],
          [
            73.95326164429578,
            -59.70570086309188
          ],
          [
            73.2151061398759,
            -58.78291110721962
          ],
          [
            73.03058706553107,
            -58.04469218031041
          ],
          [
            72.6615201142812,
            -57.30646739986093
          ],
          [
            72.47698663865627,
            -56.937355009636185
          ],
          [
            72.10792688804645,
            -56.01457696084447
          ],
          [
            71.92341501434167,
            -55.09180476559302
          ],
          [
            71.55435526373186,
            -54.16902671680129
          ],
          [
            72.29258997519226,
            -53.06173052090894
          ],
          [
            72.84627680974765,
            -51.95442847147633
          ],
          [
            72.66174333412272,
            -51.585316081251584
          ],
          [
            72.10815010788797,
            -50.29342564223513
          ],
          [
            71.92362383290309,
            -49.73975998366815
          ],
          [
            71.18546832848321,
            -48.8169702277959
          ],
          [
            70.63187510224846,
            -47.525079788779436
          ],
          [
            70.44736322854368,
            -46.60230759352798
          ],
          [
            70.26282975291875,
            -46.23319520330325
          ],
          [
            70.44739203110387,
            -45.864094520159036
          ],
          [
            70.44742083366407,
            -45.12588144679009
          ],
          [
            70.26288735803914,
            -44.75676905656535
          ],
          [
            70.07836108305425,
            -44.203103397998376
          ],
          [
            69.89382760742933,
            -43.83399100777363
          ],
          [
            69.70929413180438,
            -43.46487861754889
          ],
          [
            69.52476065617945,
            -43.09576622732415
          ],
          [
            69.34022718055452,
            -42.72665383709941
          ],
          [
            69.15568650428955,
            -42.542094715216905
          ],
          [
            68.9711530286646,
            -42.17298232499217
          ],
          [
            68.60208607741475,
            -41.434757544542684
          ],
          [
            68.41755260178982,
            -41.06564515431794
          ],
          [
            68.0484640486198,
            -40.881080178895175
          ],
          [
            67.67937549544979,
            -40.6965152034724
          ],
          [
            67.49484201982486,
            -40.32740281324766
          ],
          [
            67.31030854419994,
            -39.95829042302292
          ],
          [
            67.12578226921505,
            -39.40462476445594
          ],
          [
            66.94124879359012,
            -39.035512374231196
          ],
          [
            66.75672971924529,
            -38.297293447321984
          ],
          [
            66.57219624362035,
            -37.92818105709724
          ],
          [
            65.83405514048057,
            -36.63628476454052
          ],
          [
            65.09592123798085,
            -35.159835203641556
          ],
          [
            64.35777293420102,
            -34.05249217942706
          ],
          [
            63.80415090540609,
            -33.49881481377955
          ]
        ]
      },
      "properties": {
        "type": "variant",
        "id": 4,
        "color": "#ffaa00",
        "vzdal_m": 2253,
        "prevyseni_m": 56,
        "cas_s": 683,
        "tempo_str": "5:03"
      }
    }
  ]
}