{
  "type": "FeatureCollection",
  "features": [
    {
      "type": "Feature",
      "geometry": {
        "type": "Point",
        "coordinates": [
          137.9461404658352,
          -164.1407471572933
        ]
      },
      "properties": {
        "type": "start",
        "isom": "204"
      }
    },
    {
      "type": "Feature",
      "geometry": {
        "type": "Point",
        "coordinates": [
          65.22129978584422,
          -269.7058629255109
        ]
      },
      "properties": {
        "type": "end",
        "isom": "204"
      }
    },
    {
      "type": "Feature",
      "geometry": {
        "type": "LineString",
        "coordinates": [
          [
            138.00006957054404,
            -164.0521162594614
          ],
          [
            138.73824667688405,
            -164.42124621030695
          ],
          [
            139.10731362813394,
            -165.15947099075643
          ],
          [
            139.10725602301352,
            -166.63589713749434
          ],
          [
            139.10719841789313,
            -168.11232328423222
          ],
          [
            138.7380306576826,
            -169.95784426057406
          ],
          [
            137.63064258729173,
            -172.54155489612378
          ],
          [
            136.52326891818097,
            -174.756158994989
          ],
          [
            136.5232401156208,
            -175.49437206835796
          ],
          [
            136.15411555925053,
            -176.23257343464635
          ],
          [
            135.04674189013977,
            -178.4471775335116
          ],
          [
            134.67763173504963,
            -178.81627236311553
          ],
          [
            133.93938262230913,
            -180.29267509569237
          ],
          [
            132.46291319938828,
            -182.50726748747707
          ],
          [
            130.61736242393752,
            -184.35274163549678
          ],
          [
            128.77178284592654,
            -186.9364288568854
          ],
          [
            127.66442357809588,
            -188.78192641906617
          ],
          [
            126.18793975389498,
            -191.36562534753534
          ],
          [
            124.71147033097415,
            -193.58021773932006
          ],
          [
            123.60408226058331,
            -196.16392837486976
          ],
          [
            122.865861950403,
            -196.90211803407763
          ],
          [
            122.49673739403272,
            -197.64031940036605
          ],
          [
            122.12761283766248,
            -198.37852076665445
          ],
          [
            121.75848828129223,
            -199.11672213294287
          ],
          [
            121.38936372492198,
            -199.85492349923126
          ],
          [
            119.91286549944095,
            -202.80772896438495
          ],
          [
            118.43639607652015,
            -205.0223213561696
          ],
          [
            118.0672715201499,
            -205.76052272245803
          ],
          [
            116.59083089978928,
            -207.23690204087382
          ],
          [
            115.11439027942865,
            -208.71328135928954
          ],
          [
            113.26888270781816,
            -209.45143589725583
          ],
          [
            111.79249969257793,
            -209.45138906893368
          ],
          [
            109.20878621206724,
            -210.55862672942337
          ],
          [
            106.25597697774647,
            -211.6658526828325
          ],
          [
            104.04135925104583,
            -212.77310205040274
          ],
          [
            102.56491863068523,
            -214.2494813688185
          ],
          [
            101.08847801032461,
            -215.72586068723422
          ],
          [
            99.24294163615392,
            -217.20222829856945
          ],
          [
            97.39740526198324,
            -218.67859590990466
          ],
          [
            94.44458162638239,
            -220.15492839999828
          ],
          [
            91.49175799078152,
            -221.6312608900919
          ],
          [
            90.0153173704209,
            -223.1076402085077
          ],
          [
            87.06249373482004,
            -224.58397269860126
          ],
          [
            85.95510566442918,
            -227.167683334151
          ],
          [
            85.9550624605889,
            -228.27500294420443
          ],
          [
            84.47860743894817,
            -230.12048879930464
          ],
          [
            83.37126257239763,
            -231.59687982480096
          ],
          [
            81.89477874819671,
            -234.1805787532701
          ],
          [
            80.41833812783608,
            -235.65695807168586
          ],
          [
            78.5728017536654,
            -237.1333256830211
          ],
          [
            78.20367719729515,
            -237.8715270493095
          ],
          [
            77.8345526409249,
            -238.6097284155979
          ],
          [
            76.35804001416379,
            -241.93164041743606
          ],
          [
            74.512489238713,
            -243.77711456545572
          ],
          [
            71.63931482568074,
            -245.48766687396224
          ],
          [
            70.45284071452217,
            -247.8375069003273
          ],
          [
            69.02424171391061,
            -250.082570573143
          ],
          [
            67.48227164962871,
            -253.18922091856047
          ],
          [
            66.79583012754125,
            -254.8293622519007
          ],
          [
            66.75903697251493,
            -256.6955749107952
          ],
          [
            66.74728743388488,
            -258.1719105727845
          ],
          [
            66.73553789525484,
            -259.64824623477375
          ],
          [
            66.72378835662478,
            -261.12458189676295
          ],
          [
            66.71206134581173,
            -262.6009175594668
          ],
          [
            66.70031180718168,
            -264.07725322145603
          ],
          [
            66.58756279132243,
            -265.7400088119257
          ],
          [
            66.76057112805566,
            -267.03058052788634
          ],
          [
            66.3914465716854,
            -267.7687818941747
          ],
          [
            66.02232201531515,
            -268.5069832604632
          ],
          [
            65.28408730385475,
            -269.6142794563555
          ]
        ]
      },
      "properties": {
        "type": "variant",
        "id": 1,
        "color": "#ff4444",
        "vzdal_m": 1862,
        "prevyseni_m": 3,
        "cas_s": 508,
        "tempo_str": "4:32"
      }
    },
    {
      "type": "Feature",
      "geometry": {
        "type": "LineString",
        "coordinates": [
          [
            138.00006957054404,
            -164.0521162594614
          ],
          [
            137.26186366164382,
            -164.42119938198482
          ],
          [
            134.67813577985302,
            -165.89754357915896
          ],
          [
            132.09442229934234,
            -167.00478123964865
          ],
          [
            131.35623079172223,
            -167.00475782548756
          ],
          [
            130.6180536853822,
            -166.63562787464204
          ],
          [
            129.14165626886188,
            -167.00468758300437
          ],
          [
            128.40345035996165,
            -167.37377070552776
          ],
          [
            125.81973687945096,
            -168.48100836601745
          ],
          [
            122.86691324385008,
            -169.95734085611107
          ],
          [
            120.65230991842954,
            -170.6954836869968
          ],
          [
            119.1759269031893,
            -170.69543685867467
          ],
          [
            118.06865404303925,
            -170.3262952007486
          ],
          [
            117.33044813413903,
            -170.695378323272
          ],
          [
            115.8540075137784,
            -172.17175764168775
          ],
          [
            114.37756689341778,
            -173.6481369601035
          ],
          [
            112.90111187177708,
            -175.49362281520374
          ],
          [
            112.16286275903654,
            -176.97002554778055
          ],
          [
            111.7937382026663,
            -177.70822691406897
          ],
          [
            111.42461364629605,
            -178.4464282803574
          ],
          [
            109.94812982209514,
            -181.03012720882657
          ],
          [
            108.4716892017345,
            -182.5065065272423
          ],
          [
            106.99524858137389,
            -183.98288584565807
          ],
          [
            106.62613842628373,
            -184.351980675262
          ],
          [
            106.2570138699135,
            -185.09018204155043
          ],
          [
            104.78055884827278,
            -186.93566789665067
          ],
          [
            104.41143429190251,
            -187.67386926293906
          ],
          [
            104.04230973553226,
            -188.4120706292275
          ],
          [
            102.56584031261144,
            -190.62666302101218
          ],
          [
            100.72030393844078,
            -192.10303063234738
          ],
          [
            99.61294467061009,
            -193.94852819452817
          ],
          [
            97.76739389515933,
            -195.79400234254786
          ],
          [
            96.66003462732867,
            -197.63949990472864
          ],
          [
            95.18352200056756,
            -200.96141190656675
          ],
          [
            94.44530169038725,
            -201.6996015657746
          ],
          [
            94.07617713401699,
            -202.43780293206302
          ],
          [
            92.2306551611264,
            -203.54506400671377
          ],
          [
            90.7541713369255,
            -206.12876293518295
          ],
          [
            90.01592222418499,
            -207.6051656677598
          ],
          [
            88.53951040638457,
            -208.34333191280658
          ],
          [
            87.06309858858414,
            -209.0814981578534
          ],
          [
            84.80910974988556,
            -210.5736002179231
          ],
          [
            83.37201143896267,
            -212.40333991720834
          ],
          [
            81.89554201604186,
            -214.617932308993
          ],
          [
            80.05000564187118,
            -216.0942999203282
          ],
          [
            77.01611524744742,
            -217.292425699283
          ],
          [
            76.67591881422479,
            -217.39156836016917
          ],
          [
            75.88826857139752,
            -217.6523780627495
          ],
          [
            75.10447261111072,
            -219.01604686092165
          ],
          [
            74.59041203152289,
            -221.2826204423903
          ],
          [
            74.4918492286097,
            -223.1071478308798
          ],
          [
            74.4917916234893,
            -224.5835739776177
          ],
          [
            74.49173401836892,
            -226.06000012435558
          ],
          [
            74.04035545991051,
            -227.50225878761782
          ],
          [
            73.82563689464078,
            -229.3867026036732
          ],
          [
            73.7537207396152,
            -230.15280928127527
          ],
          [
            73.61662692753114,
            -231.61631663307145
          ],
          [
            73.51025922318176,
            -233.1268475192397
          ],
          [
            72.43736291256705,
            -235.09031653473969
          ],
          [
            72.04640305604644,
            -237.13311867691394
          ],
          [
            72.01178914294515,
            -238.5746020626009
          ],
          [
            71.94441705730901,
            -240.0859677392241
          ],
          [
            71.94435945218862,
            -241.56239388596197
          ],
          [
            71.94430184706823,
            -243.03882003269987
          ],
          [
            71.94425864322794,
            -244.1461396427533
          ],
          [
            71.85611815754996,
            -245.0225170595728
          ],
          [
            71.71478933034777,
            -245.32574585261827
          ],
          [
            71.36625482427274,
            -246.07354500240882
          ],
          [
            71.01772031819772,
            -246.82134415219937
          ],
          [
            70.62000736785468,
            -247.57477386092637
          ],
          [
            70.34645784012092,
            -248.0046760760251
          ],
          [
            69.90571913123765,
            -248.69731132981025
          ],
          [
            68.13981327649272,
            -251.4646532078759
          ],
          [
            66.83834604225812,
            -254.10013938774145
          ],
          [
            66.76490047792146,
            -255.95740707944327
          ],
          [
            66.7531509392914,
            -257.4337427414325
          ],
          [
            66.74140140066136,
            -258.91007840342183
          ],
          [
            66.72967438984831,
            -260.3864140661256
          ],
          [
            66.71792485121826,
            -261.8627497281149
          ],
          [
            66.70617531258821,
            -263.3390853901042
          ],
          [
            66.59679184117955,
            -264.773740276254
          ],
          [
            66.76059993061585,
            -266.2923674545174
          ],
          [
            66.3914465716854,
            -267.7687818941747
          ],
          [
            66.02232201531515,
            -268.5069832604632
          ],
          [
            65.28408730385475,
            -269.6142794563555
          ]
        ]
      },
      "properties": {
        "type": "variant",
        "id": 2,
        "color": "#4444ff",
        "vzdal_m": 1908,
        "prevyseni_m": 21,
        "cas_s": 518,
        "tempo_str": "4:31"
      }
    },
    {
      "type": "Feature",
      "geometry": {
        "type": "LineString",
        "coordinates": [
          [
            138.00006957054404,
            -164.0521162594614
          ],
          [
            138.73824667688405,
            -164.42124621030695
          ],
          [
            139.10731362813394,
            -165.15947099075643
          ],
          [
            139.10725602301352,
            -166.63589713749434
          ],
          [
            139.10719841789313,
            -168.11232328423222
          ],
          [
            139.10714081277277,
            -169.58874943097013
          ],
          [
            139.84527471527247,
            -171.06519899186907
          ],
          [
            139.10701120125188,
            -172.9107082611304
          ],
          [
            138.73782903976124,
            -175.1253357741567
          ],
          [
            138.73777143464085,
            -176.60176192089457
          ],
          [
            138.73772823080054,
            -177.709081530948
          ],
          [
            139.1067951820504,
            -178.44730631139748
          ],
          [
            138.87515582262714,
            -180.39335370609948
          ],
          [
            137.12237677165768,
            -182.7605001676525
          ],
          [
            136.57383898399328,
            -184.69696290893697
          ],
          [
            136.42668217827523,
            -186.5599730238131
          ],
          [
            136.1554202351758,
            -188.40743455442293
          ],
          [
            135.4153624017066,
            -190.62770495117974
          ],
          [
            134.30797433131576,
            -193.2114155867295
          ],
          [
            133.56968201473495,
            -195.79513792935973
          ],
          [
            133.56965321217476,
            -196.53335100272866
          ],
          [
            133.5695668044942,
            -198.7479902228355
          ],
          [
            132.83128888919347,
            -200.96260602878127
          ],
          [
            131.72390081880263,
            -203.54631666433096
          ],
          [
            129.87835004335184,
            -205.39179081235068
          ],
          [
            128.03282807046128,
            -206.49905188700146
          ],
          [
            125.81818154120045,
            -208.34451432794057
          ],
          [
            125.07999003358032,
            -208.3444909137795
          ],
          [
            124.3417841246801,
            -208.71357403630293
          ],
          [
            123.60357821577989,
            -209.08265715882635
          ],
          [
            123.23446806068974,
            -209.45175198843026
          ],
          [
            121.75796983520873,
            -212.4045574535839
          ],
          [
            120.28148601100781,
            -214.9882563820531
          ],
          [
            118.80500218680689,
            -217.57195531052227
          ],
          [
            117.32851836260599,
            -220.15565423899147
          ],
          [
            115.85204893968516,
            -222.37024663077614
          ],
          [
            114.74467527057442,
            -224.58485072964137
          ],
          [
            114.00642615783391,
            -226.06125346221822
          ],
          [
            112.52999993875338,
            -227.1685262439495
          ],
          [
            111.79180843113328,
            -227.16850282978842
          ],
          [
            111.42268387476301,
            -227.90670419607682
          ],
          [
            109.57714750059233,
            -229.38307180741205
          ],
          [
            108.46978823276167,
            -231.2285693695928
          ],
          [
            108.10066367639142,
            -231.96677073588123
          ],
          [
            107.73153912002115,
            -232.70497210216962
          ],
          [
            105.88600274585048,
            -234.18133971350485
          ],
          [
            105.14775363310999,
            -235.65774244608167
          ],
          [
            104.77862907673973,
            -236.3959438123701
          ],
          [
            103.30218845637911,
            -237.87232313078587
          ],
          [
            101.82573343473838,
            -239.71780898588608
          ],
          [
            100.34924961053747,
            -242.30150791435528
          ],
          [
            99.24191914526702,
            -243.4087924031671
          ],
          [
            98.87279458889674,
            -244.1469937694555
          ],
          [
            97.39635396853613,
            -245.62337308787124
          ],
          [
            94.81262608674534,
            -247.0997172850454
          ],
          [
            91.85980245114449,
            -248.576049775139
          ],
          [
            89.64518472444384,
            -249.68329914270925
          ],
          [
            88.90697881554362,
            -250.05238226523264
          ],
          [
            87.06145684265304,
            -251.15964333988336
          ],
          [
            86.32325093375283,
            -251.5287264624068
          ],
          [
            83.37042729815197,
            -253.00505895250043
          ],
          [
            81.15579517017123,
            -254.4814148567551
          ],
          [
            78.57206728838044,
            -255.95775905392924
          ],
          [
            75.98833940658965,
            -257.4341032511034
          ],
          [
            75.25013349768943,
            -257.80318637362683
          ],
          [
            74.88102334259928,
            -258.17228120323074
          ],
          [
            74.14278863113887,
            -259.27957739912307
          ],
          [
            73.7736640747686,
            -260.0177787654115
          ],
          [
            73.40456832095855,
            -260.01776705833095
          ],
          [
            73.03544376458831,
            -260.7559684246194
          ],
          [
            72.66631920821806,
            -261.4941697909078
          ],
          [
            71.18983538401714,
            -264.07786871937697
          ],
          [
            69.34429900984645,
            -265.55423633071223
          ],
          [
            68.23693974201579,
            -267.3997338928929
          ],
          [
            66.76048472037508,
            -269.2452197479932
          ],
          [
            65.28408730385475,
            -269.6142794563555
          ]
        ]
      },
      "properties": {
        "type": "variant",
        "id": 3,
        "color": "#44ff44",
        "vzdal_m": 1884,
        "prevyseni_m": 9,
        "cas_s": 518,
        "tempo_str": "4:35"
      }
    }
  ]
}