{
  "type": "FeatureCollection",
  "features": [
    {
      "type": "Feature",
      "geometry": {
        "type": "Point",
        "coordinates": [
          34.26994450971036,
          -128.68976327776156
        ]
      },
      "properties": {
        "type": "start",
        "isom": "418"
      }
    },
    {
      "type": "Feature",
      "geometry": {
        "type": "Point",
        "coordinates": [
          19.900276415814602,
          -107.69712545471802
        ]
      },
      "properties": {
        "type": "end",
        "isom": "417"
      }
    },
    {
      "type": "Feature",
      "geometry": {
        "type": "LineString",
        "coordinates": [
          [
            34.24969802283907,
            -128.6878564895707
          ],
          [
            33.974727072618556,
            -128.04124283647553
          ],
          [
            33.78009986011384,
            -127.48958821249356
          ],
          [
            33.56099665839908,
            -126.9609009308962
          ],
          [
            33.511595811130945,
            -126.57300103692273
          ],
          [
            33.511611221308755,
            -126.10419773388193
          ],
          [
            33.4162902750779,
            -125.70786561679186
          ],
          [
            33.234824121071306,
            -125.27373405247758
          ],
          [
            32.86575038921561,
            -124.90462702115944
          ],
          [
            32.40440519128694,
            -124.53551546666444
          ],
          [
            32.03533145943125,
            -124.1664084353463
          ],
          [
            31.666257727575555,
            -123.79730140402819
          ],
          [
            31.297183995719855,
            -123.42819437271005
          ],
          [
            30.928119363191325,
            -122.78227063743404
          ],
          [
            30.55904563133563,
            -122.41316360611593
          ],
          [
            30.17249229705383,
            -121.89214108636524
          ],
          [
            29.728629734660316,
            -121.58267278565016
          ],
          [
            29.21311428637311,
            -121.23593609861481
          ],
          [
            28.621396406657023,
            -120.84444063030628
          ],
          [
            28.252325707910384,
            -120.38306136433552
          ],
          [
            27.975532541454825,
            -119.73714215223644
          ],
          [
            27.80387263821083,
            -119.18356067961055
          ],
          [
            27.76467879331184,
            -118.78611031499499
          ],
          [
            27.80303721436578,
            -118.44055848664284
          ],
          [
            27.62254544177258,
            -117.88698212876237
          ],
          [
            27.527363136803135,
            -117.61007741289711
          ],
          [
            27.45572134528767,
            -117.41700424800652
          ],
          [
            27.145174273851534,
            -117.15347887337079
          ],
          [
            26.62332026503929,
            -116.6969578586739
          ],
          [
            26.314764443394328,
            -116.13844358359975
          ],
          [
            25.945702843974846,
            -115.40024761367111
          ],
          [
            25.57664124455537,
            -114.66205164374249
          ],
          [
            25.392116511063737,
            -114.10840918947294
          ],
          [
            25.299860210536025,
            -113.6470434930329
          ],
          [
            24.930798611116547,
            -112.90884752310427
          ],
          [
            24.83853624437073,
            -112.63202629596948
          ],
          [
            24.46852755710902,
            -112.27032773765018
          ],
          [
            23.83251018085418,
            -111.92329068140911
          ],
          [
            23.454500650584716,
            -111.5246916324844
          ],
          [
            23.177695351692947,
            -111.2478613589958
          ],
          [
            22.716350153764278,
            -110.87874980450079
          ],
          [
            22.34727642190858,
            -110.50964277318265
          ],
          [
            21.97820269005289,
            -110.14053574186453
          ],
          [
            21.609138057524355,
            -109.49461200658854
          ],
          [
            21.24006432566866,
            -109.1255049752704
          ],
          [
            20.870990593812966,
            -108.7563979439523
          ],
          [
            20.501916861957273,
            -108.38729091263416
          ],
          [
            20.132843130101577,
            -108.01818388131602
          ],
          [
            19.856037831209807,
            -107.74135360782745
          ]
        ]
      },
      "properties": {
        "type": "variant",
        "id": 1,
        "color": "#ff4444",
        "vzdal_m": 1428,
        "prevyseni_m": 0,
        "cas_s": 352,
        "tempo_str": "4:06"
      }
    },
    {
      "type": "Feature",
      "geometry": {
        "type": "LineString",
        "coordinates": [
          [
            34.24969802283907,
            -128.6878564895707
          ],
          [
            33.974727072618556,
            -128.04124283647553
          ],
          [
            33.78009986011384,
            -127.48958821249356
          ],
          [
            33.53582543919062,
            -126.91980128085801
          ],
          [
            33.234781412912014,
            -126.57298746739201
          ],
          [
            32.86927887308935,
            -126.6477799660686
          ],
          [
            32.21980159695991,
            -126.38095111336312
          ],
          [
            31.66618796606732,
            -125.91956280103857
          ],
          [
            31.297114234211627,
            -125.55045576972043
          ],
          [
            30.928046568574036,
            -124.99680426909705
          ],
          [
            30.558972836718343,
            -124.62769723777895
          ],
          [
            30.189902137971703,
            -124.16631797180818
          ],
          [
            29.820831439225064,
            -123.70493870583745
          ],
          [
            29.451760740478427,
            -123.24355943986669
          ],
          [
            29.082687008622727,
            -122.87445240854858
          ],
          [
            28.713622376094197,
            -122.22852867327256
          ],
          [
            28.71363450853041,
            -121.85943973466206
          ],
          [
            28.436841342074853,
            -121.21352052256296
          ],
          [
            28.344585041547145,
            -120.75215482612293
          ],
          [
            28.252328741019436,
            -120.29078912968289
          ],
          [
            27.883267141599955,
            -119.55259315975428
          ],
          [
            27.824386119439016,
            -119.09935910771043
          ],
          [
            27.810697743466694,
            -118.7432767359849
          ],
          [
            27.80303721436578,
            -118.44055848664284
          ],
          [
            27.62254544177258,
            -117.88698212876237
          ],
          [
            27.527363136803135,
            -117.61007741289711
          ],
          [
            27.45572134528767,
            -117.41700424800652
          ],
          [
            27.052905840887608,
            -117.06120211554125
          ],
          [
            26.64731139217789,
            -116.68035003246243
          ],
          [
            26.222499043539457,
            -115.95389459111759
          ],
          [
            25.85343744411998,
            -115.21569862118896
          ],
          [
            25.484375844700498,
            -114.47750265126035
          ],
          [
            25.39211954417279,
            -114.01613695482031
          ],
          [
            25.207594810681158,
            -113.46249450055075
          ],
          [
            24.930801644225596,
            -112.81657528845165
          ],
          [
            24.83853624437073,
            -112.63202629596948
          ],
          [
            24.57081211067822,
            -112.28323797320547
          ],
          [
            24.179790137090983,
            -112.23171360080595
          ],
          [
            23.82358954798568,
            -111.43243749053939
          ],
          [
            23.45452188234809,
            -110.87878598991603
          ],
          [
            23.085451183601453,
            -110.41740672394526
          ],
          [
            22.716377451745757,
            -110.04829969262715
          ],
          [
            22.123362020157803,
            -109.62096228138851
          ],
          [
            21.793687055888416,
            -109.3100765836371
          ],
          [
            21.42461332403272,
            -108.94096955231896
          ],
          [
            21.055539592177027,
            -108.57186252100084
          ],
          [
            20.68646586032133,
            -108.20275548968272
          ],
          [
            20.132849196319686,
            -107.83363941201077
          ],
          [
            19.856037831209807,
            -107.74135360782745
          ]
        ]
      },
      "properties": {
        "type": "variant",
        "id": 2,
        "color": "#4444ff",
        "vzdal_m": 1437,
        "prevyseni_m": 0,
        "cas_s": 354,
        "tempo_str": "4:06"
      }
    },
    {
      "type": "Feature",
      "geometry": {
        "type": "LineString",
        "coordinates": [
          [
            34.24969802283907,
            -128.6878564895707
          ],
          [
            33.788349791801345,
            -128.41101716972827
          ],
          [
            33.05019019565375,
            -128.04189204570253
          ],
          [
            32.49657656476115,
            -127.58050373337798
          ],
          [
            31.75841696861355,
            -127.21137860935224
          ],
          [
            31.389343236757856,
            -126.8422715780341
          ],
          [
            31.02026950490216,
            -126.47316454671596
          ],
          [
            30.65119880615552,
            -126.01178528074523
          ],
          [
            30.189853608226848,
            -125.6426737262502
          ],
          [
            29.728508410298176,
            -125.27356217175517
          ],
          [
            29.17488568007842,
            -125.08899056338848
          ],
          [
            28.71354048214975,
            -124.71987900889346
          ],
          [
            28.159923818148105,
            -124.35076293122152
          ],
          [
            27.606307154146457,
            -123.98164685354958
          ],
          [
            27.11108331269596,
            -123.67887110944875
          ],
          [
            26.591348325325193,
            -123.15114698672998
          ],
          [
            26.13000312739652,
            -122.78203543223496
          ],
          [
            25.760929395540828,
            -122.41292840091683
          ],
          [
            25.391855663685135,
            -122.04382136959872
          ],
          [
            25.0227910311566,
            -121.39789763432272
          ],
          [
            24.65372336551901,
            -120.84424613369933
          ],
          [
            24.28465873299048,
            -120.19832239842334
          ],
          [
            23.91559410046195,
            -119.55239866314733
          ],
          [
            23.546532501042467,
            -118.81420269321872
          ],
          [
            23.177470901622986,
            -118.07600672329008
          ],
          [
            22.90067166894932,
            -117.61463198049623
          ],
          [
            22.531604003311735,
            -117.06098047987287
          ],
          [
            22.53161613574795,
            -116.69189154126236
          ],
          [
            22.531628268184164,
            -116.32280260265186
          ],
          [
            22.23154375784988,
            -115.56736573977784
          ],
          [
            22.152940650262494,
            -115.40383896215279
          ],
          [
            21.97609638903693,
            -114.84721906507929
          ],
          [
            21.701344560729265,
            -114.20046140103571
          ],
          [
            21.574195550117725,
            -113.74105022060313
          ],
          [
            21.568146266270723,
            -113.36013717595951
          ],
          [
            21.568974265539914,
            -112.90729018437096
          ],
          [
            21.55459442938202,
            -112.54274544372747
          ],
          [
            21.240045779083864,
            -111.99184686051514
          ],
          [
            20.87090566675947,
            -111.3400205142258
          ],
          [
            20.59411250030391,
            -110.6941013021267
          ],
          [
            20.317319333848353,
            -110.0481820900276
          ],
          [
            20.040526167392798,
            -109.40226287792852
          ],
          [
            20.040538299829013,
            -109.03317393931802
          ],
          [
            20.040550432265224,
            -108.66408500070752
          ],
          [
            20.04056256470144,
            -108.29499606209701
          ],
          [
            19.856037831209807,
            -107.74135360782745
          ]
        ]
      },
      "properties": {
        "type": "variant",
        "id": 3,
        "color": "#44ff44",
        "vzdal_m": 1453,
        "prevyseni_m": 0,
        "cas_s": 376,
        "tempo_str": "4:18"
      }
    }
  ]
}