{
  "type": "FeatureCollection",
  "features": [
    {
      "type": "Feature",
      "geometry": {
        "type": "Point",
        "coordinates": [
          113.85885041561977,
          -237.89680225800427
        ]
      },
      "properties": {
        "type": "start",
        "isom": "418"
      }
    },
    {
      "type": "Feature",
      "geometry": {
        "type": "Point",
        "coordinates": [
          42.25326004027958,
          -214.8289245081056
        ]
      },
      "properties": {
        "type": "end",
        "isom": "417"
      }
    },
    {
      "type": "Feature",
      "geometry": {
        "type": "LineString",
        "coordinates": [
          [
            113.86633824026202,
            -237.90406370180872
          ],
          [
            113.31269124516977,
            -238.45766997150292
          ],
          [
            112.20540938742151,
            -239.1957935725983
          ],
          [
            111.09813359589134,
            -239.74937270454726
          ],
          [
            110.72904166538129,
            -239.93389908186356
          ],
          [
            110.00159286868175,
            -239.95546858856272
          ],
          [
            108.86516986127457,
            -240.19583752433488
          ],
          [
            108.14891096767957,
            -240.32253115949132
          ],
          [
            107.41939021720975,
            -240.3796876951957
          ],
          [
            106.2825171038272,
            -240.5706028922151
          ],
          [
            105.56813404588623,
            -240.72676461808626
          ],
          [
            104.84076514873486,
            -240.8115029803164
          ],
          [
            103.71960615429924,
            -241.08189010563038
          ],
          [
            102.98596366558145,
            -241.14017680530355
          ],
          [
            101.60457688550277,
            -240.35826693513985
          ],
          [
            100.8008736707365,
            -239.0607580965781
          ],
          [
            100.0688026723498,
            -237.5411115288804
          ],
          [
            99.39760553836105,
            -236.02026828391044
          ],
          [
            99.43221099263681,
            -235.62562428946086
          ],
          [
            99.2672752358365,
            -235.24796856297363
          ],
          [
            98.97296504156822,
            -234.84790246225248
          ],
          [
            98.58794120586234,
            -234.5345243107276
          ],
          [
            97.07292863379648,
            -233.8435378238864
          ],
          [
            95.6854904940336,
            -233.26143905298608
          ],
          [
            94.78732594200947,
            -232.61933442328117
          ],
          [
            94.09354055638727,
            -231.8411752467338
          ],
          [
            93.33601899751014,
            -231.1242190086497
          ],
          [
            92.56314992516253,
            -230.43767972388878
          ],
          [
            91.52717872042777,
            -229.61071536614182
          ],
          [
            90.08176050813996,
            -228.82293301058826
          ],
          [
            88.75984796028906,
            -228.32966328025313
          ],
          [
            88.05882085198257,
            -228.12512938230765
          ],
          [
            87.6930225746431,
            -228.12274311642165
          ],
          [
            87.32457051149196,
            -227.97265764951538
          ],
          [
            86.93299306518496,
            -227.89092005518089
          ],
          [
            86.16129684293347,
            -227.85354194385565
          ],
          [
            85.9906800768541,
            -227.9022811762747
          ],
          [
            85.08135255390705,
            -228.1426631207114
          ],
          [
            84.79982805096597,
            -228.27030712166965
          ],
          [
            84.2313358799667,
            -227.99110283523396
          ],
          [
            83.53300250296142,
            -226.874413320441
          ],
          [
            82.78848994201023,
            -225.7737954117641
          ],
          [
            82.00703995732229,
            -224.72625153107904
          ],
          [
            81.30408225196507,
            -223.95215591330492
          ],
          [
            80.55219473722889,
            -223.03335477122752
          ],
          [
            79.825841659323,
            -222.09715688010715
          ],
          [
            79.12514899269331,
            -221.14202059244673
          ],
          [
            78.53779389004366,
            -220.29877320244748
          ],
          [
            78.38660078460921,
            -220.0829494796378
          ],
          [
            78.11892497623887,
            -219.75053810848328
          ],
          [
            77.81027590997572,
            -219.49968736610992
          ],
          [
            77.55966240955603,
            -219.34207522093396
          ],
          [
            77.18377215174777,
            -219.17262054115213
          ],
          [
            75.83358879670214,
            -218.5639458460161
          ],
          [
            74.33002776546914,
            -217.88612712688882
          ],
          [
            72.98377656615507,
            -216.97781802838873
          ],
          [
            71.9758023906456,
            -216.31030738894617
          ],
          [
            70.68402006427813,
            -215.75661066010113
          ],
          [
            69.57677460383853,
            -215.3874674463177
          ],
          [
            68.28499227747106,
            -214.83377071747265
          ],
          [
            67.36228368295932,
            -214.64918101875068
          ],
          [
            66.62411195437544,
            -214.64914483509037
          ],
          [
            65.88594022579154,
            -214.64910865143003
          ],
          [
            65.14776849720766,
            -214.64907246776966
          ],
          [
            64.40959676862377,
            -214.64903628410934
          ],
          [
            63.11781444225632,
            -214.09533955526427
          ],
          [
            62.37964271367243,
            -214.09530337160396
          ],
          [
            61.272397253232825,
            -213.72616015782046
          ],
          [
            59.98061492686536,
            -213.17246342897542
          ],
          [
            58.504295734570036,
            -212.43421318506884
          ],
          [
            57.594297255570325,
            -212.2366951785533
          ],
          [
            56.46018864650721,
            -212.58144816938423
          ],
          [
            55.9150811464145,
            -212.7884234378867
          ],
          [
            54.986387967249385,
            -213.1420389350423
          ],
          [
            54.234305286997085,
            -213.46960161069043
          ],
          [
            53.848372154398135,
            -213.6067320243355
          ],
          [
            53.47436385185953,
            -213.92921196669505
          ],
          [
            53.12656054003256,
            -213.8882807007754
          ],
          [
            52.23500923614922,
            -214.1159954106711
          ],
          [
            51.844179929507646,
            -214.2124146744945
          ],
          [
            51.437186719649034,
            -214.3439202571331
          ],
          [
            51.06166610195548,
            -214.51427582327446
          ],
          [
            50.68513995646116,
            -214.68637634430715
          ],
          [
            50.29625282967011,
            -214.98540768869591
          ],
          [
            50.11982021585604,
            -215.2963092169702
          ],
          [
            49.092521268071955,
            -215.01737441145013
          ],
          [
            48.35434953948807,
            -215.0173382277898
          ],
          [
            47.247091946612244,
            -215.01728395229924
          ],
          [
            46.69346921639244,
            -214.83271234540751
          ],
          [
            45.95529748780856,
            -214.83267616174717
          ],
          [
            45.21712575922467,
            -214.83263997808686
          ],
          [
            44.478954030640786,
            -214.8326037944265
          ],
          [
            43.7407823020569,
            -214.83256761076615
          ],
          [
            43.002610573473014,
            -214.83253142710578
          ],
          [
            42.26443884488913,
            -214.83249524344546
          ]
        ]
      },
      "properties": {
        "type": "variant",
        "id": 1,
        "color": "#ff4444",
        "vzdal_m": 2291,
        "prevyseni_m": 5,
        "cas_s": 570,
        "tempo_str": "4:08"
      }
    },
    {
      "type": "Feature",
      "geometry": {
        "type": "LineString",
        "coordinates": [
          [
            113.86633824026202,
            -237.90406370180872
          ],
          [
            113.31269124516977,
            -238.45766997150292
          ],
          [
            112.20540938742151,
            -239.1957935725983
          ],
          [
            111.09813359589134,
            -239.74937270454726
          ],
          [
            110.72904166538129,
            -239.93389908186356
          ],
          [
            110.00159286868175,
            -239.95546858856272
          ],
          [
            108.86516986127457,
            -240.19583752433488
          ],
          [
            108.14891096767957,
            -240.32253115949132
          ],
          [
            107.41939021720975,
            -240.3796876951957
          ],
          [
            106.2825171038272,
            -240.5706028922151
          ],
          [
            105.56813404588623,
            -240.72676461808626
          ],
          [
            104.84076514873486,
            -240.8115029803164
          ],
          [
            103.71960615429924,
            -241.08189010563038
          ],
          [
            102.98596366558145,
            -241.14017680530355
          ],
          [
            101.54612874478967,
            -240.27241350346236
          ],
          [
            100.57917433113478,
            -240.11794602568025
          ],
          [
            99.65646573662303,
            -239.93335632695837
          ],
          [
            98.36468341025555,
            -239.37965959811334
          ],
          [
            97.25743794981595,
            -239.01051638432983
          ],
          [
            95.78110662508442,
            -238.6413550787162
          ],
          [
            94.48933643115316,
            -237.71856941157822
          ],
          [
            93.01301723885784,
            -236.98031916767158
          ],
          [
            91.53669804656252,
            -236.242068923765
          ],
          [
            91.1676182484887,
            -236.05750636278833
          ],
          [
            90.4294465199048,
            -236.057470179128
          ],
          [
            89.69127479132092,
            -236.05743399546768
          ],
          [
            89.32218286081087,
            -236.24196037278398
          ],
          [
            88.03040660066151,
            -235.50371917479245
          ],
          [
            87.66132680258768,
            -235.3191566138158
          ],
          [
            87.29223487207763,
            -235.5036829911321
          ],
          [
            85.81591567978231,
            -234.7654327472255
          ],
          [
            84.70865808690648,
            -234.76537847173498
          ],
          [
            83.97048635832259,
            -234.7653422880746
          ],
          [
            83.23231462973871,
            -234.7653061044143
          ],
          [
            82.49414290115482,
            -234.76526992075395
          ],
          [
            81.57143430664308,
            -234.58068022203204
          ],
          [
            80.09511511434775,
            -233.8424299781254
          ],
          [
            78.61879592205243,
            -233.10417973421883
          ],
          [
            77.1424767297571,
            -232.3659294903122
          ],
          [
            76.03523126931749,
            -231.99678627652875
          ],
          [
            75.29705954073361,
            -231.9967500928684
          ],
          [
            74.37435094622187,
            -231.8121603941465
          ],
          [
            73.63617921763799,
            -231.81212421048613
          ],
          [
            72.8980074890541,
            -231.8120880268258
          ],
          [
            72.15983576047022,
            -231.81205184316548
          ],
          [
            71.05259030003062,
            -231.44290862938198
          ],
          [
            70.12988170551887,
            -231.25831893066007
          ],
          [
            68.65356251322355,
            -230.52006868675343
          ],
          [
            67.36178018685608,
            -229.9663719579084
          ],
          [
            66.6236084582722,
            -229.96633577424808
          ],
          [
            65.88543672968831,
            -229.96629959058774
          ],
          [
            65.14726500110443,
            -229.96626340692737
          ],
          [
            64.04001954066482,
            -229.59712019314392
          ],
          [
            62.916168132239434,
            -228.8249792485138
          ],
          [
            61.82554681843995,
            -228.3052003581375
          ],
          [
            61.08737508985607,
            -228.3051641744772
          ],
          [
            60.34920336127218,
            -228.30512799081683
          ],
          [
            59.6110376989064,
            -228.12054733801
          ],
          [
            58.13471850661108,
            -227.38229709410342
          ],
          [
            57.396552844245306,
            -227.1977164412966
          ],
          [
            57.02747304617148,
            -227.01315388031992
          ],
          [
            56.842930114025506,
            -227.01314483440487
          ],
          [
            56.47385031595168,
            -226.8285822734282
          ],
          [
            55.18206798958421,
            -226.27488554458316
          ],
          [
            54.443896261000326,
            -226.27484936092281
          ],
          [
            53.70573059863456,
            -226.09026870811596
          ],
          [
            53.33665080056072,
            -225.90570614713934
          ],
          [
            53.152107868414745,
            -225.90569710122423
          ],
          [
            52.78302807034092,
            -225.7211345402476
          ],
          [
            52.598485138194945,
            -225.7211254943325
          ],
          [
            52.22940534012112,
            -225.53656293335587
          ],
          [
            51.86032554204729,
            -225.3520003723792
          ],
          [
            50.38400634975197,
            -224.61375012847262
          ],
          [
            49.27676088931236,
            -224.24460691468911
          ],
          [
            48.16951542887276,
            -223.87546370090567
          ],
          [
            47.43137403137943,
            -222.95270517151292
          ],
          [
            46.50868363552201,
            -222.2144820653516
          ],
          [
            46.32414676959416,
            -222.02992855029
          ],
          [
            46.13961596988441,
            -221.66083056608198
          ],
          [
            45.40146850617297,
            -220.92261650583572
          ],
          [
            44.66333317489775,
            -219.81531350729648
          ],
          [
            43.92519177740442,
            -218.89255497790379
          ],
          [
            43.37160544449329,
            -217.60071655613314
          ],
          [
            43.00255597751001,
            -216.49343164942408
          ],
          [
            42.448969644598876,
            -215.2015932276535
          ],
          [
            42.26443884488913,
            -214.83249524344546
          ]
        ]
      },
      "properties": {
        "type": "variant",
        "id": 2,
        "color": "#4444ff",
        "vzdal_m": 2206,
        "prevyseni_m": 0,
        "cas_s": 588,
        "tempo_str": "4:26"
      }
    },
    {
      "type": "Feature",
      "geometry": {
        "type": "LineString",
        "coordinates": [
          [
            113.86633824026202,
            -237.90406370180872
          ],
          [
            113.31269124516977,
            -238.45766997150292
          ],
          [
            112.20540938742151,
            -239.1957935725983
          ],
          [
            111.09813359589134,
            -239.74937270454726
          ],
          [
            110.72904166538129,
            -239.93389908186356
          ],
          [
            110.00159286868175,
            -239.95546858856272
          ],
          [
            108.86516986127457,
            -240.19583752433488
          ],
          [
            108.14891096767957,
            -240.32253115949132
          ],
          [
            107.41939021720975,
            -240.3796876951957
          ],
          [
            106.2825171038272,
            -240.5706028922151
          ],
          [
            105.56813404588623,
            -240.72676461808626
          ],
          [
            104.84076514873486,
            -240.8115029803164
          ],
          [
            103.71960615429924,
            -241.08189010563038
          ],
          [
            102.98596366558145,
            -241.14017680530355
          ],
          [
            101.60457688550277,
            -240.35826693513985
          ],
          [
            101.02457686034475,
            -239.51177403678994
          ],
          [
            100.88543581852726,
            -239.3097769638357
          ],
          [
            99.47196526800384,
            -238.6415359970179
          ],
          [
            98.36473194000045,
            -237.9033038449415
          ],
          [
            96.88841274770513,
            -237.16505360103488
          ],
          [
            95.96572235184772,
            -236.42683049487354
          ],
          [
            95.04303195599032,
            -235.6886073887122
          ],
          [
            93.75125569584095,
            -234.95036619072067
          ],
          [
            92.64402236783756,
            -234.21213403864428
          ],
          [
            91.72131377332583,
            -234.02754433992231
          ],
          [
            90.98314204474194,
            -234.027508156262
          ],
          [
            90.42951931452214,
            -233.84293654937025
          ],
          [
            89.69137185081071,
            -233.10472248912401
          ],
          [
            88.7686814549533,
            -232.36649938296264
          ],
          [
            88.58415065524355,
            -231.99740139875462
          ],
          [
            88.2150708571697,
            -231.81283883777795
          ],
          [
            86.73875166487439,
            -231.07458859387137
          ],
          [
            85.26243247257906,
            -230.33633834996473
          ],
          [
            84.15517487970324,
            -230.33628407447424
          ],
          [
            83.23246628519149,
            -230.15169437575236
          ],
          [
            82.3097819555522,
            -229.2289268004445
          ],
          [
            81.38709155969478,
            -228.49070369428316
          ],
          [
            79.91077236739946,
            -227.75245345037655
          ],
          [
            78.43445317510414,
            -227.01420320646994
          ],
          [
            78.0653733770303,
            -226.82964064549327
          ],
          [
            76.4045051863709,
            -226.2759258248181
          ],
          [
            75.85090672102353,
            -225.35317634134043
          ],
          [
            74.92821025894801,
            -224.79949770432557
          ],
          [
            74.55913046087419,
            -224.6149351433489
          ],
          [
            74.19005066280035,
            -224.43037258237226
          ],
          [
            73.82096479850841,
            -224.4303544905421
          ],
          [
            73.45188500043457,
            -224.24579192956546
          ],
          [
            72.52917640592284,
            -224.06120223084352
          ],
          [
            72.34463347377687,
            -224.06119318492844
          ],
          [
            71.97555367570304,
            -223.8766306239518
          ],
          [
            70.86830821526343,
            -223.50748741016832
          ],
          [
            69.57653195511408,
            -222.76924621217682
          ],
          [
            68.28475569496472,
            -222.0310050141853
          ],
          [
            66.99297336859726,
            -221.47730828534026
          ],
          [
            66.25480164001337,
            -221.47727210167992
          ],
          [
            64.77848244771805,
            -220.73902185777328
          ],
          [
            63.30216325542272,
            -220.0007716138667
          ],
          [
            61.8258440631274,
            -219.26252136996007
          ],
          [
            60.534061736759945,
            -218.70882464111503
          ],
          [
            59.05774254446461,
            -217.97057439720845
          ],
          [
            58.13503394995286,
            -217.78598469848654
          ],
          [
            57.765954151879036,
            -217.60142213750987
          ],
          [
            57.39687435380521,
            -217.41685957653323
          ],
          [
            57.212331421659236,
            -217.41685053061815
          ],
          [
            56.8432516235854,
            -217.2322879696415
          ],
          [
            56.65870869143943,
            -217.2322789237264
          ],
          [
            56.2896288933656,
            -217.04771636274978
          ],
          [
            55.551457164781716,
            -217.0476801790894
          ],
          [
            54.81328543619783,
            -217.04764399542907
          ],
          [
            54.62874250405186,
            -217.047634949514
          ],
          [
            54.25966270597803,
            -216.86307238853735
          ],
          [
            53.890582907904204,
            -216.67850982756067
          ],
          [
            53.521490977394144,
            -216.86303620487698
          ],
          [
            53.15241117932032,
            -216.67847364390033
          ],
          [
            52.41423945073643,
            -216.67843746023996
          ],
          [
            51.676067722152546,
            -216.67840127657965
          ],
          [
            50.199748529857224,
            -215.94015103267301
          ],
          [
            49.277039935345485,
            -215.7555613339511
          ],
          [
            48.60573679314,
            -215.83268805855852
          ],
          [
            47.616159612249845,
            -215.57093545156886
          ],
          [
            46.69343888530188,
            -215.75543469113993
          ],
          [
            46.13981615508208,
            -215.5708630842482
          ],
          [
            45.217107560570334,
            -215.3862733855263
          ],
          [
            44.10986816634884,
            -214.8325857025963
          ],
          [
            43.37169643776496,
            -214.83254951893596
          ],
          [
            42.633524709181074,
            -214.83251333527565
          ],
          [
            42.26443884488913,
            -214.83249524344546
          ]
        ]
      },
      "properties": {
        "type": "variant",
        "id": 3,
        "color": "#44ff44",
        "vzdal_m": 2165,
        "prevyseni_m": 1,
        "cas_s": 594,
        "tempo_str": "4:34"
      }
    }
  ]
}