{
  "type": "FeatureCollection",
  "features": [
    {
      "type": "Feature",
      "geometry": {
        "type": "Point",
        "coordinates": [
          87.3496231350339,
          -36.06322010691649
        ]
      },
      "properties": {
        "type": "start",
        "isom": "110"
      }
    },
    {
      "type": "Feature",
      "geometry": {
        "type": "Point",
        "coordinates": [
          81.11120014414855,
          -51.358882660430666
        ]
      },
      "properties": {
        "type": "end",
        "isom": "204"
      }
    },
    {
      "type": "Feature",
      "geometry": {
        "type": "LineString",
        "coordinates": [
          [
            87.38547665614546,
            -36.09305771753766
          ],
          [
            87.47773295667317,
            -36.554423413977695
          ],
          [
            87.47772689045506,
            -36.73896788328294
          ],
          [
            87.38545239127303,
            -36.83123559475867
          ],
          [
            87.20089732669086,
            -37.20031548701535
          ],
          [
            87.29315969343668,
            -37.477136714150134
          ],
          [
            87.20088519425465,
            -37.569404425625855
          ],
          [
            87.10860766196356,
            -37.7539443717542
          ],
          [
            87.20085789627316,
            -38.39985453749948
          ],
          [
            86.83175383332694,
            -38.95346985270761
          ],
          [
            86.55492426956273,
            -39.41481745644002
          ],
          [
            86.6471896694176,
            -39.59936644892218
          ],
          [
            86.46262853861734,
            -40.15299081048412
          ],
          [
            86.09352144256205,
            -40.79887836034487
          ],
          [
            85.72442344583392,
            -41.167949206247755
          ],
          [
            85.53986231503364,
            -41.7215735678097
          ],
          [
            85.44757568341541,
            -42.182930217895915
          ],
          [
            85.07846555425107,
            -42.9210900024093
          ],
          [
            84.70935542508674,
            -43.65924978692268
          ],
          [
            84.3402452959224,
            -44.39740957143606
          ],
          [
            84.15568416512212,
            -44.951033932998
          ],
          [
            83.78657403595778,
            -45.68919371751139
          ],
          [
            83.41746997301156,
            -46.242809032719514
          ],
          [
            83.04835984384722,
            -46.98096881723289
          ],
          [
            82.95607321222899,
            -47.442325467319115
          ],
          [
            82.7715120814287,
            -47.99594982888105
          ],
          [
            82.4946764514464,
            -48.64184190191872
          ],
          [
            82.31012138686422,
            -49.0109217941754
          ],
          [
            82.21784385457315,
            -49.19546174030375
          ],
          [
            82.12556632228205,
            -49.380001686432095
          ],
          [
            82.03328878999098,
            -49.56454163256045
          ],
          [
            81.66417866082664,
            -50.30270141707382
          ],
          [
            81.29507156477136,
            -50.94858896693457
          ],
          [
            81.11051650018919,
            -51.31766885919127
          ]
        ]
      },
      "properties": {
        "type": "variant",
        "id": 1,
        "color": "#ff4444",
        "vzdal_m": 918,
        "prevyseni_m": 0,
        "cas_s": 241,
        "tempo_str": "4:22"
      }
    },
    {
      "type": "Feature",
      "geometry": {
        "type": "LineString",
        "coordinates": [
          [
            87.38547665614546,
            -36.09305771753766
          ],
          [
            87.84681578785603,
            -36.64671374133794
          ],
          [
            88.12360895431158,
            -37.292632953437035
          ],
          [
            88.40040212076713,
            -37.93855216553613
          ],
          [
            88.49265842129483,
            -38.399917861976164
          ],
          [
            88.49264628885864,
            -38.769006800586666
          ],
          [
            88.49263415642241,
            -39.13809573919717
          ],
          [
            88.4926220239862,
            -39.50718467780767
          ],
          [
            88.49260989154999,
            -39.87627361641817
          ],
          [
            88.49260685844094,
            -39.96854585107079
          ],
          [
            88.12350582860375,
            -40.429888931626294
          ],
          [
            87.75440176565752,
            -40.98350424683443
          ],
          [
            87.47756613567523,
            -41.629396319872086
          ],
          [
            87.10845600651089,
            -42.36755610438547
          ],
          [
            86.73935194356466,
            -42.9211714195936
          ],
          [
            86.73934587734655,
            -43.10571588889885
          ],
          [
            86.37023574818221,
            -43.84387567341223
          ],
          [
            86.00112561901787,
            -44.58203545792561
          ],
          [
            85.6320185229626,
            -45.227923007786366
          ],
          [
            85.26291446001636,
            -45.7815383229945
          ],
          [
            84.89380736396107,
            -46.42742587285525
          ],
          [
            84.5247002679058,
            -47.073313422716005
          ],
          [
            84.15559317185053,
            -47.719200972576765
          ],
          [
            83.97103204105024,
            -48.2728253341387
          ],
          [
            83.78647091024997,
            -48.826449695700646
          ],
          [
            83.41736381419469,
            -49.472337245561405
          ],
          [
            83.0482627843575,
            -49.9336803261169
          ],
          [
            82.67916478762939,
            -50.30275117201978
          ],
          [
            82.12552385875532,
            -50.67181297156885
          ],
          [
            81.6641543959542,
            -51.04087929429482
          ],
          [
            81.11051650018919,
            -51.31766885919127
          ]
        ]
      },
      "properties": {
        "type": "variant",
        "id": 2,
        "color": "#4444ff",
        "vzdal_m": 975,
        "prevyseni_m": 0,
        "cas_s": 253,
        "tempo_str": "4:19"
      }
    },
    {
      "type": "Feature",
      "geometry": {
        "type": "LineString",
        "coordinates": [
          [
            87.38547665614546,
            -36.09305771753766
          ],
          [
            86.92411022645342,
            -36.36985180561101
          ],
          [
            86.5550243621615,
            -36.369833712903386
          ],
          [
            85.9091150003235,
            -36.64661875462292
          ],
          [
            85.81684656735959,
            -36.5543419967934
          ],
          [
            85.44776070306767,
            -36.55432390408577
          ],
          [
            84.98640033959373,
            -36.64657352285386
          ],
          [
            84.80185134122966,
            -36.831108945805305
          ],
          [
            84.70957380893859,
            -37.01564889193365
          ],
          [
            84.70956167650237,
            -37.38473783054415
          ],
          [
            84.70954954406616,
            -37.75382676915465
          ],
          [
            84.70953741162995,
            -38.12291570776515
          ],
          [
            84.43270178164764,
            -38.76880778080282
          ],
          [
            84.34041515002939,
            -39.23016443088904
          ],
          [
            84.34040301759319,
            -39.599253369499536
          ],
          [
            84.1558418867929,
            -40.15287773106148
          ],
          [
            84.06355525517466,
            -40.6142343811477
          ],
          [
            83.87899412437439,
            -41.16785874270964
          ],
          [
            83.87898199193818,
            -41.53694768132014
          ],
          [
            83.87896985950196,
            -41.906036619930646
          ],
          [
            83.87895772706574,
            -42.27512555854115
          ],
          [
            83.60212209708344,
            -42.921017631578806
          ],
          [
            83.5098354654652,
            -43.38237428166503
          ],
          [
            83.50982333302898,
            -43.75146322027553
          ],
          [
            83.50981120059276,
            -44.120552158886035
          ],
          [
            83.50979906815655,
            -44.48964109749654
          ],
          [
            83.50978693572034,
            -44.85873003610704
          ],
          [
            83.50977480328412,
            -45.227818974717536
          ],
          [
            83.41748817166588,
            -45.68917562480376
          ],
          [
            83.14065254168356,
            -46.33506769784142
          ],
          [
            83.04836591006533,
            -46.79642434792764
          ],
          [
            82.95607927844708,
            -47.257780998013864
          ],
          [
            82.86379264682884,
            -47.71913764810009
          ],
          [
            82.67923151602857,
            -48.272762009662024
          ],
          [
            82.31012138686422,
            -49.0109217941754
          ],
          [
            82.21784385457315,
            -49.19546174030375
          ],
          [
            82.12556632228205,
            -49.380001686432095
          ],
          [
            82.03328878999098,
            -49.56454163256045
          ],
          [
            81.66417866082664,
            -50.30270141707382
          ],
          [
            81.29507156477136,
            -50.94858896693457
          ],
          [
            81.11051650018919,
            -51.31766885919127
          ]
        ]
      },
      "properties": {
        "type": "variant",
        "id": 3,
        "color": "#44ff44",
        "vzdal_m": 978,
        "prevyseni_m": 0,
        "cas_s": 248,
        "tempo_str": "4:13"
      }
    }
  ]
}