{
  "type": "FeatureCollection",
  "features": [
    {
      "type": "Feature",
      "geometry": {
        "type": "Point",
        "coordinates": [
          98.28998953197626,
          -139.19526955259562
        ]
      },
      "properties": {
        "type": "start",
        "isom": "417"
      }
    },
    {
      "type": "Feature",
      "geometry": {
        "type": "Point",
        "coordinates": [
          165.44639807327007,
          -210.40912384867684
        ]
      },
      "properties": {
        "type": "end",
        "isom": "109"
      }
    },
    {
      "type": "Feature",
      "geometry": {
        "type": "LineString",
        "coordinates": [
          [
            98.13869304482427,
            -139.32071393690393
          ],
          [
            97.76952528461374,
            -141.16623491324577
          ],
          [
            97.76948208077344,
            -142.2735545232992
          ],
          [
            97.76946767949335,
            -142.64266105998368
          ],
          [
            97.76945327821325,
            -143.01176759666814
          ],
          [
            98.1385202294631,
            -143.74999237711762
          ],
          [
            98.50758718071297,
            -144.4882171575671
          ],
          [
            99.98385498571241,
            -147.44111627936502
          ],
          [
            101.09104143818192,
            -150.02489715739796
          ],
          [
            102.56735244702166,
            -151.87047666914245
          ],
          [
            104.41277361095156,
            -153.34696135128303
          ],
          [
            105.52003206982155,
            -154.08520954589358
          ],
          [
            108.47274049518161,
            -155.56172934927574
          ],
          [
            109.94906590530147,
            -157.0382023243358
          ],
          [
            111.79450147051148,
            -158.1455804697919
          ],
          [
            115.11632005096169,
            -159.25300544357012
          ],
          [
            117.69993272251172,
            -160.72951353987173
          ],
          [
            119.91444964025166,
            -162.20600992909286
          ],
          [
            121.39076064909142,
            -164.05158944083735
          ],
          [
            122.12892335415135,
            -164.78982592836738
          ],
          [
            122.49799030540119,
            -165.52805070881683
          ],
          [
            122.86707165793116,
            -165.89716895258186
          ],
          [
            123.23613860918103,
            -166.63539373303135
          ],
          [
            124.71242081546059,
            -169.21918631814478
          ],
          [
            126.18873182430032,
            -171.0647658298893
          ],
          [
            129.1414402496604,
            -172.54128563327146
          ],
          [
            131.35595716740036,
            -174.01778202249258
          ],
          [
            133.20137833133026,
            -175.49426670463313
          ],
          [
            134.67768934017,
            -177.33984621637765
          ],
          [
            136.52312490538,
            -178.44722436183375
          ],
          [
            138.73764182312,
            -179.92372075105484
          ],
          [
            140.95215874085991,
            -181.40021714027594
          ],
          [
            142.79756550350973,
            -183.245808359101
          ],
          [
            145.38117817505974,
            -184.72231645540262
          ],
          [
            146.48839343008945,
            -186.5678842600666
          ],
          [
            147.9646900376491,
            -188.7825703084956
          ],
          [
            148.70278073630854,
            -191.366339479448
          ],
          [
            150.54815869639813,
            -193.95014377164193
          ],
          [
            150.91718244380772,
            -195.79568816214484
          ],
          [
            152.39345024880717,
            -198.74858728394275
          ],
          [
            153.8697180538066,
            -201.7014864057407
          ],
          [
            155.34604346392646,
            -203.17795938080076
          ],
          [
            156.45324431767605,
            -205.39263372214916
          ],
          [
            158.6677756366961,
            -206.50002357468583
          ],
          [
            161.2513883082461,
            -207.97653167098744
          ],
          [
            163.46588269816905,
            -209.453028059494
          ],
          [
            165.31131826337906,
            -210.5604062049501
          ]
        ]
      },
      "properties": {
        "type": "variant",
        "id": 1,
        "color": "#ff4444",
        "vzdal_m": 1394,
        "prevyseni_m": 41,
        "cas_s": 457,
        "tempo_str": "5:27"
      }
    },
    {
      "type": "Feature",
      "geometry": {
        "type": "LineString",
        "coordinates": [
          [
            98.13869304482427,
            -139.32071393690393
          ],
          [
            97.76952528461374,
            -141.16623491324577
          ],
          [
            97.76948208077344,
            -142.2735545232992
          ],
          [
            97.76946767949335,
            -142.64266105998368
          ],
          [
            97.76945327821325,
            -143.01176759666814
          ],
          [
            98.1385202294631,
            -143.74999237711762
          ],
          [
            98.50758718071297,
            -144.4882171575671
          ],
          [
            99.98385498571241,
            -147.44111627936502
          ],
          [
            101.09104143818192,
            -150.02489715739796
          ],
          [
            102.19827109449169,
            -151.50135842537745
          ],
          [
            104.78188376604172,
            -152.9778665216791
          ],
          [
            106.99642948634188,
            -153.71614983753125
          ],
          [
            109.21097520664205,
            -154.4544331533834
          ],
          [
            110.68735822188225,
            -154.45447998170553
          ],
          [
            111.42554972950236,
            -154.4545033958666
          ],
          [
            112.1637268358424,
            -154.82363334671214
          ],
          [
            113.64013865364282,
            -154.08546710166533
          ],
          [
            115.11652166888305,
            -154.08551392998748
          ],
          [
            116.96198603665324,
            -154.45467900207464
          ],
          [
            119.91469446201333,
            -155.9311988054568
          ],
          [
            122.49832153484344,
            -157.03860036507396
          ],
          [
            124.34377150133353,
            -157.77687197384557
          ],
          [
            126.5583172216337,
            -158.51515528969773
          ],
          [
            128.03470023687393,
            -158.51520211801986
          ],
          [
            130.24924595717408,
            -159.25348543387204
          ],
          [
            133.20195438253415,
            -160.7300052372542
          ],
          [
            134.67833739777438,
            -160.73005206557633
          ],
          [
            136.15472041301462,
            -160.73009889389846
          ],
          [
            137.2620076744448,
            -160.7301340151401
          ],
          [
            138.00018478078482,
            -161.0992639659856
          ],
          [
            138.73836188712485,
            -161.46839391683116
          ],
          [
            139.10744323965477,
            -161.8375121605962
          ],
          [
            139.8456203459948,
            -162.2066421114417
          ],
          [
            140.58379745233484,
            -162.57577206228726
          ],
          [
            142.7983287713549,
            -163.6831619148239
          ],
          [
            144.27465418147474,
            -165.15963488988393
          ],
          [
            144.6953767693056,
            -165.91446479495937
          ],
          [
            144.48432273047578,
            -167.41394214358817
          ],
          [
            144.54018083020026,
            -168.8477461888592
          ],
          [
            144.49786108784363,
            -170.32295445745598
          ],
          [
            145.38165341730297,
            -172.541800744815
          ],
          [
            146.48881106721225,
            -175.86379469621684
          ],
          [
            147.2269881735523,
            -176.23292464706242
          ],
          [
            148.33420342858196,
            -178.07849245172636
          ],
          [
            149.0722941272414,
            -180.66226162267876
          ],
          [
            150.54860513608114,
            -182.50784113442327
          ],
          [
            152.39399749745087,
            -184.7225388899328
          ],
          [
            153.8703085062906,
            -186.56811840167728
          ],
          [
            155.7157440715006,
            -187.67549654713338
          ],
          [
            157.19204067906023,
            -189.89018259556235
          ],
          [
            157.9301457789998,
            -192.1048452298303
          ],
          [
            159.40647118911963,
            -193.5813182048903
          ],
          [
            160.88276779667927,
            -195.7960042533193
          ],
          [
            161.25180594536894,
            -197.27244210713772
          ],
          [
            161.98998305170898,
            -197.64157205798327
          ],
          [
            162.72808815164848,
            -199.85623469225115
          ],
          [
            163.09710377252117,
            -201.33267254535505
          ],
          [
            162.7279729414077,
            -202.80908698572694
          ],
          [
            162.7279153362873,
            -204.2855131324648
          ],
          [
            163.09694535844008,
            -205.39284444888426
          ],
          [
            163.46601230968994,
            -206.13106922933375
          ],
          [
            164.57321316343953,
            -208.3457435706822
          ],
          [
            164.57319876215942,
            -208.71485010736666
          ],
          [
            165.31131826337906,
            -210.5604062049501
          ]
        ]
      },
      "properties": {
        "type": "variant",
        "id": 2,
        "color": "#4444ff",
        "vzdal_m": 1508,
        "prevyseni_m": 36,
        "cas_s": 473,
        "tempo_str": "5:13"
      }
    },
    {
      "type": "Feature",
      "geometry": {
        "type": "LineString",
        "coordinates": [
          [
            98.13869304482427,
            -139.32071393690393
          ],
          [
            97.76952528461374,
            -141.16623491324577
          ],
          [
            97.76948208077344,
            -142.2735545232992
          ],
          [
            97.76946767949335,
            -142.64266105998368
          ],
          [
            97.76945327821325,
            -143.01176759666814
          ],
          [
            97.76943887693314,
            -143.38087413335262
          ],
          [
            97.76942447565304,
            -143.7499806700371
          ],
          [
            98.13849142690292,
            -144.48820545048656
          ],
          [
            99.24567787937242,
            -147.0719863285195
          ],
          [
            99.24562027425202,
            -148.54841247525738
          ],
          [
            99.24556266913163,
            -150.0248386219953
          ],
          [
            99.24550506401124,
            -151.50126476873317
          ],
          [
            98.13814579618057,
            -153.34676233091392
          ],
          [
            97.39991108472017,
            -154.45405852680628
          ],
          [
            97.39985347959978,
            -155.93048467354419
          ],
          [
            97.39979587447938,
            -157.40691082028206
          ],
          [
            97.76881962188897,
            -159.25245521078497
          ],
          [
            98.13784336929854,
            -161.09799960128788
          ],
          [
            99.61411117429799,
            -164.05089872308582
          ],
          [
            101.09037897929744,
            -167.00379784488374
          ],
          [
            102.19759423432714,
            -168.8493656495477
          ],
          [
            103.67394844700716,
            -169.58762555123877
          ],
          [
            104.04302979953712,
            -169.9567437950038
          ],
          [
            105.88840775962674,
            -172.54054808719778
          ],
          [
            108.10295347992688,
            -173.27883140304994
          ],
          [
            111.05566190528697,
            -174.75535120643212
          ],
          [
            113.639274576837,
            -176.23185930273374
          ],
          [
            116.222887248387,
            -177.70836739903538
          ],
          [
            117.69915505338645,
            -180.66126652083332
          ],
          [
            118.06822200463631,
            -181.3994913012828
          ],
          [
            120.28273892237628,
            -182.8759876905039
          ],
          [
            121.02084402231581,
            -185.09065032477181
          ],
          [
            122.86629398880591,
            -185.82892193354343
          ],
          [
            124.71174395529601,
            -186.56719354231504
          ],
          [
            126.18805496413574,
            -188.41277305405956
          ],
          [
            128.4025862831558,
            -189.5201629065962
          ],
          [
            130.61710320089577,
            -190.9966592958173
          ],
          [
            133.20073027372587,
            -192.10406085543445
          ],
          [
            133.9389073800659,
            -192.47319080628
          ],
          [
            134.67708448640593,
            -192.84232075712555
          ],
          [
            135.41526159274594,
            -193.21145070797107
          ],
          [
            136.15343869908597,
            -193.58058065881661
          ],
          [
            136.52252005161594,
            -193.94969890258162
          ],
          [
            137.26069715795592,
            -194.31882885342716
          ],
          [
            138.67155519407606,
            -195.83471331928027
          ],
          [
            140.21334797819563,
            -197.27177480354723
          ],
          [
            141.68967338831547,
            -198.7482477786073
          ],
          [
            143.1659987984353,
            -200.2247207536673
          ],
          [
            145.74961146998533,
            -201.7012288499689
          ],
          [
            148.7023198953454,
            -203.17774865335113
          ],
          [
            151.6550283207055,
            -204.6542684567333
          ],
          [
            153.86957404100562,
            -205.39255177258542
          ],
          [
            156.0840909587456,
            -206.86904816180652
          ],
          [
            158.29866548160595,
            -206.86911840428976
          ],
          [
            160.88229255443605,
            -207.97651996390692
          ],
          [
            161.62046966077608,
            -208.34564991475247
          ],
          [
            163.83496405069903,
            -209.82214630325902
          ],
          [
            165.31131826337906,
            -210.5604062049501
          ]
        ]
      },
      "properties": {
        "type": "variant",
        "id": 3,
        "color": "#44ff44",
        "vzdal_m": 1484,
        "prevyseni_m": 46,
        "cas_s": 483,
        "tempo_str": "5:25"
      }
    }
  ]
}