{
  "type": "FeatureCollection",
  "features": [
    {
      "type": "Feature",
      "geometry": {
        "type": "Point",
        "coordinates": [
          37.3277084883473,
          -132.1095221920705
        ]
      },
      "properties": {
        "type": "start",
        "isom": "417"
      }
    },
    {
      "type": "Feature",
      "geometry": {
        "type": "Point",
        "coordinates": [
          49.9843656676089,
          -110.72697493261546
        ]
      },
      "properties": {
        "type": "end",
        "isom": "204"
      }
    },
    {
      "type": "Feature",
      "geometry": {
        "type": "LineString",
        "coordinates": [
          [
            37.294544178212334,
            -132.1020784365557
          ],
          [
            37.663642174940456,
            -131.73300759065282
          ],
          [
            38.03274017166857,
            -131.36393674474996
          ],
          [
            38.03275230410479,
            -130.99484780613946
          ],
          [
            38.21731040179601,
            -130.53349567923013
          ],
          [
            38.86322279674307,
            -130.16443840285797
          ],
          [
            39.41686372561714,
            -129.7953766033089
          ],
          [
            39.78596172234526,
            -129.42630575740603
          ],
          [
            40.33960265121934,
            -129.05724395785694
          ],
          [
            40.80097211402043,
            -128.68817763513098
          ],
          [
            41.26234157682154,
            -128.319111312405
          ],
          [
            41.63144563976776,
            -127.76549599719688
          ],
          [
            41.81600677056804,
            -127.21187163563492
          ],
          [
            42.00056790136832,
            -126.65824727407299
          ],
          [
            42.092854532986564,
            -126.19689062398677
          ],
          [
            42.369690162968865,
            -125.55099855094912
          ],
          [
            42.55425129376914,
            -124.99737418938717
          ],
          [
            42.73881242456942,
            -124.44374982782521
          ],
          [
            42.83109905618766,
            -123.982393177739
          ],
          [
            43.01566018698794,
            -123.42876881617707
          ],
          [
            43.292495816970245,
            -122.78287674313941
          ],
          [
            43.38478244858849,
            -122.3215200930532
          ],
          [
            43.753883478425664,
            -121.86017701249767
          ],
          [
            44.12298450826284,
            -121.39883393194218
          ],
          [
            44.49208857120907,
            -120.84521861673403
          ],
          [
            44.5843630703911,
            -120.75295090525832
          ],
          [
            45.13800399926517,
            -120.38388910570926
          ],
          [
            45.59937649517533,
            -119.92255054833065
          ],
          [
            45.96847449190345,
            -119.55347970242778
          ],
          [
            46.33757248863157,
            -119.1844088565249
          ],
          [
            46.79894498454173,
            -118.7230702991463
          ],
          [
            47.1680460143789,
            -118.26172721859079
          ],
          [
            47.53714704421608,
            -117.8003841380353
          ],
          [
            47.9062450409442,
            -117.43131329213242
          ],
          [
            48.367617536854354,
            -116.9699747347538
          ],
          [
            48.92125846572842,
            -116.60091293520476
          ],
          [
            49.29035646245654,
            -116.23184208930186
          ],
          [
            49.56719209243886,
            -115.5859500162642
          ],
          [
            49.65948479027521,
            -114.94004889687274
          ],
          [
            49.65949692271141,
            -114.57095995826224
          ],
          [
            49.65950905514763,
            -114.20187101965173
          ],
          [
            49.65952118758385,
            -113.83278208104123
          ],
          [
            49.65953332002006,
            -113.46369314243073
          ],
          [
            49.65954545245628,
            -113.09460420382024
          ],
          [
            49.6595575848925,
            -112.72551526520974
          ],
          [
            49.6595697173287,
            -112.35642632659923
          ],
          [
            49.65958184976492,
            -111.98733738798873
          ],
          [
            49.65959398220114,
            -111.61824844937823
          ],
          [
            49.844155113001406,
            -111.06462408781628
          ],
          [
            50.028710177583584,
            -110.69554419555958
          ]
        ]
      },
      "properties": {
        "type": "variant",
        "id": 1,
        "color": "#ff4444",
        "vzdal_m": 1425,
        "prevyseni_m": 70,
        "cas_s": 436,
        "tempo_str": "5:05"
      }
    },
    {
      "type": "Feature",
      "geometry": {
        "type": "LineString",
        "coordinates": [
          [
            37.294544178212334,
            -132.1020784365557
          ],
          [
            37.663642174940456,
            -131.73300759065282
          ],
          [
            38.03274017166857,
            -131.36393674474996
          ],
          [
            38.03275230410479,
            -130.99484780613946
          ],
          [
            38.21731040179601,
            -130.53349567923013
          ],
          [
            38.86322279674307,
            -130.16443840285797
          ],
          [
            39.41686372561714,
            -129.7953766033089
          ],
          [
            39.78596172234526,
            -129.42630575740603
          ],
          [
            40.155059719073385,
            -129.05723491150314
          ],
          [
            40.52415771580151,
            -128.68816406560026
          ],
          [
            41.26234157682154,
            -128.319111312405
          ],
          [
            41.63144563976776,
            -127.76549599719688
          ],
          [
            41.81600677056804,
            -127.21187163563492
          ],
          [
            42.00056790136832,
            -126.65824727407299
          ],
          [
            42.092854532986564,
            -126.19689062398677
          ],
          [
            42.369690162968865,
            -125.55099855094912
          ],
          [
            42.55425129376914,
            -124.99737418938717
          ],
          [
            42.73881242456942,
            -124.44374982782521
          ],
          [
            42.83109905618766,
            -123.982393177739
          ],
          [
            43.01566018698794,
            -123.42876881617707
          ],
          [
            43.292495816970245,
            -122.78287674313941
          ],
          [
            43.292507949406456,
            -122.41378780452891
          ],
          [
            43.384788514806594,
            -122.13697562374794
          ],
          [
            43.384800647242805,
            -121.76788668513744
          ],
          [
            43.384812779679024,
            -121.39879774652694
          ],
          [
            43.384824912115235,
            -121.02970880791644
          ],
          [
            43.66165750898849,
            -120.47608896953139
          ],
          [
            43.938490105861746,
            -119.92246913114636
          ],
          [
            44.30759720191702,
            -119.27658158128561
          ],
          [
            44.67670733108136,
            -118.53842179677221
          ],
          [
            45.04580229470043,
            -118.26162318552197
          ],
          [
            45.41489119210139,
            -118.16936904357695
          ],
          [
            45.78399222193857,
            -117.70802596302146
          ],
          [
            46.15309325177574,
            -117.24668288246596
          ],
          [
            46.52219731472197,
            -116.69306756725783
          ],
          [
            46.891307443886305,
            -115.95490778274446
          ],
          [
            47.07586554157753,
            -115.49355565583514
          ],
          [
            47.44497263763281,
            -114.84766810597436
          ],
          [
            47.8140797336881,
            -114.20178055611362
          ],
          [
            48.18318682974338,
            -113.55589300625286
          ],
          [
            48.55229695890771,
            -112.81773322173949
          ],
          [
            48.92140708807205,
            -112.07957343722612
          ],
          [
            49.29050811790922,
            -111.6182303566706
          ],
          [
            49.659612180855454,
            -111.06461504146247
          ],
          [
            50.028710177583584,
            -110.69554419555958
          ]
        ]
      },
      "properties": {
        "type": "variant",
        "id": 2,
        "color": "#4444ff",
        "vzdal_m": 1403,
        "prevyseni_m": 65,
        "cas_s": 419,
        "tempo_str": "4:58"
      }
    },
    {
      "type": "Feature",
      "geometry": {
        "type": "LineString",
        "coordinates": [
          [
            37.294544178212334,
            -132.1020784365557
          ],
          [
            37.848166908432084,
            -132.2866500449224
          ],
          [
            38.30952120568792,
            -132.37894489545954
          ],
          [
            38.770875502943746,
            -132.4712397459967
          ],
          [
            39.13996136723566,
            -132.4712578387043
          ],
          [
            39.50904723152756,
            -132.47127593141195
          ],
          [
            40.062682094183536,
            -132.28675860116812
          ],
          [
            40.33951469105679,
            -131.73313876278308
          ],
          [
            40.52406368942084,
            -131.54860333983166
          ],
          [
            40.708609654675854,
            -131.45634015153286
          ],
          [
            40.893155619930866,
            -131.36407696323403
          ],
          [
            41.262259682877094,
            -130.8104616480259
          ],
          [
            41.539089246641296,
            -130.3491140442935
          ],
          [
            42.09273320862442,
            -129.88778001009177
          ],
          [
            42.4618342384616,
            -129.4264369295363
          ],
          [
            42.83093223518972,
            -129.0573660836334
          ],
          [
            43.20003023191784,
            -128.68829523773053
          ],
          [
            43.38458832960906,
            -128.22694311082122
          ],
          [
            43.75369542566435,
            -127.58105556096045
          ],
          [
            44.12280252171963,
            -126.9351680110997
          ],
          [
            44.4919035515568,
            -126.47382493054418
          ],
          [
            44.86100761450303,
            -125.92020961533606
          ],
          [
            45.04555661286709,
            -125.73567419238464
          ],
          [
            45.13784324448534,
            -125.2743175422984
          ],
          [
            45.322404375285615,
            -124.72069318073648
          ],
          [
            45.691511471340895,
            -124.0748056308757
          ],
          [
            46.06061553428712,
            -123.52119031566758
          ],
          [
            46.42972263034241,
            -122.87530276580682
          ],
          [
            46.79882062707053,
            -122.50623191990394
          ],
          [
            46.89110725868878,
            -122.04487526981772
          ],
          [
            47.167939855562025,
            -121.49125543143268
          ],
          [
            47.81385225050908,
            -121.12219815506053
          ],
          [
            48.1829502472372,
            -120.75312730915763
          ],
          [
            48.644319710038296,
            -120.38406098643168
          ],
          [
            49.01341770676642,
            -120.01499014052878
          ],
          [
            49.38251570349455,
            -119.64591929462591
          ],
          [
            49.567076834294824,
            -119.09229493306398
          ],
          [
            49.65936346591306,
            -118.63093828297775
          ],
          [
            49.65937559834928,
            -118.26184934436725
          ],
          [
            49.6593877307855,
            -117.89276040575675
          ],
          [
            49.65939986322171,
            -117.52367146714626
          ],
          [
            49.56714356269399,
            -117.06230577070622
          ],
          [
            49.65943019431224,
            -116.60094912062
          ],
          [
            49.659442326748454,
            -116.2318601820095
          ],
          [
            49.659454459184666,
            -115.862771243399
          ],
          [
            49.56719815865696,
            -115.40140554695896
          ],
          [
            49.65948479027521,
            -114.94004889687274
          ],
          [
            49.65949692271141,
            -114.57095995826224
          ],
          [
            49.65950905514763,
            -114.20187101965173
          ],
          [
            49.65952118758385,
            -113.83278208104123
          ],
          [
            49.65953332002006,
            -113.46369314243073
          ],
          [
            49.65954545245628,
            -113.09460420382024
          ],
          [
            49.6595575848925,
            -112.72551526520974
          ],
          [
            49.6595697173287,
            -112.35642632659923
          ],
          [
            49.65958184976492,
            -111.98733738798873
          ],
          [
            49.65959398220114,
            -111.61824844937823
          ],
          [
            49.844155113001406,
            -111.06462408781628
          ],
          [
            50.028710177583584,
            -110.69554419555958
          ]
        ]
      },
      "properties": {
        "type": "variant",
        "id": 3,
        "color": "#44ff44",
        "vzdal_m": 1518,
        "prevyseni_m": 76,
        "cas_s": 485,
        "tempo_str": "5:19"
      }
    }
  ]
}