{
  "type": "FeatureCollection",
  "features": [
    {
      "type": "Feature",
      "geometry": {
        "type": "Point",
        "coordinates": [
          188.17108073262358,
          -167.5646960181226
        ]
      },
      "properties": {
        "type": "start",
        "isom": "204"
      }
    },
    {
      "type": "Feature",
      "geometry": {
        "type": "Point",
        "coordinates": [
          147.64009477849416,
          -144.62048630954726
        ]
      },
      "properties": {
        "type": "end",
        "isom": "204"
      }
    },
    {
      "type": "Feature",
      "geometry": {
        "type": "LineString",
        "coordinates": [
          [
            188.19692554809396,
            -167.7447737885443
          ],
          [
            185.61329847526386,
            -166.63737222892715
          ],
          [
            183.02967140243373,
            -165.52997066931
          ],
          [
            180.07694857579355,
            -164.4225574026123
          ],
          [
            178.60063756695382,
            -162.5769778908678
          ],
          [
            176.38612064921386,
            -161.1004815016467
          ],
          [
            174.1715605276336,
            -160.731304722479
          ],
          [
            173.43338342129357,
            -160.36217477163348
          ],
          [
            171.5878902509632,
            -160.73122277291526
          ],
          [
            171.21879449715314,
            -160.73121106583474
          ],
          [
            170.48061739081314,
            -160.36208111498917
          ],
          [
            169.0042199742928,
            -160.73114082335152
          ],
          [
            167.52786576161276,
            -159.99288092166043
          ],
          [
            166.78968865527273,
            -159.62375097081488
          ],
          [
            166.42059290146267,
            -159.62373926373436
          ],
          [
            165.68241579512267,
            -159.25460931288882
          ],
          [
            163.83698022991265,
            -158.14723116743272
          ],
          [
            162.36069174888993,
            -156.30165165640275
          ],
          [
            161.99162479764007,
            -155.56342687595327
          ],
          [
            161.6225434451101,
            -155.19430863218827
          ],
          [
            160.88436633877006,
            -154.82517868134272
          ],
          [
            157.93165791341,
            -153.34865887796056
          ],
          [
            157.19348080707,
            -152.979528927115
          ],
          [
            156.82441385582013,
            -152.24130414666553
          ],
          [
            156.45533250329015,
            -151.87218590290053
          ],
          [
            155.71715539695015,
            -151.50305595205498
          ],
          [
            154.24082998683028,
            -150.02658297699494
          ],
          [
            151.6572173152803,
            -148.5500748806933
          ],
          [
            149.4427003975403,
            -147.0735784914722
          ],
          [
            147.96638938870058,
            -145.22799897972772
          ],
          [
            147.5973224374507,
            -144.48977419927823
          ]
        ]
      },
      "properties": {
        "type": "variant",
        "id": 1,
        "color": "#ff4444",
        "vzdal_m": 664,
        "prevyseni_m": 44,
        "cas_s": 266,
        "tempo_str": "6:41"
      }
    },
    {
      "type": "Feature",
      "geometry": {
        "type": "LineString",
        "coordinates": [
          [
            188.19692554809396,
            -167.7447737885443
          ],
          [
            185.2441019124931,
            -169.22110627863793
          ],
          [
            183.39856553832243,
            -170.69747388997317
          ],
          [
            181.1839334103417,
            -172.17382979422783
          ],
          [
            179.70752159254127,
            -172.91199603927464
          ],
          [
            178.96931568364104,
            -173.28107916179803
          ],
          [
            176.7547123582205,
            -174.0192219926838
          ],
          [
            174.1709844764297,
            -175.49556618985795
          ],
          [
            170.8490650870188,
            -176.97188697287103
          ],
          [
            169.74177782558863,
            -176.97185185162942
          ],
          [
            167.52720330272828,
            -176.9717816091462
          ],
          [
            165.3127007862684,
            -175.12617868324062
          ],
          [
            162.7291106425354,
            -173.64967058765353
          ],
          [
            161.25278523241556,
            -172.17319761259353
          ],
          [
            159.77645982229572,
            -170.6967246375335
          ],
          [
            157.93103865836582,
            -169.2202399553929
          ],
          [
            156.45471324824595,
            -167.74376698033288
          ],
          [
            154.97838783812614,
            -166.26729400527284
          ],
          [
            153.50206242800627,
            -164.7908210302128
          ],
          [
            153.1329954767564,
            -164.05259624976335
          ],
          [
            151.6566700666366,
            -162.5761232747033
          ],
          [
            150.2905893497706,
            -160.1100116750274
          ],
          [
            149.81137851422756,
            -157.77767976240247
          ],
          [
            149.81143611934795,
            -156.30125361566456
          ],
          [
            149.8114937244683,
            -154.82482746892669
          ],
          [
            149.81155132958872,
            -153.34840132218878
          ],
          [
            149.8116089347091,
            -151.87197517545087
          ],
          [
            148.7044224822396,
            -149.28819429741796
          ],
          [
            147.96630298102,
            -147.44263819983453
          ],
          [
            147.59727923361044,
            -145.59709380933165
          ],
          [
            147.5973224374507,
            -144.48977419927823
          ]
        ]
      },
      "properties": {
        "type": "variant",
        "id": 2,
        "color": "#4444ff",
        "vzdal_m": 860,
        "prevyseni_m": 32,
        "cas_s": 271,
        "tempo_str": "5:15"
      }
    }
  ]
}