{
  "type": "FeatureCollection",
  "features": [
    {
      "type": "Feature",
      "geometry": {
        "type": "Point",
        "coordinates": [
          36.274001946377794,
          -216.86969324921685
        ]
      },
      "properties": {
        "type": "start",
        "isom": "417"
      }
    },
    {
      "type": "Feature",
      "geometry": {
        "type": "Point",
        "coordinates": [
          92.20483500935852,
          -162.85257776805307
        ]
      },
      "properties": {
        "type": "end",
        "isom": "419"
      }
    },
    {
      "type": "Feature",
      "geometry": {
        "type": "LineString",
        "coordinates": [
          [
            36.35899828781883,
            -216.86219493477395
          ],
          [
            37.65082307771307,
            -216.12408037959364
          ],
          [
            38.94264786760731,
            -215.38596582441335
          ],
          [
            40.04992365913748,
            -214.83238669246444
          ],
          [
            40.972668650957885,
            -213.90970957630748
          ],
          [
            41.710864644414215,
            -213.17156788338187
          ],
          [
            43.18723236645443,
            -212.43346237411666
          ],
          [
            44.66360008849465,
            -211.69535686485142
          ],
          [
            45.955430944607,
            -210.77269784052464
          ],
          [
            47.247255734501245,
            -210.03458328534433
          ],
          [
            48.72362345654146,
            -209.29647777607912
          ],
          [
            50.19998511236356,
            -208.74291673596036
          ],
          [
            51.676358900621885,
            -207.8202667575487
          ],
          [
            52.78364075837016,
            -207.08214315645327
          ],
          [
            53.52183675182649,
            -206.34400146352772
          ],
          [
            54.07548981313684,
            -205.60585072468703
          ],
          [
            55.18277167088512,
            -204.86772712359166
          ],
          [
            55.92099192921389,
            -203.3914075540802
          ],
          [
            56.65920005510645,
            -202.28417692286163
          ],
          [
            57.39740211478089,
            -201.3614907607896
          ],
          [
            58.13560417445533,
            -200.43880459871755
          ],
          [
            58.87380016791166,
            -199.700662905792
          ],
          [
            59.61199616136799,
            -198.96252121286642
          ],
          [
            60.53473508697029,
            -198.22438856585592
          ],
          [
            61.272931080426616,
            -197.48624687293037
          ],
          [
            62.19567000602892,
            -196.74811422591986
          ],
          [
            63.118414997849335,
            -195.8254371097629
          ],
          [
            63.30297006243152,
            -195.45635721738506
          ],
          [
            63.48752512701372,
            -195.08727732500716
          ],
          [
            63.67208019159591,
            -194.71819743262932
          ],
          [
            63.85663525617811,
            -194.34911754025143
          ],
          [
            64.0411903207603,
            -193.9800376478736
          ],
          [
            64.04119638697841,
            -193.7954931787271
          ],
          [
            64.2257514515606,
            -193.42641328634923
          ],
          [
            64.77690558230762,
            -192.13504853941723
          ],
          [
            64.6575668185351,
            -191.416682052752
          ],
          [
            65.1485389069078,
            -191.2119248861669
          ],
          [
            66.25580863221984,
            -190.8428902233645
          ],
          [
            66.99399855945806,
            -190.2892929995854
          ],
          [
            67.73221881778683,
            -188.8129734300739
          ],
          [
            68.4704269436794,
            -187.70574279885537
          ],
          [
            69.02409213742597,
            -186.59850312172176
          ],
          [
            69.94683712924639,
            -185.6758260055648
          ],
          [
            70.68503312270272,
            -184.93768431263922
          ],
          [
            71.42322911615904,
            -184.19954261971364
          ],
          [
            72.71505390605329,
            -183.46142806453335
          ],
          [
            74.00687869594752,
            -182.72331350935303
          ],
          [
            75.48324035176962,
            -182.16975246923428
          ],
          [
            76.40598534359005,
            -181.24707535307732
          ],
          [
            77.32872426919235,
            -180.50894270606682
          ],
          [
            78.62054905908658,
            -179.77082815088653
          ],
          [
            79.35875718497914,
            -178.663597519668
          ],
          [
            80.46603904272742,
            -177.9254739185726
          ],
          [
            81.20422896996563,
            -177.37187669479354
          ],
          [
            81.94244316207629,
            -176.08010159442853
          ],
          [
            82.49610835582287,
            -174.97286191729492
          ],
          [
            83.60340234600737,
            -173.86564937790655
          ],
          [
            83.97251854138986,
            -172.94294512400432
          ],
          [
            84.34164686920859,
            -171.65115193180915
          ],
          [
            85.07985499510114,
            -170.54392130059063
          ],
          [
            86.0026181855759,
            -169.06761077699423
          ],
          [
            86.74083844390465,
            -167.59129120748275
          ],
          [
            87.53701602165383,
            -166.12945231600784
          ],
          [
            88.21726076190788,
            -165.1922854758992
          ],
          [
            89.69362848394809,
            -164.454179966634
          ],
          [
            90.61636134333229,
            -163.90059178877002
          ],
          [
            91.90819219944463,
            -162.9779327644432
          ],
          [
            92.2772841299547,
            -162.7934063871269
          ]
        ]
      },
      "properties": {
        "type": "variant",
        "id": 1,
        "color": "#ff4444",
        "vzdal_m": 2184,
        "prevyseni_m": 84,
        "cas_s": 708,
        "tempo_str": "5:24"
      }
    },
    {
      "type": "Feature",
      "geometry": {
        "type": "LineString",
        "coordinates": [
          [
            36.35899828781883,
            -216.86219493477395
          ],
          [
            37.09720034749327,
            -215.9395087727019
          ],
          [
            37.83540847338582,
            -214.83227814148336
          ],
          [
            38.75814739898812,
            -214.0941454944729
          ],
          [
            39.49634339244445,
            -213.35600380154733
          ],
          [
            40.23453938590078,
            -212.61786210862178
          ],
          [
            40.97273537935711,
            -211.8797204156962
          ],
          [
            41.71093137281344,
            -211.14157872277062
          ],
          [
            42.26459656656002,
            -210.03433904563704
          ],
          [
            42.449151631142215,
            -209.66525915325914
          ],
          [
            42.63370669572441,
            -209.2961792608813
          ],
          [
            42.818261760306605,
            -208.9270993685034
          ],
          [
            43.0028168248888,
            -208.5580194761255
          ],
          [
            43.37190875539885,
            -208.3734930988092
          ],
          [
            44.11011081507329,
            -207.45080693673717
          ],
          [
            44.848312874747734,
            -206.52812077466515
          ],
          [
            45.586508868204064,
            -205.78997908173957
          ],
          [
            46.32471699409662,
            -204.68274845052102
          ],
          [
            46.878388254061306,
            -203.39096430424098
          ],
          [
            47.616584247517636,
            -202.65282261131537
          ],
          [
            48.35478630719208,
            -201.73013644924333
          ],
          [
            48.908439368502435,
            -200.99198571040267
          ],
          [
            49.83117829410474,
            -200.25385306339217
          ],
          [
            50.75391721970704,
            -199.51572041638173
          ],
          [
            51.676656145309344,
            -198.77758776937125
          ],
          [
            52.41486427120189,
            -197.6703571381527
          ],
          [
            53.15307846331255,
            -196.3785820377877
          ],
          [
            53.706743657059135,
            -195.27134236065407
          ],
          [
            54.44494571673358,
            -194.34865619858203
          ],
          [
            55.183153842626126,
            -193.2414255673635
          ],
          [
            55.92136196851868,
            -192.134194936145
          ],
          [
            56.65957009441124,
            -191.02696430492645
          ],
          [
            57.3977842865219,
            -189.73518920456146
          ],
          [
            57.58235754975843,
            -188.81247590474413
          ],
          [
            57.951479811359036,
            -187.70522718169545
          ],
          [
            58.68968187103348,
            -186.78254101962338
          ],
          [
            59.24332886612572,
            -186.2289347499292
          ],
          [
            59.61242079663578,
            -186.0444083726129
          ],
          [
            59.98151272714583,
            -185.8598819952966
          ],
          [
            61.45788044918604,
            -185.12177648603137
          ],
          [
            62.749705239080285,
            -184.38366193085108
          ],
          [
            63.487901232536615,
            -183.6455202379255
          ],
          [
            64.41064015813892,
            -182.90738759091502
          ],
          [
            65.33337908374122,
            -182.16925494390452
          ],
          [
            66.62520387363547,
            -181.43114038872423
          ],
          [
            68.10157159567567,
            -180.693034879459
          ],
          [
            69.39339638556991,
            -179.95492032427867
          ],
          [
            70.86976410761014,
            -179.21681481501346
          ],
          [
            72.16158889750437,
            -178.47870025983315
          ],
          [
            73.45341975361673,
            -177.55604123550637
          ],
          [
            74.92978140943883,
            -177.00248019538762
          ],
          [
            76.22160619933308,
            -176.2643656402073
          ],
          [
            76.77525926064342,
            -175.52621490136667
          ],
          [
            77.8825411183917,
            -174.78809130027128
          ],
          [
            78.8052739777759,
            -174.23450312240726
          ],
          [
            80.09710483388825,
            -173.31184409808046
          ],
          [
            80.65077002763482,
            -172.20460442094688
          ],
          [
            81.20442308894519,
            -171.46645368210622
          ],
          [
            81.94263728105585,
            -170.1746785817412
          ],
          [
            82.86538833909438,
            -169.06745699643776
          ],
          [
            83.60358433255071,
            -168.3293153035122
          ],
          [
            84.52632325815301,
            -167.5911826565017
          ],
          [
            85.26451318539122,
            -167.0375854327226
          ],
          [
            86.00271524506566,
            -166.11489927065057
          ],
          [
            86.74091123852199,
            -165.376757577725
          ],
          [
            87.98368197297128,
            -164.68895311175615
          ],
          [
            88.95546888780042,
            -164.0850548446807
          ],
          [
            89.69364061638431,
            -164.08509102834103
          ],
          [
            90.98546540627855,
            -163.34697647316074
          ],
          [
            92.2772841299547,
            -162.7934063871269
          ]
        ]
      },
      "properties": {
        "type": "variant",
        "id": 2,
        "color": "#4444ff",
        "vzdal_m": 2172,
        "prevyseni_m": 83,
        "cas_s": 715,
        "tempo_str": "5:29"
      }
    },
    {
      "type": "Feature",
      "geometry": {
        "type": "LineString",
        "coordinates": [
          [
            36.35899828781883,
            -216.86219493477395
          ],
          [
            36.54357155105536,
            -215.93948163495662
          ],
          [
            36.5435958159278,
            -215.20130375837073
          ],
          [
            36.72816907916433,
            -214.27859045855345
          ],
          [
            37.466389337493105,
            -212.80227088904198
          ],
          [
            38.20460959582188,
            -211.32595131953045
          ],
          [
            38.94282378793254,
            -210.03417621916546
          ],
          [
            39.681050112479426,
            -208.37331218050753
          ],
          [
            40.419270370808206,
            -206.896992610996
          ],
          [
            40.60384363404473,
            -205.97427931117872
          ],
          [
            40.603873965135286,
            -205.05155696544634
          ],
          [
            40.97299016051779,
            -204.1288527115441
          ],
          [
            41.1575573575362,
            -203.39068388087327
          ],
          [
            41.895783682083085,
            -201.7298198422153
          ],
          [
            42.08033268044717,
            -201.5452844189839
          ],
          [
            42.080344812883396,
            -201.17619548069095
          ],
          [
            42.44944280961156,
            -200.80712463422816
          ],
          [
            43.18766306794033,
            -199.3308050647167
          ],
          [
            43.92587119383288,
            -198.2235744334982
          ],
          [
            44.66406718728921,
            -197.48543274057258
          ],
          [
            45.46319089120105,
            -196.7674779051519
          ],
          [
            46.09055781018479,
            -195.60287422582553
          ],
          [
            46.83425854474418,
            -194.50395580599954
          ],
          [
            47.284590099578004,
            -193.84646495779623
          ],
          [
            47.512649656447415,
            -193.470895535281
          ],
          [
            48.170540619733565,
            -192.6874484151508
          ],
          [
            48.908736613189895,
            -191.94930672222523
          ],
          [
            49.646932606646224,
            -191.21116502929968
          ],
          [
            50.38512860010254,
            -190.4730233363741
          ],
          [
            51.12331852734077,
            -189.91942611259498
          ],
          [
            51.86152058701521,
            -188.99673995052297
          ],
          [
            52.41517364832556,
            -188.25858921168228
          ],
          [
            53.337912573927866,
            -187.5204565646718
          ],
          [
            54.07610250116608,
            -186.9668593408927
          ],
          [
            54.814304560840526,
            -186.04417317882067
          ],
          [
            55.36795762215089,
            -185.30602243998
          ],
          [
            56.29069654775319,
            -184.56788979296954
          ],
          [
            57.02888647499141,
            -184.01429256919042
          ],
          [
            57.76708853466584,
            -183.0916064071184
          ],
          [
            58.68982746026814,
            -182.3534737601079
          ],
          [
            59.61257245208856,
            -181.43079664395097
          ],
          [
            59.79712751667075,
            -181.06171675157307
          ],
          [
            59.981676515034835,
            -180.8771813283417
          ],
          [
            60.90441544063714,
            -180.13904868133122
          ],
          [
            61.27350737114719,
            -179.9545223040149
          ],
          [
            61.45805636951127,
            -179.7699868807835
          ],
          [
            63.11896702369746,
            -179.03189041743337
          ],
          [
            64.22624281522761,
            -178.47831128548444
          ],
          [
            65.70260447104971,
            -177.92475024536571
          ],
          [
            67.17897219308993,
            -177.18664473610048
          ],
          [
            68.28625405083821,
            -176.44852113500508
          ],
          [
            69.20899297644051,
            -175.7103884879946
          ],
          [
            70.8699036306267,
            -174.97229202464447
          ],
          [
            71.6080874916468,
            -174.60323927001187
          ],
          [
            72.71536328317696,
            -174.04966013806293
          ],
          [
            73.45355927663329,
            -173.31151844513735
          ],
          [
            74.56084113438156,
            -172.57339484404196
          ],
          [
            75.66811692591172,
            -172.01981571209305
          ],
          [
            76.59086191773214,
            -171.0971385959361
          ],
          [
            77.1445149790425,
            -170.35898785709546
          ],
          [
            77.69814984169852,
            -170.1744705256942
          ],
          [
            78.98997463159276,
            -169.43635597051392
          ],
          [
            80.281799421487,
            -168.6982414153336
          ],
          [
            81.38908127923527,
            -167.9601178142382
          ],
          [
            82.1272772726916,
            -167.22197612131265
          ],
          [
            83.05002226451202,
            -166.29929900515566
          ],
          [
            84.52638998655223,
            -165.56119349589045
          ],
          [
            85.81820871022836,
            -165.00762340985662
          ],
          [
            86.00275164237434,
            -165.0076324557717
          ],
          [
            86.37184357288439,
            -164.8231060784554
          ],
          [
            87.11001530146827,
            -164.82314226211574
          ],
          [
            87.98368197297128,
            -164.68895311175615
          ],
          [
            88.95546888780042,
            -164.0850548446807
          ],
          [
            89.69364061638431,
            -164.08509102834103
          ],
          [
            90.98546540627855,
            -163.34697647316074
          ],
          [
            92.2772841299547,
            -162.7934063871269
          ]
        ]
      },
      "properties": {
        "type": "variant",
        "id": 3,
        "color": "#44ff44",
        "vzdal_m": 2220,
        "prevyseni_m": 86,
        "cas_s": 725,
        "tempo_str": "5:26"
      }
    }
  ]
}