{
  "type": "FeatureCollection",
  "features": [
    {
      "type": "Feature",
      "geometry": {
        "type": "Point",
        "coordinates": [
          96.27906719633224,
          -76.4209497106509
        ]
      },
      "properties": {
        "type": "start",
        "isom": "525"
      }
    },
    {
      "type": "Feature",
      "geometry": {
        "type": "Point",
        "coordinates": [
          97.01811938187832,
          -49.63601707663275
        ]
      },
      "properties": {
        "type": "end",
        "isom": "109"
      }
    },
    {
      "type": "Feature",
      "geometry": {
        "type": "LineString",
        "coordinates": [
          [
            96.24221193049488,
            -76.4164584857179
          ],
          [
            96.24222406293107,
            -76.0473695471074
          ],
          [
            96.14996776240336,
            -75.58600385066735
          ],
          [
            96.14997989483959,
            -75.21691491205686
          ],
          [
            96.1499920272758,
            -74.84782597344636
          ],
          [
            95.96546729378417,
            -74.2941835191768
          ],
          [
            95.96547942622038,
            -73.9250945805663
          ],
          [
            95.9654915586566,
            -73.55600564195579
          ],
          [
            95.87323525812889,
            -73.09463994551577
          ],
          [
            95.87324739056511,
            -72.72555100690526
          ],
          [
            95.87325952300132,
            -72.35646206829476
          ],
          [
            95.87326255611038,
            -72.26418983364213
          ],
          [
            95.68873782261873,
            -71.71054737937257
          ],
          [
            95.68874995505496,
            -71.34145844076207
          ],
          [
            95.6887590543821,
            -71.06464173680419
          ],
          [
            95.68876208749116,
            -70.97236950215157
          ],
          [
            95.68877421992737,
            -70.60328056354106
          ],
          [
            95.68878028614549,
            -70.41873609423581
          ],
          [
            95.78105781843657,
            -70.23419614810747
          ],
          [
            96.05789041530981,
            -69.68057630972244
          ],
          [
            96.42700054447417,
            -68.94241652520905
          ],
          [
            96.51928110987429,
            -68.66560434442809
          ],
          [
            96.88838517282053,
            -68.11198902921996
          ],
          [
            96.88839730525673,
            -67.74290009060945
          ],
          [
            96.88840943769296,
            -67.37381115199895
          ],
          [
            96.98069606931121,
            -66.91245450191273
          ],
          [
            96.9807082017474,
            -66.54336556330223
          ],
          [
            96.98072033418363,
            -66.17427662469173
          ],
          [
            96.88846403365592,
            -65.71291092825169
          ],
          [
            96.88847616609213,
            -65.34382198964119
          ],
          [
            96.98075976460132,
            -64.9747375742076
          ],
          [
            96.98077189703754,
            -64.60564863559709
          ],
          [
            96.98078402947375,
            -64.23655969698659
          ],
          [
            96.88852772894604,
            -63.77519400054656
          ],
          [
            96.88853986138224,
            -63.40610506193606
          ],
          [
            96.88855199381848,
            -63.03701612332556
          ],
          [
            96.88856412625468,
            -62.667927184715055
          ],
          [
            96.88857625869089,
            -62.29883824610455
          ],
          [
            96.88858839112712,
            -61.92974930749405
          ],
          [
            96.88860052356333,
            -61.56066036888355
          ],
          [
            96.88861265599954,
            -61.19157143027305
          ],
          [
            96.79635635547183,
            -60.73020573383302
          ],
          [
            96.79636848790805,
            -60.361116795222514
          ],
          [
            96.79638062034427,
            -59.99202785661201
          ],
          [
            96.79639275278046,
            -59.62293891800151
          ],
          [
            96.7964048852167,
            -59.253849979391006
          ],
          [
            96.7964170176529,
            -58.8847610407805
          ],
          [
            96.79642915008911,
            -58.51567210217001
          ],
          [
            96.79644128252534,
            -58.146583163559505
          ],
          [
            96.79645341496155,
            -57.777494224949
          ],
          [
            96.79646554739776,
            -57.4084052863385
          ],
          [
            96.79647767983398,
            -57.039316347728
          ],
          [
            96.70422137930628,
            -56.57795065128796
          ],
          [
            96.42742821285071,
            -55.932031439188876
          ],
          [
            96.42744034528691,
            -55.56294250057837
          ],
          [
            96.42745247772314,
            -55.19385356196787
          ],
          [
            96.42746461015935,
            -54.82476462335737
          ],
          [
            96.42747674259556,
            -54.455675684746865
          ],
          [
            96.42748887503178,
            -54.08658674613636
          ],
          [
            96.61205000583206,
            -53.53296238457442
          ],
          [
            96.79661113663232,
            -52.97933802301248
          ],
          [
            96.79662326906853,
            -52.61024908440198
          ],
          [
            96.79663540150476,
            -52.241160145791476
          ],
          [
            96.79664753394097,
            -51.87207120718098
          ],
          [
            96.61212280044934,
            -51.31842875291141
          ],
          [
            96.70440943206758,
            -50.85707210282519
          ],
          [
            96.70442156450379,
            -50.48798316421469
          ],
          [
            96.79670819612204,
            -50.026626514128466
          ],
          [
            96.9812632607042,
            -49.65754662187178
          ]
        ]
      },
      "properties": {
        "type": "variant",
        "id": 1,
        "color": "#ff4444",
        "vzdal_m": 1485,
        "prevyseni_m": 19,
        "cas_s": 394,
        "tempo_str": "4:25"
      }
    },
    {
      "type": "Feature",
      "geometry": {
        "type": "LineString",
        "coordinates": [
          [
            96.24221193049488,
            -76.4164584857179
          ],
          [
            96.24222406293107,
            -76.0473695471074
          ],
          [
            96.14996776240336,
            -75.58600385066735
          ],
          [
            96.14997989483959,
            -75.21691491205686
          ],
          [
            96.1499920272758,
            -74.84782597344636
          ],
          [
            95.96546729378417,
            -74.2941835191768
          ],
          [
            95.96547942622038,
            -73.9250945805663
          ],
          [
            95.9654915586566,
            -73.55600564195579
          ],
          [
            95.87323525812889,
            -73.09463994551577
          ],
          [
            95.87324739056511,
            -72.72555100690526
          ],
          [
            95.87325952300132,
            -72.35646206829476
          ],
          [
            95.87326255611038,
            -72.26418983364213
          ],
          [
            95.50418882425467,
            -71.89508280232401
          ],
          [
            95.13511812550803,
            -71.43370353635326
          ],
          [
            94.76604439365235,
            -71.06459650503513
          ],
          [
            94.39697672801475,
            -70.51094500441175
          ],
          [
            93.8433661302312,
            -69.95728445743457
          ],
          [
            93.65884139673958,
            -69.40364200316502
          ],
          [
            93.65885352917579,
            -69.03455306455452
          ],
          [
            93.658865661612,
            -68.66546412594401
          ],
          [
            93.65887779404822,
            -68.29637518733351
          ],
          [
            93.65888386026631,
            -68.11183071802826
          ],
          [
            93.7511613925574,
            -67.92729077189992
          ],
          [
            93.75116442566646,
            -67.8350185372473
          ],
          [
            93.84344195795754,
            -67.65047859111894
          ],
          [
            93.84345409039376,
            -67.28138965250844
          ],
          [
            93.84346622282997,
            -66.91230071389793
          ],
          [
            93.65894148933835,
            -66.35865825962837
          ],
          [
            93.56669125502873,
            -65.71274809388309
          ],
          [
            93.93580138419307,
            -64.97458830936971
          ],
          [
            94.12036251499335,
            -64.42096394780776
          ],
          [
            94.12037464742956,
            -64.05187500919726
          ],
          [
            94.30493577822983,
            -63.49825064763532
          ],
          [
            94.67404590739417,
            -62.760090863121945
          ],
          [
            94.95087547115838,
            -62.29874325938953
          ],
          [
            95.31997953410462,
            -61.7451279441814
          ],
          [
            95.31999166654083,
            -61.3760390055709
          ],
          [
            95.32000379897703,
            -61.0069500669604
          ],
          [
            95.32001593141327,
            -60.6378611283499
          ],
          [
            95.32002806384946,
            -60.268772189739394
          ],
          [
            95.32004019628567,
            -59.89968325112889
          ],
          [
            95.3200523287219,
            -59.53059431251839
          ],
          [
            95.32006446115811,
            -59.16150537390789
          ],
          [
            95.32007659359432,
            -58.79241643529739
          ],
          [
            95.32008872603055,
            -58.42332749668689
          ],
          [
            95.41237535764878,
            -57.961970846600664
          ],
          [
            95.32011905712108,
            -57.50060515016063
          ],
          [
            95.32013118955729,
            -57.13151621155013
          ],
          [
            95.22787488902956,
            -56.670150515110095
          ],
          [
            95.2278870214658,
            -56.30106157649959
          ],
          [
            95.227899153902,
            -55.931972637889096
          ],
          [
            95.22791128633821,
            -55.56288369927859
          ],
          [
            95.22792341877444,
            -55.19379476066809
          ],
          [
            95.50475904875674,
            -54.54790268763043
          ],
          [
            95.68932017955701,
            -53.99427832606849
          ],
          [
            95.96615580953932,
            -53.34838625303083
          ],
          [
            96.24299143952163,
            -52.70249417999317
          ],
          [
            96.24300357195784,
            -52.333405241382664
          ],
          [
            96.51983920194014,
            -51.68751316834501
          ],
          [
            96.70440033274043,
            -51.13388880678306
          ],
          [
            96.70441246517663,
            -50.76479986817257
          ],
          [
            96.70442459761284,
            -50.395710929562064
          ],
          [
            96.88898572841313,
            -49.84208656800013
          ],
          [
            96.9812632607042,
            -49.65754662187178
          ]
        ]
      },
      "properties": {
        "type": "variant",
        "id": 2,
        "color": "#4444ff",
        "vzdal_m": 1543,
        "prevyseni_m": 19,
        "cas_s": 404,
        "tempo_str": "4:21"
      }
    }
  ]
}