{
  "type": "FeatureCollection",
  "features": [
    {
      "type": "Feature",
      "geometry": {
        "type": "Point",
        "coordinates": [
          47.29246531381159,
          -72.3142793677293
        ]
      },
      "properties": {
        "type": "start",
        "isom": "417"
      }
    },
    {
      "type": "Feature",
      "geometry": {
        "type": "Point",
        "coordinates": [
          61.51497004923065,
          -78.97869281236082
        ]
      },
      "properties": {
        "type": "end",
        "isom": "204"
      }
    },
    {
      "type": "Feature",
      "geometry": {
        "type": "LineString",
        "coordinates": [
          [
            47.3384683686154,
            -72.3540828772424
          ],
          [
            47.707554232907306,
            -72.35410096995003
          ],
          [
            48.16890853016314,
            -72.44639582048718
          ],
          [
            48.72252822727384,
            -72.72323966350648
          ],
          [
            49.460687823421445,
            -73.09236478753223
          ],
          [
            50.10657595349606,
            -73.46148538838106
          ],
          [
            50.75246711667975,
            -73.7383337545773
          ],
          [
            51.39835827986343,
            -74.01518212077352
          ],
          [
            52.136517876011034,
            -74.38430724479926
          ],
          [
            52.87467747215862,
            -74.753432368825
          ],
          [
            53.42829716926933,
            -75.03027621184431
          ],
          [
            53.889642367198,
            -75.39938776633934
          ],
          [
            54.350990598235725,
            -75.67622708618174
          ],
          [
            54.91068753425012,
            -76.1012353104564
          ],
          [
            55.36595852638415,
            -76.22991024904346
          ],
          [
            56.01184665645878,
            -76.5990308498923
          ],
          [
            56.47319185438745,
            -76.96814240438732
          ],
          [
            56.93454615164328,
            -77.06043725492448
          ],
          [
            57.67270574779088,
            -77.42956237895024
          ],
          [
            58.41086534393848,
            -77.79868750297598
          ],
          [
            58.779951208230386,
            -77.7987055956836
          ],
          [
            59.51811080437799,
            -78.16783071970934
          ],
          [
            60.256270400525594,
            -78.53695584373509
          ],
          [
            60.90216156370927,
            -78.8138042099313
          ],
          [
            61.455784293929035,
            -78.99837581829799
          ],
          [
            61.54805576000201,
            -78.9983803414749
          ]
        ]
      },
      "properties": {
        "type": "variant",
        "id": 1,
        "color": "#ff4444",
        "vzdal_m": 859,
        "prevyseni_m": 26,
        "cas_s": 257,
        "tempo_str": "4:59"
      }
    },
    {
      "type": "Feature",
      "geometry": {
        "type": "LineString",
        "coordinates": [
          [
            47.3384683686154,
            -72.3540828772424
          ],
          [
            47.984380763562456,
            -71.98502560087024
          ],
          [
            48.39906320754698,
            -71.63867504598582
          ],
          [
            48.7225767570187,
            -71.24688390906448
          ],
          [
            49.09167475374682,
            -70.87781306316161
          ],
          [
            49.6453156826209,
            -70.50875126361252
          ],
          [
            50.10697524569528,
            -70.41465592898635
          ],
          [
            50.466612422525365,
            -70.47296150690691
          ],
          [
            51.121671272224745,
            -70.13973469583252
          ],
          [
            51.58303163569868,
            -70.04748507706442
          ],
          [
            51.952117499990585,
            -70.04750316977204
          ],
          [
            52.321203364282496,
            -70.04752126247968
          ],
          [
            52.723299285450466,
            -70.0949107729896
          ],
          [
            53.06660325202018,
            -70.02888648771058
          ],
          [
            53.613431222920525,
            -70.22744998143934
          ],
          [
            53.90142015075882,
            -70.29429200711138
          ],
          [
            54.538034653853614,
            -70.59509459761456
          ],
          [
            54.825591611113055,
            -70.76925075026243
          ],
          [
            55.14402620697067,
            -71.16978070758444
          ],
          [
            55.50397707814957,
            -71.56819761486776
          ],
          [
            56.06907093882309,
            -71.94032329330537
          ],
          [
            56.55160749738616,
            -72.28506905270248
          ],
          [
            57.18379236261854,
            -72.6758681301605
          ],
          [
            57.60759668264323,
            -72.99252273855758
          ],
          [
            58.237846254560814,
            -73.35166990103943
          ],
          [
            58.79909016986491,
            -73.70891818103765
          ],
          [
            59.25259008081875,
            -73.9980671596447
          ],
          [
            59.57379451075933,
            -74.3134001542381
          ],
          [
            59.5520903251536,
            -74.77046375327615
          ],
          [
            59.75398375538188,
            -75.35168047421408
          ],
          [
            60.08287045611275,
            -75.94874938480395
          ],
          [
            60.277201512406116,
            -76.51847531461404
          ],
          [
            60.42960082348031,
            -77.00128826323903
          ],
          [
            60.6253896290171,
            -77.52197935526384
          ],
          [
            60.99445426154563,
            -78.16790309053982
          ],
          [
            61.36352192718321,
            -78.7215545911632
          ],
          [
            61.54805576000201,
            -78.9983803414749
          ]
        ]
      },
      "properties": {
        "type": "variant",
        "id": 2,
        "color": "#4444ff",
        "vzdal_m": 1054,
        "prevyseni_m": 25,
        "cas_s": 269,
        "tempo_str": "4:15"
      }
    },
    {
      "type": "Feature",
      "geometry": {
        "type": "LineString",
        "coordinates": [
          [
            47.3384683686154,
            -72.3540828772424
          ],
          [
            47.707554232907306,
            -72.35410096995003
          ],
          [
            48.445732027709234,
            -72.16959268606001
          ],
          [
            48.81481789200114,
            -72.16961077876763
          ],
          [
            49.18390375629305,
            -72.16962887147525
          ],
          [
            49.55298962058496,
            -72.16964696418289
          ],
          [
            49.92207548487686,
            -72.16966505689051
          ],
          [
            50.29116134916877,
            -72.16968314959813
          ],
          [
            50.660247213460686,
            -72.16970124230575
          ],
          [
            51.3155104846302,
            -72.18065868518033
          ],
          [
            51.76750177322735,
            -72.26202775508125
          ],
          [
            52.13656640575588,
            -72.90795149035725
          ],
          [
            52.69018003664848,
            -73.36933980268181
          ],
          [
            53.151534333904316,
            -73.46163465321897
          ],
          [
            53.705157064124066,
            -73.64620626158565
          ],
          [
            54.14184713269975,
            -74.03141033072433
          ],
          [
            54.720121959163436,
            -74.29216165909999
          ],
          [
            55.18147625641927,
            -74.38445650963713
          ],
          [
            55.73509595352997,
            -74.66130035265645
          ],
          [
            55.82736438649389,
            -74.75357711048598
          ],
          [
            56.01190428553079,
            -74.84585839149241
          ],
          [
            56.65779241560542,
            -75.21497899234126
          ],
          [
            57.11914671286125,
            -75.30727384287842
          ],
          [
            57.48823257715316,
            -75.30729193558604
          ],
          [
            58.226392173300766,
            -75.67641705961178
          ],
          [
            58.687740404338484,
            -75.95325637945417
          ],
          [
            59.05681413619418,
            -76.32236341077231
          ],
          [
            59.24135403523108,
            -76.41464469177875
          ],
          [
            59.79497069923273,
            -76.78376076945068
          ],
          [
            60.2563158971614,
            -77.15287232394572
          ],
          [
            60.53515497823405,
            -77.80467712164707
          ],
          [
            60.99445122843657,
            -78.26017532519245
          ],
          [
            61.36352192718321,
            -78.7215545911632
          ],
          [
            61.54805576000201,
            -78.9983803414749
          ]
        ]
      },
      "properties": {
        "type": "variant",
        "id": 3,
        "color": "#44ff44",
        "vzdal_m": 911,
        "prevyseni_m": 26,
        "cas_s": 286,
        "tempo_str": "5:13"
      }
    }
  ]
}