{
  "type": "FeatureCollection",
  "features": [
    {
      "type": "Feature",
      "geometry": {
        "type": "Point",
        "coordinates": [
          99.17945819837698,
          -84.17269778993787
        ]
      },
      "properties": {
        "type": "start",
        "isom": "111"
      }
    },
    {
      "type": "Feature",
      "geometry": {
        "type": "Point",
        "coordinates": [
          88.11503796605254,
          -66.2405229306264
        ]
      },
      "properties": {
        "type": "end",
        "isom": "109"
      }
    },
    {
      "type": "Feature",
      "geometry": {
        "type": "LineString",
        "coordinates": [
          [
            99.19464406366964,
            -84.16747093819941
          ],
          [
            98.64102739966798,
            -83.79835486052748
          ],
          [
            97.99513926959337,
            -83.42923425967864
          ],
          [
            97.62606553773766,
            -83.06012722836051
          ],
          [
            96.98017740766305,
            -82.69100662751167
          ],
          [
            96.32940086821743,
            -82.32565387183695
          ],
          [
            95.98353904829406,
            -81.74705153947978
          ],
          [
            95.55532435328399,
            -81.21677268646292
          ],
          [
            95.42145792913799,
            -80.65856925752954
          ],
          [
            95.09833588621514,
            -80.02741018217439
          ],
          [
            94.8316849595498,
            -79.21228744003646
          ],
          [
            94.60299868040936,
            -78.97870086748922
          ],
          [
            94.22440457507658,
            -78.61873912270751
          ],
          [
            93.88288670377393,
            -78.23766209835951
          ],
          [
            93.75745107801248,
            -78.1581022881128
          ],
          [
            92.98145546120851,
            -77.8623338739751
          ],
          [
            92.52848557252243,
            -77.44224328898424
          ],
          [
            92.2107619518972,
            -76.95182393128005
          ],
          [
            91.7563463687784,
            -76.25096558519405
          ],
          [
            91.75597697369902,
            -75.77225106476183
          ],
          [
            91.78745793502046,
            -75.40731824673061
          ],
          [
            91.71794274953395,
            -75.03279108116882
          ],
          [
            91.67253564205865,
            -74.65434973975134
          ],
          [
            91.61295728803469,
            -74.20462585591908
          ],
          [
            91.48188793007955,
            -73.75563328632143
          ],
          [
            91.29504244865484,
            -73.08248354160553
          ],
          [
            91.08681893669527,
            -72.71704953027788
          ],
          [
            90.70606652224176,
            -72.07939206643016
          ],
          [
            90.33700188971322,
            -71.43346833115416
          ],
          [
            90.15247715622158,
            -70.87982587688461
          ],
          [
            90.06022085569387,
            -70.41846018044457
          ],
          [
            89.96796455516616,
            -69.95709448400454
          ],
          [
            89.87570825463845,
            -69.4957287875645
          ],
          [
            89.87572038707468,
            -69.126639848954
          ],
          [
            89.82121829364871,
            -68.70801300041347
          ],
          [
            89.78347015276506,
            -68.48072968320872
          ],
          [
            89.41440248712749,
            -67.92707818258535
          ],
          [
            89.04533178838085,
            -67.4656989166146
          ],
          [
            88.86079795556205,
            -67.18887316630291
          ],
          [
            88.68362260828255,
            -66.97651980963377
          ],
          [
            88.21492195792365,
            -66.45066362684356
          ],
          [
            88.12265655806877,
            -66.2661146343614
          ]
        ]
      },
      "properties": {
        "type": "variant",
        "id": 1,
        "color": "#ff4444",
        "vzdal_m": 1199,
        "prevyseni_m": 29,
        "cas_s": 319,
        "tempo_str": "4:26"
      }
    },
    {
      "type": "Feature",
      "geometry": {
        "type": "LineString",
        "coordinates": [
          [
            99.19464406366964,
            -84.16747093819941
          ],
          [
            98.82557033181395,
            -83.79836390688128
          ],
          [
            98.45649659995824,
            -83.42925687556315
          ],
          [
            98.0874259012116,
            -82.9678776095924
          ],
          [
            97.71835520246498,
            -82.50649834362166
          ],
          [
            97.46174221731745,
            -82.0500422475279
          ],
          [
            97.42416254174171,
            -81.58535007630192
          ],
          [
            97.3938212640888,
            -81.21970980111023
          ],
          [
            97.40647943883765,
            -80.84451318177547
          ],
          [
            97.15274334880955,
            -80.20413930173535
          ],
          [
            97.00451229407165,
            -79.63921992457584
          ],
          [
            96.98665354098901,
            -79.27660997958523
          ],
          [
            96.98196701170149,
            -79.18457647523275
          ],
          [
            96.93546281797305,
            -78.7176572823729
          ],
          [
            96.89862034470546,
            -78.3537724870355
          ],
          [
            96.86940055272972,
            -77.98681466629102
          ],
          [
            96.81342960347293,
            -77.52159191533431
          ],
          [
            96.80260230821047,
            -77.1545101729744
          ],
          [
            96.51901722938665,
            -76.6932887592065
          ],
          [
            96.14994653064,
            -76.23190949323573
          ],
          [
            95.7808727987843,
            -75.86280246191761
          ],
          [
            95.22725613478266,
            -75.49368638424568
          ],
          [
            94.85818240292696,
            -75.12457935292755
          ],
          [
            94.41523929380519,
            -74.726001936378
          ],
          [
            93.93549200706961,
            -74.3863562439375
          ],
          [
            93.56641827521392,
            -74.01724921261938
          ],
          [
            93.19734454335823,
            -73.64814218130125
          ],
          [
            92.82827687772063,
            -73.09449068067788
          ],
          [
            92.45920921208305,
            -72.5408391800545
          ],
          [
            92.09014761266357,
            -71.80264321012586
          ],
          [
            91.81334837998992,
            -71.34126846733203
          ],
          [
            91.5365521804253,
            -70.78762148988557
          ],
          [
            91.16748148167866,
            -70.3262422239148
          ],
          [
            90.79840774982296,
            -69.95713519259668
          ],
          [
            90.42934008418538,
            -69.4034836919733
          ],
          [
            89.97666280170903,
            -68.57066871343592
          ],
          [
            89.69121081912832,
            -68.11163622142132
          ],
          [
            89.32213708727261,
            -67.74252919010318
          ],
          [
            88.95306335541692,
            -67.37342215878506
          ],
          [
            88.86079795556205,
            -67.18887316630291
          ],
          [
            88.68362260828255,
            -66.97651980963377
          ],
          [
            88.21492195792365,
            -66.45066362684356
          ],
          [
            88.12265655806877,
            -66.2661146343614
          ]
        ]
      },
      "properties": {
        "type": "variant",
        "id": 2,
        "color": "#4444ff",
        "vzdal_m": 1182,
        "prevyseni_m": 30,
        "cas_s": 325,
        "tempo_str": "4:34"
      }
    },
    {
      "type": "Feature",
      "geometry": {
        "type": "LineString",
        "coordinates": [
          [
            99.19464406366964,
            -84.16747093819941
          ],
          [
            98.64102739966798,
            -83.79835486052748
          ],
          [
            97.99513926959337,
            -83.42923425967864
          ],
          [
            97.62606553773766,
            -83.06012722836051
          ],
          [
            96.98017740766305,
            -82.69100662751167
          ],
          [
            96.32940086821743,
            -82.32565387183695
          ],
          [
            95.98353904829406,
            -81.74705153947978
          ],
          [
            95.55532435328399,
            -81.21677268646292
          ],
          [
            95.42145792913799,
            -80.65856925752954
          ],
          [
            95.06073489737682,
            -79.91658497684735
          ],
          [
            94.8745172419771,
            -79.34904145319769
          ],
          [
            94.60299868040936,
            -78.97870086748922
          ],
          [
            94.22440457507658,
            -78.61873912270751
          ],
          [
            93.88288670377393,
            -78.23766209835951
          ],
          [
            93.75745107801248,
            -78.1581022881128
          ],
          [
            92.98145546120851,
            -77.8623338739751
          ],
          [
            92.52848557252243,
            -77.44224328898424
          ],
          [
            92.2107619518972,
            -76.95182393128005
          ],
          [
            91.9182346519378,
            -76.50014134277941
          ],
          [
            91.51468860694766,
            -76.16018006936434
          ],
          [
            91.07503106217152,
            -75.7702995452428
          ],
          [
            90.70595126409772,
            -75.58573698322992
          ],
          [
            90.61368586424285,
            -75.40118799074777
          ],
          [
            90.33689269778729,
            -74.75526877864868
          ],
          [
            89.96783109836781,
            -74.01707280872006
          ],
          [
            89.69103793191226,
            -73.37115359662096
          ],
          [
            89.4142447654567,
            -72.72523438452187
          ],
          [
            89.41424779856575,
            -72.63296214986924
          ],
          [
            89.32198239871089,
            -72.44841315738708
          ],
          [
            89.13745766521926,
            -71.89477070311752
          ],
          [
            88.7950321612083,
            -71.3008571588213
          ],
          [
            88.32877007666735,
            -70.89954308743081
          ],
          [
            88.17838252433816,
            -70.49717065552151
          ],
          [
            88.51823406684392,
            -69.9852706759709
          ],
          [
            88.54922209960073,
            -69.7589778394634
          ],
          [
            88.4369822222409,
            -69.51512073181989
          ],
          [
            88.3307236412401,
            -69.3842944580691
          ],
          [
            87.88277978514971,
            -69.13163557609629
          ],
          [
            87.63823501390631,
            -68.37635081940383
          ],
          [
            87.73055082812667,
            -68.02854952617588
          ],
          [
            87.75647151907444,
            -67.83512057621553
          ],
          [
            87.80058403132873,
            -67.46934786898545
          ],
          [
            87.85007469315188,
            -67.00476635085506
          ],
          [
            87.93414827206907,
            -66.61330283452763
          ],
          [
            88.12265655806877,
            -66.2661146343614
          ]
        ]
      },
      "properties": {
        "type": "variant",
        "id": 3,
        "color": "#44ff44",
        "vzdal_m": 1235,
        "prevyseni_m": 29,
        "cas_s": 332,
        "tempo_str": "4:28"
      }
    }
  ]
}