{
  "type": "FeatureCollection",
  "features": [
    {
      "type": "Feature",
      "geometry": {
        "type": "Point",
        "coordinates": [
          117.19359069632954,
          -232.951914813656
        ]
      },
      "properties": {
        "type": "start",
        "isom": "204"
      }
    },
    {
      "type": "Feature",
      "geometry": {
        "type": "Point",
        "coordinates": [
          100.0907599440688,
          -214.4486479616199
        ]
      },
      "properties": {
        "type": "end",
        "isom": "111"
      }
    },
    {
      "type": "Feature",
      "geometry": {
        "type": "LineString",
        "coordinates": [
          [
            117.21953087299663,
            -233.0182313921789
          ],
          [
            117.40409807001502,
            -232.28006256150806
          ],
          [
            117.21957940274152,
            -231.5418756390071
          ],
          [
            117.21960366761395,
            -230.80369776242117
          ],
          [
            117.2196279324864,
            -230.06551988583524
          ],
          [
            116.48148653499307,
            -229.1427613564425
          ],
          [
            115.74333907128164,
            -228.40454729619623
          ],
          [
            114.45156281113228,
            -227.6663060982047
          ],
          [
            113.52887241527488,
            -226.9280829920434
          ],
          [
            112.42163908727149,
            -226.18985083996697
          ],
          [
            111.68349162356006,
            -225.4516367797207
          ],
          [
            110.94534415984862,
            -224.71342271947444
          ],
          [
            109.65356789969927,
            -223.9751815214829
          ],
          [
            108.17724870740393,
            -223.23693127757633
          ],
          [
            106.88547244725457,
            -222.4986900795848
          ],
          [
            106.14734318219749,
            -221.2068426118991
          ],
          [
            105.40921391714038,
            -219.9149951442134
          ],
          [
            105.22468311743062,
            -219.54589716000538
          ],
          [
            104.85560331935679,
            -219.3613345990287
          ],
          [
            104.30198058913699,
            -219.176762992137
          ],
          [
            103.9329311221537,
            -218.06947808542793
          ],
          [
            103.56386952273422,
            -217.33128211701185
          ],
          [
            103.37933872302446,
            -216.96218413280383
          ],
          [
            103.19480792331471,
            -216.59308614859575
          ],
          [
            102.82572812524089,
            -216.4085235876191
          ],
          [
            102.64119125931303,
            -216.22397007255756
          ],
          [
            102.2721114612392,
            -216.0394075115809
          ],
          [
            102.08757459531134,
            -215.85485399651935
          ],
          [
            101.90303772938348,
            -215.67030048145776
          ],
          [
            101.53395793130964,
            -215.4857379204811
          ],
          [
            100.98033520108984,
            -215.3011663135894
          ],
          [
            100.24218773737842,
            -214.5629522533431
          ],
          [
            100.05765087145055,
            -214.37839873828156
          ]
        ]
      },
      "properties": {
        "type": "variant",
        "id": 1,
        "color": "#ff4444",
        "vzdal_m": 733,
        "prevyseni_m": 43,
        "cas_s": 273,
        "tempo_str": "6:12"
      }
    },
    {
      "type": "Feature",
      "geometry": {
        "type": "LineString",
        "coordinates": [
          [
            117.21953087299663,
            -233.0182313921789
          ],
          [
            117.21955513786907,
            -232.28005351559298
          ],
          [
            116.85048140601334,
            -231.91094648546985
          ],
          [
            116.66596880495794,
            -230.9882150938224
          ],
          [
            115.37418041237235,
            -230.61906283412384
          ],
          [
            114.0823980860049,
            -230.0653661052788
          ],
          [
            112.79061575963745,
            -229.51166937643376
          ],
          [
            111.49883949948808,
            -228.77342817844223
          ],
          [
            110.20705717312062,
            -228.21973144959716
          ],
          [
            109.65345870777325,
            -227.29698196611952
          ],
          [
            108.91531124406181,
            -226.55876790587325
          ],
          [
            107.80806578362221,
            -226.1896246920898
          ],
          [
            106.70082638940073,
            -225.63593700915982
          ],
          [
            105.77814205976142,
            -224.71316943385202
          ],
          [
            105.03999459605,
            -223.97495537360575
          ],
          [
            104.30185319855666,
            -223.05219684421303
          ],
          [
            103.5637057348452,
            -222.31398278396676
          ],
          [
            102.6410153389878,
            -221.57575967780542
          ],
          [
            101.53378201098441,
            -220.83752752572897
          ],
          [
            100.79563454727298,
            -220.0993134654827
          ],
          [
            100.61109768134513,
            -219.91475995042117
          ],
          [
            100.42656688163537,
            -219.54566196621315
          ],
          [
            100.24203608192562,
            -219.17656398200506
          ],
          [
            99.68844974901448,
            -217.88472556023447
          ],
          [
            99.50394928039529,
            -216.592905230294
          ],
          [
            99.8730715419959,
            -215.48565650724532
          ],
          [
            99.87309580686835,
            -214.7474786306594
          ],
          [
            100.05765087145055,
            -214.37839873828156
          ]
        ]
      },
      "properties": {
        "type": "variant",
        "id": 2,
        "color": "#4444ff",
        "vzdal_m": 759,
        "prevyseni_m": 39,
        "cas_s": 280,
        "tempo_str": "6:08"
      }
    },
    {
      "type": "Feature",
      "geometry": {
        "type": "LineString",
        "coordinates": [
          [
            117.21953087299663,
            -233.0182313921789
          ],
          [
            117.40409807001502,
            -232.28006256150806
          ],
          [
            117.21957940274152,
            -231.5418756390071
          ],
          [
            117.21960366761395,
            -230.80369776242117
          ],
          [
            117.2196279324864,
            -230.06551988583524
          ],
          [
            116.48148653499307,
            -229.1427613564425
          ],
          [
            115.74336333615408,
            -227.6663694196103
          ],
          [
            115.55883253644434,
            -227.29727143540228
          ],
          [
            115.3743017367346,
            -226.92817345119425
          ],
          [
            114.6361785378956,
            -225.45178151436207
          ],
          [
            114.63620280276804,
            -224.71360363777617
          ],
          [
            114.82075786735024,
            -224.34452374539828
          ],
          [
            114.82076393356834,
            -224.1599792762518
          ],
          [
            114.08264073472934,
            -222.68358733941966
          ],
          [
            113.34451753589035,
            -221.20719540258747
          ],
          [
            112.60639433705136,
            -219.7308034657553
          ],
          [
            112.23733273763186,
            -218.9926074973392
          ],
          [
            112.05280193792213,
            -218.62350951313118
          ],
          [
            111.6837342722845,
            -218.06985801386156
          ],
          [
            111.49920347257476,
            -217.70076002965354
          ],
          [
            110.94559894100928,
            -216.96255501532232
          ],
          [
            110.76106207508143,
            -216.77800150026079
          ],
          [
            110.3919822770076,
            -216.59343893928414
          ],
          [
            110.20744541107973,
            -216.40888542422255
          ],
          [
            109.8383656130059,
            -216.22432286324593
          ],
          [
            109.65382268085993,
            -216.22431381733082
          ],
          [
            109.2847428827861,
            -216.03975125635415
          ],
          [
            107.80842369049077,
            -215.30150101244757
          ],
          [
            107.07026409434312,
            -214.93237589049426
          ],
          [
            106.70118429626929,
            -214.7478133295176
          ],
          [
            105.77849390041187,
            -214.00959022335627
          ],
          [
            105.2248893688464,
            -213.2713852090251
          ],
          [
            105.04035250291855,
            -213.08683169396352
          ],
          [
            104.6712605724085,
            -213.27135807127985
          ],
          [
            104.30216864189845,
            -213.45588444859615
          ],
          [
            103.9330888438246,
            -213.2713218876195
          ],
          [
            103.01036811687665,
            -213.45582112719055
          ],
          [
            102.27219638829276,
            -213.4557849435302
          ],
          [
            101.90311052400081,
            -213.45576685170002
          ],
          [
            101.34947566134478,
            -213.64028418310124
          ],
          [
            100.98038373083473,
            -213.82481056041755
          ],
          [
            100.61129180032468,
            -214.00933693773385
          ],
          [
            100.05765087145055,
            -214.37839873828156
          ]
        ]
      },
      "properties": {
        "type": "variant",
        "id": 3,
        "color": "#44ff44",
        "vzdal_m": 823,
        "prevyseni_m": 44,
        "cas_s": 301,
        "tempo_str": "6:05"
      }
    }
  ]
}