{
  "type": "FeatureCollection",
  "features": [
    {
      "type": "Feature",
      "geometry": {
        "type": "Point",
        "coordinates": [
          83.07343705617603,
          -236.72159039467795
        ]
      },
      "properties": {
        "type": "start",
        "isom": "417"
      }
    },
    {
      "type": "Feature",
      "geometry": {
        "type": "Point",
        "coordinates": [
          74.92453995558283,
          -220.93894792566093
        ]
      },
      "properties": {
        "type": "end",
        "isom": "417"
      }
    },
    {
      "type": "Feature",
      "geometry": {
        "type": "LineString",
        "coordinates": [
          [
            83.04770496919352,
            -236.79528621911047
          ],
          [
            82.30955750548208,
            -236.05707215886417
          ],
          [
            81.57141004177063,
            -235.31885809861797
          ],
          [
            80.83326257805919,
            -234.58064403837167
          ],
          [
            80.09511511434775,
            -233.8424299781254
          ],
          [
            79.35697371685443,
            -232.91967144873266
          ],
          [
            78.61883231936109,
            -231.99691291933996
          ],
          [
            77.88069092186777,
            -231.0741543899472
          ],
          [
            77.14256772302878,
            -229.59776245311502
          ],
          [
            76.95804298953713,
            -229.0441199997605
          ],
          [
            76.77354252091794,
            -227.75229966982008
          ],
          [
            76.2199561880068,
            -226.46046124804948
          ],
          [
            76.0354435869514,
            -225.537729856402
          ],
          [
            75.85093098589599,
            -224.6149984647545
          ],
          [
            75.66640018618624,
            -224.24590048054648
          ],
          [
            75.66642445105867,
            -223.50772260396056
          ],
          [
            75.48189971756705,
            -222.95408015060602
          ],
          [
            75.29739924894784,
            -221.6622598206656
          ],
          [
            74.92833764952834,
            -220.9240638522495
          ]
        ]
      },
      "properties": {
        "type": "variant",
        "id": 1,
        "color": "#ff4444",
        "vzdal_m": 499,
        "prevyseni_m": 7,
        "cas_s": 146,
        "tempo_str": "4:51"
      }
    },
    {
      "type": "Feature",
      "geometry": {
        "type": "LineString",
        "coordinates": [
          [
            83.04770496919352,
            -236.79528621911047
          ],
          [
            82.8631923681381,
            -235.872554827463
          ],
          [
            82.86321663301055,
            -235.13437695087708
          ],
          [
            82.86324089788299,
            -234.39619907429116
          ],
          [
            82.67872829682757,
            -233.47346768264367
          ],
          [
            81.94059296555236,
            -232.36616468410443
          ],
          [
            81.75606216584261,
            -231.9970666998964
          ],
          [
            81.75608643071506,
            -231.2588888233105
          ],
          [
            81.7561106955875,
            -230.5207109467246
          ],
          [
            81.75613496045995,
            -229.78253307013867
          ],
          [
            81.2025364951126,
            -228.85978358666102
          ],
          [
            80.46440723005549,
            -227.56793611897533
          ],
          [
            79.7262840312165,
            -226.09154418214314
          ],
          [
            78.9881608323775,
            -224.615152245311
          ],
          [
            78.80363003266774,
            -224.24605426110293
          ],
          [
            78.25001943488417,
            -223.69239371591826
          ],
          [
            77.88093963681034,
            -223.50783115494158
          ],
          [
            77.69640277088247,
            -223.32327763988005
          ],
          [
            77.32732297280863,
            -223.1387150789034
          ],
          [
            76.40462651073312,
            -222.58503644188852
          ],
          [
            75.66648511323979,
            -221.6622779124958
          ],
          [
            74.92833764952834,
            -220.9240638522495
          ]
        ]
      },
      "properties": {
        "type": "variant",
        "id": 2,
        "color": "#4444ff",
        "vzdal_m": 508,
        "prevyseni_m": 5,
        "cas_s": 150,
        "tempo_str": "4:54"
      }
    },
    {
      "type": "Feature",
      "geometry": {
        "type": "LineString",
        "coordinates": [
          [
            83.04770496919352,
            -236.79528621911047
          ],
          [
            83.78592522752228,
            -235.318966649599
          ],
          [
            84.1550474891229,
            -234.2117179265503
          ],
          [
            84.52416975072352,
            -233.1044692035016
          ],
          [
            84.9462253259618,
            -232.17519367079834
          ],
          [
            84.85597735886219,
            -231.4482211390029
          ],
          [
            84.74036572274,
            -230.51693718305512
          ],
          [
            84.64967620065913,
            -229.7915701954034
          ],
          [
            84.53705663935416,
            -229.04257343862324
          ],
          [
            84.45157173395165,
            -228.47404061751993
          ],
          [
            84.26833223189749,
            -228.06556535309142
          ],
          [
            84.06332731579604,
            -227.69262690680694
          ],
          [
            83.9245045763784,
            -227.4784437331385
          ],
          [
            83.70145539229432,
            -227.13431147979367
          ],
          [
            83.56263265287666,
            -226.92012830612518
          ],
          [
            83.33524930217148,
            -226.5753139203386
          ],
          [
            83.19073251297631,
            -226.36346042540157
          ],
          [
            82.96030712985751,
            -226.02566975756446
          ],
          [
            82.81579034066235,
            -225.81381626262745
          ],
          [
            82.58536495754356,
            -225.47602559479031
          ],
          [
            82.4521975887846,
            -225.26570609923738
          ],
          [
            82.19119276714848,
            -224.92269874571986
          ],
          [
            81.4876558834277,
            -224.15553402226863
          ],
          [
            81.1515132982133,
            -223.76833089088385
          ],
          [
            80.89704470498508,
            -223.45626256628853
          ],
          [
            80.40943158954992,
            -222.85460368612436
          ],
          [
            80.16224624881283,
            -222.53377953008936
          ],
          [
            79.84631406484418,
            -222.12372820591375
          ],
          [
            79.35731949128677,
            -222.4006367073834
          ],
          [
            78.25007403084717,
            -222.03149349359995
          ],
          [
            76.9582917044797,
            -221.4777967647549
          ],
          [
            76.22011997589581,
            -221.47776058109454
          ],
          [
            74.92833764952834,
            -220.9240638522495
          ]
        ]
      },
      "properties": {
        "type": "variant",
        "id": 3,
        "color": "#44ff44",
        "vzdal_m": 590,
        "prevyseni_m": 11,
        "cas_s": 164,
        "tempo_str": "4:38"
      }
    }
  ]
}