{
  "type": "FeatureCollection",
  "features": [
    {
      "type": "Feature",
      "geometry": {
        "type": "Point",
        "coordinates": [
          116.44618754465388,
          -165.71273164669122
        ]
      },
      "properties": {
        "type": "start",
        "isom": "109"
      }
    },
    {
      "type": "Feature",
      "geometry": {
        "type": "Point",
        "coordinates": [
          89.53509834429879,
          -208.54270752258967
        ]
      },
      "properties": {
        "type": "end",
        "isom": "111"
      }
    },
    {
      "type": "Feature",
      "geometry": {
        "type": "LineString",
        "coordinates": [
          [
            116.48357331402336,
            -165.6594639700539
          ],
          [
            115.56081012354862,
            -167.1357744936503
          ],
          [
            115.00713279736581,
            -168.61210310907686
          ],
          [
            114.26890647281891,
            -170.27296714773482
          ],
          [
            113.53069228070825,
            -171.56474224809983
          ],
          [
            112.60792909023351,
            -173.04105277169623
          ],
          [
            112.23880076241478,
            -174.3328459638914
          ],
          [
            111.86967850081417,
            -175.4400946869401
          ],
          [
            111.3160133070676,
            -176.54733436407372
          ],
          [
            110.94689711168509,
            -177.47003861797592
          ],
          [
            110.76234811332101,
            -177.65457404120733
          ],
          [
            110.20869505201065,
            -178.39272478004798
          ],
          [
            109.10141926048048,
            -178.9463039119969
          ],
          [
            108.73229699887987,
            -180.0535526350456
          ],
          [
            107.99407067433302,
            -181.71441667370357
          ],
          [
            107.25586254844043,
            -182.82164730492207
          ],
          [
            106.88674028683984,
            -183.92889602797078
          ],
          [
            106.8867281544036,
            -184.29798496626373
          ],
          [
            106.14852002851106,
            -185.40521559748225
          ],
          [
            105.41031796883662,
            -186.32790175955432
          ],
          [
            105.04119570723601,
            -187.435150482603
          ],
          [
            105.04117144236356,
            -188.17332835918893
          ],
          [
            104.67206131319918,
            -188.91148814394467
          ],
          [
            104.48750624861698,
            -189.28056803632256
          ],
          [
            103.74931025516067,
            -190.01870972924812
          ],
          [
            103.01110212926811,
            -191.12594036046667
          ],
          [
            102.45744906795774,
            -191.86409109930727
          ],
          [
            102.27289400337554,
            -192.23317099168517
          ],
          [
            102.08833893879337,
            -192.60225088406307
          ],
          [
            101.71922880962897,
            -193.3404106688188
          ],
          [
            101.53467981126488,
            -193.52494609205016
          ],
          [
            101.35012474668271,
            -193.89402598442805
          ],
          [
            101.16556968210051,
            -194.2631058768059
          ],
          [
            100.42737368864417,
            -195.0012475697315
          ],
          [
            100.2428246902801,
            -195.18578299296288
          ],
          [
            99.87373275977004,
            -195.37030937027916
          ],
          [
            99.1355246338775,
            -196.47754000149772
          ],
          [
            98.39731650798493,
            -197.58477063271624
          ],
          [
            98.21276144340274,
            -197.95385052509408
          ],
          [
            98.02820637882054,
            -198.32293041747198
          ],
          [
            97.84365131423834,
            -198.69201030984988
          ],
          [
            97.65909624965614,
            -199.06109020222772
          ],
          [
            96.55181439190788,
            -199.79921380332314
          ],
          [
            95.44454466659583,
            -200.16824846612556
          ],
          [
            93.96817694455562,
            -200.9063539753908
          ],
          [
            93.10853978774661,
            -201.212098110269
          ],
          [
            92.6763582208795,
            -201.45992406142463
          ],
          [
            92.67633395600704,
            -202.19810193801055
          ],
          [
            91.93811369767828,
            -203.67442150752203
          ],
          [
            91.1998934393495,
            -205.15074107703347
          ],
          [
            90.27713024887474,
            -206.6270516006299
          ],
          [
            89.72345292269193,
            -208.10338021605648
          ],
          [
            89.53889785810975,
            -208.47246010843432
          ]
        ]
      },
      "properties": {
        "type": "variant",
        "id": 1,
        "color": "#ff4444",
        "vzdal_m": 1420,
        "prevyseni_m": 41,
        "cas_s": 445,
        "tempo_str": "5:13"
      }
    },
    {
      "type": "Feature",
      "geometry": {
        "type": "LineString",
        "coordinates": [
          [
            116.48357331402336,
            -165.6594639700539
          ],
          [
            115.19174852412911,
            -166.3975785252342
          ],
          [
            114.45355253067278,
            -167.13572021815978
          ],
          [
            113.53080753885236,
            -168.05839733431674
          ],
          [
            112.79261761161415,
            -168.61199455809583
          ],
          [
            111.68533575386587,
            -169.35011815919123
          ],
          [
            110.94713976040956,
            -170.08825985211678
          ],
          [
            109.47076597215123,
            -171.0109098305285
          ],
          [
            108.73258817734923,
            -171.19541811601462
          ],
          [
            107.99441644876535,
            -171.19538193235428
          ],
          [
            107.25623865396335,
            -171.37989021784043
          ],
          [
            107.07168965559926,
            -171.5644256410718
          ],
          [
            106.33349366214294,
            -172.3025673339974
          ],
          [
            105.59529160246849,
            -173.22525349606943
          ],
          [
            104.85710167523028,
            -173.77885071984852
          ],
          [
            104.11890568177394,
            -174.51699241277407
          ],
          [
            103.74977735395522,
            -175.80878560496927
          ],
          [
            103.19613035886299,
            -176.36239187466344
          ],
          [
            103.01157529428079,
            -176.7314717670413
          ],
          [
            102.82702022969859,
            -177.10055165941918
          ],
          [
            103.01155102940832,
            -177.4696496436272
          ],
          [
            102.82699596482615,
            -177.83872953600508
          ],
          [
            102.45789796809798,
            -178.2078003824679
          ],
          [
            102.45788583566176,
            -178.57688932076084
          ],
          [
            102.27333077107957,
            -178.9459692131387
          ],
          [
            101.71965951111488,
            -180.23775335941878
          ],
          [
            100.98145138522231,
            -181.34498399063733
          ],
          [
            100.79689632064013,
            -181.7140638830152
          ],
          [
            99.87414526260159,
            -182.82128546831865
          ],
          [
            99.13592500427283,
            -184.2976050378301
          ],
          [
            98.95137600590876,
            -184.4821404610615
          ],
          [
            98.76682094132656,
            -184.85122035343937
          ],
          [
            98.02860674921588,
            -186.1429954538044
          ],
          [
            97.84405168463368,
            -186.51207534618226
          ],
          [
            97.65949662005148,
            -186.88115523856013
          ],
          [
            97.47494155546931,
            -187.250235130938
          ],
          [
            96.73674556201297,
            -187.98837682386355
          ],
          [
            95.99854350233853,
            -188.91106298593562
          ],
          [
            95.2603414426641,
            -189.83374914800768
          ],
          [
            94.52213938298965,
            -190.75643531007972
          ],
          [
            94.33756611975312,
            -191.679148609897
          ],
          [
            93.96845599058874,
            -192.4173083946528
          ],
          [
            93.78390092600655,
            -192.78638828703063
          ],
          [
            93.04568066767777,
            -194.2627078565421
          ],
          [
            92.49200940771308,
            -195.5544920028222
          ],
          [
            92.30743614447655,
            -196.47720530263953
          ],
          [
            91.56921588614777,
            -197.953524872151
          ],
          [
            91.20009362454716,
            -199.0607735951997
          ],
          [
            91.01551429509253,
            -200.1680313641635
          ],
          [
            90.46184910134595,
            -201.2752710412971
          ],
          [
            89.53908591087121,
            -202.75158156489348
          ],
          [
            89.53905557978064,
            -203.67430391062587
          ],
          [
            89.72357424705417,
            -204.4124908331269
          ],
          [
            89.53900705003575,
            -205.1506596637977
          ],
          [
            89.53898278516331,
            -205.8888375403836
          ],
          [
            89.35441558814489,
            -206.62700637105445
          ],
          [
            89.53893425541841,
            -207.36519329355545
          ],
          [
            89.53890999054597,
            -208.10337117014134
          ],
          [
            89.53889785810975,
            -208.47246010843432
          ]
        ]
      },
      "properties": {
        "type": "variant",
        "id": 2,
        "color": "#4444ff",
        "vzdal_m": 1458,
        "prevyseni_m": 36,
        "cas_s": 452,
        "tempo_str": "5:10"
      }
    },
    {
      "type": "Feature",
      "geometry": {
        "type": "LineString",
        "coordinates": [
          [
            116.48357331402336,
            -165.6594639700539
          ],
          [
            116.29900005078682,
            -166.5821772698712
          ],
          [
            116.48352478427847,
            -167.13581972322572
          ],
          [
            116.6680495177701,
            -167.68946217658024
          ],
          [
            116.85258031747985,
            -168.0585601607883
          ],
          [
            116.85255605260741,
            -168.7967380373742
          ],
          [
            116.85253178773495,
            -169.53491591396013
          ],
          [
            116.85250752286251,
            -170.27309379054603
          ],
          [
            116.48338526126192,
            -171.38034251359474
          ],
          [
            115.92971400129721,
            -172.67212665987483
          ],
          [
            115.74514073806067,
            -173.59483995969214
          ],
          [
            115.56057354104227,
            -174.33300879036295
          ],
          [
            115.56054320995172,
            -175.25573113609536
          ],
          [
            115.56051894507927,
            -175.99390901268126
          ],
          [
            115.7450376123528,
            -176.73209593518226
          ],
          [
            115.56047041533436,
            -177.4702647658531
          ],
          [
            115.56044615046193,
            -178.208442642439
          ],
          [
            115.3758789534435,
            -178.94661147310984
          ],
          [
            114.8222016272607,
            -180.42294008853642
          ],
          [
            114.08398743515004,
            -181.7147151889014
          ],
          [
            113.16123637711152,
            -182.82193677420486
          ],
          [
            112.23849745150923,
            -183.5600694212153
          ],
          [
            111.68484439019886,
            -184.298220160056
          ],
          [
            110.94664233052443,
            -185.22090632212803
          ],
          [
            110.02390947114023,
            -185.77449449999202
          ],
          [
            109.47026247604799,
            -186.32810076968622
          ],
          [
            109.2857074114658,
            -186.69718066206408
          ],
          [
            109.1011584131017,
            -186.88171608529547
          ],
          [
            108.91660334851953,
            -187.25079597767333
          ],
          [
            108.17840735506319,
            -187.9889376705989
          ],
          [
            107.99385835669909,
            -188.1734730938303
          ],
          [
            107.62476642618904,
            -188.3579994711466
          ],
          [
            107.6247421613166,
            -189.09617734773252
          ],
          [
            107.62473002888038,
            -189.46526628602547
          ],
          [
            106.88655223407838,
            -189.64977457151164
          ],
          [
            106.51747243600455,
            -189.465212010535
          ],
          [
            105.96384970578475,
            -189.28064040364328
          ],
          [
            105.22567797720087,
            -189.2806042199829
          ],
          [
            104.48749411618076,
            -189.6496569746155
          ],
          [
            104.11840218567072,
            -189.8341833519318
          ],
          [
            103.38020619221437,
            -190.5723250448574
          ],
          [
            102.64200413253994,
            -191.49501120692943
          ],
          [
            102.45744906795774,
            -191.86409109930727
          ],
          [
            102.27289400337554,
            -192.23317099168517
          ],
          [
            102.08833893879337,
            -192.60225088406307
          ],
          [
            101.71922880962897,
            -193.3404106688188
          ],
          [
            101.53467981126488,
            -193.52494609205016
          ],
          [
            101.35012474668271,
            -193.89402598442805
          ],
          [
            101.16556968210051,
            -194.2631058768059
          ],
          [
            100.42737368864417,
            -195.0012475697315
          ],
          [
            100.2428246902801,
            -195.18578299296288
          ],
          [
            99.87373275977004,
            -195.37030937027916
          ],
          [
            99.1355246338775,
            -196.47754000149772
          ],
          [
            98.39731650798493,
            -197.58477063271624
          ],
          [
            98.21276144340274,
            -197.95385052509408
          ],
          [
            98.02820637882054,
            -198.32293041747198
          ],
          [
            97.84365131423834,
            -198.69201030984988
          ],
          [
            97.65909624965614,
            -199.06109020222772
          ],
          [
            96.55181439190788,
            -199.79921380332314
          ],
          [
            95.44454466659583,
            -200.16824846612556
          ],
          [
            93.96817694455562,
            -200.9063539753908
          ],
          [
            93.10853978774661,
            -201.212098110269
          ],
          [
            92.6763582208795,
            -201.45992406142463
          ],
          [
            92.67633395600704,
            -202.19810193801055
          ],
          [
            91.93811369767828,
            -203.67442150752203
          ],
          [
            91.1998934393495,
            -205.15074107703347
          ],
          [
            90.27713024887474,
            -206.6270516006299
          ],
          [
            89.72345292269193,
            -208.10338021605648
          ],
          [
            89.53889785810975,
            -208.47246010843432
          ]
        ]
      },
      "properties": {
        "type": "variant",
        "id": 3,
        "color": "#44ff44",
        "vzdal_m": 1510,
        "prevyseni_m": 43,
        "cas_s": 467,
        "tempo_str": "5:09"
      }
    }
  ]
}