{
  "type": "FeatureCollection",
  "features": [
    {
      "type": "Feature",
      "geometry": {
        "type": "Point",
        "coordinates": [
          150.20400131374123,
          -140.32933503143494
        ]
      },
      "properties": {
        "type": "start",
        "isom": "417"
      }
    },
    {
      "type": "Feature",
      "geometry": {
        "type": "Point",
        "coordinates": [
          190.73815193433654,
          -157.84251125289157
        ]
      },
      "properties": {
        "type": "end",
        "isom": "418"
      }
    },
    {
      "type": "Feature",
      "geometry": {
        "type": "LineString",
        "coordinates": [
          [
            150.1811511282022,
            -140.42968424531276
          ],
          [
            152.39575445362274,
            -139.691541414427
          ],
          [
            153.87213746886297,
            -139.69158824274913
          ],
          [
            155.3485204841032,
            -139.6916350710713
          ],
          [
            156.8249034993434,
            -139.69168189939342
          ],
          [
            158.30128651458364,
            -139.69172872771557
          ],
          [
            159.40855937473373,
            -140.06087038564164
          ],
          [
            160.14673648107376,
            -140.43000033648718
          ],
          [
            160.88491358741376,
            -140.79913028733273
          ],
          [
            163.4685037311468,
            -142.27563838291982
          ],
          [
            164.94482914126664,
            -143.75211135797986
          ],
          [
            165.68300624760664,
            -144.1212413088254
          ],
          [
            167.8975519679068,
            -144.85952462467756
          ],
          [
            170.11206888564678,
            -146.33602101389863
          ],
          [
            173.06480611356702,
            -147.07432774391188
          ],
          [
            174.54118912880725,
            -147.074374572234
          ],
          [
            176.38665349657745,
            -147.44353964432116
          ],
          [
            179.33936192193755,
            -148.92005944770332
          ],
          [
            181.18485509226792,
            -148.55101144642154
          ],
          [
            181.92303219860796,
            -148.9201413972671
          ],
          [
            182.2921135511379,
            -149.2892596410321
          ],
          [
            183.0302906574779,
            -149.65838959187764
          ],
          [
            183.76846776381794,
            -150.02751954272318
          ],
          [
            184.50663046887786,
            -150.7657560302532
          ],
          [
            185.2448075752179,
            -151.13488598109873
          ],
          [
            186.72113298533773,
            -152.61135895615877
          ],
          [
            187.8283770429276,
            -153.71871368745377
          ],
          [
            188.19744399417746,
            -154.45693846790326
          ],
          [
            188.9356211005175,
            -154.82606841874883
          ],
          [
            190.41190330679706,
            -157.40986100386226
          ],
          [
            190.780984659327,
            -157.77897924762726
          ]
        ]
      },
      "properties": {
        "type": "variant",
        "id": 1,
        "color": "#ff4444",
        "vzdal_m": 639,
        "prevyseni_m": 17,
        "cas_s": 204,
        "tempo_str": "5:18"
      }
    },
    {
      "type": "Feature",
      "geometry": {
        "type": "LineString",
        "coordinates": [
          [
            150.1811511282022,
            -140.42968424531276
          ],
          [
            151.65747653832202,
            -141.90615722037276
          ],
          [
            152.02654348957188,
            -142.64438200082225
          ],
          [
            153.50286889969175,
            -144.12085497588228
          ],
          [
            154.9791655072514,
            -146.33554102431125
          ],
          [
            156.45543331225082,
            -149.28844014610922
          ],
          [
            157.9317587223707,
            -150.76491312116923
          ],
          [
            159.40808413249053,
            -152.24138609622926
          ],
          [
            160.5152993875202,
            -154.08695390089323
          ],
          [
            163.09890393253332,
            -155.19435545979587
          ],
          [
            164.57528694777355,
            -155.194402288118
          ],
          [
            166.42075131554375,
            -155.56356736020516
          ],
          [
            167.89713433078398,
            -155.56361418852728
          ],
          [
            169.37348854346402,
            -156.30187409021838
          ],
          [
            171.21898171379442,
            -155.93282608893657
          ],
          [
            172.69536472903465,
            -155.93287291725872
          ],
          [
            174.54087230064513,
            -155.19471837929242
          ],
          [
            176.3863510696954,
            -155.1947769146951
          ],
          [
            178.2318442400258,
            -154.82572891341331
          ],
          [
            178.9700357476459,
            -154.82575232757438
          ],
          [
            179.70821285398594,
            -155.19488227841993
          ],
          [
            182.29183992681607,
            -156.30228383803708
          ],
          [
            183.7682229420563,
            -156.30233066635924
          ],
          [
            184.5064000483963,
            -156.67146061720476
          ],
          [
            184.87549580220636,
            -156.6714723242853
          ],
          [
            185.24459155601642,
            -156.67148403136585
          ],
          [
            185.61368730982647,
            -156.67149573844637
          ],
          [
            185.98278306363653,
            -156.67150744552688
          ],
          [
            186.3518788174466,
            -156.67151915260743
          ],
          [
            186.72097457125665,
            -156.67153085968798
          ],
          [
            187.0900703250667,
            -156.67154256676852
          ],
          [
            187.4591660788768,
            -156.67155427384904
          ],
          [
            187.82826183268685,
            -156.67156598092959
          ],
          [
            188.1973575864969,
            -156.6715776880101
          ],
          [
            188.56645334030696,
            -156.67158939509065
          ],
          [
            188.93554909411702,
            -156.6716011021712
          ],
          [
            189.67372620045703,
            -157.0407310530167
          ],
          [
            190.780984659327,
            -157.77897924762726
          ]
        ]
      },
      "properties": {
        "type": "variant",
        "id": 2,
        "color": "#4444ff",
        "vzdal_m": 663,
        "prevyseni_m": 7,
        "cas_s": 199,
        "tempo_str": "5:00"
      }
    },
    {
      "type": "Feature",
      "geometry": {
        "type": "LineString",
        "coordinates": [
          [
            150.1811511282022,
            -140.42968424531276
          ],
          [
            151.65759174856282,
            -138.95330492689698
          ],
          [
            153.1340323689234,
            -137.47692560848125
          ],
          [
            156.08684160324418,
            -136.3696996550721
          ],
          [
            157.56323901976452,
            -136.00063994670975
          ],
          [
            159.03963643628484,
            -135.63158023834742
          ],
          [
            160.51600505024498,
            -136.00073360335404
          ],
          [
            161.99238806548522,
            -136.00078043167616
          ],
          [
            164.20691125796836,
            -136.7390637468138
          ],
          [
            166.7905239295184,
            -138.2155718431154
          ],
          [
            169.74323235487844,
            -139.6920916464976
          ],
          [
            172.69594078023854,
            -141.16861144987976
          ],
          [
            174.17232379547877,
            -141.16865827820192
          ],
          [
            176.75595086830887,
            -142.27605983781908
          ],
          [
            178.97049658860902,
            -143.0143431536712
          ],
          [
            181.185013506349,
            -144.49083954289233
          ],
          [
            182.66133891646882,
            -145.96731251795237
          ],
          [
            184.13764992530858,
            -147.81289202969685
          ],
          [
            185.61397533542842,
            -149.2893650047569
          ],
          [
            186.35213804048834,
            -150.02760149228692
          ],
          [
            187.8284058454878,
            -152.98050061408483
          ],
          [
            188.56655414926763,
            -154.08784363829935
          ],
          [
            188.9356211005175,
            -154.82606841874883
          ],
          [
            190.41190330679706,
            -157.40986100386226
          ],
          [
            190.780984659327,
            -157.77897924762726
          ]
        ]
      },
      "properties": {
        "type": "variant",
        "id": 3,
        "color": "#44ff44",
        "vzdal_m": 692,
        "prevyseni_m": 14,
        "cas_s": 204,
        "tempo_str": "4:54"
      }
    }
  ]
}