{
  "type": "FeatureCollection",
  "features": [
    {
      "type": "Feature",
      "geometry": {
        "type": "Point",
        "coordinates": [
          92.37113933462032,
          -72.22827688233956
        ]
      },
      "properties": {
        "type": "start",
        "isom": "111"
      }
    },
    {
      "type": "Feature",
      "geometry": {
        "type": "Point",
        "coordinates": [
          95.37106631420069,
          -55.47510790025877
        ]
      },
      "properties": {
        "type": "end",
        "isom": "419"
      }
    },
    {
      "type": "Feature",
      "geometry": {
        "type": "LineString",
        "coordinates": [
          [
            92.36694684533724,
            -72.26401795291972
          ],
          [
            91.99787311348153,
            -71.89491092160159
          ],
          [
            91.72107691391693,
            -71.34126394415512
          ],
          [
            91.62882061338922,
            -70.87989824771509
          ],
          [
            91.35202744693366,
            -70.233979035616
          ],
          [
            91.35203957936989,
            -69.8648900970055
          ],
          [
            91.35205171180608,
            -69.495801158395
          ],
          [
            91.35206384424231,
            -69.1267122197845
          ],
          [
            91.35207597667852,
            -68.75762328117399
          ],
          [
            91.35208810911473,
            -68.38853434256349
          ],
          [
            91.35210024155094,
            -68.01944540395299
          ],
          [
            91.40070656495064,
            -67.4948422255741
          ],
          [
            91.78130373398123,
            -67.21565544031661
          ],
          [
            92.07298567959351,
            -66.88956001620053
          ],
          [
            92.58857349028068,
            -66.61620903002266
          ],
          [
            93.07233867570731,
            -66.25394133918303
          ],
          [
            93.42671347478678,
            -65.82325926217062
          ],
          [
            93.69625544194379,
            -65.31525283323914
          ],
          [
            93.96412302359069,
            -64.68238223254754
          ],
          [
            94.05459826318237,
            -64.22119433742739
          ],
          [
            94.15516074451581,
            -63.821952522514295
          ],
          [
            94.52970516764822,
            -63.10485635555368
          ],
          [
            94.89861498236009,
            -62.439519424645844
          ],
          [
            95.31997953410462,
            -61.7451279441814
          ],
          [
            95.31999166654083,
            -61.3760390055709
          ],
          [
            95.32000379897703,
            -61.0069500669604
          ],
          [
            95.32001593141327,
            -60.6378611283499
          ],
          [
            95.32002806384946,
            -60.268772189739394
          ],
          [
            95.32004019628567,
            -59.89968325112889
          ],
          [
            95.3200523287219,
            -59.53059431251839
          ],
          [
            95.32006446115811,
            -59.16150537390789
          ],
          [
            95.32007659359432,
            -58.79241643529739
          ],
          [
            95.32008872603055,
            -58.42332749668689
          ],
          [
            95.41237535764878,
            -57.961970846600664
          ],
          [
            95.32011905712108,
            -57.50060515016063
          ],
          [
            95.32013118955729,
            -57.13151621155013
          ],
          [
            95.22787488902956,
            -56.670150515110095
          ],
          [
            95.2278870214658,
            -56.30106157649959
          ],
          [
            95.227899153902,
            -55.931972637889096
          ],
          [
            95.41245725159322,
            -55.470620510979785
          ]
        ]
      },
      "properties": {
        "type": "variant",
        "id": 1,
        "color": "#ff4444",
        "vzdal_m": 1002,
        "prevyseni_m": 5,
        "cas_s": 246,
        "tempo_str": "4:05"
      }
    },
    {
      "type": "Feature",
      "geometry": {
        "type": "LineString",
        "coordinates": [
          [
            92.36694684533724,
            -72.26401795291972
          ],
          [
            92.36695897777344,
            -71.89492901430921
          ],
          [
            92.45924257628263,
            -71.52584459887562
          ],
          [
            92.6437976408648,
            -71.15676470661893
          ],
          [
            92.64380067397386,
            -71.0644924719663
          ],
          [
            92.64380977330102,
            -70.78767576800843
          ],
          [
            92.55154437344615,
            -70.60312677552626
          ],
          [
            92.55155650588236,
            -70.23403783691576
          ],
          [
            92.64384313750061,
            -69.77268118682954
          ],
          [
            92.64385526993682,
            -69.40359224821904
          ],
          [
            92.73614190155507,
            -68.94223559813283
          ],
          [
            92.95775504790407,
            -68.32432777411957
          ],
          [
            93.01298663086453,
            -68.01952682113729
          ],
          [
            93.10526416315562,
            -67.83498687500894
          ],
          [
            93.1975416954467,
            -67.6504469288806
          ],
          [
            93.47437429231996,
            -67.09682709049557
          ],
          [
            93.47438642475616,
            -66.72773815188506
          ],
          [
            93.47439855719239,
            -66.35864921327456
          ],
          [
            93.4744106896286,
            -65.98956027466406
          ],
          [
            93.69625544194379,
            -65.31525283323914
          ],
          [
            93.96412302359069,
            -64.68238223254754
          ],
          [
            94.05459826318237,
            -64.22119433742739
          ],
          [
            94.13576376866614,
            -63.87089774692922
          ],
          [
            94.5131778416324,
            -63.14023633229609
          ],
          [
            94.7968378682905,
            -62.59173128179602
          ],
          [
            94.58179870619364,
            -62.021908462724035
          ],
          [
            94.30500553973808,
            -61.37598925062493
          ],
          [
            94.30501767217427,
            -61.00690031201443
          ],
          [
            94.3050298046105,
            -60.637811373403935
          ],
          [
            94.30504193704671,
            -60.26872243479343
          ],
          [
            94.02824877059115,
            -59.62280322269434
          ],
          [
            93.7514556041356,
            -58.97688401059525
          ],
          [
            93.75146773657181,
            -58.60779507198475
          ],
          [
            94.00998030174607,
            -57.966206974551
          ],
          [
            94.39741349571845,
            -57.2237432144337
          ],
          [
            94.6742460925917,
            -56.67012337604867
          ],
          [
            95.04335015553795,
            -56.11650806084054
          ],
          [
            95.41245725159322,
            -55.470620510979785
          ]
        ]
      },
      "properties": {
        "type": "variant",
        "id": 2,
        "color": "#4444ff",
        "vzdal_m": 973,
        "prevyseni_m": 5,
        "cas_s": 257,
        "tempo_str": "4:24"
      }
    }
  ]
}