{
  "type": "FeatureCollection",
  "features": [
    {
      "type": "Feature",
      "geometry": {
        "type": "Point",
        "coordinates": [
          188.9582466705221,
          -91.35261302382958
        ]
      },
      "properties": {
        "type": "start",
        "isom": "204"
      }
    },
    {
      "type": "Feature",
      "geometry": {
        "type": "Point",
        "coordinates": [
          162.08492862845887,
          -63.0288869345509
        ]
      },
      "properties": {
        "type": "end",
        "isom": "204"
      }
    },
    {
      "type": "Feature",
      "geometry": {
        "type": "LineString",
        "coordinates": [
          [
            188.98012820085265,
            -91.37943688694496
          ],
          [
            187.87289487284926,
            -90.64120473486852
          ],
          [
            187.13474740913782,
            -89.90299067462226
          ],
          [
            186.39661207786259,
            -88.79568767608306
          ],
          [
            185.65847068036925,
            -87.87292914669032
          ],
          [
            184.92032321665783,
            -87.13471508644406
          ],
          [
            184.1821757529464,
            -86.3965010261978
          ],
          [
            183.99764495323663,
            -86.02740304198976
          ],
          [
            183.25949748952522,
            -85.2891889817435
          ],
          [
            182.52135609203188,
            -84.36643045235076
          ],
          [
            181.96776975912073,
            -83.07459203058015
          ],
          [
            181.96779402399318,
            -82.33641415399424
          ],
          [
            181.96780009021128,
            -82.15186968484775
          ],
          [
            181.78326322428344,
            -81.96731616978619
          ],
          [
            181.59873242457368,
            -81.59821818557816
          ],
          [
            180.6760602273706,
            -80.30636167197737
          ],
          [
            180.49152942766088,
            -79.93726368776933
          ],
          [
            180.3069986279511,
            -79.56816570356129
          ],
          [
            180.30702289282357,
            -78.82998782697537
          ],
          [
            180.30702895904167,
            -78.6454433578289
          ],
          [
            180.1224981593319,
            -78.27634537362086
          ],
          [
            179.75341836125807,
            -78.0917828126442
          ],
          [
            179.01529516241908,
            -76.61539087581203
          ],
          [
            178.6462335629996,
            -75.87719490739595
          ],
          [
            178.46170276328985,
            -75.50809692318789
          ],
          [
            177.7235613657965,
            -74.58533839379515
          ],
          [
            177.53902449986867,
            -74.4007848787336
          ],
          [
            177.3544937001589,
            -74.03168689452555
          ],
          [
            177.16995683423104,
            -73.84713337946398
          ],
          [
            176.98541996830318,
            -73.66257986440243
          ],
          [
            176.80088310237534,
            -73.47802634934087
          ],
          [
            175.32456391008,
            -72.73977610543426
          ],
          [
            174.03279371614877,
            -71.81699043829626
          ],
          [
            172.55647452385344,
            -71.07874019438965
          ],
          [
            172.00284572741552,
            -71.07871305664439
          ],
          [
            170.7110755334843,
            -70.1559273895064
          ],
          [
            169.23475634118896,
            -69.4176771455998
          ],
          [
            167.94298008103962,
            -68.67943594760828
          ],
          [
            167.20483261732818,
            -67.94122188736202
          ],
          [
            165.91305635717882,
            -67.2029806893705
          ],
          [
            165.17491495968548,
            -66.28022215997775
          ],
          [
            164.43676749597404,
            -65.5420080997315
          ],
          [
            163.69862003226262,
            -64.80379403948524
          ],
          [
            162.9604786347693,
            -63.8810355100925
          ],
          [
            162.22233117105785,
            -63.14282144984625
          ],
          [
            162.03779430512998,
            -62.958267934784686
          ]
        ]
      },
      "properties": {
        "type": "variant",
        "id": 1,
        "color": "#ff4444",
        "vzdal_m": 1104,
        "prevyseni_m": 8,
        "cas_s": 316,
        "tempo_str": "4:46"
      }
    },
    {
      "type": "Feature",
      "geometry": {
        "type": "LineString",
        "coordinates": [
          [
            188.98012820085265,
            -91.37943688694496
          ],
          [
            187.87289487284926,
            -90.64120473486852
          ],
          [
            187.13474740913782,
            -89.90299067462226
          ],
          [
            186.39661207786259,
            -88.79568767608306
          ],
          [
            185.65847068036925,
            -87.87292914669032
          ],
          [
            184.92032321665783,
            -87.13471508644406
          ],
          [
            184.1821757529464,
            -86.3965010261978
          ],
          [
            183.99764495323663,
            -86.02740304198976
          ],
          [
            183.62857122138092,
            -85.65829601186663
          ],
          [
            183.25949142330708,
            -85.47373345088998
          ],
          [
            182.89041162523327,
            -85.28917088991332
          ],
          [
            182.7058686930873,
            -85.28916184399824
          ],
          [
            182.33678889501346,
            -85.10459928302159
          ],
          [
            181.22954950079196,
            -84.55091160009164
          ],
          [
            180.86046363650001,
            -84.55089350826147
          ],
          [
            180.4913838384262,
            -84.36633094728481
          ],
          [
            179.56867524391444,
            -84.1817412485629
          ],
          [
            178.83050351533058,
            -84.18170506490256
          ],
          [
            177.53872118896308,
            -83.62800833605752
          ],
          [
            176.6160307931057,
            -82.88978522989618
          ],
          [
            175.69333433103014,
            -82.3361065928813
          ],
          [
            175.1397358656828,
            -81.41335710940365
          ],
          [
            174.40159446818947,
            -80.49059858001091
          ],
          [
            173.66344700447806,
            -79.75238451976465
          ],
          [
            173.29437327262232,
            -79.38327748964153
          ],
          [
            173.10984247291256,
            -79.01417950543348
          ],
          [
            172.18715814327325,
            -78.09141193012566
          ],
          [
            171.0799248152699,
            -77.35317977804922
          ],
          [
            170.34177735155845,
            -76.61496571780296
          ],
          [
            170.15724048563058,
            -76.43041220274141
          ],
          [
            169.78816068755677,
            -76.24584964176475
          ],
          [
            168.86547029169935,
            -75.5076265356034
          ],
          [
            167.57369403155,
            -74.7693853376119
          ],
          [
            166.6510157681288,
            -73.66207329315759
          ],
          [
            166.09742943521766,
            -72.37023487138698
          ],
          [
            165.91289863550793,
            -72.00113688717894
          ],
          [
            165.1747633042327,
            -70.89383388863972
          ],
          [
            164.4366219067394,
            -69.97107535924698
          ],
          [
            163.69848657546416,
            -68.86377236070777
          ],
          [
            163.1448881101168,
            -67.94102287723011
          ],
          [
            163.32946137335333,
            -67.01830957741281
          ],
          [
            162.7758750404422,
            -65.7264711556422
          ],
          [
            162.03775184160318,
            -64.25007921881003
          ],
          [
            162.03777610647566,
            -63.51190134222412
          ],
          [
            162.03779430512998,
            -62.958267934784686
          ]
        ]
      },
      "properties": {
        "type": "variant",
        "id": 2,
        "color": "#4444ff",
        "vzdal_m": 1122,
        "prevyseni_m": 14,
        "cas_s": 318,
        "tempo_str": "4:43"
      }
    },
    {
      "type": "Feature",
      "geometry": {
        "type": "LineString",
        "coordinates": [
          [
            188.98012820085265,
            -91.37943688694496
          ],
          [
            188.0574196063409,
            -91.19484718822305
          ],
          [
            187.31924787775702,
            -91.19481100456271
          ],
          [
            186.58107614917313,
            -91.19477482090235
          ],
          [
            186.21200241731742,
            -90.82566779077924
          ],
          [
            185.84292261924355,
            -90.64110522980258
          ],
          [
            185.47384282116974,
            -90.45654266882593
          ],
          [
            184.18206656102038,
            -89.71830147083442
          ],
          [
            182.70574736872504,
            -88.98005122692781
          ],
          [
            181.4139711085757,
            -88.24181002893629
          ],
          [
            179.7531029179163,
            -87.68809520826107
          ],
          [
            178.46133272398507,
            -86.76530954112307
          ],
          [
            177.1695503976176,
            -86.21161281227803
          ],
          [
            175.87776807125013,
            -85.657916083433
          ],
          [
            174.58599181110077,
            -84.91967488544148
          ],
          [
            173.84784434738935,
            -84.18146082519523
          ],
          [
            173.10970294989602,
            -83.25870229580248
          ],
          [
            172.37156155240268,
            -82.33594376640974
          ],
          [
            171.26434035683553,
            -81.22862267604036
          ],
          [
            170.34164996097812,
            -80.49039956987902
          ],
          [
            169.60350249726667,
            -79.75218550963277
          ],
          [
            168.86536109977334,
            -78.82942698024003
          ],
          [
            168.12723183471624,
            -77.53757951255433
          ],
          [
            167.38910256965912,
            -76.24573204486863
          ],
          [
            166.65097937082012,
            -74.76934010803646
          ],
          [
            166.09713058108747,
            -73.45202041188796
          ],
          [
            165.54380670499788,
            -72.18566326449525
          ],
          [
            164.80567743994075,
            -70.89381579680955
          ],
          [
            164.06754817488365,
            -69.60196832912386
          ],
          [
            163.32942497604466,
            -68.12557639229169
          ],
          [
            163.3294492409171,
            -67.38739851570577
          ],
          [
            163.1449366398617,
            -66.4646671240583
          ],
          [
            162.4068134410227,
            -64.98827518722612
          ],
          [
            162.03776397403942,
            -63.880990280517075
          ],
          [
            162.03778823891187,
            -63.14281240393117
          ],
          [
            162.03779430512998,
            -62.958267934784686
          ]
        ]
      },
      "properties": {
        "type": "variant",
        "id": 3,
        "color": "#44ff44",
        "vzdal_m": 1135,
        "prevyseni_m": 11,
        "cas_s": 326,
        "tempo_str": "4:47"
      }
    }
  ]
}