{
  "type": "FeatureCollection",
  "features": [
    {
      "type": "Feature",
      "geometry": {
        "type": "Point",
        "coordinates": [
          57.79336372039548,
          -110.50368848682969
        ]
      },
      "properties": {
        "type": "start",
        "isom": "526"
      }
    },
    {
      "type": "Feature",
      "geometry": {
        "type": "Point",
        "coordinates": [
          61.6546634754778,
          -95.99056250155564
        ]
      },
      "properties": {
        "type": "end",
        "isom": "204"
      }
    },
    {
      "type": "Feature",
      "geometry": {
        "type": "LineString",
        "coordinates": [
          [
            57.7638913608227,
            -110.46302690776704
          ],
          [
            57.85617799244095,
            -110.00167025768083
          ],
          [
            57.948464624059184,
            -109.5403136075946
          ],
          [
            57.9484767564954,
            -109.1712246689841
          ],
          [
            58.22531238647771,
            -108.52533259594642
          ],
          [
            58.594422515642044,
            -107.78717281143305
          ],
          [
            58.87125814562435,
            -107.14128073839538
          ],
          [
            59.05581927642462,
            -106.58765637683344
          ],
          [
            59.42492940558896,
            -105.84949659232007
          ],
          [
            59.79403953475329,
            -105.11133680780668
          ],
          [
            59.88632616637154,
            -104.64998015772046
          ],
          [
            59.88633829880776,
            -104.28089121910996
          ],
          [
            59.88635043124396,
            -103.91180228049946
          ],
          [
            59.88636256368018,
            -103.54271334188896
          ],
          [
            59.8863746961164,
            -103.17362440327845
          ],
          [
            59.88638682855261,
            -102.80453546466795
          ],
          [
            59.88639896098883,
            -102.43544652605745
          ],
          [
            59.886411093425046,
            -102.06635758744694
          ],
          [
            59.97869772504328,
            -101.60500093736073
          ],
          [
            60.070984356661526,
            -101.14364428727451
          ],
          [
            60.070996489097745,
            -100.77455534866401
          ],
          [
            60.071008621533956,
            -100.4054664100535
          ],
          [
            60.071020753970174,
            -100.036377471443
          ],
          [
            60.07103288640639,
            -99.6672885328325
          ],
          [
            60.16331951802463,
            -99.20593188274628
          ],
          [
            60.53242054786181,
            -98.74458880219079
          ],
          [
            60.80925011162601,
            -98.28324119845836
          ],
          [
            60.809262244062225,
            -97.91415225984785
          ],
          [
            60.90154887568046,
            -97.45279560976164
          ],
          [
            61.2706590048448,
            -96.71463582524827
          ],
          [
            61.63976913400913,
            -95.97647604073488
          ]
        ]
      },
      "properties": {
        "type": "variant",
        "id": 1,
        "color": "#ff4444",
        "vzdal_m": 831,
        "prevyseni_m": 5,
        "cas_s": 217,
        "tempo_str": "4:20"
      }
    },
    {
      "type": "Feature",
      "geometry": {
        "type": "LineString",
        "coordinates": [
          [
            57.7638913608227,
            -110.46302690776704
          ],
          [
            57.763903493258915,
            -110.09393796915654
          ],
          [
            57.76391562569512,
            -109.72484903054604
          ],
          [
            57.76392775813134,
            -109.35576009193554
          ],
          [
            57.763939890567556,
            -108.98667115332503
          ],
          [
            57.76395202300376,
            -108.61758221471453
          ],
          [
            57.76396415543998,
            -108.24849327610403
          ],
          [
            57.67169875558511,
            -108.06394428362188
          ],
          [
            57.763973254767144,
            -107.97167657214615
          ],
          [
            57.85625078705823,
            -107.78713662601781
          ],
          [
            57.76399751963957,
            -107.23349869492515
          ],
          [
            57.76400055274863,
            -107.14122646027253
          ],
          [
            57.394938953329145,
            -106.4030304903439
          ],
          [
            57.21041421983751,
            -105.84938803607433
          ],
          [
            57.21042635227372,
            -105.48029909746383
          ],
          [
            57.30271298389197,
            -105.01894244737761
          ],
          [
            57.30272511632818,
            -104.64985350876711
          ],
          [
            57.302737248764394,
            -104.2807645701566
          ],
          [
            57.30274938120061,
            -103.9116756315461
          ],
          [
            57.48731051200088,
            -103.35805126998416
          ],
          [
            57.4873226444371,
            -102.98896233137366
          ],
          [
            57.48733477687332,
            -102.61987339276315
          ],
          [
            57.579621408491555,
            -102.15851674267694
          ],
          [
            57.94872243832874,
            -101.69717366212144
          ],
          [
            58.31782043505686,
            -101.32810281621855
          ],
          [
            58.686921464894034,
            -100.86675973566305
          ],
          [
            59.05601946162216,
            -100.49768888976017
          ],
          [
            59.51738892442325,
            -100.1286225670342
          ],
          [
            59.886492987369486,
            -99.57500725182607
          ],
          [
            60.255597050315714,
            -99.02139193661795
          ],
          [
            60.624695047043836,
            -98.65232109071506
          ],
          [
            60.80925314473506,
            -98.19096896380573
          ],
          [
            60.80926527717127,
            -97.82188002519524
          ],
          [
            60.99382640797155,
            -97.2682556636333
          ],
          [
            61.36293653713588,
            -96.53009587911993
          ],
          [
            61.63976913400913,
            -95.97647604073488
          ]
        ]
      },
      "properties": {
        "type": "variant",
        "id": 2,
        "color": "#4444ff",
        "vzdal_m": 874,
        "prevyseni_m": 10,
        "cas_s": 221,
        "tempo_str": "4:13"
      }
    },
    {
      "type": "Feature",
      "geometry": {
        "type": "LineString",
        "coordinates": [
          [
            57.7638913608227,
            -110.46302690776704
          ],
          [
            57.85617799244095,
            -110.00167025768083
          ],
          [
            57.948464624059184,
            -109.5403136075946
          ],
          [
            57.9484767564954,
            -109.1712246689841
          ],
          [
            58.22531238647771,
            -108.52533259594642
          ],
          [
            58.59441341631488,
            -108.06398951539093
          ],
          [
            58.963511413043,
            -107.69491866948803
          ],
          [
            59.33260940977112,
            -107.32584782358516
          ],
          [
            59.60943290731722,
            -107.04904468915801
          ],
          [
            60.34761676833725,
            -106.67999193596276
          ],
          [
            60.71672689750159,
            -105.94183215144936
          ],
          [
            61.08583702666592,
            -105.20367236693599
          ],
          [
            61.17812365828417,
            -104.74231571684977
          ],
          [
            61.178135790720376,
            -104.37322677823927
          ],
          [
            61.08587949019267,
            -103.91186108179923
          ],
          [
            60.99362318966496,
            -103.4504953853592
          ],
          [
            61.178184320465235,
            -102.89687102379726
          ],
          [
            61.17819341979239,
            -102.62005431983938
          ],
          [
            61.085937119264685,
            -102.15868862339936
          ],
          [
            61.0859492517009,
            -101.78959968478885
          ],
          [
            61.085961384137114,
            -101.42051074617835
          ],
          [
            61.08597958279143,
            -100.8668773382626
          ],
          [
            61.270540713591714,
            -100.31325297670065
          ],
          [
            61.3628182458828,
            -100.12871303057231
          ],
          [
            61.36283037831901,
            -99.75962409196181
          ],
          [
            61.36284251075523,
            -99.39053515335131
          ],
          [
            61.455129142373465,
            -98.92917850326509
          ],
          [
            61.63969027317374,
            -98.37555414170313
          ],
          [
            61.63970240560996,
            -98.00646520309263
          ],
          [
            61.63971453804617,
            -97.63737626448213
          ],
          [
            61.63972667048238,
            -97.26828732587163
          ],
          [
            61.6397388029186,
            -96.89919838726112
          ],
          [
            61.63975093535481,
            -96.53010944865063
          ],
          [
            61.63976306779103,
            -96.16102051004013
          ],
          [
            61.63976913400913,
            -95.97647604073488
          ]
        ]
      },
      "properties": {
        "type": "variant",
        "id": 3,
        "color": "#44ff44",
        "vzdal_m": 862,
        "prevyseni_m": 0,
        "cas_s": 243,
        "tempo_str": "4:42"
      }
    }
  ]
}