{
  "type": "FeatureCollection",
  "features": [
    {
      "type": "Feature",
      "geometry": {
        "type": "Point",
        "coordinates": [
          207.66874845317065,
          -168.0350790285176
        ]
      },
      "properties": {
        "type": "start",
        "isom": "419"
      }
    },
    {
      "type": "Feature",
      "geometry": {
        "type": "Point",
        "coordinates": [
          182.76474653113397,
          -98.63332692862446
        ]
      },
      "properties": {
        "type": "end",
        "isom": "111"
      }
    },
    {
      "type": "Feature",
      "geometry": {
        "type": "LineString",
        "coordinates": [
          [
            207.61644686707956,
            -167.9663052201572
          ],
          [
            207.80102013031612,
            -167.0435919203399
          ],
          [
            207.8010443951885,
            -166.305414043754
          ],
          [
            207.801068660061,
            -165.5672361671681
          ],
          [
            207.9856419232975,
            -164.6445228673508
          ],
          [
            207.98567832060618,
            -163.53725605247192
          ],
          [
            207.9857025854786,
            -162.799078175886
          ],
          [
            207.9857086516967,
            -162.6145337067395
          ],
          [
            208.17026371627892,
            -162.24545381436167
          ],
          [
            208.1702879811514,
            -161.50727593777574
          ],
          [
            208.17029404736945,
            -161.32273146862926
          ],
          [
            208.3548491119517,
            -160.9536515762514
          ],
          [
            208.1703122460238,
            -160.76909806118982
          ],
          [
            207.9857814463141,
            -160.40000007698177
          ],
          [
            207.24763398260262,
            -159.66178601673553
          ],
          [
            206.50948651889118,
            -158.92357195648927
          ],
          [
            205.77133905517977,
            -158.185357896243
          ],
          [
            205.03319159146832,
            -157.44714383599674
          ],
          [
            204.29504412775685,
            -156.70892977575048
          ],
          [
            203.5569209289179,
            -155.23253783891832
          ],
          [
            203.00332852978863,
            -154.1252438862942
          ],
          [
            202.85323010672923,
            -153.60426080728638
          ],
          [
            202.4623505189854,
            -153.51576511990342
          ],
          [
            201.62608678111792,
            -152.99061900034258
          ],
          [
            201.01232593306256,
            -151.90089058891425
          ],
          [
            200.8847276467924,
            -151.00460325276174
          ],
          [
            200.80984804280482,
            -150.27017873824295
          ],
          [
            200.518837979856,
            -149.16160765736043
          ],
          [
            199.9391497694552,
            -147.89690051937401
          ],
          [
            199.73707116811096,
            -147.09686562639558
          ],
          [
            199.62726750000834,
            -146.70669196381576
          ],
          [
            199.48186821058198,
            -146.00867547152913
          ],
          [
            199.22744337410873,
            -145.23433978711742
          ],
          [
            199.11566534386017,
            -144.8729098693628
          ],
          [
            199.01747372224318,
            -144.32963610019928
          ],
          [
            198.93014681703983,
            -143.92266282320438
          ],
          [
            198.6775789558449,
            -143.27018611608713
          ],
          [
            198.488651147142,
            -142.4702090815128
          ],
          [
            198.26691371648656,
            -142.07650503731554
          ],
          [
            197.33538789834822,
            -141.3156814728342
          ],
          [
            196.682702455164,
            -140.59388517565054
          ],
          [
            195.93730207938924,
            -139.789493676289
          ],
          [
            195.01908963839844,
            -139.0458749975733
          ],
          [
            194.248116868929,
            -137.9422303957697
          ],
          [
            193.9612950791385,
            -136.777620536686
          ],
          [
            193.96131934401095,
            -136.0394426601001
          ],
          [
            193.96134360888342,
            -135.30126478351417
          ],
          [
            193.96136787375582,
            -134.56308690692825
          ],
          [
            193.9613921386283,
            -133.82490903034233
          ],
          [
            193.77687953757285,
            -132.90217763869487
          ],
          [
            193.77690380244533,
            -132.16399976210894
          ],
          [
            193.77692806731778,
            -131.42582188552302
          ],
          [
            193.77695233219018,
            -130.68764400893713
          ],
          [
            193.77697053084452,
            -130.1340106014977
          ],
          [
            193.9615255954267,
            -129.76493070911982
          ],
          [
            193.96154986029916,
            -129.0267528325339
          ],
          [
            193.96157412517164,
            -128.28857495594798
          ],
          [
            193.9616105224803,
            -127.18130814106911
          ],
          [
            193.40801205713294,
            -126.25855865759145
          ],
          [
            193.22349945607752,
            -125.33582726594398
          ],
          [
            192.6699131231664,
            -124.04398884417338
          ],
          [
            191.93178992432738,
            -122.5675969073412
          ],
          [
            191.37819145898004,
            -121.64484742386355
          ],
          [
            190.8246172585051,
            -119.98392006379999
          ],
          [
            190.08649405966614,
            -118.50752812696781
          ],
          [
            189.34837086082712,
            -117.03113619013564
          ],
          [
            188.97930319518952,
            -116.47748469086602
          ],
          [
            188.97932139384386,
            -115.92385128342659
          ],
          [
            188.9793456587163,
            -115.18567340684068
          ],
          [
            188.79483305766087,
            -114.26294201519319
          ],
          [
            188.61032045660545,
            -113.34021062354573
          ],
          [
            188.79487552118766,
            -112.97113073116785
          ],
          [
            188.7949058522782,
            -112.04840838543545
          ],
          [
            188.79493011715064,
            -111.31023050884954
          ],
          [
            188.7949543820231,
            -110.57205263226362
          ],
          [
            188.79497864689552,
            -109.83387475567771
          ],
          [
            188.79499684554986,
            -109.28024134823828
          ],
          [
            188.61046604584013,
            -108.91114336403025
          ],
          [
            188.61049031071255,
            -108.17296548744433
          ],
          [
            187.68781811350948,
            -106.88110897384354
          ],
          [
            186.9496949146705,
            -105.40471703701138
          ],
          [
            186.2115717158315,
            -103.9283251001792
          ],
          [
            185.65797931670224,
            -102.82103114755508
          ],
          [
            185.4734485169925,
            -102.45193316334702
          ],
          [
            184.7353192519354,
            -101.16008569566134
          ],
          [
            183.812628856078,
            -100.42186258949998
          ],
          [
            183.25903645694873,
            -99.31456863687586
          ],
          [
            182.70543192538327,
            -98.57636362254469
          ]
        ]
      },
      "properties": {
        "type": "variant",
        "id": 1,
        "color": "#ff4444",
        "vzdal_m": 2101,
        "prevyseni_m": 55,
        "cas_s": 641,
        "tempo_str": "5:04"
      }
    },
    {
      "type": "Feature",
      "geometry": {
        "type": "LineString",
        "coordinates": [
          [
            207.61644686707956,
            -167.9663052201572
          ],
          [
            207.80102013031612,
            -167.0435919203399
          ],
          [
            207.8010443951885,
            -166.305414043754
          ],
          [
            207.801068660061,
            -165.5672361671681
          ],
          [
            207.9856419232975,
            -164.6445228673508
          ],
          [
            207.98567832060618,
            -163.53725605247192
          ],
          [
            207.9857025854786,
            -162.799078175886
          ],
          [
            207.9857086516967,
            -162.6145337067395
          ],
          [
            208.17026371627892,
            -162.24545381436167
          ],
          [
            208.1702879811514,
            -161.50727593777574
          ],
          [
            208.17029404736945,
            -161.32273146862926
          ],
          [
            208.3548491119517,
            -160.9536515762514
          ],
          [
            208.17033651089628,
            -160.0309201846039
          ],
          [
            208.17036077576873,
            -159.292742308018
          ],
          [
            207.9858481747133,
            -158.37001091637052
          ],
          [
            207.80133557365787,
            -157.44727952472303
          ],
          [
            207.24774924074674,
            -156.15544110295244
          ],
          [
            206.50962604190778,
            -154.67904916612025
          ],
          [
            206.32509524219802,
            -154.3099511819122
          ],
          [
            206.13840739286326,
            -153.9263779370583
          ],
          [
            205.77151497550497,
            -152.83356829099515
          ],
          [
            205.21792864259385,
            -151.54172986922453
          ],
          [
            204.66434230968272,
            -150.24989144745393
          ],
          [
            204.11075597677157,
            -148.9580530256833
          ],
          [
            203.37263277793255,
            -147.48166108885115
          ],
          [
            202.6345095790936,
            -146.00526915201897
          ],
          [
            202.44997877938383,
            -145.63617116781091
          ],
          [
            201.71184951432673,
            -144.34432370012522
          ],
          [
            201.52731871461697,
            -143.9752257159172
          ],
          [
            201.52734297948942,
            -143.23704783933127
          ],
          [
            201.5273672443619,
            -142.49886996274535
          ],
          [
            201.5273915092343,
            -141.76069208615945
          ],
          [
            201.71195870625274,
            -141.0225232554886
          ],
          [
            201.7119951035614,
            -139.91525644060974
          ],
          [
            201.89655016814362,
            -139.54617654823187
          ],
          [
            201.89657443301604,
            -138.80799867164598
          ],
          [
            201.8965986978885,
            -138.06982079506005
          ],
          [
            201.71208609683308,
            -137.14708940341256
          ],
          [
            201.7120982292693,
            -136.77800046511962
          ],
          [
            201.52756742955953,
            -136.40890248091156
          ],
          [
            201.15851796257627,
            -135.3016175742025
          ],
          [
            201.15854222744872,
            -134.56343969761662
          ],
          [
            201.15856649232114,
            -133.8252618210307
          ],
          [
            201.1585846909755,
            -133.27162841359126
          ],
          [
            200.42046149213652,
            -131.7952364767591
          ],
          [
            199.86687515922537,
            -130.50339805498848
          ],
          [
            199.8668994240978,
            -129.76522017840256
          ],
          [
            199.3133070249686,
            -128.65792622577845
          ],
          [
            198.57517169369333,
            -127.55062322723921
          ],
          [
            197.83703636241813,
            -126.44332022870002
          ],
          [
            197.0989010311429,
            -125.33601723016078
          ],
          [
            196.36077783230394,
            -123.85962529332862
          ],
          [
            195.99171623288444,
            -123.12142932491253
          ],
          [
            195.80718543317468,
            -122.75233134070449
          ],
          [
            195.06906223433566,
            -121.27593940387231
          ],
          [
            194.1463900371326,
            -119.98408289027155
          ],
          [
            193.59281583665768,
            -118.32315553020797
          ],
          [
            193.59284010153013,
            -117.58497765362206
          ],
          [
            193.59286436640258,
            -116.84679977703614
          ],
          [
            193.03927803349146,
            -115.55496135526553
          ],
          [
            192.1166058362884,
            -114.26310484166476
          ],
          [
            192.3011790995249,
            -113.34039154184745
          ],
          [
            192.11664829981513,
            -112.9712935576394
          ],
          [
            191.74759883283187,
            -111.86400865093036
          ],
          [
            191.19401249992075,
            -110.57217022915977
          ],
          [
            190.27132817028144,
            -109.64940265385192
          ],
          [
            190.0867973705717,
            -109.2803046696439
          ],
          [
            189.34866810551458,
            -107.9884572019582
          ],
          [
            188.61053277423935,
            -106.88115420341899
          ],
          [
            187.68786057703625,
            -105.5892976898182
          ],
          [
            186.94973131197915,
            -104.29745022213251
          ],
          [
            186.21158384826774,
            -103.55923616188623
          ],
          [
            185.65797931670224,
            -102.82103114755508
          ],
          [
            185.4734485169925,
            -102.45193316334702
          ],
          [
            184.7353192519354,
            -101.16008569566134
          ],
          [
            183.812628856078,
            -100.42186258949998
          ],
          [
            183.25903645694873,
            -99.31456863687586
          ],
          [
            182.70543192538327,
            -98.57636362254469
          ]
        ]
      },
      "properties": {
        "type": "variant",
        "id": 2,
        "color": "#4444ff",
        "vzdal_m": 2075,
        "prevyseni_m": 55,
        "cas_s": 652,
        "tempo_str": "5:14"
      }
    },
    {
      "type": "Feature",
      "geometry": {
        "type": "LineString",
        "coordinates": [
          [
            207.61644686707956,
            -167.9663052201572
          ],
          [
            206.69373827256783,
            -167.7817155214353
          ],
          [
            205.77102967805607,
            -167.59712582271342
          ],
          [
            204.29471048576076,
            -166.85887557880682
          ],
          [
            203.00292815939326,
            -166.30517884996178
          ],
          [
            201.71115189924396,
            -165.56693765197025
          ],
          [
            200.78846150338654,
            -164.8287145458089
          ],
          [
            200.0503140396751,
            -164.09050048556264
          ],
          [
            199.31217870839987,
            -162.98319748702343
          ],
          [
            198.57404944334277,
            -161.69135001933773
          ],
          [
            198.2049999763595,
            -160.58406511262868
          ],
          [
            197.8359505093762,
            -159.47678020591965
          ],
          [
            197.83597477424868,
            -158.73860232933373
          ],
          [
            197.83599903912108,
            -158.00042445274784
          ],
          [
            197.65148643806566,
            -157.07769306110035
          ],
          [
            197.6515107029381,
            -156.33951518451443
          ],
          [
            196.91337537166294,
            -155.23221218597521
          ],
          [
            196.17524004038768,
            -154.124909187436
          ],
          [
            195.43709257667626,
            -153.38669512718974
          ],
          [
            194.69894511296482,
            -152.64848106694348
          ],
          [
            194.329865314891,
            -152.46391850596683
          ],
          [
            194.14535271383556,
            -151.54118711431937
          ],
          [
            194.14537697870804,
            -150.80300923773345
          ],
          [
            194.14540124358044,
            -150.06483136114753
          ],
          [
            194.1454255084529,
            -149.3266534845616
          ],
          [
            194.14544977332537,
            -148.5884756079757
          ],
          [
            193.96093717226995,
            -147.66574421632822
          ],
          [
            193.4073447731407,
            -146.5584502637041
          ],
          [
            193.22281397343096,
            -146.18935227949603
          ],
          [
            192.48468470837383,
            -144.89750481181036
          ],
          [
            191.74653724466242,
            -144.15929075156407
          ],
          [
            190.63930391665903,
            -143.42105859948765
          ],
          [
            189.90115645294756,
            -142.68284453924142
          ],
          [
            189.16302112167236,
            -141.57554154070218
          ],
          [
            188.42489185661523,
            -140.2836940730165
          ],
          [
            187.50220146075782,
            -139.54547096685513
          ],
          [
            186.76407219570072,
            -138.25362349916944
          ],
          [
            186.02593686442552,
            -137.14632050063025
          ],
          [
            185.30861364243032,
            -136.1608506319961
          ],
          [
            184.569126671493,
            -135.46153874374713
          ],
          [
            183.8189317507497,
            -134.74098275866575
          ],
          [
            183.07335914201596,
            -133.82437532135225
          ],
          [
            182.33521167830455,
            -133.08616126110599
          ],
          [
            181.59706421459308,
            -132.34794720085972
          ],
          [
            180.85892888331787,
            -131.2406442023205
          ],
          [
            180.12078748582454,
            -130.31788567292776
          ],
          [
            179.38266428698554,
            -128.8414937360956
          ],
          [
            178.9307253223779,
            -127.76487533573712
          ],
          [
            179.029911640539,
            -126.99934223073097
          ],
          [
            179.13788239224274,
            -126.26540290962528
          ],
          [
            179.18246515498527,
            -125.52989532847523
          ],
          [
            179.20876608006958,
            -125.15141176165248
          ],
          [
            179.1999512130065,
            -124.41235153692023
          ],
          [
            179.06363804304513,
            -123.71080117739781
          ],
          [
            178.32762240982524,
            -122.18605012115115
          ],
          [
            178.34708301298912,
            -121.42196038174124
          ],
          [
            178.47566032014421,
            -120.72331658648065
          ],
          [
            178.557571594206,
            -120.02994466675526
          ],
          [
            178.64968418818532,
            -119.59483779582524
          ],
          [
            178.60595825061708,
            -119.5838169970803
          ],
          [
            178.90457670277087,
            -119.08011515374774
          ],
          [
            178.9942290686375,
            -118.73425054559824
          ],
          [
            179.09547896921814,
            -118.34357893760298
          ],
          [
            179.1402969675975,
            -118.1706491925506
          ],
          [
            179.27604799219418,
            -117.79988419110714
          ],
          [
            179.33974529174188,
            -117.6408511835085
          ],
          [
            179.47715925040225,
            -117.24797283885513
          ],
          [
            179.5344814204078,
            -117.08339228342648
          ],
          [
            179.66911102317442,
            -116.6969864576226
          ],
          [
            180.12127884949157,
            -115.36978367206302
          ],
          [
            180.121303114364,
            -114.6316057954771
          ],
          [
            180.4904253759646,
            -113.52435707242842
          ],
          [
            181.22864563429337,
            -112.04803750291691
          ],
          [
            181.22866989916582,
            -111.309859626331
          ],
          [
            181.41324316240235,
            -110.3871463265137
          ],
          [
            181.59781642563888,
            -109.4644330266964
          ],
          [
            181.9669386872395,
            -108.35718430364771
          ],
          [
            182.3360609488401,
            -107.249935580599
          ],
          [
            182.7051832104407,
            -106.1426868575503
          ],
          [
            182.70520747531316,
            -105.4045089809644
          ],
          [
            182.7052317401856,
            -104.66633110437847
          ],
          [
            182.70525600505803,
            -103.92815322779256
          ],
          [
            182.7052802699305,
            -103.18997535120664
          ],
          [
            182.70530453480293,
            -102.45179747462073
          ],
          [
            182.70532879967539,
            -101.71361959803482
          ],
          [
            182.70535306454784,
            -100.9754417214489
          ],
          [
            182.70537732942026,
            -100.237263844863
          ],
          [
            182.7054015942927,
            -99.49908596827707
          ],
          [
            182.70542585916516,
            -98.76090809169116
          ],
          [
            182.70543192538327,
            -98.57636362254469
          ]
        ]
      },
      "properties": {
        "type": "variant",
        "id": 3,
        "color": "#44ff44",
        "vzdal_m": 2233,
        "prevyseni_m": 56,
        "cas_s": 651,
        "tempo_str": "4:51"
      }
    }
  ]
}