{
  "type": "FeatureCollection",
  "features": [
    {
      "type": "Feature",
      "geometry": {
        "type": "Point",
        "coordinates": [
          101.2222282319,
          -76.60204560620323
        ]
      },
      "properties": {
        "type": "start",
        "isom": "109"
      }
    },
    {
      "type": "Feature",
      "geometry": {
        "type": "Point",
        "coordinates": [
          101.12042232072108,
          -108.4069881403689
        ]
      },
      "properties": {
        "type": "end",
        "isom": "419"
      }
    },
    {
      "type": "Feature",
      "geometry": {
        "type": "LineString",
        "coordinates": [
          [
            101.22486503221752,
            -76.60124720657605
          ],
          [
            101.13257840059927,
            -77.06260385666226
          ],
          [
            101.11779746109755,
            -77.39261713800174
          ],
          [
            101.13255413572685,
            -77.80078173388327
          ],
          [
            101.22481043625456,
            -78.26214743032331
          ],
          [
            101.32906091599718,
            -78.73182244102787
          ],
          [
            101.5111209252837,
            -79.17615145033325
          ],
          [
            101.69825854027553,
            -79.46685543232125
          ],
          [
            101.4256635367345,
            -80.11725863565792
          ],
          [
            101.15289274384024,
            -80.65894923309877
          ],
          [
            101.1805291403395,
            -81.03698104455523
          ],
          [
            101.13358083895741,
            -81.49141605876031
          ],
          [
            101.12386490605435,
            -81.85886687573212
          ],
          [
            101.3346995602176,
            -82.4028658240313
          ],
          [
            101.31693327998391,
            -82.78349145147887
          ],
          [
            101.40918958051162,
            -83.24485714791889
          ],
          [
            101.50144588103933,
            -83.70622284435892
          ],
          [
            101.59370218156704,
            -84.16758854079896
          ],
          [
            101.8704953480226,
            -84.81350775289805
          ],
          [
            101.87048321558638,
            -85.18259669150855
          ],
          [
            101.87047108315016,
            -85.55168563011905
          ],
          [
            101.87045895071395,
            -85.92077456872956
          ],
          [
            101.87044681827773,
            -86.28986350734006
          ],
          [
            101.87043468584153,
            -86.65895244595056
          ],
          [
            102.05495941933314,
            -87.21259490022013
          ],
          [
            102.2394841528248,
            -87.76623735448969
          ],
          [
            102.23947202038858,
            -88.13532629310019
          ],
          [
            102.21863316137083,
            -88.50627975727551
          ],
          [
            102.25140816499402,
            -88.8724342309335
          ],
          [
            102.2841687187188,
            -89.23859143147692
          ],
          [
            102.23942652375277,
            -89.51940981288956
          ],
          [
            101.87031639458844,
            -90.25756959740295
          ],
          [
            101.59348076460613,
            -90.9034616704406
          ],
          [
            101.59346863216992,
            -91.27255060905111
          ],
          [
            101.5934564997337,
            -91.64163954766161
          ],
          [
            101.59344436729748,
            -92.01072848627211
          ],
          [
            101.2243372712422,
            -92.65661603613287
          ],
          [
            100.7643180016359,
            -93.38131107885091
          ],
          [
            100.67066601127759,
            -93.94840018220819
          ],
          [
            100.30155588211326,
            -94.68655996672159
          ],
          [
            100.20926925049503,
            -95.1479166168078
          ],
          [
            100.20925711805879,
            -95.51700555541831
          ],
          [
            100.11697048644055,
            -95.97836220550454
          ],
          [
            100.11695835400435,
            -96.34745114411503
          ],
          [
            100.11694622156811,
            -96.71654008272553
          ],
          [
            100.11693408913192,
            -97.08562902133603
          ],
          [
            100.1169219566957,
            -97.45471795994654
          ],
          [
            100.20917825722341,
            -97.91608365638658
          ],
          [
            100.5782398566429,
            -98.65427962631519
          ],
          [
            100.76276459013452,
            -99.20792208058475
          ],
          [
            100.76275245769831,
            -99.57701101919525
          ],
          [
            100.94727719118994,
            -100.13065347346482
          ],
          [
            100.94726505875373,
            -100.49974241207532
          ],
          [
            101.03952135928144,
            -100.96110810851536
          ],
          [
            101.13177765980915,
            -101.4224738049554
          ],
          [
            101.198528433594,
            -101.76498431998051
          ],
          [
            101.31629632708267,
            -102.16066072853019
          ],
          [
            101.40855566071943,
            -102.5297541903176
          ],
          [
            101.40854352828322,
            -102.8988431289281
          ],
          [
            101.31625689666498,
            -103.36019977901432
          ],
          [
            101.31624476422876,
            -103.72928871762483
          ],
          [
            101.31623263179254,
            -104.09837765623533
          ],
          [
            101.31622049935635,
            -104.46746659484583
          ],
          [
            101.31620836692011,
            -104.83655553345633
          ],
          [
            101.31619623448391,
            -105.20564447206684
          ],
          [
            101.30059813808938,
            -105.54801584676255
          ],
          [
            101.31617196961147,
            -105.94382234928783
          ],
          [
            101.31615983717526,
            -106.31291128789833
          ],
          [
            101.31614770473905,
            -106.68200022650883
          ],
          [
            101.31613557230283,
            -107.05108916511934
          ],
          [
            101.31612647297568,
            -107.32790586907721
          ],
          [
            101.22383984135745,
            -107.78926251916346
          ],
          [
            101.13155320973918,
            -108.25061916924967
          ],
          [
            101.13154714352109,
            -108.43516363855493
          ]
        ]
      },
      "properties": {
        "type": "variant",
        "id": 1,
        "color": "#ff4444",
        "vzdal_m": 1785,
        "prevyseni_m": 0,
        "cas_s": 442,
        "tempo_str": "4:07"
      }
    },
    {
      "type": "Feature",
      "geometry": {
        "type": "LineString",
        "coordinates": [
          [
            101.22486503221752,
            -76.60124720657605
          ],
          [
            101.60213860068866,
            -76.8419249789772
          ],
          [
            101.96300946281984,
            -77.43173350386492
          ],
          [
            102.33308851785361,
            -78.04404863699976
          ],
          [
            102.70114176098598,
            -78.63130873976431
          ],
          [
            103.07021549284167,
            -79.00041577108243
          ],
          [
            103.43928315847926,
            -79.55406727170579
          ],
          [
            103.8083538572259,
            -80.01544653767654
          ],
          [
            104.17742758908157,
            -80.38455356899468
          ],
          [
            104.26969298893646,
            -80.56910256147683
          ],
          [
            104.26968085650026,
            -80.93819150008733
          ],
          [
            104.36193715702797,
            -81.39955719652737
          ],
          [
            104.3187949642182,
            -81.69880220077731
          ],
          [
            104.45418132511945,
            -82.2300118315779
          ],
          [
            104.45416919268324,
            -82.5991007701884
          ],
          [
            104.63869392617487,
            -83.15274322445796
          ],
          [
            104.63868179373866,
            -83.52183216306847
          ],
          [
            104.63866966130244,
            -83.89092110167897
          ],
          [
            104.63865752886622,
            -84.26001004028947
          ],
          [
            104.63864539643001,
            -84.62909897889998
          ],
          [
            104.63863326399381,
            -84.99818791751048
          ],
          [
            104.73089259763057,
            -85.36728137929788
          ],
          [
            104.73088046519435,
            -85.73637031790838
          ],
          [
            104.73086833275813,
            -86.10545925651888
          ],
          [
            104.73085620032192,
            -86.47454819512937
          ],
          [
            104.76974343732572,
            -86.87696591560862
          ],
          [
            104.55785952767806,
            -87.28899481013886
          ],
          [
            104.94330861700519,
            -87.77744369907099
          ],
          [
            104.91533543717775,
            -88.41227416918832
          ],
          [
            104.91532330474153,
            -88.78136310779882
          ],
          [
            104.91531117230532,
            -89.15045204640933
          ],
          [
            104.9152990398691,
            -89.51954098501983
          ],
          [
            104.84529014734777,
            -89.94386563978344
          ],
          [
            105.20379263340381,
            -90.5263243735035
          ],
          [
            105.28433637441617,
            -90.99591483216946
          ],
          [
            105.28432424197993,
            -91.36500377077996
          ],
          [
            105.28431210954373,
            -91.73409270939047
          ],
          [
            105.28429997710752,
            -92.10318164800097
          ],
          [
            105.46882471059915,
            -92.65682410227053
          ],
          [
            105.46881864438103,
            -92.84136857157579
          ],
          [
            105.46881561127199,
            -92.93364080622841
          ],
          [
            105.37653807898091,
            -93.11818075235675
          ],
          [
            105.41308323307841,
            -93.51196165063993
          ],
          [
            105.33537325688806,
            -93.87629863974092
          ],
          [
            105.49658113768244,
            -94.30614045580614
          ],
          [
            105.73638615791769,
            -94.9689869108513
          ],
          [
            105.92901644947695,
            -95.6438780450685
          ],
          [
            105.98817472014966,
            -95.98657055775305
          ],
          [
            106.06312330655575,
            -96.36682029688751
          ],
          [
            106.02389509190282,
            -96.53263555157581
          ],
          [
            105.94885011348846,
            -96.99441775780933
          ],
          [
            105.93845701236582,
            -97.36414165888472
          ],
          [
            105.91446178128507,
            -97.73431444923521
          ],
          [
            105.92493702832392,
            -98.10026528334406
          ],
          [
            105.89044999219558,
            -98.46291247236722
          ],
          [
            105.79764345798117,
            -98.92338416213424
          ],
          [
            105.7589308821908,
            -99.31050989600305
          ],
          [
            105.84589276492866,
            -99.67205791018428
          ],
          [
            105.42705178325741,
            -100.3950342818119
          ],
          [
            105.22637801836694,
            -101.07767725855162
          ],
          [
            105.19418505466096,
            -101.4233612754721
          ],
          [
            105.10672679135779,
            -101.88605591130991
          ],
          [
            104.97054629134763,
            -102.3340781802388
          ],
          [
            104.86497987671244,
            -102.79861637264172
          ],
          [
            104.6339487402134,
            -103.35339858479412
          ],
          [
            104.27902080689566,
            -104.10306010045491
          ],
          [
            103.91723176028815,
            -104.84695945704377
          ],
          [
            103.52562848142553,
            -105.29190137450085
          ],
          [
            102.80356857254603,
            -105.69402278842891
          ],
          [
            102.42342349626911,
            -106.12842109671595
          ],
          [
            102.05431336710475,
            -106.86658088122935
          ],
          [
            101.68520627104948,
            -107.5124684310901
          ],
          [
            101.31609917499418,
            -108.15835598095084
          ],
          [
            101.13154714352109,
            -108.43516363855493
          ]
        ]
      },
      "properties": {
        "type": "variant",
        "id": 2,
        "color": "#4444ff",
        "vzdal_m": 1884,
        "prevyseni_m": 0,
        "cas_s": 453,
        "tempo_str": "4:00"
      }
    },
    {
      "type": "Feature",
      "geometry": {
        "type": "LineString",
        "coordinates": [
          [
            101.22486503221752,
            -76.60124720657605
          ],
          [
            101.13257840059927,
            -77.06260385666226
          ],
          [
            101.11779746109755,
            -77.39261713800174
          ],
          [
            101.13255413572685,
            -77.80078173388327
          ],
          [
            101.22481043625456,
            -78.26214743032331
          ],
          [
            101.32906091599718,
            -78.73182244102787
          ],
          [
            101.5111209252837,
            -79.17615145033325
          ],
          [
            101.69825854027553,
            -79.46685543232125
          ],
          [
            101.4256635367345,
            -80.11725863565792
          ],
          [
            101.15289274384024,
            -80.65894923309877
          ],
          [
            101.1805291403395,
            -81.03698104455523
          ],
          [
            101.13358083895741,
            -81.49141605876031
          ],
          [
            101.12386490605435,
            -81.85886687573212
          ],
          [
            101.18162949908653,
            -82.19447922287806
          ],
          [
            100.76329841732793,
            -82.96800878172267
          ],
          [
            100.39419132127266,
            -83.61389633158343
          ],
          [
            100.02508119210833,
            -84.35205611609682
          ],
          [
            99.93279456049007,
            -84.81341276618303
          ],
          [
            99.93278242805386,
            -85.18250170479354
          ],
          [
            99.56367229888953,
            -85.92066148930692
          ],
          [
            99.28683666890723,
            -86.56655356234457
          ],
          [
            99.286824536471,
            -86.93564250095507
          ],
          [
            99.19453790485277,
            -87.3969991510413
          ],
          [
            99.19452577241655,
            -87.7660880896518
          ],
          [
            99.00996464161626,
            -88.31971245121375
          ],
          [
            98.84950241376498,
            -88.95690424686443
          ],
          [
            98.44111216914828,
            -89.47517784107039
          ],
          [
            98.22366992395182,
            -90.16954671023362
          ],
          [
            98.11334385043544,
            -90.50978692715105
          ],
          [
            97.81033852317786,
            -91.27236515879798
          ],
          [
            97.90259482370557,
            -91.73373085523801
          ],
          [
            97.90258269126934,
            -92.10281979384851
          ],
          [
            97.90257055883315,
            -92.47190873245901
          ],
          [
            97.90255842639694,
            -92.84099767106952
          ],
          [
            97.90254629396071,
            -93.21008660968002
          ],
          [
            97.9025341615245,
            -93.57917554829052
          ],
          [
            97.90252202908829,
            -93.94826448690102
          ],
          [
            97.90250989665206,
            -94.31735342551153
          ],
          [
            97.90249776421585,
            -94.68644236412203
          ],
          [
            97.90248563177965,
            -95.05553130273253
          ],
          [
            97.90247349934342,
            -95.42462024134304
          ],
          [
            97.90246136690722,
            -95.79370917995354
          ],
          [
            97.81017473528898,
            -96.25506583003975
          ],
          [
            97.71183912016453,
            -96.71713706665035
          ],
          [
            97.82143177639122,
            -97.06602359585006
          ],
          [
            97.71786383879831,
            -97.45460035734698
          ],
          [
            97.78874660541695,
            -97.84298631684544
          ],
          [
            97.70332441840647,
            -98.1906482056805
          ],
          [
            97.67164932251454,
            -98.54884265109987
          ],
          [
            97.71781530905344,
            -98.93095611178899
          ],
          [
            97.71780317661722,
            -99.30004505039949
          ],
          [
            97.90232791010885,
            -99.85368750466905
          ],
          [
            97.90231577767264,
            -100.22277644327956
          ],
          [
            97.90169930186427,
            -100.5907323264224
          ],
          [
            97.90229151280023,
            -100.96095432050056
          ],
          [
            97.99454781332794,
            -101.42232001694059
          ],
          [
            97.99453568089172,
            -101.79140895555109
          ],
          [
            97.98966699173981,
            -102.32074260671226
          ],
          [
            98.47553968871328,
            -102.97486507040067
          ],
          [
            98.86754260861468,
            -103.69178114482591
          ],
          [
            98.9279146771288,
            -103.91124721019217
          ],
          [
            99.10290476987376,
            -104.43419647439461
          ],
          [
            99.19592876693658,
            -104.97539368039267
          ],
          [
            99.19350289301022,
            -105.29731657689021
          ],
          [
            99.47074871437005,
            -105.75918741644448
          ],
          [
            99.83981031378953,
            -106.4973833863731
          ],
          [
            100.20888101253615,
            -106.95876265234386
          ],
          [
            100.57795171128281,
            -107.4201419183146
          ],
          [
            100.85474791084741,
            -107.97378889576107
          ],
          [
            101.13154714352109,
            -108.43516363855493
          ]
        ]
      },
      "properties": {
        "type": "variant",
        "id": 3,
        "color": "#44ff44",
        "vzdal_m": 1824,
        "prevyseni_m": 0,
        "cas_s": 447,
        "tempo_str": "4:04"
      }
    }
  ]
}