{
  "type": "FeatureCollection",
  "features": [
    {
      "type": "Feature",
      "geometry": {
        "type": "Point",
        "coordinates": [
          17.596538290327164,
          -100.88695115923898
        ]
      },
      "properties": {
        "type": "start",
        "isom": "417"
      }
    },
    {
      "type": "Feature",
      "geometry": {
        "type": "Point",
        "coordinates": [
          30.906182024563616,
          -88.49175157904214
        ]
      },
      "properties": {
        "type": "end",
        "isom": "109"
      }
    },
    {
      "type": "Feature",
      "geometry": {
        "type": "LineString",
        "coordinates": [
          [
            17.626119062419267,
            -100.86474692194004
          ],
          [
            18.179753925075236,
            -100.68022959169625
          ],
          [
            18.641114288549176,
            -100.58797997292814
          ],
          [
            19.102474652023112,
            -100.49573035416005
          ],
          [
            19.656109514679084,
            -100.31121302391622
          ],
          [
            20.20974437733505,
            -100.1266956936724
          ],
          [
            20.671110807027095,
            -99.84990160559906
          ],
          [
            21.224751735901176,
            -99.48083980604999
          ],
          [
            21.87810581618671,
            -99.1234030612884
          ],
          [
            22.260671470456657,
            -98.75542594922774
          ],
          [
            22.663668485750993,
            -98.45012445312511
          ],
          [
            22.92393217154749,
            -97.96431997131442
          ],
          [
            23.34756235909012,
            -97.35900558891204
          ],
          [
            23.795812873739212,
            -96.66545150221387
          ],
          [
            24.085273342980333,
            -96.25145181169218
          ],
          [
            24.45437133970846,
            -95.88238096578931
          ],
          [
            24.823469336436574,
            -95.51331011988641
          ],
          [
            25.1925673331647,
            -95.14423927398354
          ],
          [
            25.561665329892822,
            -94.77516842808065
          ],
          [
            25.930763326620944,
            -94.40609758217776
          ],
          [
            26.29986132334907,
            -94.03702673627488
          ],
          [
            26.668959320077185,
            -93.667955890372
          ],
          [
            27.130328782878287,
            -93.29888956764603
          ],
          [
            27.499426779606413,
            -92.92981872174316
          ],
          [
            27.86852477633453,
            -92.56074787584028
          ],
          [
            28.237622773062654,
            -92.1916770299374
          ],
          [
            28.606720769790776,
            -91.82260618403451
          ],
          [
            29.068090232591874,
            -91.45353986130854
          ],
          [
            29.529459695392976,
            -91.08447353858257
          ],
          [
            29.898563758339204,
            -90.53085822337444
          ],
          [
            30.267673887503538,
            -89.79269843886105
          ],
          [
            30.636784016667875,
            -89.05453865434768
          ],
          [
            30.913616613541127,
            -88.50091881596265
          ]
        ]
      },
      "properties": {
        "type": "variant",
        "id": 1,
        "color": "#ff4444",
        "vzdal_m": 1016,
        "prevyseni_m": 31,
        "cas_s": 288,
        "tempo_str": "4:43"
      }
    },
    {
      "type": "Feature",
      "geometry": {
        "type": "LineString",
        "coordinates": [
          [
            17.626119062419267,
            -100.86474692194004
          ],
          [
            18.087488525220365,
            -100.49568059921408
          ],
          [
            18.45658955505754,
            -100.03433751865856
          ],
          [
            18.825687551785663,
            -99.66526667275569
          ],
          [
            19.19478554851379,
            -99.29619582685281
          ],
          [
            19.563883545241907,
            -98.92712498094994
          ],
          [
            20.176061131031123,
            -98.62743708039416
          ],
          [
            20.578896970026136,
            -98.09672462402227
          ],
          [
            20.94800406608142,
            -97.45083707416153
          ],
          [
            21.317105095918595,
            -96.989493993606
          ],
          [
            21.623412600176245,
            -96.39902705717545
          ],
          [
            22.055310188702,
            -95.97453559784236
          ],
          [
            22.14758468788403,
            -95.88226788636665
          ],
          [
            22.516685717721206,
            -95.42092480581115
          ],
          [
            22.885783714449328,
            -95.05185395990826
          ],
          [
            23.254884744286503,
            -94.59051087935276
          ],
          [
            23.62398577412368,
            -94.12916779879725
          ],
          [
            23.9930837708518,
            -93.76009695289437
          ],
          [
            24.2974194060895,
            -93.4040329007514
          ],
          [
            24.82355123038102,
            -93.02195978426552
          ],
          [
            25.284920693182123,
            -92.65289346153955
          ],
          [
            25.65401868991024,
            -92.28382261563667
          ],
          [
            26.20765961878432,
            -91.9147608160876
          ],
          [
            26.57675761551244,
            -91.54568997018472
          ],
          [
            26.945855612240564,
            -91.17661912428184
          ],
          [
            27.314953608968686,
            -90.80754827837896
          ],
          [
            27.684051605696812,
            -90.43847743247608
          ],
          [
            28.329964000643862,
            -90.06942015610393
          ],
          [
            28.883604929517936,
            -89.70035835655484
          ],
          [
            29.34497439231904,
            -89.33129203382887
          ],
          [
            29.99088678726609,
            -88.96223475745671
          ],
          [
            30.636799182213142,
            -88.59317748108455
          ],
          [
            30.913616613541127,
            -88.50091881596265
          ]
        ]
      },
      "properties": {
        "type": "variant",
        "id": 2,
        "color": "#4444ff",
        "vzdal_m": 996,
        "prevyseni_m": 32,
        "cas_s": 289,
        "tempo_str": "4:49"
      }
    }
  ]
}