{
  "type": "FeatureCollection",
  "features": [
    {
      "type": "Feature",
      "geometry": {
        "type": "Point",
        "coordinates": [
          97.03568436898553,
          -93.53250365523137
        ]
      },
      "properties": {
        "type": "start",
        "isom": "419"
      }
    },
    {
      "type": "Feature",
      "geometry": {
        "type": "Point",
        "coordinates": [
          80.06785990359847,
          -105.50731615294855
        ]
      },
      "properties": {
        "type": "end",
        "isom": "417"
      }
    },
    {
      "type": "Feature",
      "geometry": {
        "type": "LineString",
        "coordinates": [
          [
            97.07209399997674,
            -93.48686260504574
          ],
          [
            96.70300813568485,
            -93.48684451233812
          ],
          [
            96.33392227139294,
            -93.4868264196305
          ],
          [
            95.96483640710105,
            -93.48680832692288
          ],
          [
            95.48770976831878,
            -93.74656691588366
          ],
          [
            94.77418223114016,
            -94.19114585742743
          ],
          [
            94.24058370840115,
            -94.38797924102415
          ],
          [
            93.46979132620623,
            -94.67526396223927
          ],
          [
            93.00372476193135,
            -94.85000489499369
          ],
          [
            92.39805520312541,
            -95.27861912539603
          ],
          [
            91.99658654747041,
            -95.60825776689691
          ],
          [
            91.55515565712899,
            -96.00156820152445
          ],
          [
            90.91902340717346,
            -96.39672430094393
          ],
          [
            90.18208662580824,
            -96.65929480544214
          ],
          [
            89.77345859736336,
            -96.75522710841634
          ],
          [
            89.33040471602412,
            -96.5948794666713
          ],
          [
            89.04218712209908,
            -96.6120630643189
          ],
          [
            88.66196437681131,
            -97.04437457840517
          ],
          [
            88.02936293424476,
            -97.36185318911927
          ],
          [
            87.62396182492812,
            -97.96610788530587
          ],
          [
            87.3664776293129,
            -98.16941256748186
          ],
          [
            86.94182257831403,
            -98.80139835412093
          ],
          [
            86.76746701569972,
            -99.28356135113414
          ],
          [
            86.7174863563551,
            -99.76000995447902
          ],
          [
            86.73799184848555,
            -100.12989778940063
          ],
          [
            86.81213688486034,
            -100.47336429032984
          ],
          [
            86.36836128678713,
            -100.86811668873473
          ],
          [
            85.999263290059,
            -101.23718753463761
          ],
          [
            85.55551629925897,
            -101.68446650078992
          ],
          [
            85.0419706837812,
            -102.04167688062651
          ],
          [
            84.70965455845233,
            -102.80757836095667
          ],
          [
            84.24604173938232,
            -103.17481852198154
          ],
          [
            83.60012934443527,
            -103.5438757983537
          ],
          [
            82.86194548341524,
            -103.91292855154896
          ],
          [
            82.40057602061414,
            -104.28199487427493
          ],
          [
            81.66239215959412,
            -104.65104762747019
          ],
          [
            80.92420829857409,
            -105.02010038066544
          ],
          [
            80.18602443755405,
            -105.3891531338607
          ],
          [
            80.09374993837203,
            -105.48142084533643
          ]
        ]
      },
      "properties": {
        "type": "variant",
        "id": 1,
        "color": "#ff4444",
        "vzdal_m": 1200,
        "prevyseni_m": 27,
        "cas_s": 307,
        "tempo_str": "4:15"
      }
    },
    {
      "type": "Feature",
      "geometry": {
        "type": "LineString",
        "coordinates": [
          [
            97.07209399997674,
            -93.48686260504574
          ],
          [
            96.70300813568485,
            -93.48684451233812
          ],
          [
            96.33392227139294,
            -93.4868264196305
          ],
          [
            95.96483640710105,
            -93.48680832692288
          ],
          [
            95.48770976831878,
            -93.74656691588366
          ],
          [
            94.77418223114016,
            -94.19114585742743
          ],
          [
            94.24058370840115,
            -94.38797924102415
          ],
          [
            93.46979132620623,
            -94.67526396223927
          ],
          [
            93.00372476193135,
            -94.85000489499369
          ],
          [
            92.39805520312541,
            -95.27861912539603
          ],
          [
            91.99658654747041,
            -95.60825776689691
          ],
          [
            91.55515565712899,
            -96.00156820152445
          ],
          [
            90.91902340717346,
            -96.39672430094393
          ],
          [
            90.18208662580824,
            -96.65929480544214
          ],
          [
            89.77345859736336,
            -96.75522710841634
          ],
          [
            89.33040471602412,
            -96.5948794666713
          ],
          [
            89.04218712209908,
            -96.6120630643189
          ],
          [
            88.66196437681131,
            -97.04437457840517
          ],
          [
            88.02936293424476,
            -97.36185318911927
          ],
          [
            87.62396182492812,
            -97.96610788530587
          ],
          [
            87.3664776293129,
            -98.16941256748186
          ],
          [
            86.94182257831403,
            -98.80139835412093
          ],
          [
            86.64523028096903,
            -99.2072300345182
          ],
          [
            85.907046419949,
            -99.57628278771347
          ],
          [
            85.35340549107492,
            -99.94534458726251
          ],
          [
            84.89203602827382,
            -100.3144109099885
          ],
          [
            84.5229380315457,
            -100.68348175589138
          ],
          [
            84.0615685687446,
            -101.05254807861735
          ],
          [
            83.61447043305388,
            -101.38468038305793
          ],
          [
            83.23109200988823,
            -102.06750195120406
          ],
          [
            82.95425637990591,
            -102.71339402424174
          ],
          [
            82.58515838317778,
            -103.0824648701446
          ],
          [
            82.21606038644968,
            -103.4515357160475
          ],
          [
            81.84696238972155,
            -103.82060656195037
          ],
          [
            81.47786439299342,
            -104.18967740785324
          ],
          [
            81.10876639626531,
            -104.55874825375614
          ],
          [
            80.73966839953718,
            -104.927819099659
          ],
          [
            80.37057040280907,
            -105.2968899455619
          ],
          [
            80.09374993837203,
            -105.48142084533643
          ]
        ]
      },
      "properties": {
        "type": "variant",
        "id": 2,
        "color": "#4444ff",
        "vzdal_m": 1177,
        "prevyseni_m": 27,
        "cas_s": 312,
        "tempo_str": "4:25"
      }
    },
    {
      "type": "Feature",
      "geometry": {
        "type": "LineString",
        "coordinates": [
          [
            97.07209399997674,
            -93.48686260504574
          ],
          [
            96.79525836999446,
            -94.1327546780834
          ],
          [
            96.6107033054123,
            -94.50183457034011
          ],
          [
            96.51842577312121,
            -94.68637451646846
          ],
          [
            96.33386464232092,
            -95.23999887803039
          ],
          [
            96.33385554299377,
            -95.51681558198827
          ],
          [
            96.14930351152064,
            -95.79362323959234
          ],
          [
            96.05702901233862,
            -95.88589095106805
          ],
          [
            95.96475148004752,
            -96.07043089719639
          ],
          [
            95.59566561575564,
            -96.07041280448878
          ],
          [
            95.22657975146372,
            -96.07039471178115
          ],
          [
            95.13430828539074,
            -96.07039018860425
          ],
          [
            94.58066735651667,
            -96.43945198815332
          ],
          [
            94.21156329357042,
            -96.99306730336144
          ],
          [
            93.84246226373325,
            -97.45441038391695
          ],
          [
            93.47336426700514,
            -97.82348122981983
          ],
          [
            93.10426627027701,
            -98.19255207572272
          ],
          [
            92.7351682735489,
            -98.56162292162558
          ],
          [
            92.36607634303887,
            -98.74614929822322
          ],
          [
            91.99697834631074,
            -99.1152201441261
          ],
          [
            91.62788034958263,
            -99.48429099002897
          ],
          [
            90.98197098774462,
            -99.76107603174852
          ],
          [
            90.42833005887056,
            -100.13013783129759
          ],
          [
            89.9669575629604,
            -100.59147638867618
          ],
          [
            89.78240553148729,
            -100.86828404628024
          ],
          [
            89.28454837892059,
            -101.2604780330845
          ],
          [
            88.76739513981211,
            -101.60641216855528
          ],
          [
            88.30602567701102,
            -101.97547849128127
          ],
          [
            87.6858815209331,
            -102.37778837493505
          ],
          [
            87.19874988548096,
            -102.52905762107414
          ],
          [
            86.46056602446093,
            -102.89811037426941
          ],
          [
            85.72238216344091,
            -103.26716312746467
          ],
          [
            85.16874730078493,
            -103.45168045770846
          ],
          [
            84.41525371003651,
            -103.67934454008925
          ],
          [
            83.87935470939821,
            -104.10520517231843
          ],
          [
            83.41777127410428,
            -104.21786358107228
          ],
          [
            83.0509487761836,
            -104.246665955223
          ],
          [
            82.30829545521401,
            -104.55880705505591
          ],
          [
            81.57011159419397,
            -104.92785980825116
          ],
          [
            81.20102572990207,
            -104.92784171554355
          ],
          [
            80.46284186888204,
            -105.2968944687388
          ],
          [
            80.09374993837203,
            -105.48142084533643
          ]
        ]
      },
      "properties": {
        "type": "variant",
        "id": 3,
        "color": "#44ff44",
        "vzdal_m": 1184,
        "prevyseni_m": 31,
        "cas_s": 340,
        "tempo_str": "4:47"
      }
    },
    {
      "type": "Feature",
      "geometry": {
        "type": "LineString",
        "coordinates": [
          [
            97.07209399997674,
            -93.48686260504574
          ],
          [
            96.70300813568485,
            -93.48684451233812
          ],
          [
            96.33392227139294,
            -93.4868264196305
          ],
          [
            95.872561907919,
            -93.5790760383986
          ],
          [
            95.31892401215399,
            -93.85586560329504
          ],
          [
            94.58074015113397,
            -94.2249183564903
          ],
          [
            94.02710528847797,
            -94.40943568673411
          ],
          [
            93.38119592663998,
            -94.68622072845366
          ],
          [
            92.64301206561994,
            -95.05527348164891
          ],
          [
            92.18164260281885,
            -95.4243398043749
          ],
          [
            91.72027314001774,
            -95.79340612710087
          ],
          [
            91.16663221114366,
            -96.16246792664994
          ],
          [
            90.52071981619662,
            -96.53152520302208
          ],
          [
            89.96708495354065,
            -96.7160425332659
          ],
          [
            89.59799605613969,
            -96.80829667521091
          ],
          [
            89.04436119348372,
            -96.99281400545473
          ],
          [
            88.4907172315006,
            -97.45414803965643
          ],
          [
            88.02935080180853,
            -97.73094212772978
          ],
          [
            87.66025280508042,
            -98.10001297363266
          ],
          [
            87.19888334227932,
            -98.46907929635863
          ],
          [
            86.82977321311499,
            -99.20723908087201
          ],
          [
            86.73748658149674,
            -99.66859573095823
          ],
          [
            86.73747444906053,
            -100.03768466956873
          ],
          [
            86.73746231662432,
            -100.40677360817924
          ],
          [
            86.36836431989619,
            -100.7758444540821
          ],
          [
            85.90699182398603,
            -101.23718301146071
          ],
          [
            85.53789382725792,
            -101.60625385736358
          ],
          [
            85.16879583052979,
            -101.97532470326647
          ],
          [
            84.79968873447451,
            -102.62121225312723
          ],
          [
            84.43058770463733,
            -103.08255533368272
          ],
          [
            83.78467530969029,
            -103.4516126100549
          ],
          [
            83.04649144867025,
            -103.82066536325016
          ],
          [
            82.49285051979618,
            -104.1897271627992
          ],
          [
            81.84693812484912,
            -104.55878443917138
          ],
          [
            81.10875426382908,
            -104.92783719236664
          ],
          [
            80.46284186888204,
            -105.2968944687388
          ],
          [
            80.09374993837203,
            -105.48142084533643
          ]
        ]
      },
      "properties": {
        "type": "variant",
        "id": 4,
        "color": "#ffaa00",
        "vzdal_m": 1182,
        "prevyseni_m": 23,
        "cas_s": 309,
        "tempo_str": "4:21"
      }
    }
  ]
}