{
  "type": "FeatureCollection",
  "features": [
    {
      "type": "Feature",
      "geometry": {
        "type": "Point",
        "coordinates": [
          77.40173102687672,
          -71.23266518972852
        ]
      },
      "properties": {
        "type": "start",
        "isom": "111"
      }
    },
    {
      "type": "Feature",
      "geometry": {
        "type": "Point",
        "coordinates": [
          101.40991277550314,
          -69.13501782571898
        ]
      },
      "properties": {
        "type": "end",
        "isom": "109"
      }
    },
    {
      "type": "Feature",
      "geometry": {
        "type": "LineString",
        "coordinates": [
          [
            77.43463377193265,
            -71.20437114777688
          ],
          [
            78.17279336808025,
            -71.57349627180263
          ],
          [
            78.81868453126393,
            -71.85034463799884
          ],
          [
            79.46457266133856,
            -72.21946523884768
          ],
          [
            80.20273225748616,
            -72.58859036287343
          ],
          [
            80.66408655474198,
            -72.68088521341059
          ],
          [
            81.12544691821593,
            -72.58863559464248
          ],
          [
            81.49453278250785,
            -72.5886536873501
          ],
          [
            81.95589314598178,
            -72.49640406858201
          ],
          [
            82.32497901027368,
            -72.49642216128963
          ],
          [
            82.69406790767465,
            -72.40416801934462
          ],
          [
            83.06315377196655,
            -72.40418611205224
          ],
          [
            83.5245141354405,
            -72.31193649328415
          ],
          [
            83.8935999997324,
            -72.31195458599178
          ],
          [
            84.44723486238837,
            -72.12743725574795
          ],
          [
            84.81632072668027,
            -72.12745534845558
          ],
          [
            85.27768109015422,
            -72.03520572968748
          ],
          [
            85.64676695444612,
            -72.03522382239511
          ],
          [
            86.20040181710209,
            -71.85070649215129
          ],
          [
            86.75403667975806,
            -71.66618916190747
          ],
          [
            87.30767154241403,
            -71.48167183166366
          ],
          [
            87.76904403832418,
            -71.02033327428505
          ],
          [
            88.13814506816136,
            -70.55899019372956
          ],
          [
            88.50724609799853,
            -70.09764711317405
          ],
          [
            88.87634409472666,
            -69.72857626727118
          ],
          [
            88.96861859390869,
            -69.63630855579545
          ],
          [
            89.42998805670979,
            -69.26724223306947
          ],
          [
            90.07590045165684,
            -68.89818495669732
          ],
          [
            90.6295353143128,
            -68.7136676264535
          ],
          [
            91.09089567778675,
            -68.6214180076854
          ],
          [
            91.73680503962476,
            -68.34463296596586
          ],
          [
            91.92135100487975,
            -68.25236977766706
          ],
          [
            92.29043686917166,
            -68.25238787037468
          ],
          [
            92.65952273346358,
            -68.2524059630823
          ],
          [
            93.02860859775548,
            -68.25242405578992
          ],
          [
            93.48996289501132,
            -68.34471890632706
          ],
          [
            93.85904875930322,
            -68.34473699903468
          ],
          [
            94.32040305655906,
            -68.43703184957184
          ],
          [
            94.7817573538149,
            -68.529326700109
          ],
          [
            95.15084321810679,
            -68.52934479281663
          ],
          [
            95.61219751536262,
            -68.62163964335377
          ],
          [
            95.98128337965454,
            -68.6216577360614
          ],
          [
            96.35036924394646,
            -68.62167582876901
          ],
          [
            96.71945510823835,
            -68.62169392147663
          ],
          [
            97.08854097253027,
            -68.62171201418425
          ],
          [
            97.45762683682216,
            -68.62173010689187
          ],
          [
            97.82671270111408,
            -68.62174819959951
          ],
          [
            98.195798565406,
            -68.62176629230713
          ],
          [
            98.56488442969788,
            -68.62178438501475
          ],
          [
            98.9339702939898,
            -68.62180247772237
          ],
          [
            99.30305615828172,
            -68.62182057042999
          ],
          [
            99.67214202257362,
            -68.62183866313762
          ],
          [
            100.04122788686553,
            -68.62185675584524
          ],
          [
            100.6871190500492,
            -68.89870512204145
          ],
          [
            101.24073874715991,
            -69.17554896506077
          ],
          [
            101.42528167930585,
            -69.17555801141458
          ]
        ]
      },
      "properties": {
        "type": "variant",
        "id": 1,
        "color": "#ff4444",
        "vzdal_m": 1399,
        "prevyseni_m": 19,
        "cas_s": 338,
        "tempo_str": "4:01"
      }
    },
    {
      "type": "Feature",
      "geometry": {
        "type": "LineString",
        "coordinates": [
          [
            77.43463377193265,
            -71.20437114777688
          ],
          [
            77.89598806918849,
            -71.29666599831403
          ],
          [
            78.35734236644431,
            -71.38896084885118
          ],
          [
            78.72642823073622,
            -71.3889789415588
          ],
          [
            79.28005096095598,
            -71.5735505499255
          ],
          [
            79.74140525821181,
            -71.66584540046264
          ],
          [
            80.11049112250372,
            -71.66586349317026
          ],
          [
            80.57185451908671,
            -71.48134163974954
          ],
          [
            81.12548938174268,
            -71.29682430950574
          ],
          [
            81.49457524603459,
            -71.29684240221336
          ],
          [
            81.86366111032649,
            -71.29686049492098
          ],
          [
            82.23274697461841,
            -71.2968785876286
          ],
          [
            82.60183283891031,
            -71.29689668033622
          ],
          [
            83.24774523385737,
            -70.92783940396406
          ],
          [
            83.98592909487739,
            -70.5587866507688
          ],
          [
            84.4472985576785,
            -70.18972032804282
          ],
          [
            85.18548241869853,
            -69.82066757484758
          ],
          [
            85.83139178053652,
            -69.54388253312803
          ],
          [
            86.29275517711952,
            -69.35936067970731
          ],
          [
            86.84639003977549,
            -69.17484334946349
          ],
          [
            87.2154759040674,
            -69.1748614421711
          ],
          [
            87.58456176835931,
            -69.17487953487873
          ],
          [
            87.95364763265121,
            -69.17489762758636
          ],
          [
            88.32273349694312,
            -69.17491572029398
          ],
          [
            88.78408779419895,
            -69.26721057083114
          ],
          [
            89.06089915930883,
            -69.35949637501447
          ],
          [
            89.79908302032887,
            -68.99044362181921
          ],
          [
            90.44499238216686,
            -68.71365858009969
          ],
          [
            90.81407824645876,
            -68.71367667280731
          ],
          [
            91.36771310911473,
            -68.52915934256349
          ],
          [
            91.92135100487975,
            -68.25236977766706
          ],
          [
            92.29043686917166,
            -68.25238787037468
          ],
          [
            92.65952273346358,
            -68.2524059630823
          ],
          [
            93.02860859775548,
            -68.25242405578992
          ],
          [
            93.48996289501132,
            -68.34471890632706
          ],
          [
            93.85904875930322,
            -68.34473699903468
          ],
          [
            94.32040305655906,
            -68.43703184957184
          ],
          [
            94.7817573538149,
            -68.529326700109
          ],
          [
            95.15084321810679,
            -68.52934479281663
          ],
          [
            95.61219751536262,
            -68.62163964335377
          ],
          [
            95.98128337965454,
            -68.6216577360614
          ],
          [
            96.35036924394646,
            -68.62167582876901
          ],
          [
            96.71945510823835,
            -68.62169392147663
          ],
          [
            97.08854097253027,
            -68.62171201418425
          ],
          [
            97.45762683682216,
            -68.62173010689187
          ],
          [
            97.82671270111408,
            -68.62174819959951
          ],
          [
            98.195798565406,
            -68.62176629230713
          ],
          [
            98.56488442969788,
            -68.62178438501475
          ],
          [
            98.9339702939898,
            -68.62180247772237
          ],
          [
            99.30305615828172,
            -68.62182057042999
          ],
          [
            99.67214202257362,
            -68.62183866313762
          ],
          [
            100.04122788686553,
            -68.62185675584524
          ],
          [
            100.6871190500492,
            -68.89870512204145
          ],
          [
            101.24073874715991,
            -69.17554896506077
          ],
          [
            101.42528167930585,
            -69.17555801141458
          ]
        ]
      },
      "properties": {
        "type": "variant",
        "id": 2,
        "color": "#4444ff",
        "vzdal_m": 1358,
        "prevyseni_m": 20,
        "cas_s": 348,
        "tempo_str": "4:16"
      }
    },
    {
      "type": "Feature",
      "geometry": {
        "type": "LineString",
        "coordinates": [
          [
            77.43463377193265,
            -71.20437114777688
          ],
          [
            78.17279336808025,
            -71.57349627180263
          ],
          [
            78.81868453126393,
            -71.85034463799884
          ],
          [
            79.46457266133856,
            -72.21946523884768
          ],
          [
            80.20273225748616,
            -72.58859036287343
          ],
          [
            80.66408655474198,
            -72.68088521341059
          ],
          [
            81.12544691821593,
            -72.58863559464248
          ],
          [
            81.49453278250785,
            -72.5886536873501
          ],
          [
            81.95589314598178,
            -72.49640406858201
          ],
          [
            82.32497901027368,
            -72.49642216128963
          ],
          [
            82.69406790767465,
            -72.40416801934462
          ],
          [
            83.06315377196655,
            -72.40418611205224
          ],
          [
            83.5245141354405,
            -72.31193649328415
          ],
          [
            83.8935999997324,
            -72.31195458599178
          ],
          [
            84.35496036320635,
            -72.21970496722368
          ],
          [
            84.81632072668027,
            -72.12745534845558
          ],
          [
            85.27768109015422,
            -72.03520572968748
          ],
          [
            85.64676695444612,
            -72.03522382239511
          ],
          [
            86.01585281873804,
            -72.03524191510273
          ],
          [
            86.38493868302994,
            -72.03526000781035
          ],
          [
            86.93857354568591,
            -71.85074267756654
          ],
          [
            87.39993390915986,
            -71.75849305879844
          ],
          [
            87.76901977345176,
            -71.75851115150606
          ],
          [
            88.13810563774366,
            -71.75852924421368
          ],
          [
            88.50719150203557,
            -71.7585473369213
          ],
          [
            88.87627736632749,
            -71.75856542962893
          ],
          [
            89.24536323061939,
            -71.75858352233655
          ],
          [
            89.70671752787523,
            -71.85087837287371
          ],
          [
            90.16808092445822,
            -71.66635651945299
          ],
          [
            90.62945038725931,
            -71.297290196727
          ],
          [
            90.99854838398744,
            -70.92821935082414
          ],
          [
            91.55218931286151,
            -70.55915755127506
          ],
          [
            92.19809867469951,
            -70.28237250955551
          ],
          [
            92.75173353735548,
            -70.09785517931171
          ],
          [
            93.30536840001145,
            -69.91333784906789
          ],
          [
            93.76672876348539,
            -69.8210882302998
          ],
          [
            94.32036362614136,
            -69.63657090005597
          ],
          [
            94.68944949043328,
            -69.6365889927636
          ],
          [
            95.05853535472518,
            -69.63660708547123
          ],
          [
            95.4276212190171,
            -69.63662517817885
          ],
          [
            95.796707083309,
            -69.63664327088647
          ],
          [
            96.1657929476009,
            -69.63666136359409
          ],
          [
            96.53487881189282,
            -69.63667945630172
          ],
          [
            96.90396467618471,
            -69.63669754900934
          ],
          [
            97.27305054047663,
            -69.63671564171696
          ],
          [
            97.64213640476855,
            -69.63673373442458
          ],
          [
            98.1957712674245,
            -69.45221640418076
          ],
          [
            98.56485713171642,
            -69.45223449688838
          ],
          [
            99.02621749519034,
            -69.35998487812029
          ],
          [
            99.39530335948226,
            -69.3600029708279
          ],
          [
            100.04119452266595,
            -69.63685133702413
          ],
          [
            100.41028038695784,
            -69.63686942973175
          ],
          [
            101.14846424797788,
            -69.26781667653648
          ],
          [
            101.42528167930585,
            -69.17555801141458
          ]
        ]
      },
      "properties": {
        "type": "variant",
        "id": 3,
        "color": "#44ff44",
        "vzdal_m": 1367,
        "prevyseni_m": 14,
        "cas_s": 338,
        "tempo_str": "4:07"
      }
    }
  ]
}