{
  "type": "FeatureCollection",
  "features": [
    {
      "type": "Feature",
      "geometry": {
        "type": "Point",
        "coordinates": [
          34.016931203546164,
          -108.1034448536364
        ]
      },
      "properties": {
        "type": "start",
        "isom": "204"
      }
    },
    {
      "type": "Feature",
      "geometry": {
        "type": "Point",
        "coordinates": [
          45.41171700296322,
          -130.623965055304
        ]
      },
      "properties": {
        "type": "end",
        "isom": "204"
      }
    },
    {
      "type": "Feature",
      "geometry": {
        "type": "LineString",
        "coordinates": [
          [
            34.050203440903,
            -108.06278635033404
          ],
          [
            34.41928930519491,
            -108.06280444304166
          ],
          [
            34.78837516948682,
            -108.06282253574928
          ],
          [
            35.34199789970657,
            -108.24739414411597
          ],
          [
            35.89562062992633,
            -108.43196575248264
          ],
          [
            36.44923426081892,
            -108.8933540648072
          ],
          [
            36.910582491856644,
            -109.17019338464961
          ],
          [
            37.279668356148555,
            -109.17021147735723
          ],
          [
            37.64875422044046,
            -109.17022957006486
          ],
          [
            38.38691381658806,
            -109.53935469409059
          ],
          [
            39.12507341273566,
            -109.90847981811633
          ],
          [
            39.494144111482306,
            -110.3698590840871
          ],
          [
            39.863208744010834,
            -111.01578281936311
          ],
          [
            40.23227640964843,
            -111.56943431998647
          ],
          [
            40.60134710839507,
            -112.03081358595723
          ],
          [
            40.97042084025076,
            -112.39992061727534
          ],
          [
            41.3394915389974,
            -112.8612998832461
          ],
          [
            41.70855920463499,
            -113.41495138386948
          ],
          [
            42.077626870272574,
            -113.96860288449284
          ],
          [
            42.2621516037642,
            -114.52224533876242
          ],
          [
            42.26213947132799,
            -114.89133427737292
          ],
          [
            42.3543957718557,
            -115.35269997381295
          ],
          [
            42.446652072383415,
            -115.81406567025299
          ],
          [
            42.53890837291112,
            -116.27543136669301
          ],
          [
            42.538896240474905,
            -116.64452030530352
          ],
          [
            43.0925098713675,
            -117.10590861762807
          ],
          [
            43.64612653536915,
            -117.4750246953
          ],
          [
            43.64611440293294,
            -117.8441136339105
          ],
          [
            43.64610227049672,
            -118.213202572521
          ],
          [
            43.64609013806051,
            -118.5822915111315
          ],
          [
            43.6460780056243,
            -118.951380449742
          ],
          [
            43.64606587318808,
            -119.3204693883525
          ],
          [
            43.64605374075186,
            -119.68955832696301
          ],
          [
            43.553767109133624,
            -120.15091497704923
          ],
          [
            43.36920597833335,
            -120.70453933861118
          ],
          [
            43.36919384589713,
            -121.07362827722169
          ],
          [
            43.36918171346092,
            -121.44271721583219
          ],
          [
            43.3691695810247,
            -121.81180615444269
          ],
          [
            43.36915744858849,
            -122.1808950930532
          ],
          [
            43.553682182080124,
            -122.73453754732274
          ],
          [
            43.553670049643905,
            -123.10362648593323
          ],
          [
            43.645929383280674,
            -123.47271994772065
          ],
          [
            44.015003115136366,
            -123.84182697903879
          ],
          [
            44.29180234781003,
            -124.30320172183264
          ],
          [
            44.291790215373815,
            -124.67229066044314
          ],
          [
            44.2917780829376,
            -125.04137959905364
          ],
          [
            44.291765950501386,
            -125.41046853766413
          ],
          [
            44.29176291739233,
            -125.50274077231676
          ],
          [
            44.19948538510124,
            -125.68728071844511
          ],
          [
            44.19947325266503,
            -126.05636965705561
          ],
          [
            44.19946112022882,
            -126.42545859566611
          ],
          [
            44.19944898779261,
            -126.7945475342766
          ],
          [
            44.383973721284235,
            -127.34818998854618
          ],
          [
            44.56849845477587,
            -127.90183244281573
          ],
          [
            44.56848632233966,
            -128.27092138142623
          ],
          [
            44.75301105583129,
            -128.82456383569578
          ],
          [
            44.845267356358995,
            -129.28592953213584
          ],
          [
            45.02979208985063,
            -129.8395719864054
          ],
          [
            45.306585256306185,
            -130.4854911985045
          ],
          [
            45.39885065616106,
            -130.67004019098664
          ]
        ]
      },
      "properties": {
        "type": "variant",
        "id": 1,
        "color": "#ff4444",
        "vzdal_m": 1541,
        "prevyseni_m": 9,
        "cas_s": 389,
        "tempo_str": "4:12"
      }
    },
    {
      "type": "Feature",
      "geometry": {
        "type": "LineString",
        "coordinates": [
          [
            34.050203440903,
            -108.06278635033404
          ],
          [
            34.41928930519491,
            -108.06280444304166
          ],
          [
            35.15744890134251,
            -108.4319295670674
          ],
          [
            35.895608497490116,
            -108.80105469109314
          ],
          [
            36.356947629200675,
            -109.35471071489341
          ],
          [
            36.81828676091124,
            -109.90836673869372
          ],
          [
            37.464174890985866,
            -110.27748733954255
          ],
          [
            37.83324862284156,
            -110.64659437086068
          ],
          [
            38.2023193215882,
            -111.10797363683142
          ],
          [
            38.29457562211591,
            -111.56933933327144
          ],
          [
            38.57136878857146,
            -112.21525854537055
          ],
          [
            38.66363418842633,
            -112.39980753785271
          ],
          [
            38.755902621390256,
            -112.49208429568225
          ],
          [
            38.84816802124513,
            -112.6766332881644
          ],
          [
            39.03269578784581,
            -113.13800350778132
          ],
          [
            39.40176648659245,
            -113.59938277375208
          ],
          [
            39.7708371853391,
            -114.06076203972283
          ],
          [
            40.23218238326777,
            -114.42987359421785
          ],
          [
            40.78579601416036,
            -114.89126190654243
          ],
          [
            40.78578388172415,
            -115.26035084515293
          ],
          [
            40.78577174928793,
            -115.62943978376343
          ],
          [
            40.87802804981564,
            -116.09080548020344
          ],
          [
            41.24709874856228,
            -116.5521847461742
          ],
          [
            41.24708661612607,
            -116.92127368478471
          ],
          [
            41.33934291665378,
            -117.38263938122475
          ],
          [
            41.61613608310933,
            -118.02855859332384
          ],
          [
            41.70839238363704,
            -118.48992428976388
          ],
          [
            41.892917117128675,
            -119.04356674403343
          ],
          [
            42.26197871654815,
            -119.78176271396205
          ],
          [
            42.26196658411194,
            -120.15085165257256
          ],
          [
            42.26195445167573,
            -120.51994059118306
          ],
          [
            42.26194231923951,
            -120.88902952979356
          ],
          [
            42.2619301868033,
            -121.25811846840406
          ],
          [
            42.26191805436709,
            -121.62720740701457
          ],
          [
            42.261905921930875,
            -121.99629634562507
          ],
          [
            42.26189378949466,
            -122.36538528423557
          ],
          [
            42.261881657058446,
            -122.73447422284607
          ],
          [
            42.26187862394939,
            -122.8267464574987
          ],
          [
            42.26187559084033,
            -122.91901869215133
          ],
          [
            42.26187255773128,
            -123.01129092680395
          ],
          [
            42.26186952462223,
            -123.10356316145658
          ],
          [
            42.26185739218601,
            -123.47265210006708
          ],
          [
            42.2618452597498,
            -123.84174103867758
          ],
          [
            42.26183312731359,
            -124.21082997728807
          ],
          [
            42.26182099487737,
            -124.57991891589857
          ],
          [
            42.26180886244116,
            -124.94900785450908
          ],
          [
            42.261796730004946,
            -125.31809679311958
          ],
          [
            42.1695100983867,
            -125.7794534432058
          ],
          [
            42.35403483187833,
            -126.33309589747537
          ],
          [
            42.723099464406864,
            -126.97901963275136
          ],
          [
            42.81535576493457,
            -127.44038532919139
          ],
          [
            42.99988049842621,
            -127.99402778346096
          ],
          [
            43.368948164063795,
            -128.54767928408435
          ],
          [
            43.73801582970138,
            -129.1013307847077
          ],
          [
            44.10707742912086,
            -129.83952675463635
          ],
          [
            44.56841959394048,
            -130.300910543784
          ],
          [
            44.93750545823239,
            -130.30092863649162
          ],
          [
            45.39885065616106,
            -130.67004019098664
          ]
        ]
      },
      "properties": {
        "type": "variant",
        "id": 2,
        "color": "#4444ff",
        "vzdal_m": 1485,
        "prevyseni_m": 9,
        "cas_s": 414,
        "tempo_str": "4:38"
      }
    }
  ]
}