{
  "type": "FeatureCollection",
  "features": [
    {
      "type": "Feature",
      "geometry": {
        "type": "Point",
        "coordinates": [
          101.54836870587874,
          -59.76158022214351
        ]
      },
      "properties": {
        "type": "start",
        "isom": "419"
      }
    },
    {
      "type": "Feature",
      "geometry": {
        "type": "Point",
        "coordinates": [
          90.29067962047203,
          -77.10820852109222
        ]
      },
      "properties": {
        "type": "end",
        "isom": "111"
      }
    },
    {
      "type": "Feature",
      "geometry": {
        "type": "LineString",
        "coordinates": [
          [
            101.54836870587874,
            -59.76158022214351
          ],
          [
            101.3638166744056,
            -60.03838787994815
          ],
          [
            101.4560729749333,
            -60.49975357577188
          ],
          [
            101.54832927546101,
            -60.96111927159562
          ],
          [
            101.64057950977062,
            -61.60702943656584
          ],
          [
            101.27147847993339,
            -62.068372517601865
          ],
          [
            100.71783755105925,
            -62.43743431814956
          ],
          [
            100.16419662218513,
            -62.806496118697254
          ],
          [
            99.61055569331099,
            -63.17555791924495
          ],
          [
            99.05691476443684,
            -63.54461971979266
          ],
          [
            98.41100236948972,
            -63.91367699738281
          ],
          [
            97.94963593979764,
            -64.19047108631482
          ],
          [
            97.5805288437423,
            -64.83635863649731
          ],
          [
            97.48824221212404,
            -65.29771528640596
          ],
          [
            97.48823007968781,
            -65.66680422469892
          ],
          [
            97.4882179472516,
            -66.03589316299188
          ],
          [
            97.30365984956035,
            -66.497245289943
          ],
          [
            96.93455578661406,
            -67.05086060555224
          ],
          [
            96.65772015663171,
            -67.6967526786923
          ],
          [
            96.38089362597654,
            -68.06582804811262
          ],
          [
            96.01179562924837,
            -68.43489889457541
          ],
          [
            95.5504352657744,
            -68.52714851436093
          ],
          [
            95.1813312028281,
            -69.0807638299702
          ],
          [
            94.62769027395399,
            -69.44982563051789
          ],
          [
            94.16632991047999,
            -69.54207525030341
          ],
          [
            93.70496044767883,
            -69.91114157380866
          ],
          [
            93.15132255191375,
            -70.18793113978312
          ],
          [
            92.68995612222166,
            -70.46472522871512
          ],
          [
            92.59766949060341,
            -70.92608187862378
          ],
          [
            92.59766342438529,
            -71.11062634777025
          ],
          [
            92.59765735816717,
            -71.29517081691674
          ],
          [
            92.22855026211184,
            -71.94105836709923
          ],
          [
            91.85944316605651,
            -72.58694591728174
          ],
          [
            91.58260753607416,
            -73.23283799042177
          ],
          [
            91.30577797230994,
            -73.69418559441534
          ],
          [
            90.84440850950878,
            -74.06325191792058
          ],
          [
            90.47530747967156,
            -74.52459499895662
          ],
          [
            90.19847184968921,
            -75.17048707209665
          ],
          [
            90.38299658318086,
            -75.72412952545118
          ],
          [
            90.56752131667248,
            -76.2777719788057
          ],
          [
            90.65978368341831,
            -76.55459320548296
          ],
          [
            90.65977761720019,
            -76.73913767462945
          ],
          [
            90.29067962047203,
            -77.10820852109222
          ]
        ]
      },
      "properties": {
        "type": "variant",
        "id": 1,
        "color": "#ff4444",
        "vzdal_m": 1241,
        "prevyseni_m": 5,
        "cas_s": 253,
        "tempo_str": "3:23"
      }
    },
    {
      "type": "Feature",
      "geometry": {
        "type": "LineString",
        "coordinates": [
          [
            101.54836870587874,
            -59.76158022214351
          ],
          [
            100.81020910973109,
            -59.392455100190205
          ],
          [
            100.44112324543914,
            -59.39243700836004
          ],
          [
            99.97976288196514,
            -59.48468662814557
          ],
          [
            99.61067701767321,
            -59.48466853631538
          ],
          [
            99.24159721959937,
            -59.30010597533874
          ],
          [
            99.05705732056246,
            -59.20782469485041
          ],
          [
            98.87251438841649,
            -59.20781564893532
          ],
          [
            98.50341639168832,
            -59.576886495398114
          ],
          [
            97.9497754628142,
            -59.94594829594581
          ],
          [
            97.48840600001303,
            -60.31501461945105
          ],
          [
            97.02703653721188,
            -60.68408094295629
          ],
          [
            96.38112414226477,
            -61.053138220546444
          ],
          [
            95.91975467946362,
            -61.42220454405169
          ],
          [
            95.45838521666246,
            -61.791270867556925
          ],
          [
            95.1815708184435,
            -61.7912572986843
          ],
          [
            94.7201983225333,
            -62.25259585676278
          ],
          [
            94.53564629106016,
            -62.52940351456741
          ],
          [
            94.53562809240583,
            -63.08303692200685
          ],
          [
            94.16651796324143,
            -63.821196706762585
          ],
          [
            94.07423436473223,
            -64.190281122098
          ],
          [
            93.88967323393192,
            -64.74390548362236
          ],
          [
            93.70511210313161,
            -65.2975298451467
          ],
          [
            93.33600500707628,
            -65.9434173953292
          ],
          [
            92.96690701034812,
            -66.31248824179198
          ],
          [
            92.50553754754696,
            -66.68155456529723
          ],
          [
            91.85962515259985,
            -67.05061184288738
          ],
          [
            91.49052715587167,
            -67.41968268935017
          ],
          [
            91.12142612603446,
            -67.88102577038619
          ],
          [
            90.84459049605212,
            -68.52691784352623
          ],
          [
            90.75230386443386,
            -68.98827449343489
          ],
          [
            90.56774273363355,
            -69.54189885495924
          ],
          [
            90.75226746712518,
            -70.09554130831376
          ],
          [
            90.75225533468897,
            -70.4646302466067
          ],
          [
            90.75224320225274,
            -70.83371918489966
          ],
          [
            90.56768510456149,
            -71.29507131185078
          ],
          [
            90.47539240672512,
            -71.94097243090592
          ],
          [
            90.56764870725283,
            -72.40233812672966
          ],
          [
            90.56764264103471,
            -72.58688259587613
          ],
          [
            90.10627014512451,
            -73.0482211539546
          ],
          [
            90.10625801268829,
            -73.41731009224756
          ],
          [
            90.10624588025206,
            -73.78639903054052
          ],
          [
            90.10623374781584,
            -74.15548796883347
          ],
          [
            90.10622161537962,
            -74.52457690712643
          ],
          [
            90.10620948294338,
            -74.89366584541939
          ],
          [
            90.19846578347111,
            -75.35503154124314
          ],
          [
            90.47525894992667,
            -76.00095075212843
          ],
          [
            90.65978671652736,
            -76.46232097090973
          ],
          [
            90.65977761720019,
            -76.73913767462945
          ],
          [
            90.29067962047203,
            -77.10820852109222
          ]
        ]
      },
      "properties": {
        "type": "variant",
        "id": 2,
        "color": "#4444ff",
        "vzdal_m": 1348,
        "prevyseni_m": 10,
        "cas_s": 250,
        "tempo_str": "3:05"
      }
    }
  ]
}