{
  "type": "FeatureCollection",
  "features": [
    {
      "type": "Feature",
      "geometry": {
        "type": "Point",
        "coordinates": [
          80.98327487591077,
          -119.8542171827313
        ]
      },
      "properties": {
        "type": "start",
        "isom": "110"
      }
    },
    {
      "type": "Feature",
      "geometry": {
        "type": "Point",
        "coordinates": [
          72.4697217967343,
          -104.04553603499478
        ]
      },
      "properties": {
        "type": "end",
        "isom": "417"
      }
    },
    {
      "type": "Feature",
      "geometry": {
        "type": "LineString",
        "coordinates": [
          [
            81.01599143408944,
            -119.87593468291504
          ],
          [
            80.64692680156091,
            -119.23001094763903
          ],
          [
            80.37013363510536,
            -118.58409173553996
          ],
          [
            80.18560283539561,
            -118.21499375057564
          ],
          [
            79.90879753650384,
            -117.93816347708703
          ],
          [
            79.81653213664897,
            -117.75361448460488
          ],
          [
            79.7242667367941,
            -117.56906549212272
          ],
          [
            79.26292153886544,
            -117.1999539376277
          ],
          [
            78.80157634093676,
            -116.83084238313266
          ],
          [
            78.43250260908107,
            -116.46173535181455
          ],
          [
            78.06342887722538,
            -116.09262832049642
          ],
          [
            77.69435817847874,
            -115.63124905452568
          ],
          [
            77.41755591269602,
            -115.26214654638446
          ],
          [
            77.23303117920439,
            -114.7085040921149
          ],
          [
            77.2330433116406,
            -114.33941515350439
          ],
          [
            77.32532994325884,
            -113.87805850341816
          ],
          [
            77.509885007841,
            -113.50897861116148
          ],
          [
            77.50989714027722,
            -113.13988967255098
          ],
          [
            77.50990927271344,
            -112.77080073394048
          ],
          [
            77.50992140514965,
            -112.40171179532997
          ],
          [
            77.60219893744073,
            -112.21717184920163
          ],
          [
            77.60221106987696,
            -111.84808291059113
          ],
          [
            77.23314947045748,
            -111.10988694066249
          ],
          [
            76.95635327089286,
            -110.55623996321602
          ],
          [
            76.67956010443731,
            -109.91032075111694
          ],
          [
            76.5873038039096,
            -109.4489550546769
          ],
          [
            76.5873159363458,
            -109.0798661160664
          ],
          [
            76.58732806878203,
            -108.7107771774559
          ],
          [
            76.58734020121824,
            -108.3416882388454
          ],
          [
            76.21827253558065,
            -107.78803673822202
          ],
          [
            75.84920790305212,
            -107.14211300294603
          ],
          [
            75.38786270512345,
            -106.77300144845098
          ],
          [
            74.92651447408572,
            -106.49616212860859
          ],
          [
            74.46516927615704,
            -106.12705057411355
          ],
          [
            73.81928114608243,
            -105.75792997326472
          ],
          [
            73.08112154993482,
            -105.38880484923898
          ],
          [
            72.89658165089793,
            -105.29652356823253
          ],
          [
            72.61978848444237,
            -104.65060435613343
          ],
          [
            72.61980061687858,
            -104.28151541752294
          ],
          [
            72.43526678405979,
            -104.00468966721124
          ]
        ]
      },
      "properties": {
        "type": "variant",
        "id": 1,
        "color": "#ff4444",
        "vzdal_m": 1056,
        "prevyseni_m": 32,
        "cas_s": 298,
        "tempo_str": "4:42"
      }
    },
    {
      "type": "Feature",
      "geometry": {
        "type": "LineString",
        "coordinates": [
          [
            81.01599143408944,
            -119.87593468291504
          ],
          [
            80.83146670059782,
            -119.32229222864548
          ],
          [
            80.46240510117833,
            -118.58409625871687
          ],
          [
            80.18561193472277,
            -117.93817704661777
          ],
          [
            80.18562103404994,
            -117.66136034265989
          ],
          [
            80.09335563419506,
            -117.47681135017773
          ],
          [
            79.8165624677395,
            -116.83089213807862
          ],
          [
            79.81657460017573,
            -116.46180319946812
          ],
          [
            79.81658673261194,
            -116.09271426085762
          ],
          [
            79.72433043208423,
            -115.63134856441759
          ],
          [
            79.35526883266475,
            -114.89315259448897
          ],
          [
            78.98620723324527,
            -114.15495662456034
          ],
          [
            78.61714563382579,
            -113.41676065463173
          ],
          [
            78.24807493507915,
            -112.95538138866097
          ],
          [
            77.87900726944156,
            -112.40172988803758
          ],
          [
            77.50994567002208,
            -111.66353391810897
          ],
          [
            77.14088103749354,
            -111.01761018283297
          ],
          [
            76.864087871038,
            -110.37169097073388
          ],
          [
            76.58729470458243,
            -109.72577175863478
          ],
          [
            76.58730683701864,
            -109.35668282002428
          ],
          [
            76.58731896945487,
            -108.98759388141377
          ],
          [
            76.58733110189108,
            -108.61850494280328
          ],
          [
            76.58734020121824,
            -108.3416882388454
          ],
          [
            76.21827253558065,
            -107.78803673822202
          ],
          [
            75.84920790305212,
            -107.14211300294603
          ],
          [
            75.38786270512345,
            -106.77300144845098
          ],
          [
            74.92651447408572,
            -106.49616212860859
          ],
          [
            74.2806263440111,
            -106.12704152775974
          ],
          [
            73.81928114608243,
            -105.75792997326472
          ],
          [
            73.08112154993482,
            -105.38880484923898
          ],
          [
            72.89658165089793,
            -105.29652356823253
          ],
          [
            72.61978848444237,
            -104.65060435613343
          ],
          [
            72.61980061687858,
            -104.28151541752294
          ],
          [
            72.43526678405979,
            -104.00468966721124
          ]
        ]
      },
      "properties": {
        "type": "variant",
        "id": 2,
        "color": "#4444ff",
        "vzdal_m": 1024,
        "prevyseni_m": 28,
        "cas_s": 300,
        "tempo_str": "4:53"
      }
    },
    {
      "type": "Feature",
      "geometry": {
        "type": "LineString",
        "coordinates": [
          [
            81.01599143408944,
            -119.87593468291504
          ],
          [
            80.64692680156091,
            -119.23001094763903
          ],
          [
            80.37013363510536,
            -118.58409173553996
          ],
          [
            80.18560283539561,
            -118.21499375057564
          ],
          [
            79.9088005696129,
            -117.84589124243442
          ],
          [
            79.81653213664897,
            -117.75361448460488
          ],
          [
            79.7242667367941,
            -117.56906549212272
          ],
          [
            79.35519300493841,
            -117.19995846080461
          ],
          [
            78.8938447739007,
            -116.9231191409622
          ],
          [
            78.52477104204499,
            -116.55401210964408
          ],
          [
            78.1556973101893,
            -116.18490507832595
          ],
          [
            77.7866235783336,
            -115.81579804700783
          ],
          [
            77.41755591269602,
            -115.26214654638446
          ],
          [
            77.23303117920439,
            -114.7085040921149
          ],
          [
            77.2330433116406,
            -114.33941515350439
          ],
          [
            77.14078094489477,
            -114.0625939263696
          ],
          [
            76.7717072130391,
            -113.69348689505149
          ],
          [
            76.49491101347448,
            -113.13983991760502
          ],
          [
            76.21811784701892,
            -112.49392070550591
          ],
          [
            75.84905624759944,
            -111.7557247355773
          ],
          [
            75.66453151410781,
            -111.20208228130772
          ],
          [
            75.66454364654402,
            -110.83299334269724
          ],
          [
            75.38775048008846,
            -110.18707413059813
          ],
          [
            75.01868888066899,
            -109.44887816066952
          ],
          [
            74.74189571421343,
            -108.80295894857042
          ],
          [
            74.37282804857584,
            -108.24930744794703
          ],
          [
            74.00376038293825,
            -107.69565594732367
          ],
          [
            73.63468665108256,
            -107.32654891600554
          ],
          [
            73.26561595233592,
            -106.8651696500348
          ],
          [
            72.98882278588037,
            -106.2192504379357
          ],
          [
            72.71202961942481,
            -105.5733312258366
          ],
          [
            72.61977331889709,
            -105.11196552939656
          ],
          [
            72.61978545133331,
            -104.74287659078605
          ],
          [
            72.61979758376953,
            -104.37378765217557
          ],
          [
            72.43526678405979,
            -104.00468966721124
          ]
        ]
      },
      "properties": {
        "type": "variant",
        "id": 3,
        "color": "#44ff44",
        "vzdal_m": 1003,
        "prevyseni_m": 27,
        "cas_s": 296,
        "tempo_str": "4:55"
      }
    }
  ]
}