{
  "type": "FeatureCollection",
  "features": [
    {
      "type": "Feature",
      "geometry": {
        "type": "Point",
        "coordinates": [
          155.550599684131,
          -184.09749215480883
        ]
      },
      "properties": {
        "type": "start",
        "isom": "109"
      }
    },
    {
      "type": "Feature",
      "geometry": {
        "type": "Point",
        "coordinates": [
          86.51954089834564,
          -212.373702891818
        ]
      },
      "properties": {
        "type": "end",
        "isom": "204"
      }
    },
    {
      "type": "Feature",
      "geometry": {
        "type": "LineString",
        "coordinates": [
          [
            155.6060683071581,
            -184.11582861870002
          ],
          [
            154.1297491148628,
            -183.37757837479342
          ],
          [
            152.65342992256745,
            -182.6393281308868
          ],
          [
            151.1770985978359,
            -182.27016682527318
          ],
          [
            150.06986526983255,
            -181.53193467319676
          ],
          [
            149.88532840390465,
            -181.3473811581352
          ],
          [
            149.51624860583084,
            -181.16281859715855
          ],
          [
            148.40900314539124,
            -180.79367538337507
          ],
          [
            147.4862945508795,
            -180.60908568465314
          ],
          [
            147.30175161873353,
            -180.60907663873806
          ],
          [
            146.9326718206597,
            -180.42451407776142
          ],
          [
            146.19451222451204,
            -180.0553889558081
          ],
          [
            145.45634049592815,
            -180.05535277214778
          ],
          [
            144.53363190141638,
            -179.87076307342585
          ],
          [
            144.3490889692704,
            -179.87075402751077
          ],
          [
            143.9800091711966,
            -179.68619146653413
          ],
          [
            143.05730057668484,
            -179.50160176781222
          ],
          [
            142.31912884810097,
            -179.50156558415188
          ],
          [
            141.58095711951708,
            -179.50152940049153
          ],
          [
            140.8427853909332,
            -179.50149321683116
          ],
          [
            140.10461366234932,
            -179.50145703317082
          ],
          [
            139.36644193376543,
            -179.50142084951048
          ],
          [
            138.62827020518154,
            -179.50138466585014
          ],
          [
            137.7055616106698,
            -179.31679496712823
          ],
          [
            137.15193281423188,
            -179.31676782938297
          ],
          [
            136.78284088372183,
            -179.50129420669927
          ],
          [
            136.04465095648362,
            -180.05489143047836
          ],
          [
            135.4910160938276,
            -180.2394087618796
          ],
          [
            134.93738123117157,
            -180.4239260932808
          ],
          [
            133.8301054396414,
            -180.97750522522972
          ],
          [
            132.72282358189312,
            -181.71562882632512
          ],
          [
            131.9846275884368,
            -182.4537705192507
          ],
          [
            131.24643159498046,
            -183.19191221217625
          ],
          [
            130.8773396644704,
            -183.37643858949258
          ],
          [
            130.1391436710141,
            -184.11458028241813
          ],
          [
            129.40095374377586,
            -184.66817750619722
          ],
          [
            129.0318496808296,
            -185.22179282180647
          ],
          [
            128.29365368737325,
            -185.95993451473205
          ],
          [
            127.74001275849913,
            -186.32899631527974
          ],
          [
            126.448194034823,
            -186.8825664013136
          ],
          [
            125.34092430951094,
            -187.25160106411602
          ],
          [
            124.4182157149992,
            -187.0670113653941
          ],
          [
            124.04913591692538,
            -186.88244880441746
          ],
          [
            123.68005611885154,
            -186.69788624344082
          ],
          [
            122.94188439026766,
            -186.69785005978045
          ],
          [
            122.01916366331969,
            -186.88234929935152
          ],
          [
            121.83462073117371,
            -186.8823402534364
          ],
          [
            121.46552880066366,
            -187.06686663075274
          ],
          [
            120.91188180557143,
            -187.6204729004469
          ],
          [
            120.72732674098923,
            -187.98955279282478
          ],
          [
            119.80458781538691,
            -188.72768543983526
          ],
          [
            118.88186708843897,
            -188.91218467940632
          ],
          [
            118.14369535985509,
            -188.91214849574595
          ],
          [
            117.220968566689,
            -189.2811922044635
          ],
          [
            116.85187663617894,
            -189.4657185817798
          ],
          [
            115.56005184628471,
            -190.20383313696013
          ],
          [
            114.63731292068239,
            -190.9419657839706
          ],
          [
            113.16093913242408,
            -191.8646157623823
          ],
          [
            112.42274920518585,
            -192.41821298616142
          ],
          [
            111.13092441529162,
            -193.1563275413417
          ],
          [
            110.39272842183527,
            -193.8944692342673
          ],
          [
            109.46998343001486,
            -194.81714635042425
          ],
          [
            107.99362177419277,
            -195.37070739054298
          ],
          [
            106.51725405215255,
            -196.1088128998082
          ],
          [
            105.22542926225832,
            -196.84692745498853
          ],
          [
            104.302690336656,
            -197.585060101999
          ],
          [
            103.19542667756207,
            -197.76955029565497
          ],
          [
            102.82633474705203,
            -197.95407667297124
          ],
          [
            102.64177968246983,
            -198.32315656534914
          ],
          [
            101.71904075686751,
            -199.06128921235964
          ],
          [
            100.61175889911925,
            -199.799412813455
          ],
          [
            99.319934109225,
            -200.53752736863532
          ],
          [
            98.21265225147673,
            -201.2756509697307
          ],
          [
            97.47445625802041,
            -202.0137926626563
          ],
          [
            96.73625419834596,
            -202.93647882472834
          ],
          [
            95.6289723405977,
            -203.6746024258237
          ],
          [
            94.70623341499538,
            -204.4127350728342
          ],
          [
            94.1525682212488,
            -205.51997474996782
          ],
          [
            93.41435402913814,
            -206.81174985033283
          ],
          [
            92.1225292392439,
            -207.54986440551312
          ],
          [
            90.83070444934967,
            -208.28797896069344
          ],
          [
            89.90796552374736,
            -209.02611160770394
          ],
          [
            89.16976346407291,
            -209.94879776977595
          ],
          [
            88.4315735368347,
            -210.50239499355507
          ],
          [
            87.50882854501428,
            -211.425072109712
          ],
          [
            86.95517548370394,
            -212.16322284855266
          ],
          [
            86.58608355319387,
            -212.34774922586897
          ]
        ]
      },
      "properties": {
        "type": "variant",
        "id": 1,
        "color": "#ff4444",
        "vzdal_m": 2227,
        "prevyseni_m": 86,
        "cas_s": 698,
        "tempo_str": "5:13"
      }
    },
    {
      "type": "Feature",
      "geometry": {
        "type": "LineString",
        "coordinates": [
          [
            155.6060683071581,
            -184.11582861870002
          ],
          [
            154.1297491148628,
            -183.37757837479342
          ],
          [
            152.65342992256745,
            -182.6393281308868
          ],
          [
            151.1770985978359,
            -182.27016682527318
          ],
          [
            150.06986526983255,
            -181.53193467319676
          ],
          [
            149.88532840390465,
            -181.3473811581352
          ],
          [
            149.51624860583084,
            -181.16281859715855
          ],
          [
            148.40900314539124,
            -180.79367538337507
          ],
          [
            147.4862945508795,
            -180.60908568465314
          ],
          [
            147.30175161873353,
            -180.60907663873806
          ],
          [
            146.9326718206597,
            -180.42451407776142
          ],
          [
            145.8254324264382,
            -179.87082639483145
          ],
          [
            144.7181869659986,
            -179.50168318104798
          ],
          [
            143.24186777370326,
            -178.76343293714137
          ],
          [
            142.87278797562945,
            -178.57887037616473
          ],
          [
            141.9500793811177,
            -178.39428067744282
          ],
          [
            141.39645058467977,
            -178.39425353969756
          ],
          [
            141.02735865416975,
            -178.57877991701386
          ],
          [
            139.7355399304936,
            -179.1323500030477
          ],
          [
            138.8128131373275,
            -179.50139371176525
          ],
          [
            137.89010454281578,
            -179.3168040130433
          ],
          [
            137.15193281423188,
            -179.31676782938297
          ],
          [
            136.78284088372183,
            -179.50129420669927
          ],
          [
            136.04465095648362,
            -180.05489143047836
          ],
          [
            135.4910160938276,
            -180.2394087618796
          ],
          [
            134.93738123117157,
            -180.4239260932808
          ],
          [
            133.8301054396414,
            -180.97750522522972
          ],
          [
            132.72282358189312,
            -181.71562882632512
          ],
          [
            131.9846275884368,
            -182.4537705192507
          ],
          [
            131.24643159498046,
            -183.19191221217625
          ],
          [
            130.8773396644704,
            -183.37643858949258
          ],
          [
            130.1391436710141,
            -184.11458028241813
          ],
          [
            129.40095374377586,
            -184.66817750619722
          ],
          [
            129.0318496808296,
            -185.22179282180647
          ],
          [
            128.29365368737325,
            -185.95993451473205
          ],
          [
            127.74001275849913,
            -186.32899631527974
          ],
          [
            126.448194034823,
            -186.8825664013136
          ],
          [
            124.9718263127828,
            -187.6206719105788
          ],
          [
            124.04908132096237,
            -188.54334902673577
          ],
          [
            123.31088532750604,
            -189.28149071966135
          ],
          [
            122.38814640190374,
            -190.01962336667185
          ],
          [
            121.83448727437528,
            -190.942318574659
          ],
          [
            121.0962670160465,
            -192.41863814417044
          ],
          [
            120.17350989178986,
            -193.71040419862038
          ],
          [
            119.0662341002597,
            -194.2639833305693
          ],
          [
            118.1434951746574,
            -195.00211597757976
          ],
          [
            117.03620725069102,
            -195.92478404782162
          ],
          [
            116.48256632181688,
            -196.29384584836933
          ],
          [
            115.92893145916085,
            -196.47836317977058
          ],
          [
            115.37527839785051,
            -197.21651391861124
          ],
          [
            114.63708240439416,
            -197.9546556115368
          ],
          [
            113.5298005466459,
            -198.69277921263216
          ],
          [
            112.79160455318956,
            -199.43092090555777
          ],
          [
            112.6070555548255,
            -199.61545632878915
          ],
          [
            112.4225004902433,
            -199.98453622116702
          ],
          [
            111.86885349515104,
            -200.53814249086116
          ],
          [
            111.49976156464098,
            -200.72266886817752
          ],
          [
            110.76156557118466,
            -201.46081056110307
          ],
          [
            110.02336957772835,
            -202.19895225402863
          ],
          [
            109.285173584272,
            -202.93709394695418
          ],
          [
            108.54697759081569,
            -203.6752356398798
          ],
          [
            108.17787959408751,
            -204.04430648634258
          ],
          [
            107.80878766357745,
            -204.22883286365885
          ],
          [
            107.4396957330674,
            -204.41335924097515
          ],
          [
            106.70149973961108,
            -205.15150093390073
          ],
          [
            105.77876081400876,
            -205.8896335809112
          ],
          [
            104.30238702575045,
            -206.81228355932294
          ],
          [
            102.82602536992833,
            -207.36584459944166
          ],
          [
            101.34965158167002,
            -208.28849457785338
          ],
          [
            100.79599852035966,
            -209.026645316694
          ],
          [
            100.05779646068521,
            -209.94933147876608
          ],
          [
            99.13506966751915,
            -210.3183751874836
          ],
          [
            97.65870801169703,
            -210.87193622760233
          ],
          [
            96.73598121853095,
            -211.24097993631986
          ],
          [
            95.99780342372897,
            -211.42548822180598
          ],
          [
            94.89053976463502,
            -211.60997841546197
          ],
          [
            93.598727107177,
            -211.97900403234934
          ],
          [
            93.04509831073909,
            -211.97897689460405
          ],
          [
            92.3069205159371,
            -212.1634851800902
          ],
          [
            91.56875485357132,
            -211.97890452728336
          ],
          [
            90.83058312498743,
            -211.97886834362302
          ],
          [
            89.90786846425758,
            -211.97882311404757
          ],
          [
            89.16969066945558,
            -212.16333139953372
          ],
          [
            88.4315189408717,
            -212.1632952158734
          ],
          [
            87.6933411460697,
            -212.34780350135952
          ],
          [
            86.95517548370394,
            -212.16322284855266
          ],
          [
            86.58608355319387,
            -212.34774922586897
          ]
        ]
      },
      "properties": {
        "type": "variant",
        "id": 2,
        "color": "#4444ff",
        "vzdal_m": 2249,
        "prevyseni_m": 82,
        "cas_s": 708,
        "tempo_str": "5:14"
      }
    },
    {
      "type": "Feature",
      "geometry": {
        "type": "LineString",
        "coordinates": [
          [
            155.6060683071581,
            -184.11582861870002
          ],
          [
            155.60606224094002,
            -184.3003730878465
          ],
          [
            155.4215071763578,
            -184.66945298022438
          ],
          [
            154.12968845268168,
            -185.2230230662582
          ],
          [
            153.02244299224208,
            -184.85387985247473
          ],
          [
            152.09973439773032,
            -184.66929015375283
          ],
          [
            150.80795207136285,
            -184.11559342490781
          ],
          [
            149.33163287906754,
            -183.3773431810012
          ],
          [
            148.77800408262962,
            -183.37731604325592
          ],
          [
            148.40891215211957,
            -183.56184242057225
          ],
          [
            147.4861792927354,
            -184.11543059843623
          ],
          [
            146.7480075641515,
            -184.1153944147759
          ],
          [
            145.27163984211128,
            -184.85349992404113
          ],
          [
            144.3489191151633,
            -185.03799916361217
          ],
          [
            143.61074738657942,
            -185.03796297995183
          ],
          [
            142.87257565799553,
            -185.0379267962915
          ],
          [
            141.9498609972657,
            -185.03788156671604
          ],
          [
            141.2116832024637,
            -185.22238985220218
          ],
          [
            140.10440741093353,
            -185.7759689841511
          ],
          [
            139.73531548042348,
            -185.9604953614674
          ],
          [
            138.99713161940338,
            -186.32954811610003
          ],
          [
            138.81258262103927,
            -186.5140835393314
          ],
          [
            138.44349069052925,
            -186.6986099166477
          ],
          [
            137.705300763291,
            -187.2522071404268
          ],
          [
            137.33620883278095,
            -187.4367335177431
          ],
          [
            137.15166590063498,
            -187.43672447182803
          ],
          [
            136.78257397012493,
            -187.62125084914433
          ],
          [
            136.228945173687,
            -187.62122371139907
          ],
          [
            135.8058203816897,
            -187.81295185010586
          ],
          [
            135.82676768877818,
            -187.970097730793
          ],
          [
            135.30621231430285,
            -188.17481188926305
          ],
          [
            135.12166938215688,
            -188.17480284334798
          ],
          [
            134.7525774516468,
            -188.3593292206643
          ],
          [
            134.38348552113675,
            -188.5438555979806
          ],
          [
            133.46074659553446,
            -189.2819882449911
          ],
          [
            132.3534708040043,
            -189.83556737694002
          ],
          [
            131.6152930092023,
            -190.02007566242617
          ],
          [
            130.50802935010836,
            -190.20456585608213
          ],
          [
            129.4007474923601,
            -190.9426894571775
          ],
          [
            128.84709443104973,
            -191.68084019601815
          ],
          [
            128.10889237137528,
            -192.6035263580902
          ],
          [
            127.18615951199111,
            -193.1571145359542
          ],
          [
            126.07887765424283,
            -193.89523813704963
          ],
          [
            125.52522459293247,
            -194.63338887589026
          ],
          [
            124.78702253325802,
            -195.55607503796233
          ],
          [
            123.86428967387384,
            -196.1096632158263
          ],
          [
            122.75700781612557,
            -196.8477868169217
          ],
          [
            121.6497259583773,
            -197.5859104180171
          ],
          [
            120.91153603113906,
            -198.13950764179623
          ],
          [
            120.72698703277499,
            -198.32404306502758
          ],
          [
            120.35789510226495,
            -198.50856944234388
          ],
          [
            119.80424204095458,
            -199.24672018118454
          ],
          [
            119.61968697637238,
            -199.6158000735624
          ],
          [
            119.43513191179021,
            -199.98487996594028
          ],
          [
            118.69693591833386,
            -200.72302165886586
          ],
          [
            117.95873992487753,
            -201.46116335179144
          ],
          [
            117.58964799436748,
            -201.64568972910774
          ],
          [
            117.22056819629366,
            -201.4611271681311
          ],
          [
            116.48240253392788,
            -201.27654651532424
          ],
          [
            115.74422473912588,
            -201.4610548008104
          ],
          [
            115.006053010542,
            -201.46101861715007
          ],
          [
            114.26787521574,
            -201.6455269026362
          ],
          [
            113.52970955337423,
            -201.46094624982936
          ],
          [
            112.79153782479034,
            -201.46091006616902
          ],
          [
            112.05336609620646,
            -201.46087388250868
          ],
          [
            111.31519436762258,
            -201.4608376988483
          ],
          [
            110.39248577311083,
            -201.27624800012643
          ],
          [
            109.65430797830884,
            -201.46075628561255
          ],
          [
            108.91614231594306,
            -201.27617563280572
          ],
          [
            108.17797058735918,
            -201.27613944914538
          ],
          [
            107.25525592662932,
            -201.27609421956996
          ],
          [
            106.33254126589947,
            -201.2760489899945
          ],
          [
            105.40982660516961,
            -201.27600376041906
          ],
          [
            104.48709981200352,
            -201.6450474691366
          ],
          [
            103.74892201720152,
            -201.82955575462273
          ],
          [
            103.01075635483576,
            -201.64497510181593
          ],
          [
            102.27258462625187,
            -201.6449389181556
          ],
          [
            100.79622297042978,
            -202.1984999582743
          ],
          [
            100.24259417399186,
            -202.19847282052905
          ],
          [
            99.31986738082578,
            -202.56751652924657
          ],
          [
            98.21259765551373,
            -202.936551192049
          ],
          [
            97.6589627928577,
            -203.12106852345025
          ],
          [
            96.92076679940138,
            -203.8592102163758
          ],
          [
            95.62894200950714,
            -204.59732477155612
          ],
          [
            94.70619701768672,
            -205.52000188771308
          ],
          [
            93.9680010242304,
            -206.25814358063866
          ],
          [
            93.0452620986281,
            -206.9962762276491
          ],
          [
            91.75343730873385,
            -207.73439078282942
          ],
          [
            90.64615545098557,
            -208.47251438392485
          ],
          [
            89.72341652538327,
            -209.21064703093535
          ],
          [
            88.80067759978097,
            -209.9487796779458
          ],
          [
            88.24702453847061,
            -210.68693041678645
          ],
          [
            87.50881641257807,
            -211.79416104800498
          ],
          [
            86.58608355319387,
            -212.34774922586897
          ]
        ]
      },
      "properties": {
        "type": "variant",
        "id": 3,
        "color": "#44ff44",
        "vzdal_m": 2177,
        "prevyseni_m": 86,
        "cas_s": 736,
        "tempo_str": "5:37"
      }
    }
  ]
}