{
  "type": "FeatureCollection",
  "features": [
    {
      "type": "Feature",
      "geometry": {
        "type": "Point",
        "coordinates": [
          91.98610919572683,
          -259.5833961502424
        ]
      },
      "properties": {
        "type": "start",
        "isom": "204"
      }
    },
    {
      "type": "Feature",
      "geometry": {
        "type": "Point",
        "coordinates": [
          120.75863288771778,
          -190.20605141066233
        ]
      },
      "properties": {
        "type": "end",
        "isom": "204"
      }
    },
    {
      "type": "Feature",
      "geometry": {
        "type": "LineString",
        "coordinates": [
          [
            91.90501956737243,
            -259.49469012805145
          ],
          [
            92.82775242675663,
            -258.94110195018743
          ],
          [
            93.93504035072301,
            -258.0184338799456
          ],
          [
            95.22686514061725,
            -257.2803193247653
          ],
          [
            95.9650611340736,
            -256.5421776318397
          ],
          [
            96.70326925996613,
            -255.43494700062118
          ],
          [
            97.44148345207681,
            -254.14317190025616
          ],
          [
            97.62603851665901,
            -253.7740920078783
          ],
          [
            97.99514864582338,
            -253.03593222312256
          ],
          [
            98.17970371040558,
            -252.66685233074466
          ],
          [
            98.36425877498777,
            -252.29777243836682
          ],
          [
            99.10247903331656,
            -250.82145286885535
          ],
          [
            99.84067502677287,
            -250.08331117592974
          ],
          [
            101.13249981666713,
            -249.34519662074945
          ],
          [
            102.05523874226942,
            -248.607063973739
          ],
          [
            102.60889180357977,
            -247.86891323489832
          ],
          [
            103.53163072918208,
            -247.13078058788784
          ],
          [
            104.2698206564203,
            -246.57718336410875
          ],
          [
            105.00802878231286,
            -245.4699527328902
          ],
          [
            105.7462369082054,
            -244.3627221016717
          ],
          [
            106.48443290166173,
            -243.6245804087461
          ],
          [
            106.66898190002581,
            -243.4400449855147
          ],
          [
            106.8535308983899,
            -243.25550956228335
          ],
          [
            107.22262282889996,
            -243.07098318496705
          ],
          [
            107.9608248885744,
            -242.14829702289498
          ],
          [
            108.51448401610286,
            -241.22560181490786
          ],
          [
            109.0681310111951,
            -240.6719955452137
          ],
          [
            109.43705603119358,
            -240.10329884503807
          ],
          [
            110.96169238333736,
            -239.43936144867718
          ],
          [
            111.6300565984666,
            -238.62686875208186
          ],
          [
            112.39366573426813,
            -237.5367431180072
          ],
          [
            113.01940664924702,
            -236.2807312866582
          ],
          [
            113.54773979627929,
            -234.70394553691423
          ],
          [
            114.27780239449942,
            -233.21041707030562
          ],
          [
            115.11245341460612,
            -231.77915868054066
          ],
          [
            115.68857338183695,
            -230.73487724909722
          ],
          [
            115.8192780301982,
            -230.57643822305474
          ],
          [
            115.98066111364236,
            -230.19437068710891
          ],
          [
            115.89658953990084,
            -229.4151176261367
          ],
          [
            115.89661380477327,
            -228.67693974955077
          ],
          [
            115.71210120371785,
            -227.75420835790328
          ],
          [
            115.3430517367346,
            -226.64692345119425
          ],
          [
            114.6049285378956,
            -225.17053151436207
          ],
          [
            114.60495280276804,
            -224.43235363777617
          ],
          [
            114.78952606600456,
            -223.50964033795884
          ],
          [
            114.78955033087702,
            -222.77146246137292
          ],
          [
            114.78957459574944,
            -222.03328458478703
          ],
          [
            115.15869685735005,
            -220.9260358617383
          ],
          [
            115.34325192193225,
            -220.55695596936047
          ],
          [
            115.52780698651445,
            -220.18787607698258
          ],
          [
            115.89692924811506,
            -219.0806273539339
          ],
          [
            115.8969535129875,
            -218.34244947734797
          ],
          [
            116.45062477295221,
            -217.05066533106788
          ],
          [
            117.18884503128096,
            -215.5743457615564
          ],
          [
            117.55797335909969,
            -214.28255256936123
          ],
          [
            118.48073654957443,
            -212.80624204576483
          ],
          [
            119.21895074168509,
            -211.51446694539985
          ],
          [
            119.95717706623199,
            -209.85360290674186
          ],
          [
            119.77265839895847,
            -209.11541598424088
          ],
          [
            119.95722559597688,
            -208.37724715357
          ],
          [
            119.95724986084933,
            -207.63906927698412
          ],
          [
            119.95727412572177,
            -206.9008914003982
          ],
          [
            119.9572983905942,
            -206.16271352381227
          ],
          [
            119.95732265546665,
            -205.42453564722638
          ],
          [
            119.95734692033909,
            -204.68635777064046
          ],
          [
            119.95737118521156,
            -203.94817989405453
          ],
          [
            119.957395450084,
            -203.21000201746864
          ],
          [
            119.95741364873832,
            -202.6563686100292
          ],
          [
            120.14196264710242,
            -202.47183318679782
          ],
          [
            120.14199297819296,
            -201.54911084106544
          ],
          [
            120.14201724306542,
            -200.81093296447952
          ],
          [
            119.95749857579189,
            -200.0727460419785
          ],
          [
            120.51116376953847,
            -198.9655063648449
          ],
          [
            120.69573703277499,
            -198.04279306502758
          ],
          [
            121.43393909244944,
            -197.12010690295554
          ],
          [
            121.61851235568597,
            -196.19739360313824
          ],
          [
            121.43399975463053,
            -195.27466221149078
          ],
          [
            121.06495028764728,
            -194.16737730478172
          ],
          [
            120.88043768659186,
            -193.24464591313426
          ],
          [
            120.69592508553644,
            -192.32191452148675
          ],
          [
            120.6959493504089,
            -191.58373664490085
          ],
          [
            120.69597361528133,
            -190.84555876831493
          ],
          [
            120.69599181393568,
            -190.2919253608755
          ]
        ]
      },
      "properties": {
        "type": "variant",
        "id": 1,
        "color": "#ff4444",
        "vzdal_m": 2191,
        "prevyseni_m": 35,
        "cas_s": 633,
        "tempo_str": "4:48"
      }
    },
    {
      "type": "Feature",
      "geometry": {
        "type": "LineString",
        "coordinates": [
          [
            91.90501956737243,
            -259.49469012805145
          ],
          [
            92.82775242675663,
            -258.94110195018743
          ],
          [
            93.93504035072301,
            -258.0184338799456
          ],
          [
            94.4887055444696,
            -256.91119420281194
          ],
          [
            95.22691367036214,
            -255.80396357159344
          ],
          [
            95.59601166709031,
            -255.43489272513062
          ],
          [
            95.96513392869092,
            -254.32764400208194
          ],
          [
            96.33425012407344,
            -253.40493974817971
          ],
          [
            96.5188051886556,
            -253.03585985580187
          ],
          [
            96.7033602532378,
            -252.66677996342398
          ],
          [
            97.44156837913036,
            -251.55954933220548
          ],
          [
            97.62612344371256,
            -251.19046943982758
          ],
          [
            98.17979470367725,
            -249.8986852935475
          ],
          [
            98.17981896854968,
            -249.16050741696156
          ],
          [
            98.73349022851437,
            -247.8687232706815
          ],
          [
            98.91806349175091,
            -246.9460099708642
          ],
          [
            98.91808775662335,
            -246.20783209427827
          ],
          [
            99.1026610198599,
            -245.285118794461
          ],
          [
            99.28721608444208,
            -244.9160389020831
          ],
          [
            99.2872282168783,
            -244.54694996379015
          ],
          [
            99.4717832814605,
            -244.17787007141226
          ],
          [
            99.47180148011482,
            -243.62423666397282
          ],
          [
            98.91821514720368,
            -242.33239824220223
          ],
          [
            98.73370254614828,
            -241.40966685055477
          ],
          [
            98.73372681102072,
            -240.67148897396885
          ],
          [
            98.73376320832938,
            -239.56422215908998
          ],
          [
            98.73378747320184,
            -238.82604428250406
          ],
          [
            98.91836073643836,
            -237.90333098268675
          ],
          [
            99.10293399967489,
            -236.98061768286945
          ],
          [
            99.28750726291142,
            -236.05790438305215
          ],
          [
            99.29683919224412,
            -235.31566157055153
          ],
          [
            99.28755579265632,
            -234.5815486298803
          ],
          [
            99.10304319160089,
            -233.65881723823284
          ],
          [
            99.10306745647333,
            -232.92063936164695
          ],
          [
            99.10309172134579,
            -232.18246148506103
          ],
          [
            99.10311598621823,
            -231.4442836084751
          ],
          [
            99.10313418487256,
            -230.89065020103567
          ],
          [
            99.47226251269129,
            -229.59885700884047
          ],
          [
            100.21047063858383,
            -228.49162637762194
          ],
          [
            100.94868483069449,
            -227.19985127725695
          ],
          [
            101.317801026077,
            -226.27714702335473
          ],
          [
            101.13328842502159,
            -225.35441563170724
          ],
          [
            101.13331268989403,
            -224.61623775512132
          ],
          [
            101.68697788364062,
            -223.50899807798774
          ],
          [
            102.42518600953316,
            -222.40176744676918
          ],
          [
            102.60974107411535,
            -222.03268755439134
          ],
          [
            102.79429613869755,
            -221.66360766201345
          ],
          [
            102.97885726949787,
            -221.10998330048912
          ],
          [
            103.16341233408004,
            -220.74090340811125
          ],
          [
            103.16341840029816,
            -220.55635893896476
          ],
          [
            103.34797346488035,
            -220.18727904658692
          ],
          [
            103.53252852946255,
            -219.81819915420903
          ],
          [
            103.71708359404475,
            -219.44911926183113
          ],
          [
            103.90163865862694,
            -219.0800393694533
          ],
          [
            104.08621192186347,
            -218.15732606963596
          ],
          [
            104.0862361867359,
            -217.41914819305006
          ],
          [
            104.6399074467006,
            -216.12736404677
          ],
          [
            105.37812163881127,
            -214.83558894640495
          ],
          [
            106.11631763226761,
            -214.0974472534794
          ],
          [
            106.85451362572392,
            -213.35930556055385
          ],
          [
            107.2236176886702,
            -212.80569024494457
          ],
          [
            107.40817275325239,
            -212.4366103525667
          ],
          [
            107.59272781783459,
            -212.0675304601888
          ],
          [
            108.1979711302719,
            -210.66151431999864
          ],
          [
            109.25368700176566,
            -209.85307824366686
          ],
          [
            110.36096885951393,
            -209.11495464257146
          ],
          [
            111.09916485297026,
            -208.3768129496459
          ],
          [
            111.83739117751715,
            -206.71594891098792
          ],
          [
            112.39106243748184,
            -205.42416476470785
          ],
          [
            113.31381349552036,
            -204.3169431794044
          ],
          [
            114.05200948897671,
            -203.57880148647885
          ],
          [
            114.79021761486925,
            -202.4715708552603
          ],
          [
            115.3438706761796,
            -201.73342011641967
          ],
          [
            116.26661566800003,
            -200.8107430002627
          ],
          [
            117.00480559523824,
            -200.25714577648358
          ],
          [
            117.74303191978512,
            -198.59628173782565
          ],
          [
            118.29669104731359,
            -197.6735865298385
          ],
          [
            118.2966971135317,
            -197.48904206069201
          ],
          [
            118.66579511025988,
            -197.11997121422922
          ],
          [
            119.40400930237054,
            -195.82819611386424
          ],
          [
            120.1422295606993,
            -194.35187654435276
          ],
          [
            120.32678462528149,
            -193.9827966519749
          ],
          [
            120.51135182229991,
            -193.24462782130408
          ],
          [
            120.51138215339047,
            -192.3219054755717
          ],
          [
            120.51140641826292,
            -191.58372759898577
          ],
          [
            120.51143068313536,
            -190.84554972239985
          ],
          [
            120.69599181393568,
            -190.2919253608755
          ]
        ]
      },
      "properties": {
        "type": "variant",
        "id": 2,
        "color": "#4444ff",
        "vzdal_m": 2133,
        "prevyseni_m": 48,
        "cas_s": 639,
        "tempo_str": "4:59"
      }
    },
    {
      "type": "Feature",
      "geometry": {
        "type": "LineString",
        "coordinates": [
          [
            91.90501956737243,
            -259.49469012805145
          ],
          [
            92.82775242675663,
            -258.94110195018743
          ],
          [
            93.93504035072301,
            -258.0184338799456
          ],
          [
            94.4887055444696,
            -256.91119420281194
          ],
          [
            95.22691367036214,
            -255.80396357159344
          ],
          [
            95.59601166709031,
            -255.43489272513062
          ],
          [
            95.96513392869092,
            -254.32764400208194
          ],
          [
            96.33425012407344,
            -253.40493974817971
          ],
          [
            96.5188051886556,
            -253.03585985580187
          ],
          [
            96.7033602532378,
            -252.66677996342398
          ],
          [
            97.44156231291224,
            -251.74409380135197
          ],
          [
            98.17975830636858,
            -251.00595210842636
          ],
          [
            98.91796643226114,
            -249.89872147720783
          ],
          [
            99.65616242571745,
            -249.16057978428228
          ],
          [
            100.3943584191738,
            -248.42243809135672
          ],
          [
            101.13256654506634,
            -247.31520746013817
          ],
          [
            101.31714587452097,
            -246.2079496911744
          ],
          [
            101.31717620561155,
            -245.28522734544202
          ],
          [
            101.50174340262996,
            -244.54705851477118
          ],
          [
            101.50176766750239,
            -243.80888063818526
          ],
          [
            101.8708959953211,
            -242.5170874459901
          ],
          [
            102.6091101874318,
            -241.2253123456251
          ],
          [
            102.97821425037806,
            -240.67169703001585
          ],
          [
            103.16276931496026,
            -240.30261713763795
          ],
          [
            103.34732437954246,
            -239.9335372452601
          ],
          [
            103.53187944412464,
            -239.56445735288221
          ],
          [
            104.08552643921689,
            -239.01085108318802
          ],
          [
            104.27008150379909,
            -238.64177119081018
          ],
          [
            104.63917343430913,
            -238.45724481349387
          ],
          [
            105.37739369263791,
            -236.98092524398237
          ],
          [
            105.74651595423853,
            -235.87367652093369
          ],
          [
            106.11563821583914,
            -234.76642779788497
          ],
          [
            106.66929127714948,
            -234.0282770590443
          ],
          [
            107.40749333682392,
            -233.10559089697227
          ],
          [
            107.77659133355209,
            -232.7365200505095
          ],
          [
            108.14568326406214,
            -232.5519936731932
          ],
          [
            108.69932419293629,
            -232.1829318726455
          ],
          [
            108.88387925751847,
            -231.8138519802676
          ],
          [
            109.43754445126507,
            -230.70661230313402
          ],
          [
            109.62209951584724,
            -230.33753241075613
          ],
          [
            110.36031370795791,
            -229.04575731039114
          ],
          [
            110.91399103414071,
            -227.56942869496456
          ],
          [
            111.83673602596114,
            -226.6467515788076
          ],
          [
            112.02130928919766,
            -225.72403827899032
          ],
          [
            112.0213335540701,
            -224.9858604024044
          ],
          [
            112.20590681730664,
            -224.06314710258707
          ],
          [
            112.20591288352475,
            -223.8786026334406
          ],
          [
            112.20591894974285,
            -223.69405816429412
          ],
          [
            112.20592501596096,
            -223.50951369514763
          ],
          [
            112.39048008054316,
            -223.1404338027698
          ],
          [
            112.39050434541562,
            -222.40225592618387
          ],
          [
            112.39052861028806,
            -221.66407804959798
          ],
          [
            112.57509580730645,
            -220.9259092189271
          ],
          [
            112.75965087188865,
            -220.55682932654926
          ],
          [
            112.57512007217892,
            -220.1877313423412
          ],
          [
            112.57514433705136,
            -219.4495534657553
          ],
          [
            112.39063173599595,
            -218.52682207410783
          ],
          [
            112.39065600086839,
            -217.7886441975219
          ],
          [
            112.94432726083308,
            -216.4968600512418
          ],
          [
            113.12890052406959,
            -215.57414675142448
          ],
          [
            113.12893692137828,
            -214.4668799365456
          ],
          [
            113.12894298759639,
            -214.28233546739915
          ],
          [
            113.31349805217857,
            -213.91325557502128
          ],
          [
            114.05359878920368,
            -212.43046299716494
          ],
          [
            114.23627337508955,
            -212.06785611313194
          ],
          [
            114.23629763996199,
            -211.32967823654602
          ],
          [
            114.4208587707623,
            -210.77605387502166
          ],
          [
            114.60543203399882,
            -209.85334057520436
          ],
          [
            114.60545629887127,
            -209.11516269861846
          ],
          [
            114.7900295621078,
            -208.19244939880113
          ],
          [
            114.79005382698023,
            -207.4542715222152
          ],
          [
            115.15917608858086,
            -206.34702279916652
          ],
          [
            115.7128291498912,
            -205.60887206032587
          ],
          [
            115.8973842144734,
            -205.23979216794802
          ],
          [
            115.89739028069152,
            -205.05524769880154
          ],
          [
            116.0819453452737,
            -204.68616780642364
          ],
          [
            116.82016560360248,
            -203.20984823691217
          ],
          [
            117.00475099927523,
            -201.9180459988019
          ],
          [
            117.00477526414768,
            -201.179868122216
          ],
          [
            117.55844045789426,
            -200.0726284450824
          ],
          [
            117.5584707889848,
            -199.14990609935
          ],
          [
            117.92759911680353,
            -197.85811290715483
          ],
          [
            118.48124004567767,
            -197.48905110660712
          ],
          [
            118.66578904404176,
            -197.3045156833757
          ],
          [
            119.40400930237054,
            -195.82819611386424
          ],
          [
            120.1422295606993,
            -194.35187654435276
          ],
          [
            120.32678462528149,
            -193.9827966519749
          ],
          [
            120.32681495637206,
            -193.06007430624248
          ],
          [
            120.51138215339047,
            -192.3219054755717
          ],
          [
            120.51140641826292,
            -191.58372759898577
          ],
          [
            120.51143068313536,
            -190.84554972239985
          ],
          [
            120.69599181393568,
            -190.2919253608755
          ]
        ]
      },
      "properties": {
        "type": "variant",
        "id": 3,
        "color": "#44ff44",
        "vzdal_m": 2117,
        "prevyseni_m": 46,
        "cas_s": 658,
        "tempo_str": "5:11"
      }
    }
  ]
}