{
  "type": "FeatureCollection",
  "features": [
    {
      "type": "Feature",
      "geometry": {
        "type": "Point",
        "coordinates": [
          33.481571848024444,
          -174.74929130492055
        ]
      },
      "properties": {
        "type": "start",
        "isom": "204"
      }
    },
    {
      "type": "Feature",
      "geometry": {
        "type": "Point",
        "coordinates": [
          196.1493101532423,
          -280.22023739080987
        ]
      },
      "properties": {
        "type": "end",
        "isom": "110"
      }
    },
    {
      "type": "Feature",
      "geometry": {
        "type": "LineString",
        "coordinates": [
          [
            33.676586189264846,
            -175.05912223900918
          ],
          [
            36.62911291913214,
            -176.5355215962002
          ],
          [
            40.31995570914698,
            -175.7973295409274
          ],
          [
            44.01069314048713,
            -176.53553248666117
          ],
          [
            48.43953591462541,
            -178.01193402194437
          ],
          [
            49.17769393676091,
            -178.01193511099046
          ],
          [
            50.654062660369256,
            -177.27373978857938
          ],
          [
            52.13043138397761,
            -176.53554446616823
          ],
          [
            53.60680010758595,
            -175.79734914375715
          ],
          [
            56.55943219612794,
            -175.79735349994152
          ],
          [
            59.51206428466994,
            -175.79735785612593
          ],
          [
            60.98838032894094,
            -175.79736003421812
          ],
          [
            62.46474905254929,
            -175.059164711807
          ],
          [
            63.20290707468479,
            -175.0591658008531
          ],
          [
            64.67917043961843,
            -175.7973654794486
          ],
          [
            67.63159181081103,
            -178.7501598376462
          ],
          [
            70.58396050266626,
            -182.44115169634713
          ],
          [
            72.0602238675999,
            -183.17935137494263
          ],
          [
            72.79838188973541,
            -183.17935246398872
          ],
          [
            74.27464525466905,
            -183.91755214258424
          ],
          [
            75.7509086196027,
            -184.65575182117973
          ],
          [
            80.17964603506628,
            -187.60854835746954
          ],
          [
            83.13206740625888,
            -190.56134271566714
          ],
          [
            86.0932779547706,
            -195.04025138376372
          ],
          [
            90.51312083424037,
            -197.9433286111612
          ],
          [
            91.2512261770385,
            -198.6815272007106
          ],
          [
            91.98927884049931,
            -200.1579232907633
          ],
          [
            92.7273315039601,
            -201.634319380816
          ],
          [
            93.46538416742091,
            -203.11071547086874
          ],
          [
            94.94154217367984,
            -205.32531015047084
          ],
          [
            95.67959483714064,
            -206.80170624052357
          ],
          [
            98.63196352899587,
            -210.49269809922447
          ],
          [
            101.58433222085112,
            -214.1836899579254
          ],
          [
            104.53654287469432,
            -220.08927431813626
          ],
          [
            107.4888588872122,
            -224.51846367734043
          ],
          [
            111.19484402913788,
            -225.45555509264892
          ],
          [
            114.02219405313042,
            -225.91916297385043
          ],
          [
            117.81374670149218,
            -226.3901051415604
          ],
          [
            120.16941363282017,
            -226.30355604140934
          ],
          [
            121.51365059043728,
            -227.47127437122953
          ],
          [
            124.46607196162986,
            -230.42406872942715
          ],
          [
            127.41844065348509,
            -234.11506058812807
          ],
          [
            130.37080934534035,
            -237.80605244682897
          ],
          [
            133.32323071653292,
            -240.7588468050266
          ],
          [
            137.01381010986103,
            -243.71164225227034
          ],
          [
            138.49007347479468,
            -244.44984193086583
          ],
          [
            141.4423368079752,
            -249.61722879057336
          ],
          [
            145.87102154410144,
            -253.30822282736648
          ],
          [
            148.82344291529404,
            -256.26101718556407
          ],
          [
            152.51402230862212,
            -259.2138126328078
          ],
          [
            156.20460170195022,
            -262.1666080800515
          ],
          [
            158.41881237166996,
            -265.85759884970633
          ],
          [
            162.1095498030101,
            -266.59580179544014
          ],
          [
            166.5383925771484,
            -268.07220333072337
          ],
          [
            170.2289719704765,
            -271.024998777967
          ],
          [
            175.39586740807556,
            -273.97779640330293
          ],
          [
            177.62881538278072,
            -275.5290101865124
          ],
          [
            180.5354123894414,
            -274.6040936470624
          ],
          [
            184.991763657825,
            -276.19240306241215
          ],
          [
            190.15871177476146,
            -278.4070031872447
          ],
          [
            194.58755454889973,
            -279.8834047225279
          ],
          [
            196.06387059317075,
            -279.8834069006201
          ]
        ]
      },
      "properties": {
        "type": "variant",
        "id": 1,
        "color": "#ff4444",
        "vzdal_m": 1413,
        "prevyseni_m": 18,
        "cas_s": 396,
        "tempo_str": "4:40"
      }
    },
    {
      "type": "Feature",
      "geometry": {
        "type": "LineString",
        "coordinates": [
          [
            33.676586189264846,
            -175.05912223900918
          ],
          [
            35.890691500309885,
            -180.22650800967062
          ],
          [
            38.84300751282778,
            -184.65569736887488
          ],
          [
            41.79532352534567,
            -189.08488672807908
          ],
          [
            42.533376188806464,
            -190.56128281813182
          ],
          [
            45.48558684264965,
            -196.46686717834268
          ],
          [
            46.22363950611045,
            -197.94326326839536
          ],
          [
            46.2234814680984,
            -200.15785576990527
          ],
          [
            48.43779749649284,
            -202.3724515385535
          ],
          [
            49.17585015995364,
            -203.8488476286062
          ],
          [
            49.91390282341444,
            -205.32524371865892
          ],
          [
            50.65195548687524,
            -206.8016398087116
          ],
          [
            55.08064022300148,
            -210.4926338455047
          ],
          [
            58.77137765434162,
            -211.23083679123854
          ],
          [
            63.93832577127805,
            -213.44543691607112
          ],
          [
            69.10527388821448,
            -215.66003704090372
          ],
          [
            75.01032734794907,
            -218.61283575528574
          ],
          [
            80.91538080768366,
            -221.56563446966774
          ],
          [
            85.34411822314725,
            -224.51843100595755
          ],
          [
            87.558328892867,
            -228.20942177561236
          ],
          [
            91.24896096553243,
            -230.4240197223528
          ],
          [
            94.52231557956566,
            -233.93449519145838
          ],
          [
            97.15390906659232,
            -234.8532134377414
          ],
          [
            97.89201440939046,
            -235.59141202729083
          ],
          [
            99.36827777432411,
            -236.3296117058863
          ],
          [
            100.84454113925774,
            -237.0678113844818
          ],
          [
            103.79696251045036,
            -240.0206057426794
          ],
          [
            106.74943656098029,
            -242.23520260037373
          ],
          [
            108.22569992591393,
            -242.97340227896922
          ],
          [
            109.70196329084759,
            -243.7116019575647
          ],
          [
            110.44006863364574,
            -244.44980054711414
          ],
          [
            111.91633199857938,
            -245.18800022570966
          ],
          [
            115.60685871257012,
            -248.87899317345665
          ],
          [
            120.77380682950654,
            -251.09359329828928
          ],
          [
            122.9882282165757,
            -251.83179406593086
          ],
          [
            125.94091298445504,
            -251.0936009216119
          ],
          [
            130.36959772058128,
            -254.78459495840502
          ],
          [
            131.10770306337943,
            -255.52279354795445
          ],
          [
            132.58396642831306,
            -256.26099322655
          ],
          [
            135.53638779950566,
            -259.21378758474754
          ],
          [
            139.22696719283377,
            -262.1665830319913
          ],
          [
            141.44133590056555,
            -263.6429813001362
          ],
          [
            142.9175992654992,
            -264.38118097873166
          ],
          [
            143.6557572876347,
            -264.3811820677778
          ],
          [
            145.13202065256834,
            -265.1193817463733
          ],
          [
            150.2989160901674,
            -268.0721793717092
          ],
          [
            153.2515481787094,
            -268.07218372789356
          ],
          [
            157.6803909528477,
            -269.5485852631768
          ],
          [
            163.5854444125823,
            -272.50138397755876
          ],
          [
            165.7998131203141,
            -273.9777822457037
          ],
          [
            170.2286558944524,
            -275.45418378098685
          ],
          [
            173.92835638907505,
            -276.22883704377557
          ],
          [
            175.98111606513635,
            -276.7835019577586
          ],
          [
            179.80094465350615,
            -277.50268019803593
          ],
          [
            183.5152368962046,
            -279.1451908863331
          ],
          [
            185.72965828327375,
            -279.88339165397474
          ],
          [
            189.4205010732886,
            -279.14519959870194
          ],
          [
            193.11123850462872,
            -279.88340254443574
          ],
          [
            196.06387059317075,
            -279.8834069006201
          ]
        ]
      },
      "properties": {
        "type": "variant",
        "id": 2,
        "color": "#4444ff",
        "vzdal_m": 1385,
        "prevyseni_m": 20,
        "cas_s": 417,
        "tempo_str": "5:01"
      }
    },
    {
      "type": "Feature",
      "geometry": {
        "type": "LineString",
        "coordinates": [
          [
            33.676586189264846,
            -175.05912223900918
          ],
          [
            36.62911291913214,
            -176.5355215962002
          ],
          [
            40.31995570914698,
            -175.7973295409274
          ],
          [
            44.01069314048713,
            -176.53553248666117
          ],
          [
            48.43953591462541,
            -178.01193402194437
          ],
          [
            49.17769393676091,
            -178.01193511099046
          ],
          [
            50.654062660369256,
            -177.27373978857938
          ],
          [
            52.13043138397761,
            -176.53554446616823
          ],
          [
            53.60680010758595,
            -175.79734914375715
          ],
          [
            56.55943219612794,
            -175.79735349994152
          ],
          [
            59.51206428466994,
            -175.79735785612593
          ],
          [
            60.98838032894094,
            -175.79736003421812
          ],
          [
            62.46474905254929,
            -175.059164711807
          ],
          [
            63.20290707468479,
            -175.0591658008531
          ],
          [
            64.67917043961843,
            -175.7973654794486
          ],
          [
            67.63159181081103,
            -178.7501598376462
          ],
          [
            70.58396050266626,
            -182.44115169634713
          ],
          [
            72.0602238675999,
            -183.17935137494263
          ],
          [
            72.79838188973541,
            -183.17935246398872
          ],
          [
            74.27464525466905,
            -183.91755214258424
          ],
          [
            75.7509086196027,
            -184.65575182117973
          ],
          [
            79.44148801293079,
            -187.60854726842342
          ],
          [
            82.39396206346073,
            -189.82314412611777
          ],
          [
            83.13206740625888,
            -190.56134271566714
          ],
          [
            85.34627807597863,
            -194.25233348532197
          ],
          [
            88.95673011335347,
            -194.51557849080598
          ],
          [
            90.39201965931908,
            -194.2728414094937
          ],
          [
            91.94866251510281,
            -194.00958149931589
          ],
          [
            94.1015968332474,
            -193.64548714134747
          ],
          [
            95.65825095242869,
            -193.38222723118622
          ],
          [
            99.36782812474938,
            -192.75489549103986
          ],
          [
            101.52075118110405,
            -192.3907786050549
          ],
          [
            103.06212328656792,
            -193.51416212192498
          ],
          [
            106.01454465776054,
            -196.4669564801226
          ],
          [
            107.49080802269417,
            -197.2051561587181
          ],
          [
            108.96707138762783,
            -197.94335583731362
          ],
          [
            112.65765078095592,
            -200.89615128455733
          ],
          [
            116.34823017428401,
            -203.84894673180108
          ],
          [
            120.0388095676121,
            -206.80174217904477
          ],
          [
            122.99133629747938,
            -208.27814153623578
          ],
          [
            124.46759966241304,
            -209.01634121483127
          ],
          [
            125.20565232587383,
            -210.49273730488397
          ],
          [
            125.94370498933463,
            -211.96913339493668
          ],
          [
            127.41970495758152,
            -216.39832057604872
          ],
          [
            128.8957049258284,
            -220.82750775716076
          ],
          [
            130.3717048940753,
            -225.25669493827277
          ],
          [
            131.10975755753608,
            -226.7330910283255
          ],
          [
            131.8478102209969,
            -228.2094871183782
          ],
          [
            134.8000208748401,
            -234.11507147858907
          ],
          [
            137.7522315286833,
            -240.02065583879988
          ],
          [
            139.96660023641508,
            -241.49705410694477
          ],
          [
            141.44291628068606,
            -241.497056285037
          ],
          [
            142.91917964561972,
            -242.23525596363248
          ],
          [
            145.87165369614965,
            -244.4498528213268
          ],
          [
            149.5622857688151,
            -246.6644507680672
          ],
          [
            153.25302320015524,
            -247.402653713801
          ],
          [
            157.68181329495619,
            -249.61725274958752
          ],
          [
            161.37239268828426,
            -252.5700481968312
          ],
          [
            165.80113010374785,
            -255.52284473312102
          ],
          [
            168.75355147494045,
            -258.47563909131867
          ],
          [
            170.22976216053675,
            -259.95203627041747
          ],
          [
            171.70602552547038,
            -260.6902359490129
          ],
          [
            172.4440781889312,
            -262.16663203906563
          ],
          [
            172.44392015091913,
            -264.38122454057554
          ],
          [
            173.18197281437995,
            -265.8576206306283
          ],
          [
            174.6579727826268,
            -270.2868078117403
          ],
          [
            176.1339727508737,
            -274.71599499285236
          ],
          [
            177.62881538278072,
            -275.5290101865124
          ],
          [
            180.5354123894414,
            -274.6040936470624
          ],
          [
            184.991763657825,
            -276.19240306241215
          ],
          [
            190.15871177476146,
            -278.4070031872447
          ],
          [
            194.58755454889973,
            -279.8834047225279
          ],
          [
            196.06387059317075,
            -279.8834069006201
          ]
        ]
      },
      "properties": {
        "type": "variant",
        "id": 3,
        "color": "#44ff44",
        "vzdal_m": 1465,
        "prevyseni_m": 19,
        "cas_s": 408,
        "tempo_str": "4:38"
      }
    }
  ]
}