{
  "type": "FeatureCollection",
  "features": [
    {
      "type": "Feature",
      "geometry": {
        "type": "Point",
        "coordinates": [
          67.17927164867157,
          -103.23512647387365
        ]
      },
      "properties": {
        "type": "start",
        "isom": "109"
      }
    },
    {
      "type": "Feature",
      "geometry": {
        "type": "Point",
        "coordinates": [
          40.351327901460564,
          -70.0051032517454
        ]
      },
      "properties": {
        "type": "end",
        "isom": "419"
      }
    },
    {
      "type": "Feature",
      "geometry": {
        "type": "LineString",
        "coordinates": [
          [
            67.17581748277252,
            -103.26625396890663
          ],
          [
            66.62220385187993,
            -102.80486565658207
          ],
          [
            66.25313315313329,
            -102.34348639061132
          ],
          [
            65.8840594212776,
            -101.9743793592932
          ],
          [
            65.51499478874906,
            -101.3284556240172
          ],
          [
            65.23820162229352,
            -100.6825364119181
          ],
          [
            64.96140845583795,
            -100.036617199819
          ],
          [
            64.86915215531025,
            -99.57525150337898
          ],
          [
            64.55910327952144,
            -98.90264445676999
          ],
          [
            64.13102895647128,
            -98.09885956352173
          ],
          [
            63.7619673570518,
            -97.36066359359309
          ],
          [
            63.51017344968834,
            -96.71571321601176
          ],
          [
            63.502196274646494,
            -96.34958360079736
          ],
          [
            63.39293002250475,
            -95.88428974644346
          ],
          [
            63.208405289013115,
            -95.33064729217391
          ],
          [
            63.20841742144933,
            -94.9615583535634
          ],
          [
            63.032012043292966,
            -94.4118229520058
          ],
          [
            63.115546213647214,
            -94.03072304609935
          ],
          [
            63.02573437493103,
            -93.76102537468033
          ],
          [
            62.65485232030159,
            -93.02381428679682
          ],
          [
            62.28579072088211,
            -92.2856183168682
          ],
          [
            61.91672305524453,
            -91.73196681624482
          ],
          [
            61.54766145582505,
            -90.9937708463162
          ],
          [
            61.45540515529734,
            -90.53240514987615
          ],
          [
            61.27088042180571,
            -89.9787626956066
          ],
          [
            60.90181275616812,
            -89.42511119498322
          ],
          [
            60.559451144185225,
            -88.85620416352774
          ],
          [
            60.44704405786479,
            -88.63636527271545
          ],
          [
            59.88686302667401,
            -88.31779462420576
          ],
          [
            59.38961241780394,
            -87.87620261355401
          ],
          [
            59.05644409688965,
            -87.57957603839262
          ],
          [
            58.68737036503395,
            -87.21046900707448
          ],
          [
            58.318296633178264,
            -86.84136197575636
          ],
          [
            57.949222901322564,
            -86.47225494443823
          ],
          [
            57.58014916946688,
            -86.10314791312011
          ],
          [
            57.21107543761118,
            -85.73404088180199
          ],
          [
            56.657458773609534,
            -85.36492480413006
          ],
          [
            55.918736589725924,
            -84.99676052286198
          ],
          [
            55.447818715116426,
            -84.63305341873293
          ],
          [
            55.07850012053406,
            -84.17005972282627
          ],
          [
            54.72391511418771,
            -83.51693352266041
          ],
          [
            54.3408420028585,
            -83.06753962423257
          ],
          [
            53.8909676359884,
            -82.68695880854568
          ],
          [
            53.439486690611915,
            -82.30880334312405
          ],
          [
            53.06283722847905,
            -81.94810700408543
          ],
          [
            52.7061646220157,
            -81.31561878673182
          ],
          [
            52.63972586403006,
            -80.85056101592285
          ],
          [
            52.54189291576059,
            -80.38202237849903
          ],
          [
            52.54372651979203,
            -79.92488066028668
          ],
          [
            52.14520812484028,
            -79.35595832443025
          ],
          [
            51.76573483416825,
            -78.81421912988588
          ],
          [
            51.42471224320616,
            -78.14816480680462
          ],
          [
            51.05161053211871,
            -77.51158290349575
          ],
          [
            50.67572687448031,
            -76.86921034344073
          ],
          [
            50.29101879304326,
            -76.50647817827152
          ],
          [
            49.82593357550462,
            -76.05074891064247
          ],
          [
            49.55287132933187,
            -75.76826411563528
          ],
          [
            48.99924859911212,
            -75.5836925072686
          ],
          [
            48.35336350214654,
            -75.12229967176712
          ],
          [
            47.61520390599894,
            -74.75317454774138
          ],
          [
            46.8710886121426,
            -74.29737358205776
          ],
          [
            46.794381575914905,
            -74.25179176002246
          ],
          [
            46.413460490619634,
            -74.27059441880002
          ],
          [
            45.862067282375754,
            -74.1071829648118
          ],
          [
            45.26791701275322,
            -73.71781175867268
          ],
          [
            44.66256248829948,
            -73.368946286291
          ],
          [
            43.924402892151875,
            -72.99982116226528
          ],
          [
            43.18624329600428,
            -72.63069603823953
          ],
          [
            42.632626632002626,
            -72.26157996056759
          ],
          [
            42.171281434073954,
            -71.89246840607257
          ],
          [
            41.80220770221826,
            -71.52336137475444
          ],
          [
            41.43313397036257,
            -71.15425434343632
          ],
          [
            41.064060238506876,
            -70.78514731211818
          ],
          [
            40.69498650665118,
            -70.41604028080006
          ],
          [
            40.32591277479549,
            -70.04693324948194
          ]
        ]
      },
      "properties": {
        "type": "variant",
        "id": 1,
        "color": "#ff4444",
        "vzdal_m": 2425,
        "prevyseni_m": 32,
        "cas_s": 633,
        "tempo_str": "4:21"
      }
    },
    {
      "type": "Feature",
      "geometry": {
        "type": "LineString",
        "coordinates": [
          [
            67.17581748277252,
            -103.26625396890663
          ],
          [
            67.63718997868267,
            -102.80491541152803
          ],
          [
            68.0062879754108,
            -102.43584456562515
          ],
          [
            68.23120358708718,
            -101.97194012805117
          ],
          [
            68.26480223792757,
            -101.51058251364044
          ],
          [
            68.32383113732546,
            -101.046743556576
          ],
          [
            68.42964819923985,
            -100.58099663918976
          ],
          [
            68.51577230569454,
            -100.23323523801989
          ],
          [
            68.61444788773757,
            -99.65999863697112
          ],
          [
            68.70830304864383,
            -99.1991445814306
          ],
          [
            68.78847873663948,
            -98.85302530937246
          ],
          [
            68.81650869820209,
            -98.46817818644892
          ],
          [
            68.8165208306383,
            -98.09908924783842
          ],
          [
            68.84620009424985,
            -97.91480158621548
          ],
          [
            68.85631657464347,
            -97.54598997692989
          ],
          [
            68.87433989310762,
            -97.18512110863863
          ],
          [
            68.85000743348792,
            -96.80525356975069
          ],
          [
            68.78342839727488,
            -96.45800211004895
          ],
          [
            68.67159389114036,
            -95.9923542795788
          ],
          [
            68.5209517020536,
            -95.43495791548769
          ],
          [
            68.38509964969931,
            -94.98761715912048
          ],
          [
            68.05340051544954,
            -94.24645369464405
          ],
          [
            67.87520020598647,
            -93.675189780617
          ],
          [
            67.81413036555283,
            -93.20963886856711
          ],
          [
            67.75431580068661,
            -92.74429933679225
          ],
          [
            67.7178531372635,
            -92.37853423740796
          ],
          [
            67.70622152600754,
            -92.0098124278683
          ],
          [
            67.69149071308888,
            -91.54597765821052
          ],
          [
            67.67969069531091,
            -91.17726656460712
          ],
          [
            67.65157146050554,
            -90.8075365827436
          ],
          [
            67.61031194559456,
            -90.44168050528863
          ],
          [
            67.52847128183144,
            -89.95147006133836
          ],
          [
            67.58070948658634,
            -89.79291276200965
          ],
          [
            67.17019026062232,
            -89.33995019542022
          ],
          [
            66.80256625960665,
            -88.68904560450989
          ],
          [
            66.50342255672517,
            -88.15382383990625
          ],
          [
            66.19421657355753,
            -87.68849713342549
          ],
          [
            66.04486798097881,
            -87.12394684801043
          ],
          [
            65.93153184280634,
            -86.66888269159907
          ],
          [
            65.7000412169979,
            -86.01127371803518
          ],
          [
            65.38285164654354,
            -85.2047059184892
          ],
          [
            64.96107676142867,
            -84.81273814682778
          ],
          [
            64.58070198283515,
            -84.42699120181113
          ],
          [
            64.18430265529885,
            -84.09089067183025
          ],
          [
            64.05201888250302,
            -83.79101612801327
          ],
          [
            63.771822916298966,
            -83.50550474169928
          ],
          [
            63.278906586598296,
            -83.18495546698081
          ],
          [
            62.91094152799691,
            -82.81122590364996
          ],
          [
            62.30696429663218,
            -82.38275884296381
          ],
          [
            61.933761771491106,
            -82.11464463324674
          ],
          [
            61.54968773551349,
            -81.94618809652886
          ],
          [
            61.17894922314477,
            -81.95141118877785
          ],
          [
            60.81284425225337,
            -81.99383408671778
          ],
          [
            60.43997749187067,
            -81.97781912239739
          ],
          [
            59.97541066537395,
            -81.88104903556804
          ],
          [
            59.296893111356546,
            -81.64732873596064
          ],
          [
            58.93778792721615,
            -81.33947181492745
          ],
          [
            58.68974548877144,
            -80.75078281042526
          ],
          [
            58.348231969262415,
            -80.20436294016005
          ],
          [
            58.130648565327824,
            -80.11296388900269
          ],
          [
            57.46251727282151,
            -79.75820799755284
          ],
          [
            57.13613447992967,
            -79.44006233423679
          ],
          [
            56.751143506908164,
            -79.29610642434496
          ],
          [
            56.26296754271119,
            -79.22366114851448
          ],
          [
            55.73503948658151,
            -78.81332496856746
          ],
          [
            55.39866995117733,
            -78.42218966112779
          ],
          [
            54.71999760169224,
            -78.07532327985763
          ],
          [
            53.98183800554464,
            -77.70619815583188
          ],
          [
            53.335949875470014,
            -77.33707755498304
          ],
          [
            52.59779027932242,
            -76.9679524309573
          ],
          [
            52.22871654746672,
            -76.59884539963917
          ],
          [
            51.859642815611025,
            -76.22973836832105
          ],
          [
            51.39829761768236,
            -75.86062681382602
          ],
          [
            50.93695241975369,
            -75.491515259331
          ],
          [
            50.475607221825015,
            -75.12240370483596
          ],
          [
            50.10653955618743,
            -74.56875220421257
          ],
          [
            49.55292289218578,
            -74.19963612654065
          ],
          [
            48.9070317290021,
            -73.92278776034443
          ],
          [
            48.35340899878235,
            -73.73821615197774
          ],
          [
            47.98432313449043,
            -73.73819805927012
          ],
          [
            47.522968837234615,
            -73.64590320873296
          ],
          [
            46.784809241087004,
            -73.27677808470722
          ],
          [
            46.043647828045486,
            -72.91031447650512
          ],
          [
            45.60786162436176,
            -72.54312379627302
          ],
          [
            45.24851420303746,
            -72.31793372879213
          ],
          [
            44.84123106143544,
            -72.3004200984665
          ],
          [
            44.47691407776,
            -72.31347813632314
          ],
          [
            44.108120680337166,
            -72.323851762591
          ],
          [
            43.73932728291432,
            -72.33422538885885
          ],
          [
            43.45856819323715,
            -72.34911957184856
          ],
          [
            43.00170643007643,
            -72.44614252258046
          ],
          [
            42.40437557223935,
            -72.1001070458344
          ],
          [
            41.98674456814611,
            -71.70791489041349
          ],
          [
            41.617670836290415,
            -71.33880785909537
          ],
          [
            41.24859710443472,
            -70.96970082777725
          ],
          [
            40.87952337257903,
            -70.60059379645912
          ],
          [
            40.51044964072334,
            -70.231486765141
          ],
          [
            40.32591277479549,
            -70.04693324948194
          ]
        ]
      },
      "properties": {
        "type": "variant",
        "id": 2,
        "color": "#4444ff",
        "vzdal_m": 2693,
        "prevyseni_m": 18,
        "cas_s": 641,
        "tempo_str": "3:57"
      }
    },
    {
      "type": "Feature",
      "geometry": {
        "type": "LineString",
        "coordinates": [
          [
            67.17581748277252,
            -103.26625396890663
          ],
          [
            66.60013764750249,
            -103.31431496762276
          ],
          [
            66.21433990693065,
            -102.85937282589062
          ],
          [
            65.51495535833136,
            -102.52799467450131
          ],
          [
            65.14588769269378,
            -101.97434317387795
          ],
          [
            64.77682609327431,
            -101.23614720394933
          ],
          [
            64.40776449385483,
            -100.49795123402069
          ],
          [
            64.13097132739927,
            -99.85203202192162
          ],
          [
            63.766780624342395,
            -99.11188671932108
          ],
          [
            63.39284509545125,
            -98.46791231671696
          ],
          [
            62.93149989752258,
            -98.09880076222194
          ],
          [
            62.19334030137499,
            -97.7296756381962
          ],
          [
            61.63972363737333,
            -97.36055956052425
          ],
          [
            60.99383550729871,
            -96.99143895967542
          ],
          [
            60.62476177544301,
            -96.62233192835731
          ],
          [
            60.25568804358732,
            -96.25322489703917
          ],
          [
            59.8548257800653,
            -95.61810326908282
          ],
          [
            59.55554481707901,
            -94.85508981150957
          ],
          [
            59.45643090573916,
            -94.58225604795078
          ],
          [
            59.420826767543886,
            -94.47172685945642
          ],
          [
            59.14793649303944,
            -94.40033794296173
          ],
          [
            58.77869792501985,
            -94.41898288568372
          ],
          [
            58.34526750575259,
            -94.27709246120774
          ],
          [
            57.81216612323961,
            -94.18262356020351
          ],
          [
            57.287233735820834,
            -94.09400907553761
          ],
          [
            56.83555059054251,
            -93.96382608902657
          ],
          [
            56.28498242254111,
            -93.77055261118747
          ],
          [
            55.738132951803344,
            -93.5673488728161
          ],
          [
            55.180860535281404,
            -93.11572014412009
          ],
          [
            54.81178680342571,
            -92.74661311280197
          ],
          [
            54.44271913778812,
            -92.19296161217859
          ],
          [
            53.981376972968505,
            -91.73157782303095
          ],
          [
            53.61230930733092,
            -91.17792632240757
          ],
          [
            53.2171017157076,
            -90.53954822655561
          ],
          [
            52.842900267380685,
            -89.80350893947715
          ],
          [
            52.52146412531913,
            -89.16367514182632
          ],
          [
            52.30242204137574,
            -88.50815597800703
          ],
          [
            52.246372476275624,
            -88.04060338050084
          ],
          [
            51.83864149965606,
            -87.61374577316143
          ],
          [
            51.48070947032761,
            -87.12576449082103
          ],
          [
            51.10541345273152,
            -86.4910491767175
          ],
          [
            50.752069779393736,
            -85.82599649407122
          ],
          [
            50.383008179974254,
            -85.0878005241426
          ],
          [
            50.01393444811856,
            -84.71869349282447
          ],
          [
            49.64486374937192,
            -84.25731422685371
          ],
          [
            49.275799116843395,
            -83.61139049157771
          ],
          [
            48.91467346820505,
            -83.14176830507427
          ],
          [
            48.454303574166126,
            -82.77146288199663
          ],
          [
            48.098239099126246,
            -82.3990121680908
          ],
          [
            47.72387680980482,
            -81.75468531942937
          ],
          [
            47.300338432754074,
            -81.04029428669094
          ],
          [
            47.11933460369658,
            -80.48365535056662
          ],
          [
            46.792264855242145,
            -79.7298850086102
          ],
          [
            46.40955952862559,
            -79.27956714954203
          ],
          [
            46.0667316261255,
            -78.8429781993091
          ],
          [
            45.69782528971057,
            -78.42981426226159
          ],
          [
            45.24619308410511,
            -77.82959931927412
          ],
          [
            44.899610454063136,
            -77.07860855244924
          ],
          [
            44.78273835183596,
            -76.48806910365293
          ],
          [
            44.44156679884268,
            -75.75277347223965
          ],
          [
            44.04808047456111,
            -75.25264333923784
          ],
          [
            43.859564577729266,
            -75.10884876910988
          ],
          [
            43.66844835617691,
            -74.97088216035813
          ],
          [
            43.06935955880472,
            -74.92726948399212
          ],
          [
            42.46900683411344,
            -74.4559167258264
          ],
          [
            42.19075880696554,
            -74.173966116426
          ],
          [
            41.81025812712691,
            -73.9090004691198
          ],
          [
            41.06806243517637,
            -73.54250762148669
          ],
          [
            40.67401946865228,
            -73.30616852375513
          ],
          [
            40.5446493269289,
            -73.00996570624949
          ],
          [
            40.78718821121593,
            -72.53830620098735
          ],
          [
            40.6026634777243,
            -71.98466374671779
          ],
          [
            40.60267561016051,
            -71.61557480810728
          ],
          [
            40.60268774259672,
            -71.24648586949678
          ],
          [
            40.60269987503293,
            -70.87739693088628
          ],
          [
            40.510443574505224,
            -70.41603123444625
          ],
          [
            40.32591277479549,
            -70.04693324948194
          ]
        ]
      },
      "properties": {
        "type": "variant",
        "id": 3,
        "color": "#44ff44",
        "vzdal_m": 2457,
        "prevyseni_m": 48,
        "cas_s": 650,
        "tempo_str": "4:24"
      }
    },
    {
      "type": "Feature",
      "geometry": {
        "type": "LineString",
        "coordinates": [
          [
            67.17581748277252,
            -103.26625396890663
          ],
          [
            66.62220688498898,
            -102.71259342192944
          ],
          [
            66.25313315313329,
            -102.34348639061132
          ],
          [
            65.8840594212776,
            -101.9743793592932
          ],
          [
            65.51498872253096,
            -101.51300009332245
          ],
          [
            65.2381955560754,
            -100.86708088122334
          ],
          [
            64.86912182421972,
            -100.49797384990524
          ],
          [
            64.59231955843698,
            -100.12887134176401
          ],
          [
            64.59233169087321,
            -99.75978240315351
          ],
          [
            64.03871502687156,
            -99.39066632548158
          ],
          [
            63.85417512783466,
            -99.29838504447514
          ],
          [
            63.57737892827005,
            -98.74473806702866
          ],
          [
            63.208308229523404,
            -98.28335880105791
          ],
          [
            62.56242009944878,
            -97.91423820020907
          ],
          [
            61.82426050330118,
            -97.54511307618333
          ],
          [
            61.45518677144548,
            -97.17600604486522
          ],
          [
            60.90157010744384,
            -96.80688996719326
          ],
          [
            60.53249637558814,
            -96.43778293587515
          ],
          [
            60.16342264373245,
            -96.06867590455703
          ],
          [
            59.79435801120392,
            -95.42275216928101
          ],
          [
            59.517564844748364,
            -94.77683295718192
          ],
          [
            59.42529944489349,
            -94.59228396469977
          ],
          [
            59.33303101192956,
            -94.50000720687024
          ],
          [
            59.148491112892664,
            -94.40772592586379
          ],
          [
            58.77940524860076,
            -94.40770783315617
          ],
          [
            58.31805095134492,
            -94.31541298261901
          ],
          [
            57.85669665408909,
            -94.22311813208186
          ],
          [
            57.30307392386934,
            -94.03854652371517
          ],
          [
            56.84171962661351,
            -93.94625167317801
          ],
          [
            56.28809689639375,
            -93.76168006481134
          ],
          [
            55.734474166174,
            -93.57710845644465
          ],
          [
            55.365391334991145,
            -93.4848181290844
          ],
          [
            54.996308503808294,
            -93.39252780172416
          ],
          [
            54.627222639516376,
            -93.39250970901654
          ],
          [
            54.1658774415877,
            -93.0233981545215
          ],
          [
            53.519989311513086,
            -92.65427755367267
          ],
          [
            53.24318097951226,
            -92.4697195148367
          ],
          [
            53.058641080475354,
            -92.37743823383026
          ],
          [
            52.41274991729168,
            -92.10058986763404
          ],
          [
            51.76686178721706,
            -91.73146926678521
          ],
          [
            51.12097062403338,
            -91.45462090058899
          ],
          [
            50.38281102788578,
            -91.08549577656325
          ],
          [
            49.92146582995711,
            -90.71638422206821
          ],
          [
            49.460111532701276,
            -90.62408937153106
          ],
          [
            49.27556860055532,
            -90.62408032517725
          ],
          [
            49.275580732991536,
            -90.25499138656674
          ],
          [
            49.275592865427754,
            -89.88590244795624
          ],
          [
            49.367876463936945,
            -89.51681803252265
          ],
          [
            49.3678855632641,
            -89.24000132856477
          ],
          [
            49.275620163409236,
            -89.05545233608261
          ],
          [
            49.18335476355436,
            -88.87090334360046
          ],
          [
            48.99882396384462,
            -88.50180535863615
          ],
          [
            48.62975629820703,
            -87.94815385801277
          ],
          [
            48.260694698787546,
            -87.20995788808415
          ],
          [
            47.983901532332,
            -86.56403867598505
          ],
          [
            47.89164523180428,
            -86.10267297954502
          ],
          [
            47.52258363238481,
            -85.3644770096164
          ],
          [
            47.52259576482103,
            -84.99538807100589
          ],
          [
            47.52260789725724,
            -84.62629913239539
          ],
          [
            47.52262002969345,
            -84.25721019378489
          ],
          [
            47.52263216212967,
            -83.88812125517438
          ],
          [
            47.33810742863803,
            -83.33447880090483
          ],
          [
            47.430394060256276,
            -82.8731221508186
          ],
          [
            47.70722362402047,
            -82.4117745470862
          ],
          [
            47.70723575645669,
            -82.0426856084757
          ],
          [
            47.61497945592898,
            -81.58131991203565
          ],
          [
            47.2459178565095,
            -80.84312394210704
          ],
          [
            47.061393123017865,
            -80.28948148783746
          ],
          [
            46.78459692345326,
            -79.735834510391
          ],
          [
            46.41552622470662,
            -79.27445524442025
          ],
          [
            46.04645552595998,
            -78.81307597844949
          ],
          [
            45.677381794104285,
            -78.44396894713138
          ],
          [
            45.3083141284667,
            -77.890317446508
          ],
          [
            44.93925252904722,
            -77.15212147657938
          ],
          [
            44.84699622851951,
            -76.69075578013934
          ],
          [
            44.47793462910003,
            -75.95255981021072
          ],
          [
            44.10886696346244,
            -75.39890830958734
          ],
          [
            43.64752176553377,
            -75.02979675509232
          ],
          [
            43.09389903531402,
            -74.84522514672562
          ],
          [
            42.448010905239386,
            -74.47610454587678
          ],
          [
            42.07893717338369,
            -74.10699751455866
          ],
          [
            41.802128841382874,
            -73.9224394757227
          ],
          [
            41.15624071130825,
            -73.55331887487385
          ],
          [
            40.694892480270525,
            -73.27647955503144
          ],
          [
            40.60262708041565,
            -73.0919305625493
          ],
          [
            40.78718821121593,
            -72.53830620098735
          ],
          [
            40.6026634777243,
            -71.98466374671779
          ],
          [
            40.60267561016051,
            -71.61557480810728
          ],
          [
            40.60268774259672,
            -71.24648586949678
          ],
          [
            40.60269987503293,
            -70.87739693088628
          ],
          [
            40.510443574505224,
            -70.41603123444625
          ],
          [
            40.32591277479549,
            -70.04693324948194
          ]
        ]
      },
      "properties": {
        "type": "variant",
        "id": 4,
        "color": "#ffaa00",
        "vzdal_m": 2564,
        "prevyseni_m": 51,
        "cas_s": 674,
        "tempo_str": "4:22"
      }
    }
  ]
}