{
  "type": "FeatureCollection",
  "features": [
    {
      "type": "Feature",
      "geometry": {
        "type": "Point",
        "coordinates": [
          66.28051422581824,
          -162.41652293789966
        ]
      },
      "properties": {
        "type": "start",
        "isom": "109"
      }
    },
    {
      "type": "Feature",
      "geometry": {
        "type": "Point",
        "coordinates": [
          90.07371222209355,
          -182.5086765309542
        ]
      },
      "properties": {
        "type": "end",
        "isom": "204"
      }
    },
    {
      "type": "Feature",
      "geometry": {
        "type": "LineString",
        "coordinates": [
          [
            66.2880049622452,
            -162.33520303651383
          ],
          [
            66.84157916272011,
            -163.99613039657737
          ],
          [
            67.7642513599232,
            -165.28798691017818
          ],
          [
            67.94876396097861,
            -166.21071830182564
          ],
          [
            68.52572349263512,
            -167.52727735336637
          ],
          [
            68.55203371934681,
            -168.2484606462074
          ],
          [
            68.40835285265794,
            -168.98897387478817
          ],
          [
            68.48652107654326,
            -169.7187777772735
          ],
          [
            68.61169180341662,
            -170.41846253972537
          ],
          [
            68.66745068177394,
            -170.58425249395708
          ],
          [
            68.79722313908704,
            -170.97224327788533
          ],
          [
            68.85240933539787,
            -171.1384641114786
          ],
          [
            68.98110610208415,
            -171.52609879676953
          ],
          [
            69.53951394852425,
            -173.06536495319028
          ],
          [
            70.0268434136259,
            -174.06797361245177
          ],
          [
            70.90044546013442,
            -174.70118692799005
          ],
          [
            71.68319722246389,
            -175.18526852782875
          ],
          [
            71.91772138287723,
            -175.58959725678915
          ],
          [
            72.46933459026252,
            -176.95885883233453
          ],
          [
            73.24851908863492,
            -177.89667207047637
          ],
          [
            74.13973095344737,
            -178.6711204883588
          ],
          [
            75.05043306452927,
            -179.42087826587897
          ],
          [
            75.88367327555136,
            -179.49830905472078
          ],
          [
            76.62184500413524,
            -179.49834523838115
          ],
          [
            78.09816419643056,
            -180.23659548228775
          ],
          [
            79.57448338872588,
            -180.97484572619436
          ],
          [
            80.31265511730977,
            -180.9748819098547
          ],
          [
            81.05082684589365,
            -180.97491809351504
          ],
          [
            81.9735354404054,
            -181.15950779223695
          ],
          [
            82.71170716898928,
            -181.1595439758973
          ],
          [
            83.44986676513695,
            -181.5286690978506
          ],
          [
            84.74166122394064,
            -181.71327688840267
          ],
          [
            85.84890668438024,
            -182.08242010218615
          ],
          [
            86.25443113456335,
            -181.91720883755028
          ],
          [
            87.14070720940204,
            -182.08248342359175
          ],
          [
            87.50979913991209,
            -181.89795704627545
          ],
          [
            87.69434207205806,
            -181.89796609219056
          ],
          [
            88.06342187013189,
            -182.08252865316717
          ],
          [
            88.80156933384333,
            -182.82074271341347
          ],
          [
            90.09338199130136,
            -182.4517170965261
          ]
        ]
      },
      "properties": {
        "type": "variant",
        "id": 1,
        "color": "#ff4444",
        "vzdal_m": 975,
        "prevyseni_m": 51,
        "cas_s": 311,
        "tempo_str": "5:19"
      }
    },
    {
      "type": "Feature",
      "geometry": {
        "type": "LineString",
        "coordinates": [
          [
            66.2880049622452,
            -162.33520303651383
          ],
          [
            67.39523222403047,
            -163.25797965773674
          ],
          [
            68.8715574825439,
            -163.81168543249686
          ],
          [
            70.16335194134759,
            -163.99629322304895
          ],
          [
            71.08606053585935,
            -164.18088292177086
          ],
          [
            71.824220132007,
            -164.55000804372415
          ],
          [
            72.93147772488282,
            -164.55006231921467
          ],
          [
            73.66964945346672,
            -164.55009850287502
          ],
          [
            74.59235198176034,
            -164.91923267074338
          ],
          [
            75.51506057627209,
            -165.10382236946532
          ],
          [
            76.99137976856741,
            -165.84207261337193
          ],
          [
            77.17592270071339,
            -165.842081659287
          ],
          [
            77.54500249878721,
            -166.02664422026365
          ],
          [
            78.83677875893657,
            -166.76488541825518
          ],
          [
            79.57493835508424,
            -167.13401054020846
          ],
          [
            79.94401815315807,
            -167.3185731011851
          ],
          [
            80.3130979512319,
            -167.50313566216178
          ],
          [
            80.68217774930572,
            -167.68769822313843
          ],
          [
            81.05125754737956,
            -167.87226078411507
          ],
          [
            81.42033734545339,
            -168.05682334509171
          ],
          [
            81.97394794323696,
            -168.6104838902764
          ],
          [
            82.34302774131079,
            -168.79504645125309
          ],
          [
            82.71210753938463,
            -168.9796090122297
          ],
          [
            83.26571813716821,
            -169.53326955741443
          ],
          [
            84.0038413360072,
            -171.0096614942466
          ],
          [
            84.74197666728243,
            -172.1169644927858
          ],
          [
            85.48011806477575,
            -173.03972302217855
          ],
          [
            86.21826552848718,
            -173.7779370824248
          ],
          [
            86.95641905841674,
            -174.3316066735246
          ],
          [
            88.06365845263824,
            -174.88529435645452
          ],
          [
            88.43273825071206,
            -175.0698569174312
          ],
          [
            88.80181198256778,
            -175.43896394755433
          ],
          [
            89.17089178064161,
            -175.62352650853097
          ],
          [
            89.35542864656948,
            -175.8080800235925
          ],
          [
            89.63012662230854,
            -176.1640574548618
          ],
          [
            89.72771599432663,
            -177.09981529477574
          ],
          [
            89.78074200981192,
            -177.90460714345858
          ],
          [
            90.09349724944548,
            -178.945372182743
          ],
          [
            90.09347298457303,
            -179.68355005932892
          ],
          [
            90.09344871970058,
            -180.42172793591484
          ],
          [
            90.09342445482814,
            -181.15990581250074
          ],
          [
            90.09340018995569,
            -181.89808368908666
          ],
          [
            90.09338199130136,
            -182.4517170965261
          ]
        ]
      },
      "properties": {
        "type": "variant",
        "id": 2,
        "color": "#4444ff",
        "vzdal_m": 938,
        "prevyseni_m": 58,
        "cas_s": 323,
        "tempo_str": "5:44"
      }
    },
    {
      "type": "Feature",
      "geometry": {
        "type": "LineString",
        "coordinates": [
          [
            66.2880049622452,
            -162.33520303651383
          ],
          [
            67.39523222403047,
            -163.25797965773674
          ],
          [
            68.31792868610599,
            -163.8116582947516
          ],
          [
            69.24060694952719,
            -164.91897033920588
          ],
          [
            70.16327914673026,
            -166.2108268528067
          ],
          [
            71.08596347636956,
            -167.1335944281145
          ],
          [
            72.562288734883,
            -167.68730020287464
          ],
          [
            74.03860792717832,
            -168.42555044678124
          ],
          [
            74.77677965576221,
            -168.42558663044156
          ],
          [
            75.69948825027394,
            -168.6101763291635
          ],
          [
            77.17580744256927,
            -169.3484265730701
          ],
          [
            78.09849783842668,
            -170.08664967923144
          ],
          [
            79.0211882342841,
            -170.82487278539278
          ],
          [
            79.57480489828579,
            -171.193988861431
          ],
          [
            79.94388469635962,
            -171.37855142240764
          ],
          [
            80.68203216007106,
            -172.1167654826539
          ],
          [
            81.42017962378249,
            -172.85497954290017
          ],
          [
            82.15832102127582,
            -173.77773807229292
          ],
          [
            82.7119316190594,
            -174.3313986174776
          ],
          [
            84.00370787920875,
            -175.06963981546912
          ],
          [
            84.55730634455611,
            -175.99238929894676
          ],
          [
            85.6645457387776,
            -176.54607698187672
          ],
          [
            86.40269320248905,
            -177.284291042123
          ],
          [
            87.14084066620048,
            -178.02250510236922
          ],
          [
            87.32537146591024,
            -178.39160308657728
          ],
          [
            87.69445126398406,
            -178.57616564755395
          ],
          [
            88.61713559362336,
            -179.49893322286175
          ],
          [
            89.35525879246237,
            -180.9753251596939
          ],
          [
            90.09338199130136,
            -182.4517170965261
          ]
        ]
      },
      "properties": {
        "type": "variant",
        "id": 3,
        "color": "#44ff44",
        "vzdal_m": 873,
        "prevyseni_m": 59,
        "cas_s": 322,
        "tempo_str": "6:08"
      }
    }
  ]
}