{
  "type": "FeatureCollection",
  "features": [
    {
      "type": "Feature",
      "geometry": {
        "type": "Point",
        "coordinates": [
          32.52725260223674,
          -122.41104432513069
        ]
      },
      "properties": {
        "type": "start",
        "isom": "419"
      }
    },
    {
      "type": "Feature",
      "geometry": {
        "type": "Point",
        "coordinates": [
          23.48526464822245,
          -103.67933745692389
        ]
      },
      "properties": {
        "type": "end",
        "isom": "204"
      }
    },
    {
      "type": "Feature",
      "geometry": {
        "type": "LineString",
        "coordinates": [
          [
            32.52725260223674,
            -122.41104432513069
          ],
          [
            32.158181903490075,
            -121.94966506043431
          ],
          [
            32.06591347052615,
            -121.85738830290352
          ],
          [
            31.512296806524457,
            -121.48827222686532
          ],
          [
            31.14322307466874,
            -121.11916519674219
          ],
          [
            31.05095464170481,
            -121.0268884392114
          ],
          [
            30.86641777577695,
            -120.84233492414984
          ],
          [
            30.77414934281302,
            -120.75005816661904
          ],
          [
            30.68188090984909,
            -120.65778140908827
          ],
          [
            30.4050756109573,
            -120.38095113649594
          ],
          [
            30.128276378283623,
            -119.91957639475709
          ],
          [
            30.220563009901884,
            -119.45821974484845
          ],
          [
            30.12830670937418,
            -118.9968540490247
          ],
          [
            30.03605040884647,
            -118.53548835320098
          ],
          [
            29.943794108318762,
            -118.07412265737722
          ],
          [
            29.851534774681998,
            -117.70502919612673
          ],
          [
            29.205646644607324,
            -117.33590859713097
          ],
          [
            28.652026947496573,
            -117.05906475566599
          ],
          [
            28.46748704845966,
            -116.96678347517768
          ],
          [
            28.00613275120379,
            -116.87448862581671
          ],
          [
            27.544787553275086,
            -116.50537707273604
          ],
          [
            27.175713821419365,
            -116.13627004261289
          ],
          [
            26.62209109119956,
            -115.95169843572117
          ],
          [
            26.068471394088814,
            -115.67485459425619
          ],
          [
            25.699406761560265,
            -115.02893086041335
          ],
          [
            25.422613595104696,
            -114.38301164952804
          ],
          [
            25.422625727540918,
            -114.01392271123508
          ],
          [
            25.422637859977137,
            -113.64483377294212
          ],
          [
            25.33038155944943,
            -113.18346807711839
          ],
          [
            24.96130782759371,
            -112.81436104699526
          ],
          [
            24.869051527066006,
            -112.35299535117153
          ],
          [
            24.86906062639317,
            -112.07617864745181
          ],
          [
            24.869072758829393,
            -111.70708970915885
          ],
          [
            24.86908489126562,
            -111.3380007708659
          ],
          [
            24.96137152288388,
            -110.87664412095724
          ],
          [
            24.961383655320102,
            -110.50755518266428
          ],
          [
            24.961395787756324,
            -110.13846624437132
          ],
          [
            24.86913948722862,
            -109.67710054854759
          ],
          [
            24.68461475373698,
            -109.12345809519307
          ],
          [
            24.592358453209272,
            -108.66209239936931
          ],
          [
            24.592370585645497,
            -108.29300346107635
          ],
          [
            24.03875695475286,
            -107.83161515046491
          ],
          [
            24.038775153407194,
            -107.27798174302548
          ],
          [
            24.03878728584342,
            -106.90889280473253
          ],
          [
            24.03879941827964,
            -106.53980386643957
          ],
          [
            23.854274684788003,
            -105.98616141308504
          ],
          [
            23.762018384260294,
            -105.52479571726131
          ],
          [
            23.76203051669652,
            -105.15570677896835
          ],
          [
            23.57750578320488,
            -104.60206432561384
          ],
          [
            23.392981049713242,
            -104.04842187225931
          ],
          [
            23.48526464822245,
            -103.67933745692389
          ]
        ]
      },
      "properties": {
        "type": "variant",
        "id": 1,
        "color": "#ff4444",
        "vzdal_m": 1239,
        "prevyseni_m": 0,
        "cas_s": 283,
        "tempo_str": "3:48"
      }
    },
    {
      "type": "Feature",
      "geometry": {
        "type": "LineString",
        "coordinates": [
          [
            32.52725260223674,
            -122.41104432513069
          ],
          [
            31.973617739580718,
            -122.5955616565319
          ],
          [
            31.604531875288775,
            -122.59554356470173
          ],
          [
            31.143177578032905,
            -122.50324871534077
          ],
          [
            30.68182328077703,
            -122.41095386597982
          ],
          [
            30.312746515812258,
            -122.13411907042992
          ],
          [
            30.220478082848327,
            -122.04184231289915
          ],
          [
            30.035941216920467,
            -121.85728879783758
          ],
          [
            29.574580853446484,
            -121.9495384176231
          ],
          [
            29.113226556190607,
            -121.85724356826216
          ],
          [
            28.559609892188917,
            -121.48812749222394
          ],
          [
            28.28281672573335,
            -120.84220828133863
          ],
          [
            28.190560425205646,
            -120.38084258551488
          ],
          [
            27.913767258750077,
            -119.73492337462959
          ],
          [
            27.729239492149386,
            -119.2735531558483
          ],
          [
            27.91380062294969,
            -118.71992879432395
          ],
          [
            28.098352654422825,
            -118.44312113651932
          ],
          [
            28.098364786859047,
            -118.07403219822636
          ],
          [
            27.821571620403482,
            -117.42811298734107
          ],
          [
            27.729315319875774,
            -116.96674729151732
          ],
          [
            27.544790586384135,
            -116.4131048381628
          ],
          [
            27.45253428585643,
            -115.95173914233906
          ],
          [
            27.26800955236479,
            -115.39809668898454
          ],
          [
            26.898947952945296,
            -114.65990072056844
          ],
          [
            26.71442321945366,
            -114.10625826721392
          ],
          [
            26.714435351889882,
            -113.73716932892097
          ],
          [
            26.806721983508144,
            -113.27581267901233
          ],
          [
            26.806740182162482,
            -112.72217927157288
          ],
          [
            26.806752314598704,
            -112.35309033327994
          ],
          [
            26.714496014070992,
            -111.89172463745618
          ],
          [
            26.622239713543287,
            -111.43035894163245
          ],
          [
            26.529977346797466,
            -111.15353771495518
          ],
          [
            26.437711946942596,
            -110.96898872285117
          ],
          [
            26.068644281304987,
            -110.41533722358156
          ],
          [
            25.79185111484942,
            -109.76941801269625
          ],
          [
            25.699594814321713,
            -109.30805231687252
          ],
          [
            25.422798614757088,
            -108.75440534056045
          ],
          [
            25.053730949119483,
            -108.20075384129085
          ],
          [
            24.59238271808172,
            -107.9239145227834
          ],
          [
            24.03876605408003,
            -107.5547984467452
          ],
          [
            24.03877818651625,
            -107.18570950845225
          ],
          [
            24.038790318952476,
            -106.81662057015929
          ],
          [
            23.946534018424764,
            -106.35525487433553
          ],
          [
            23.85427771789706,
            -105.8938891785118
          ],
          [
            23.762021417369347,
            -105.43252348268807
          ],
          [
            23.76203354980557,
            -105.06343454439512
          ],
          [
            23.485240383350007,
            -104.4175153335098
          ],
          [
            23.3929840828223,
            -103.95614963768607
          ],
          [
            23.48526464822245,
            -103.67933745692389
          ]
        ]
      },
      "properties": {
        "type": "variant",
        "id": 2,
        "color": "#4444ff",
        "vzdal_m": 1287,
        "prevyseni_m": 0,
        "cas_s": 282,
        "tempo_str": "3:38"
      }
    },
    {
      "type": "Feature",
      "geometry": {
        "type": "LineString",
        "coordinates": [
          [
            32.52725260223674,
            -122.41104432513069
          ],
          [
            32.89635363207396,
            -121.94970124409465
          ],
          [
            32.988640263692226,
            -121.488344594186
          ],
          [
            33.17320139449253,
            -120.93472023266166
          ],
          [
            33.265488026110795,
            -120.473363582753
          ],
          [
            33.26550015854702,
            -120.10427464446005
          ],
          [
            33.54233275542031,
            -119.55065480589323
          ],
          [
            33.54234488785653,
            -119.18156586760027
          ],
          [
            33.542357020292755,
            -118.81247692930732
          ],
          [
            33.54236915272898,
            -118.44338799101436
          ],
          [
            33.5423812851652,
            -118.0742990527214
          ],
          [
            33.357856551673564,
            -117.52065659936689
          ],
          [
            32.98879191914501,
            -116.87473286552405
          ],
          [
            32.342903789070334,
            -116.50561226652829
          ],
          [
            31.881558591141626,
            -116.1365007134476
          ],
          [
            31.97384522275989,
            -115.67514406353897
          ],
          [
            31.697049023195266,
            -115.1214970872269
          ],
          [
            31.32797529133955,
            -114.75239005710377
          ],
          [
            30.95890762570194,
            -114.19873855783415
          ],
          [
            30.497568493991345,
            -113.645082535607
          ],
          [
            30.313043760499706,
            -113.09144008225248
          ],
          [
            30.589879390482057,
            -112.44554800911243
          ],
          [
            30.589891522918276,
            -112.07645907081947
          ],
          [
            30.589903655354497,
            -111.70737013252652
          ],
          [
            30.31310745578988,
            -111.15372315621445
          ],
          [
            29.94403675704321,
            -110.69234389151808
          ],
          [
            29.574972124514662,
            -110.04642015767524
          ],
          [
            29.20591052509516,
            -109.30822418925916
          ],
          [
            28.836842859457555,
            -108.75457268998954
          ],
          [
            28.467778226929003,
            -108.10864895614671
          ],
          [
            28.098716627509503,
            -107.37045298773062
          ],
          [
            27.45282849743483,
            -107.00133238873487
          ],
          [
            26.99147723328801,
            -106.81676530480067
          ],
          [
            26.345567871449944,
            -107.09355034781758
          ],
          [
            25.976482007158,
            -107.09353225598741
          ],
          [
            25.515136809229297,
            -106.72442070290674
          ],
          [
            24.961520145227606,
            -106.35530462686852
          ],
          [
            24.31563201515293,
            -105.98618402787275
          ],
          [
            23.94655828329721,
            -105.61707699774962
          ],
          [
            23.76203354980557,
            -105.06343454439512
          ],
          [
            23.485240383350007,
            -104.4175153335098
          ],
          [
            23.3929840828223,
            -103.95614963768607
          ],
          [
            23.48526464822245,
            -103.67933745692389
          ]
        ]
      },
      "properties": {
        "type": "variant",
        "id": 3,
        "color": "#44ff44",
        "vzdal_m": 1309,
        "prevyseni_m": 10,
        "cas_s": 282,
        "tempo_str": "3:35"
      }
    }
  ]
}