{
  "type": "FeatureCollection",
  "features": [
    {
      "type": "Feature",
      "geometry": {
        "type": "Point",
        "coordinates": [
          30.830532384561106,
          -114.44829795744032
        ]
      },
      "properties": {
        "type": "start",
        "isom": "204"
      }
    },
    {
      "type": "Feature",
      "geometry": {
        "type": "Point",
        "coordinates": [
          27.817687109172912,
          -91.91157963892536
        ]
      },
      "properties": {
        "type": "end",
        "isom": "109"
      }
    },
    {
      "type": "Feature",
      "geometry": {
        "type": "LineString",
        "coordinates": [
          [
            30.836120876933165,
            -114.47776499552087
          ],
          [
            31.020682007733438,
            -113.92414063395891
          ],
          [
            31.11296863935168,
            -113.4627839838727
          ],
          [
            31.29752977015196,
            -112.90915962231075
          ],
          [
            31.297541902588172,
            -112.54007068370025
          ],
          [
            31.297554035024387,
            -112.17098174508975
          ],
          [
            31.297566167460605,
            -111.80189280647924
          ],
          [
            31.297578299896816,
            -111.43280386786876
          ],
          [
            31.297590432333028,
            -111.06371492925825
          ],
          [
            31.297602564769242,
            -110.69462599064775
          ],
          [
            31.297614697205457,
            -110.32553705203725
          ],
          [
            31.297626829641672,
            -109.95644811342675
          ],
          [
            31.297638962077883,
            -109.58735917481624
          ],
          [
            31.2976510945141,
            -109.21827023620574
          ],
          [
            31.297663226950313,
            -108.84918129759524
          ],
          [
            31.297675359386528,
            -108.48009235898473
          ],
          [
            31.297687491822746,
            -108.11100342037423
          ],
          [
            31.297699624258957,
            -107.74191448176373
          ],
          [
            31.29771175669517,
            -107.37282554315323
          ],
          [
            31.297723889131387,
            -107.00373660454274
          ],
          [
            31.297736021567598,
            -106.63464766593223
          ],
          [
            31.02094285511204,
            -105.98872845383313
          ],
          [
            30.836418121620408,
            -105.43508599956358
          ],
          [
            30.836430254056623,
            -105.06599706095308
          ],
          [
            30.83644238649284,
            -104.69690812234258
          ],
          [
            30.651917653001203,
            -104.14326566807301
          ],
          [
            30.65192978543742,
            -103.77417672946251
          ],
          [
            30.651941917873632,
            -103.40508779085201
          ],
          [
            30.651954050309847,
            -103.0359988522415
          ],
          [
            30.651960116527956,
            -102.85145438293625
          ],
          [
            30.559703816000244,
            -102.39008868649623
          ],
          [
            30.190642216580766,
            -101.65189271656759
          ],
          [
            29.821580617161285,
            -100.91369674663898
          ],
          [
            29.452519017741803,
            -100.17550077671034
          ],
          [
            29.26799428425017,
            -99.62185832244077
          ],
          [
            28.89892965172164,
            -98.97593458716479
          ],
          [
            28.991216283339885,
            -98.51457793707857
          ],
          [
            28.991228415776096,
            -98.14548899846807
          ],
          [
            28.991240548212314,
            -97.77640005985756
          ],
          [
            28.991252680648525,
            -97.40731112124706
          ],
          [
            28.714459514192967,
            -96.76139190914796
          ],
          [
            28.529934780701335,
            -96.2077494548784
          ],
          [
            28.62222141231958,
            -95.74639280479217
          ],
          [
            28.622233544755797,
            -95.37730386618166
          ],
          [
            28.62224567719201,
            -95.00821492757117
          ],
          [
            28.345452510736457,
            -94.36229571547207
          ],
          [
            28.068659344280896,
            -93.71637650337297
          ],
          [
            28.06867147671711,
            -93.34728756476247
          ],
          [
            28.06868360915333,
            -92.97819862615196
          ],
          [
            28.06869574158954,
            -92.60910968754146
          ],
          [
            27.97643944106183,
            -92.14774399110144
          ],
          [
            27.791905608243038,
            -91.87091824078975
          ]
        ]
      },
      "properties": {
        "type": "variant",
        "id": 1,
        "color": "#ff4444",
        "vzdal_m": 1272,
        "prevyseni_m": 5,
        "cas_s": 329,
        "tempo_str": "4:18"
      }
    },
    {
      "type": "Feature",
      "geometry": {
        "type": "LineString",
        "coordinates": [
          [
            30.836120876933165,
            -114.47776499552087
          ],
          [
            30.743864576405453,
            -114.01639929908083
          ],
          [
            30.559339842913822,
            -113.46275684481127
          ],
          [
            30.559358041568146,
            -112.90912343689551
          ],
          [
            30.467101741040434,
            -112.44775774045549
          ],
          [
            30.46711387347665,
            -112.07866880184498
          ],
          [
            30.46712600591286,
            -111.70957986323448
          ],
          [
            30.28260127242123,
            -111.1559374089649
          ],
          [
            29.913539673001747,
            -110.41774143903629
          ],
          [
            29.54447807358227,
            -109.67954546910767
          ],
          [
            29.175416474162787,
            -108.94134949917903
          ],
          [
            29.08316017363508,
            -108.47998380273901
          ],
          [
            28.990903873107367,
            -108.01861810629897
          ],
          [
            28.990916005543585,
            -107.64952916768848
          ],
          [
            28.990928137979797,
            -107.28044022907798
          ],
          [
            28.99094027041601,
            -106.91135129046748
          ],
          [
            28.99095240285223,
            -106.54226235185698
          ],
          [
            28.80642766936059,
            -105.98861989758741
          ],
          [
            28.62190293586896,
            -105.43497744331783
          ],
          [
            28.52964663534125,
            -104.97361174687781
          ],
          [
            28.529658767777462,
            -104.6045228082673
          ],
          [
            28.52967090021368,
            -104.2354338696568
          ],
          [
            28.529683032649892,
            -103.8663449310463
          ],
          [
            28.529695165086107,
            -103.4972559924358
          ],
          [
            28.529707297522325,
            -103.1281670538253
          ],
          [
            28.529719429958536,
            -102.75907811521479
          ],
          [
            28.529731562394748,
            -102.38998917660429
          ],
          [
            28.529743694830966,
            -102.02090023799379
          ],
          [
            28.52975582726718,
            -101.65181129938328
          ],
          [
            28.529767959703392,
            -101.28272236077278
          ],
          [
            28.43750255984852,
            -101.09817336829063
          ],
          [
            28.160709393392967,
            -100.45225415619154
          ],
          [
            27.88391622693741,
            -99.80633494409244
          ],
          [
            27.883928359373623,
            -99.43724600548194
          ],
          [
            27.79167205884591,
            -98.97588030904191
          ],
          [
            27.51487889239036,
            -98.32996109694281
          ],
          [
            27.51489102482657,
            -97.96087215833231
          ],
          [
            27.51490315726279,
            -97.5917832197218
          ],
          [
            27.514915289699,
            -97.2226942811113
          ],
          [
            27.514927422135216,
            -96.8536053425008
          ],
          [
            27.514939554571427,
            -96.4845164038903
          ],
          [
            27.514951687007645,
            -96.1154274652798
          ],
          [
            27.514963819443857,
            -95.7463385266693
          ],
          [
            27.514975951880068,
            -95.3772495880588
          ],
          [
            27.514988084316286,
            -95.0081606494483
          ],
          [
            27.5150002167525,
            -94.6390717108378
          ],
          [
            27.515012349188712,
            -94.2699827722273
          ],
          [
            27.51502448162493,
            -93.90089383361679
          ],
          [
            27.51503661406114,
            -93.53180489500629
          ],
          [
            27.515048746497357,
            -93.16271595639579
          ],
          [
            27.515060878933568,
            -92.79362701778528
          ],
          [
            27.515073011369786,
            -92.42453807917478
          ],
          [
            27.791905608243038,
            -91.87091824078975
          ]
        ]
      },
      "properties": {
        "type": "variant",
        "id": 2,
        "color": "#4444ff",
        "vzdal_m": 1263,
        "prevyseni_m": 0,
        "cas_s": 336,
        "tempo_str": "4:26"
      }
    },
    {
      "type": "Feature",
      "geometry": {
        "type": "LineString",
        "coordinates": [
          [
            30.836120876933165,
            -114.47776499552087
          ],
          [
            31.020682007733438,
            -113.92414063395891
          ],
          [
            31.205243138533714,
            -113.37051627239697
          ],
          [
            31.574350234588998,
            -112.72462872253622
          ],
          [
            31.94346036375333,
            -111.98646893802284
          ],
          [
            32.22029599373564,
            -111.34057686498518
          ],
          [
            32.31258262535388,
            -110.87922021489896
          ],
          [
            32.40486925697213,
            -110.41786356481275
          ],
          [
            32.49715588859037,
            -109.95650691472652
          ],
          [
            32.49716802102658,
            -109.58741797611603
          ],
          [
            32.681729151826865,
            -109.03379361455409
          ],
          [
            32.681741284263076,
            -108.66470467594358
          ],
          [
            32.68175341669929,
            -108.29561573733308
          ],
          [
            32.681765549135505,
            -107.92652679872258
          ],
          [
            32.68177768157172,
            -107.55743786011207
          ],
          [
            32.681789814007935,
            -107.18834892150157
          ],
          [
            32.681801946444146,
            -106.81925998289108
          ],
          [
            32.681814078880365,
            -106.45017104428058
          ],
          [
            32.77410071049861,
            -105.98881439419434
          ],
          [
            32.95866184129888,
            -105.43519003263239
          ],
          [
            32.86640554077117,
            -104.97382433619237
          ],
          [
            32.86642373942549,
            -104.42019092827661
          ],
          [
            32.86643587186171,
            -104.05110198966611
          ],
          [
            32.958722503479954,
            -103.58974533957989
          ],
          [
            33.0510091350982,
            -103.12838868949368
          ],
          [
            33.14329576671644,
            -102.66703203940745
          ],
          [
            32.95877103322481,
            -102.11338958513788
          ],
          [
            32.8665147326971,
            -101.65202388869785
          ],
          [
            32.86652686513331,
            -101.28293495008735
          ],
          [
            32.68200213164168,
            -100.7292924958178
          ],
          [
            32.68201426407789,
            -100.3602035572073
          ],
          [
            32.68202639651411,
            -99.9911146185968
          ],
          [
            32.68203852895032,
            -99.6220256799863
          ],
          [
            32.589782228422614,
            -99.16065998354627
          ],
          [
            32.22072062900313,
            -98.42246401361763
          ],
          [
            31.851655996474598,
            -97.77654027834161
          ],
          [
            31.574856763800938,
            -97.31516553554779
          ],
          [
            31.205783031945245,
            -96.94605850422965
          ],
          [
            30.8367123331986,
            -96.48467923825892
          ],
          [
            30.467644667561014,
            -95.93102773763553
          ],
          [
            30.09857396881437,
            -95.46964847166478
          ],
          [
            29.82178080235882,
            -94.8237292595657
          ],
          [
            29.45271920293934,
            -94.08553328963706
          ],
          [
            29.083654570410808,
            -93.43960955436106
          ],
          [
            28.714592970991326,
            -92.70141358443243
          ],
          [
            28.345519239135633,
            -92.33230655311431
          ],
          [
            27.88417404120696,
            -91.96319499861927
          ],
          [
            27.791905608243038,
            -91.87091824078975
          ]
        ]
      },
      "properties": {
        "type": "variant",
        "id": 3,
        "color": "#44ff44",
        "vzdal_m": 1336,
        "prevyseni_m": 10,
        "cas_s": 338,
        "tempo_str": "4:13"
      }
    }
  ]
}