{
  "type": "FeatureCollection",
  "features": [
    {
      "type": "Feature",
      "geometry": {
        "type": "Point",
        "coordinates": [
          89.06425508596963,
          -219.8545195450935
        ]
      },
      "properties": {
        "type": "start",
        "isom": "419"
      }
    },
    {
      "type": "Feature",
      "geometry": {
        "type": "Point",
        "coordinates": [
          115.61508185178084,
          -166.84985123155508
        ]
      },
      "properties": {
        "type": "end",
        "isom": "417"
      }
    },
    {
      "type": "Feature",
      "geometry": {
        "type": "LineString",
        "coordinates": [
          [
            89.1381798220768,
            -219.8174935728323
          ],
          [
            89.13819802073112,
            -219.26386016539286
          ],
          [
            89.87642434527802,
            -217.6029961267349
          ],
          [
            90.43010167146083,
            -216.1266675113083
          ],
          [
            90.98377899764363,
            -214.65033889588176
          ],
          [
            91.7219931897543,
            -213.35856379551674
          ],
          [
            91.90657251920894,
            -212.25130602655298
          ],
          [
            91.7220538519354,
            -211.51311910405195
          ],
          [
            91.90662104895382,
            -210.77495027338117
          ],
          [
            91.90664531382626,
            -210.03677239679524
          ],
          [
            91.9066635124806,
            -209.4831389893558
          ],
          [
            92.27579184029932,
            -208.19134579716064
          ],
          [
            92.82946916648213,
            -206.71501718173405
          ],
          [
            93.93676315666661,
            -205.6078046423457
          ],
          [
            94.67496521634106,
            -204.68511848027364
          ],
          [
            95.4131733422336,
            -203.57788784905512
          ],
          [
            95.59771627437958,
            -203.5778968949702
          ],
          [
            96.33592440027213,
            -202.47066626375167
          ],
          [
            97.07412645994657,
            -201.54798010167966
          ],
          [
            97.62779771991127,
            -200.25619595539953
          ],
          [
            98.550560910386,
            -198.77988543180314
          ],
          [
            98.55058517525846,
            -198.04170755521722
          ],
          [
            98.73515843849498,
            -197.11899425539994
          ],
          [
            99.47337869682376,
            -195.64267468588844
          ],
          [
            100.2115807564982,
            -194.7199885238164
          ],
          [
            101.13431968210051,
            -193.9818558768059
          ],
          [
            101.31886868046459,
            -193.79732045357454
          ],
          [
            102.05708893879337,
            -192.32100088406307
          ],
          [
            102.24164400337554,
            -191.95192099168517
          ],
          [
            102.42619906795774,
            -191.58284109930727
          ],
          [
            103.1644071938503,
            -190.47561046808877
          ],
          [
            103.90260318730664,
            -189.73746877516322
          ],
          [
            104.45625624861698,
            -188.99931803632256
          ],
          [
            104.64081131319918,
            -188.63023814394467
          ],
          [
            105.00993357479979,
            -187.52298942089598
          ],
          [
            105.37904370396417,
            -186.78482963614024
          ],
          [
            106.11725789607485,
            -185.49305453577523
          ],
          [
            106.67092915603955,
            -184.20127038949514
          ],
          [
            106.85548422062172,
            -183.83219049711724
          ],
          [
            107.04005748385826,
            -182.90947719729994
          ],
          [
            107.77827167596892,
            -181.61770209693495
          ],
          [
            108.51648586807958,
            -180.32592699656993
          ],
          [
            109.07016319426239,
            -178.84959838114338
          ],
          [
            109.07016926048048,
            -178.6650539119969
          ],
          [
            110.36199405037475,
            -177.9269393568166
          ],
          [
            110.73109811332101,
            -177.37332404120733
          ],
          [
            110.91564711168509,
            -177.18878861797592
          ],
          [
            111.4693244378679,
            -175.71246000254936
          ],
          [
            112.02299569783258,
            -174.42067585626927
          ],
          [
            112.57667302401539,
            -172.9443472408427
          ],
          [
            113.31488721612605,
            -171.6525721404777
          ],
          [
            114.05310140823671,
            -170.3607970401127
          ],
          [
            114.42222973605544,
            -169.06900384791751
          ],
          [
            114.97590706223825,
            -167.59267523249093
          ],
          [
            115.52956012354862,
            -166.8545244936503
          ]
        ]
      },
      "properties": {
        "type": "variant",
        "id": 1,
        "color": "#ff4444",
        "vzdal_m": 1645,
        "prevyseni_m": 42,
        "cas_s": 505,
        "tempo_str": "5:06"
      }
    },
    {
      "type": "Feature",
      "geometry": {
        "type": "LineString",
        "coordinates": [
          [
            89.1381798220768,
            -219.8174935728323
          ],
          [
            89.13819802073112,
            -219.26386016539286
          ],
          [
            89.50732634854985,
            -217.97206697319768
          ],
          [
            90.06100367473266,
            -216.4957383577711
          ],
          [
            90.06103400582322,
            -215.5730160120387
          ],
          [
            90.06105827069567,
            -214.8348381354528
          ],
          [
            90.06107646935,
            -214.28120472801334
          ],
          [
            89.87654566964024,
            -213.91210674380534
          ],
          [
            89.87656993451269,
            -213.17392886721942
          ],
          [
            89.69205126723917,
            -212.43574194471842
          ],
          [
            90.06116746262167,
            -211.51303769081616
          ],
          [
            90.0611917274941,
            -210.77485981423027
          ],
          [
            90.24575892451253,
            -210.03669098355945
          ],
          [
            90.061240257239,
            -209.29850406105842
          ],
          [
            90.06126452211144,
            -208.56032618447253
          ],
          [
            89.8767458548379,
            -207.82213926197153
          ],
          [
            90.24586205022041,
            -206.89943500806933
          ],
          [
            90.24588631509286,
            -206.1612571314834
          ],
          [
            90.43045351211127,
            -205.42308830081257
          ],
          [
            90.24593484483775,
            -204.6849013783116
          ],
          [
            90.2459591097102,
            -203.94672350172567
          ],
          [
            90.06144044243668,
            -203.20853657922464
          ],
          [
            90.24600763945509,
            -202.47036774855383
          ],
          [
            90.24603190432752,
            -201.73218987196793
          ],
          [
            90.24605010298187,
            -201.1785564645285
          ],
          [
            90.79972742916466,
            -199.70222784910192
          ],
          [
            90.5528031908881,
            -198.91433866014205
          ],
          [
            91.3534168877837,
            -197.85681029538236
          ],
          [
            91.53797195236588,
            -197.48773040300452
          ],
          [
            91.72252701694808,
            -197.11865051062662
          ],
          [
            91.90708814774838,
            -196.56502614910232
          ],
          [
            92.09164321233058,
            -196.19594625672443
          ],
          [
            92.46076547393119,
            -195.08869753367574
          ],
          [
            93.19898573225996,
            -193.61237796416427
          ],
          [
            93.75265092600655,
            -192.50513828703063
          ],
          [
            93.93720599058874,
            -192.1360583946528
          ],
          [
            94.12176712138904,
            -191.5824340331284
          ],
          [
            94.49088938298965,
            -190.47518531007972
          ],
          [
            95.22909750888222,
            -189.36795467886122
          ],
          [
            95.96729350233853,
            -188.62981298593562
          ],
          [
            96.70548949579485,
            -187.89167129301003
          ],
          [
            97.25914255710522,
            -187.1535205541694
          ],
          [
            97.44369762168742,
            -186.7844406617915
          ],
          [
            97.62824662005148,
            -186.59990523856013
          ],
          [
            98.36646687838027,
            -185.12358566904865
          ],
          [
            98.92011993969064,
            -184.38543493020796
          ],
          [
            99.10467500427283,
            -184.0163550378301
          ],
          [
            99.8428891963835,
            -182.7245799374651
          ],
          [
            100.58109732227605,
            -181.61734930624658
          ],
          [
            101.6883731138062,
            -181.06377017429767
          ],
          [
            102.61111203940851,
            -180.3256375272872
          ],
          [
            103.53387522988325,
            -178.8493270036908
          ],
          [
            104.08754648984795,
            -177.55754285741068
          ],
          [
            104.82574854952239,
            -176.63485669533864
          ],
          [
            105.01030361410459,
            -176.26577680296077
          ],
          [
            105.56397487406927,
            -174.97399265668068
          ],
          [
            106.30218906617993,
            -173.6822175563157
          ],
          [
            107.22492192556412,
            -173.12862937845168
          ],
          [
            107.96312398523857,
            -172.20594321637964
          ],
          [
            108.51677704654892,
            -171.46779247753898
          ],
          [
            109.6240589042972,
            -170.72966887644358
          ],
          [
            110.54679176368138,
            -170.1760806985796
          ],
          [
            111.46953675550178,
            -169.2534035824226
          ],
          [
            112.02318981681215,
            -168.51525284358198
          ],
          [
            113.68410047099833,
            -167.77715638023182
          ],
          [
            115.16046212682045,
            -167.22359534011306
          ],
          [
            115.52956012354862,
            -166.8545244936503
          ]
        ]
      },
      "properties": {
        "type": "variant",
        "id": 2,
        "color": "#4444ff",
        "vzdal_m": 1721,
        "prevyseni_m": 39,
        "cas_s": 523,
        "tempo_str": "5:04"
      }
    },
    {
      "type": "Feature",
      "geometry": {
        "type": "LineString",
        "coordinates": [
          [
            89.1381798220768,
            -219.8174935728323
          ],
          [
            89.87638794796935,
            -218.71026294161376
          ],
          [
            90.6145960738619,
            -217.60303231039526
          ],
          [
            91.16824913517226,
            -216.86488157155458
          ],
          [
            92.09098806077456,
            -216.1267489245441
          ],
          [
            93.19826385230472,
            -215.5731697925952
          ],
          [
            93.93646591197916,
            -214.65048363052315
          ],
          [
            94.49012503950762,
            -213.727788422536
          ],
          [
            95.41286396510993,
            -212.98965577552553
          ],
          [
            96.15105389234814,
            -212.43605855174644
          ],
          [
            96.8892559520226,
            -211.51337238967437
          ],
          [
            97.62745194547892,
            -210.77523069674882
          ],
          [
            99.28836259966512,
            -210.0371342333987
          ],
          [
            100.21109545904929,
            -209.48354605553467
          ],
          [
            100.94929751872375,
            -208.56085989346263
          ],
          [
            101.87203644432604,
            -207.82272724645213
          ],
          [
            103.16386730043838,
            -206.90006822212536
          ],
          [
            103.90206329389473,
            -206.1619265291998
          ],
          [
            104.64026535356916,
            -205.23924036712776
          ],
          [
            105.19391841487953,
            -204.5010896282871
          ],
          [
            106.11666340669994,
            -203.57841251213011
          ],
          [
            106.85488366502872,
            -202.10209294261867
          ],
          [
            106.85490792990115,
            -201.36391506603275
          ],
          [
            106.85491399611927,
            -201.17937059688626
          ],
          [
            107.03946906070146,
            -200.8102907045084
          ],
          [
            107.40858525608395,
            -199.88758645060616
          ],
          [
            107.59314032066615,
            -199.51850655822827
          ],
          [
            107.77769538524835,
            -199.14942666585043
          ],
          [
            108.33136664521305,
            -197.85764251957033
          ],
          [
            108.88502577274151,
            -196.9349473115832
          ],
          [
            109.62323996485217,
            -195.6431722112182
          ],
          [
            109.80779502943437,
            -195.27409231884033
          ],
          [
            110.36146022318096,
            -194.16685264170673
          ],
          [
            110.36148448805339,
            -193.4286747651208
          ],
          [
            110.54605168507182,
            -192.69050593444996
          ],
          [
            110.36153301779828,
            -191.952319011949
          ],
          [
            110.36155728267073,
            -191.21414113536306
          ],
          [
            110.1770386153972,
            -190.47595421286204
          ],
          [
            110.36160581241563,
            -189.73778538219122
          ],
          [
            110.36163007728805,
            -188.99960750560533
          ],
          [
            110.3616482759424,
            -188.44597409816586
          ],
          [
            110.73077660376113,
            -187.1541809059707
          ],
          [
            111.28445392994394,
            -185.6778522905441
          ],
          [
            111.8381191236905,
            -184.5706126134105
          ],
          [
            112.20723531907299,
            -183.64790835950828
          ],
          [
            112.9454616436199,
            -181.98704432085032
          ],
          [
            112.76094297634636,
            -181.24885739834932
          ],
          [
            113.13005917172887,
            -180.32615314444712
          ],
          [
            113.49916930089324,
            -179.58799335969135
          ],
          [
            113.49918749954759,
            -179.03435995225192
          ],
          [
            113.68376682900222,
            -177.92710218328813
          ],
          [
            113.68379109387466,
            -177.18892430670223
          ],
          [
            113.68382142496523,
            -176.26620196096982
          ],
          [
            113.86838862198364,
            -175.528033130299
          ],
          [
            113.86841288685609,
            -174.78985525371309
          ],
          [
            114.0529800838745,
            -174.05168642304227
          ],
          [
            113.86846141660097,
            -173.31349950054127
          ],
          [
            113.86848568147342,
            -172.57532162395535
          ],
          [
            113.68396701419988,
            -171.83713470145435
          ],
          [
            113.86853421121832,
            -171.09896587078353
          ],
          [
            114.05310747445483,
            -170.17625257096623
          ],
          [
            114.42222366983732,
            -169.253548317064
          ],
          [
            115.16044999438421,
            -167.59268427840604
          ],
          [
            115.52956012354862,
            -166.8545244936503
          ]
        ]
      },
      "properties": {
        "type": "variant",
        "id": 3,
        "color": "#44ff44",
        "vzdal_m": 1703,
        "prevyseni_m": 44,
        "cas_s": 533,
        "tempo_str": "5:12"
      }
    }
  ]
}