{
  "type": "FeatureCollection",
  "features": [
    {
      "type": "Feature",
      "geometry": {
        "type": "Point",
        "coordinates": [
          152.33121377583313,
          -138.05791559140488
        ]
      },
      "properties": {
        "type": "start",
        "isom": "109"
      }
    },
    {
      "type": "Feature",
      "geometry": {
        "type": "Point",
        "coordinates": [
          179.92993658921603,
          -105.64550872199662
        ]
      },
      "properties": {
        "type": "end",
        "isom": "204"
      }
    },
    {
      "type": "Feature",
      "geometry": {
        "type": "LineString",
        "coordinates": [
          [
            152.25454995062222,
            -138.06738744390185
          ],
          [
            152.99273381164235,
            -137.69833468926922
          ],
          [
            153.36182574215238,
            -137.5138083119529
          ],
          [
            154.65365053204664,
            -136.7756937567726
          ],
          [
            155.39184045928485,
            -136.2220965329935
          ],
          [
            155.57639552386703,
            -135.85301664061564
          ],
          [
            156.31459151732338,
            -135.11487494769008
          ],
          [
            157.0527875107797,
            -134.3767332547645
          ],
          [
            157.79098957045414,
            -133.45404709269246
          ],
          [
            158.8982714282024,
            -132.71592349159707
          ],
          [
            160.37463915024261,
            -131.97781798233186
          ],
          [
            161.66646394013688,
            -131.23970342715154
          ],
          [
            162.22012913388346,
            -130.1324637500179
          ],
          [
            162.40468419846565,
            -129.76338385764004
          ],
          [
            162.58923319682972,
            -129.57884843440866
          ],
          [
            162.7737882614119,
            -129.2097685420308
          ],
          [
            163.51198425486825,
            -128.4716268491052
          ],
          [
            164.61926611261651,
            -127.73350324800981
          ],
          [
            165.35746817229096,
            -126.81081708593777
          ],
          [
            166.09565809952917,
            -126.25721986215868
          ],
          [
            166.83386622542173,
            -125.14998923094016
          ],
          [
            167.57206221887807,
            -124.41184753801458
          ],
          [
            168.49480114448036,
            -123.67371489100412
          ],
          [
            168.86389914120855,
            -123.30464404454132
          ],
          [
            169.2329910717186,
            -123.12011766722502
          ],
          [
            169.60209513466486,
            -122.56650235161577
          ],
          [
            169.78665019924705,
            -122.1974224592379
          ],
          [
            169.7866623316833,
            -121.82833352094494
          ],
          [
            169.97121739626547,
            -121.45925362856705
          ],
          [
            170.15577246084766,
            -121.09017373618919
          ],
          [
            170.8939805867402,
            -119.98294310497067
          ],
          [
            171.63217658019656,
            -119.24480141204509
          ],
          [
            172.37037863987098,
            -118.32211524997305
          ],
          [
            173.1085746333273,
            -117.58397355704747
          ],
          [
            173.2931236316914,
            -117.39943813381609
          ],
          [
            173.47767869627359,
            -117.03035824143822
          ],
          [
            173.6622337608558,
            -116.66127834906035
          ],
          [
            174.2158746897299,
            -116.29221654851264
          ],
          [
            174.4004297543121,
            -115.92313665613477
          ],
          [
            174.9540949480587,
            -114.81589697900117
          ],
          [
            175.13864394642277,
            -114.63136155576979
          ],
          [
            175.32319901100496,
            -114.26228166339192
          ],
          [
            175.87684600609722,
            -113.70867539369772
          ],
          [
            176.13594725657435,
            -113.22104420845409
          ],
          [
            176.24596220147973,
            -112.7859711397955
          ],
          [
            176.4305172660619,
            -112.41689124741764
          ],
          [
            176.98416426115415,
            -111.86328497772345
          ],
          [
            177.16871932573636,
            -111.49420508534558
          ],
          [
            177.35326832410044,
            -111.3096696621142
          ],
          [
            177.53782338868263,
            -110.94058976973633
          ],
          [
            177.90694565028323,
            -109.83334104668764
          ],
          [
            178.64516590861203,
            -108.35702147717615
          ],
          [
            179.19883716857672,
            -107.06523733089607
          ],
          [
            179.93705742690548,
            -105.58891776138456
          ]
        ]
      },
      "properties": {
        "type": "variant",
        "id": 1,
        "color": "#ff4444",
        "vzdal_m": 1192,
        "prevyseni_m": 40,
        "cas_s": 402,
        "tempo_str": "5:37"
      }
    },
    {
      "type": "Feature",
      "geometry": {
        "type": "LineString",
        "coordinates": [
          [
            152.25454995062222,
            -138.06738744390185
          ],
          [
            152.99273381164235,
            -137.69833468926922
          ],
          [
            153.36182574215238,
            -137.5138083119529
          ],
          [
            154.46910759990067,
            -136.77568471085752
          ],
          [
            155.02277885986535,
            -135.48390056457743
          ],
          [
            155.76099911819412,
            -134.00758099506595
          ],
          [
            156.49919511165044,
            -133.2694393021404
          ],
          [
            157.237403237543,
            -132.16220867092184
          ],
          [
            157.97561136343558,
            -131.05497803970331
          ],
          [
            158.52928262340026,
            -129.76319389342325
          ],
          [
            158.71383768798245,
            -129.39411400104538
          ],
          [
            159.4520518800931,
            -128.10233890068037
          ],
          [
            159.45207614496556,
            -127.36416102409444
          ],
          [
            160.37482113678595,
            -126.4414839079375
          ],
          [
            161.1130171302423,
            -125.70334221501192
          ],
          [
            161.8512131236986,
            -124.96520052208636
          ],
          [
            162.58940911715493,
            -124.22705882916078
          ],
          [
            163.1430561122472,
            -123.67345255946661
          ],
          [
            164.6194238342874,
            -122.93534705020137
          ],
          [
            165.35761982774375,
            -122.19720535727582
          ],
          [
            166.09581582120006,
            -121.45906366435024
          ],
          [
            166.46491988414635,
            -120.90544834874098
          ],
          [
            167.38765274353054,
            -120.35186017087698
          ],
          [
            168.1258730018593,
            -118.8755406013655
          ],
          [
            168.67953819560591,
            -117.76830092423188
          ],
          [
            169.04863012611594,
            -117.58377454691558
          ],
          [
            169.97136905171826,
            -116.84564189990509
          ],
          [
            170.89410797732054,
            -116.10750925289462
          ],
          [
            171.63229183834065,
            -115.738456498262
          ],
          [
            171.81684690292286,
            -115.36937660588413
          ],
          [
            172.18596309830534,
            -114.44667235198192
          ],
          [
            172.37051816288755,
            -114.07759245960405
          ],
          [
            173.10873842121632,
            -112.60127289009256
          ],
          [
            173.84693441467263,
            -111.863131197167
          ],
          [
            174.21603241140082,
            -111.4940603507042
          ],
          [
            175.32330820293097,
            -110.9404812187553
          ],
          [
            175.69240013344103,
            -110.75595484143898
          ],
          [
            176.06149813016918,
            -110.3868839949762
          ],
          [
            176.24604712853326,
            -110.2023485717448
          ],
          [
            176.9842431219896,
            -109.46420687881923
          ],
          [
            177.72243911544595,
            -108.72606518589367
          ],
          [
            178.4606533075566,
            -107.43429008552866
          ],
          [
            179.19886143344914,
            -106.32705945431015
          ],
          [
            179.93705742690548,
            -105.58891776138456
          ]
        ]
      },
      "properties": {
        "type": "variant",
        "id": 2,
        "color": "#4444ff",
        "vzdal_m": 1192,
        "prevyseni_m": 46,
        "cas_s": 399,
        "tempo_str": "5:34"
      }
    },
    {
      "type": "Feature",
      "geometry": {
        "type": "LineString",
        "coordinates": [
          [
            152.25454995062222,
            -138.06738744390185
          ],
          [
            151.7009636177111,
            -136.77554902213123
          ],
          [
            151.8855368809476,
            -135.85283572231393
          ],
          [
            151.88556114582008,
            -135.114657845728
          ],
          [
            152.07011621040223,
            -134.74557795335014
          ],
          [
            152.07012834283847,
            -134.3764890150572
          ],
          [
            152.25468340742069,
            -134.00740912267932
          ],
          [
            152.2546955398569,
            -133.63832018438634
          ],
          [
            152.43925060443908,
            -133.2692402920085
          ],
          [
            152.4392566706572,
            -133.08469582286202
          ],
          [
            152.6238117352394,
            -132.71561593048412
          ],
          [
            152.6238238676756,
            -132.34652699219117
          ],
          [
            152.8083789322578,
            -131.9774470998133
          ],
          [
            152.99293399684,
            -131.60836720743544
          ],
          [
            153.17750119385843,
            -130.87019837676462
          ],
          [
            153.17751939251275,
            -130.31656496932519
          ],
          [
            153.36207445709496,
            -129.94748507694732
          ],
          [
            153.36208658953117,
            -129.57839613865434
          ],
          [
            153.54664165411336,
            -129.20931624627647
          ],
          [
            153.91576391571397,
            -128.10206752322776
          ],
          [
            153.91578818058642,
            -127.36388964664185
          ],
          [
            153.91579424680452,
            -127.17934517749538
          ],
          [
            154.10034931138674,
            -126.81026528511751
          ],
          [
            154.65402057135142,
            -125.51848113883743
          ],
          [
            155.39223476346208,
            -124.22670603847241
          ],
          [
            155.76133882640835,
            -123.67309072286315
          ],
          [
            156.31501008637304,
            -122.38130657658307
          ],
          [
            157.0532242784837,
            -121.08953147621806
          ],
          [
            157.79142027194004,
            -120.3513897832925
          ],
          [
            158.34508546568662,
            -119.24415010615888
          ],
          [
            158.52964053026884,
            -118.87507021378102
          ],
          [
            159.26783045750702,
            -118.32147299000191
          ],
          [
            159.45238552208923,
            -117.95239309762404
          ],
          [
            159.82147745259928,
            -117.76786672030774
          ],
          [
            160.55967951227373,
            -116.84518055823568
          ],
          [
            160.9288017738743,
            -115.737931835187
          ],
          [
            161.66699776733066,
            -114.99979014226143
          ],
          [
            162.58973669293295,
            -114.26165749525094
          ],
          [
            163.51247561853526,
            -113.52352484824046
          ],
          [
            164.4352266765738,
            -112.41630326293703
          ],
          [
            165.72705146646803,
            -111.67818870775672
          ],
          [
            167.01887019014416,
            -111.12461862172289
          ],
          [
            168.49523791218436,
            -110.38651311245766
          ],
          [
            169.60250763749642,
            -110.01747844965523
          ],
          [
            169.7870505696424,
            -110.01748749557032
          ],
          [
            170.15614250015244,
            -109.83296111825399
          ],
          [
            170.7097773628085,
            -109.64844378685278
          ],
          [
            171.63251022219265,
            -109.09485560898878
          ],
          [
            173.1088779442329,
            -108.35675009972356
          ],
          [
            174.03160473739894,
            -107.98770639100601
          ],
          [
            174.40069666790902,
            -107.80318001368973
          ],
          [
            175.69251539158515,
            -107.24960992765588
          ],
          [
            176.61523611853312,
            -107.06511068808486
          ],
          [
            177.90706090842735,
            -106.32699613290454
          ],
          [
            179.38342863046756,
            -105.5888906236393
          ],
          [
            179.93705742690548,
            -105.58891776138456
          ]
        ]
      },
      "properties": {
        "type": "variant",
        "id": 3,
        "color": "#44ff44",
        "vzdal_m": 1274,
        "prevyseni_m": 45,
        "cas_s": 414,
        "tempo_str": "5:24"
      }
    }
  ]
}