{
  "type": "FeatureCollection",
  "features": [
    {
      "type": "Feature",
      "geometry": {
        "type": "Point",
        "coordinates": [
          67.87234047362794,
          -103.77975252634772
        ]
      },
      "properties": {
        "type": "start",
        "isom": "204"
      }
    },
    {
      "type": "Feature",
      "geometry": {
        "type": "Point",
        "coordinates": [
          86.66628683107692,
          -100.91654364340236
        ]
      },
      "properties": {
        "type": "end",
        "isom": "109"
      }
    },
    {
      "type": "Feature",
      "geometry": {
        "type": "LineString",
        "coordinates": [
          [
            67.83733061284715,
            -103.77599956975548
          ],
          [
            68.20641647713906,
            -103.77601766246309
          ],
          [
            68.85230764032273,
            -104.0528660286593
          ],
          [
            69.40593037054249,
            -104.23743763702599
          ],
          [
            69.7750162348344,
            -104.23745572973361
          ],
          [
            70.1441020991263,
            -104.23747382244123
          ],
          [
            70.69774302800039,
            -103.86841202289216
          ],
          [
            71.16530158292453,
            -103.65487013988609
          ],
          [
            71.51830251312764,
            -103.73023501752327
          ],
          [
            72.08575667595335,
            -103.84927788516245
          ],
          [
            72.65334814933473,
            -103.9658000382735
          ],
          [
            73.00960779940709,
            -104.015629205667
          ],
          [
            73.28159125509849,
            -104.05026471976751
          ],
          [
            73.74269467292271,
            -104.07346599966434
          ],
          [
            74.11178053721463,
            -104.07348409237197
          ],
          [
            74.48086640150653,
            -104.07350218507958
          ],
          [
            74.85189190675925,
            -104.0801612627481
          ],
          [
            75.22065168679202,
            -104.09113908529683
          ],
          [
            75.58941146682481,
            -104.10211690784557
          ],
          [
            75.95868812962085,
            -104.12730315640718
          ],
          [
            76.32534383795884,
            -104.15716552775831
          ],
          [
            76.68009453905177,
            -104.2144671035374
          ],
          [
            77.13933694837195,
            -104.31628801167287
          ],
          [
            77.69626064575054,
            -104.47150433239793
          ],
          [
            78.2357341808825,
            -104.67534730869596
          ],
          [
            79.00214464347778,
            -104.79154145533992
          ],
          [
            79.55577950613375,
            -104.60702412509612
          ],
          [
            80.29396336715378,
            -104.23797137190085
          ],
          [
            81.03214722817381,
            -103.86891861870559
          ],
          [
            81.64105229535602,
            -103.55772303958913
          ],
          [
            82.41624348414089,
            -103.13080858913817
          ],
          [
            83.06215587908794,
            -102.76175131276602
          ],
          [
            83.61579680796203,
            -102.39268951321695
          ],
          [
            83.70807130714405,
            -102.30042180174122
          ],
          [
            84.26170920290907,
            -102.02363223684478
          ],
          [
            84.72306938241265,
            -101.93697930316132
          ],
          [
            85.09215476140712,
            -101.95176095341334
          ],
          [
            85.73806479251292,
            -101.65461566906478
          ],
          [
            86.291705721387,
            -101.28555386951571
          ],
          [
            86.66080371811512,
            -100.91648302361284
          ]
        ]
      },
      "properties": {
        "type": "variant",
        "id": 1,
        "color": "#ff4444",
        "vzdal_m": 1097,
        "prevyseni_m": 0,
        "cas_s": 270,
        "tempo_str": "4:06"
      }
    },
    {
      "type": "Feature",
      "geometry": {
        "type": "LineString",
        "coordinates": [
          [
            67.83733061284715,
            -103.77599956975548
          ],
          [
            68.20641647713906,
            -103.77601766246309
          ],
          [
            68.85230764032273,
            -104.0528660286593
          ],
          [
            69.40593037054249,
            -104.23743763702599
          ],
          [
            69.7750162348344,
            -104.23745572973361
          ],
          [
            70.1441020991263,
            -104.23747382244123
          ],
          [
            70.69774302800039,
            -103.86841202289216
          ],
          [
            71.16530158292453,
            -103.65487013988609
          ],
          [
            71.51830251312764,
            -103.73023501752327
          ],
          [
            72.08575667595335,
            -103.84927788516245
          ],
          [
            72.65334814933473,
            -103.9658000382735
          ],
          [
            73.00960779940709,
            -104.015629205667
          ],
          [
            73.37312399036814,
            -104.05849080266874
          ],
          [
            73.74269467292271,
            -104.07346599966434
          ],
          [
            74.11178053721463,
            -104.07348409237197
          ],
          [
            74.48086640150653,
            -104.07350218507958
          ],
          [
            74.84915199580621,
            -104.08007969675889
          ],
          [
            75.21791177583899,
            -104.09105751930761
          ],
          [
            75.58667155587176,
            -104.10203534185635
          ],
          [
            75.95122711230002,
            -104.12669549187387
          ],
          [
            76.60311988977996,
            -103.77642927156151
          ],
          [
            77.3413037508,
            -103.40737651836625
          ],
          [
            78.07948761182003,
            -103.03832376517099
          ],
          [
            78.633122474476,
            -102.85380643492718
          ],
          [
            79.0022083387679,
            -102.85382452763479
          ],
          [
            79.3712942030598,
            -102.85384262034242
          ],
          [
            80.05738332962618,
            -102.52806139114361
          ],
          [
            80.75538742591785,
            -102.20800482542762
          ],
          [
            81.49357128693788,
            -101.83895207223236
          ],
          [
            82.0472091827029,
            -101.56216250733593
          ],
          [
            82.4162950469948,
            -101.56218060004353
          ],
          [
            82.78538091128671,
            -101.56219869275117
          ],
          [
            83.15446677557861,
            -101.5622167854588
          ],
          [
            83.54880536213027,
            -101.49437485460676
          ],
          [
            83.89386214649276,
            -101.57020847206945
          ],
          [
            84.2054630020567,
            -101.63185248314642
          ],
          [
            84.90763373029235,
            -101.28548602186213
          ],
          [
            85.27671959458425,
            -101.28550411456975
          ],
          [
            85.64580545887617,
            -101.28552220727737
          ],
          [
            86.1071658223501,
            -101.19327258850926
          ],
          [
            86.66080371811512,
            -100.91648302361284
          ]
        ]
      },
      "properties": {
        "type": "variant",
        "id": 2,
        "color": "#4444ff",
        "vzdal_m": 1073,
        "prevyseni_m": 0,
        "cas_s": 265,
        "tempo_str": "4:07"
      }
    },
    {
      "type": "Feature",
      "geometry": {
        "type": "LineString",
        "coordinates": [
          [
            67.83733061284715,
            -103.77599956975548
          ],
          [
            68.29868491010299,
            -103.86829442029263
          ],
          [
            69.03684450625059,
            -104.23741954431837
          ],
          [
            69.68273566943427,
            -104.51426791051459
          ],
          [
            70.05182153372617,
            -104.51428600322221
          ],
          [
            70.44820884723885,
            -104.57472339589822
          ],
          [
            70.9906673936575,
            -104.95642824601002
          ],
          [
            71.50052023818279,
            -105.37648504672629
          ],
          [
            71.97130735370911,
            -105.66567000152524
          ],
          [
            72.46084002441225,
            -105.7594039687061
          ],
          [
            72.79973563384078,
            -105.67213348440546
          ],
          [
            73.2205907570623,
            -105.64501000379845
          ],
          [
            73.52364207263932,
            -105.78677371278127
          ],
          [
            74.11173267673756,
            -105.52947960418494
          ],
          [
            74.57309304021152,
            -105.43722998541683
          ],
          [
            74.94217890450342,
            -105.43724807812447
          ],
          [
            75.58808826634142,
            -105.16046303640492
          ],
          [
            75.95717413063332,
            -105.16048112911255
          ],
          [
            76.60308349247133,
            -104.883696087393
          ],
          [
            77.06444385594527,
            -104.7914464686249
          ],
          [
            77.43352972023717,
            -104.79146456133253
          ],
          [
            77.80261558452908,
            -104.79148265404017
          ],
          [
            78.26828779207247,
            -104.68879316822098
          ],
          [
            78.77047178295511,
            -104.95925984728325
          ],
          [
            79.27895904169671,
            -104.79155502487065
          ],
          [
            79.74031940517065,
            -104.69930540610254
          ],
          [
            79.92486537042565,
            -104.60704221780372
          ],
          [
            80.29395123471757,
            -104.60706031051136
          ],
          [
            80.66303709900947,
            -104.60707840321898
          ],
          [
            81.03212296330138,
            -104.6070964959266
          ],
          [
            81.40120882759328,
            -104.60711458863423
          ],
          [
            81.7702946918852,
            -104.60713268134184
          ],
          [
            82.23165505535914,
            -104.51488306257376
          ],
          [
            82.69301541883307,
            -104.42263344380565
          ],
          [
            83.4311992798531,
            -104.05358069061039
          ],
          [
            84.07711167480016,
            -103.68452341423824
          ],
          [
            84.50320352614841,
            -103.31751540064404
          ],
          [
            84.848688056805,
            -102.77407639011643
          ],
          [
            85.1193860955237,
            -102.07842545166733
          ],
          [
            85.33179598360826,
            -101.8742185579784
          ],
          [
            86.01488222384091,
            -101.56235700394286
          ],
          [
            86.38398022056903,
            -101.19328615803998
          ],
          [
            86.66080371811512,
            -100.91648302361284
          ]
        ]
      },
      "properties": {
        "type": "variant",
        "id": 3,
        "color": "#44ff44",
        "vzdal_m": 1138,
        "prevyseni_m": 0,
        "cas_s": 286,
        "tempo_str": "4:11"
      }
    }
  ]
}