{
  "type": "FeatureCollection",
  "features": [
    {
      "type": "Feature",
      "geometry": {
        "type": "Point",
        "coordinates": [
          50.56319916539623,
          -22.120575997428087
        ]
      },
      "properties": {
        "type": "start",
        "isom": "109"
      }
    },
    {
      "type": "Feature",
      "geometry": {
        "type": "Point",
        "coordinates": [
          26.044038066718883,
          -18.842573821598943
        ]
      },
      "properties": {
        "type": "end",
        "isom": "109"
      }
    },
    {
      "type": "Feature",
      "geometry": {
        "type": "LineString",
        "coordinates": [
          [
            50.49569467965712,
            -22.172565745658122
          ],
          [
            49.57298398215342,
            -22.357113759476327
          ],
          [
            49.20391814092001,
            -22.172563839827454
          ],
          [
            48.834839129852256,
            -22.172563295304407
          ],
          [
            48.096654768048076,
            -22.54166095650996
          ],
          [
            47.72758892681467,
            -22.357111036861085
          ],
          [
            46.98943090467917,
            -22.357109947814987
          ],
          [
            46.8048913991453,
            -22.357109675553467
          ],
          [
            46.43579921824321,
            -22.541658506156242
          ],
          [
            45.69764119610771,
            -22.541657417110144
          ],
          [
            44.774930498604,
            -22.72620543092835
          ],
          [
            43.66771980506943,
            -22.357105047107552
          ],
          [
            43.29864079400168,
            -22.3571045025845
          ],
          [
            42.92954861309959,
            -22.54165333318728
          ],
          [
            42.19139059096409,
            -22.541652244141183
          ],
          [
            41.08417989742952,
            -22.172551860320386
          ],
          [
            40.34602187529402,
            -22.172550771274288
          ],
          [
            39.42333751745899,
            -21.988000034840837
          ],
          [
            38.68517949532349,
            -21.98799894579474
          ],
          [
            37.94703464302233,
            -21.80344848162282
          ],
          [
            37.208863451052494,
            -21.987996767702548
          ],
          [
            36.47070542891699,
            -21.98799567865645
          ],
          [
            35.73254740678149,
            -21.987994589610352
          ],
          [
            34.994389384646,
            -21.987993500564254
          ],
          [
            34.07170502681096,
            -21.80344276413081
          ],
          [
            33.33358651417848,
            -21.24979354970723
          ],
          [
            32.226415330146914,
            -20.32704504050895
          ],
          [
            31.488283647680092,
            -19.957945201211203
          ],
          [
            30.56557295017638,
            -20.142493215029408
          ],
          [
            29.64288859234135,
            -19.95794247859596
          ],
          [
            28.535677898806775,
            -19.58884209477516
          ],
          [
            27.612993540971743,
            -19.404291358341712
          ],
          [
            26.690309183136705,
            -19.21974062190826
          ],
          [
            25.952177500669883,
            -18.850640782610512
          ]
        ]
      },
      "properties": {
        "type": "variant",
        "id": 1,
        "color": "#ff4444",
        "vzdal_m": 701,
        "prevyseni_m": 12,
        "cas_s": 216,
        "tempo_str": "5:07"
      }
    },
    {
      "type": "Feature",
      "geometry": {
        "type": "LineString",
        "coordinates": [
          [
            50.49569467965712,
            -22.172565745658122
          ],
          [
            49.75758933685898,
            -21.43436715610872
          ],
          [
            49.3885366654599,
            -21.065267861334018
          ],
          [
            49.204023499594705,
            -20.696168838820842
          ],
          [
            48.465904986962215,
            -20.142519624397263
          ],
          [
            48.09683914572881,
            -19.95796970474839
          ],
          [
            47.91229964019493,
            -19.957969432486863
          ],
          [
            47.54323379896152,
            -19.77341951283799
          ],
          [
            47.358707463261986,
            -19.58886986545064
          ],
          [
            46.98964162202858,
            -19.404319945801763
          ],
          [
            46.80511528632904,
            -19.219770298414414
          ],
          [
            46.620602120463836,
            -18.850671275901234
          ],
          [
            45.697957272131816,
            -18.112472414090306
          ],
          [
            45.3288914308984,
            -17.927922494441432
          ],
          [
            44.40620707306337,
            -17.74337175800798
          ],
          [
            43.298996379528795,
            -17.374271374187185
          ],
          [
            42.376325191528096,
            -17.00517126262791
          ],
          [
            42.191785685994226,
            -17.005170990366384
          ],
          [
            41.82271984476081,
            -16.820621070717507
          ],
          [
            40.715509151226236,
            -16.45152068689671
          ],
          [
            39.97735112909074,
            -16.451519597850613
          ],
          [
            39.23919310695524,
            -16.45151850880452
          ],
          [
            38.31650874912021,
            -16.266967772371068
          ],
          [
            37.20924537624828,
            -16.636064889053575
          ],
          [
            36.8401531953462,
            -16.820613719656354
          ],
          [
            36.28653467874457,
            -16.82061290287178
          ],
          [
            34.81016595513623,
            -17.558808225282892
          ],
          [
            33.51834990689609,
            -18.1124544448297
          ],
          [
            32.226533858655955,
            -18.66610066437651
          ],
          [
            31.119270485784035,
            -19.03519778105902
          ],
          [
            30.381112463648535,
            -19.03519669201292
          ],
          [
            29.4584281058135,
            -18.850645955579473
          ],
          [
            28.904796419377536,
            -19.03519451392073
          ],
          [
            27.982112061542498,
            -18.850643777487278
          ],
          [
            27.243954039407004,
            -18.85064268844118
          ],
          [
            26.505796017271503,
            -18.850641599395086
          ],
          [
            25.952177500669883,
            -18.850640782610512
          ]
        ]
      },
      "properties": {
        "type": "variant",
        "id": 2,
        "color": "#4444ff",
        "vzdal_m": 735,
        "prevyseni_m": 14,
        "cas_s": 210,
        "tempo_str": "4:46"
      }
    },
    {
      "type": "Feature",
      "geometry": {
        "type": "LineString",
        "coordinates": [
          [
            50.49569467965712,
            -22.172565745658122
          ],
          [
            49.57298398215342,
            -22.357113759476327
          ],
          [
            49.20391814092001,
            -22.172563839827454
          ],
          [
            48.834839129852256,
            -22.172563295304407
          ],
          [
            47.54302308161212,
            -22.726209514851217
          ],
          [
            47.17393090071003,
            -22.910758345453992
          ],
          [
            46.80483871980795,
            -23.09530717605677
          ],
          [
            46.62028604443973,
            -23.279856278921073
          ],
          [
            46.251193863537644,
            -23.464405109523852
          ],
          [
            44.959364645463175,
            -24.202600704196488
          ],
          [
            44.036640778125125,
            -24.57169809314052
          ],
          [
            43.852101272591256,
            -24.571697820879
          ],
          [
            43.48300909168916,
            -24.756246651481774
          ],
          [
            42.56029839418545,
            -24.94079466529998
          ],
          [
            41.63758769668174,
            -25.12534267911818
          ],
          [
            41.083969180080125,
            -25.12534186233361
          ],
          [
            40.71490333884671,
            -24.940791942684736
          ],
          [
            40.34582432777896,
            -24.94079139816169
          ],
          [
            39.97675848654555,
            -24.756241478512813
          ],
          [
            39.423153139778265,
            -24.571691286602412
          ],
          [
            38.684995117642764,
            -24.57169019755632
          ],
          [
            37.94683709550726,
            -24.571689108510217
          ],
          [
            37.20867907337176,
            -24.571688019464123
          ],
          [
            36.47052105123627,
            -24.57168693041802
          ],
          [
            35.73236302910077,
            -24.571685841371927
          ],
          [
            34.80969184110007,
            -24.20258572981265
          ],
          [
            34.25611283400146,
            -23.648936787650598
          ],
          [
            33.88704699276805,
            -23.464386868001725
          ],
          [
            33.333415306332085,
            -23.648935426342977
          ],
          [
            31.857151941398442,
            -22.910735747747477
          ],
          [
            30.934467583563404,
            -22.72618501131403
          ],
          [
            30.01183590506572,
            -21.803436774377275
          ],
          [
            29.273730562267573,
            -21.06523818482787
          ],
          [
            28.535625219469427,
            -20.327039595278464
          ],
          [
            27.797519876671277,
            -19.588841005729062
          ],
          [
            26.690309183136705,
            -19.21974062190826
          ],
          [
            25.952177500669883,
            -18.850640782610512
          ]
        ]
      },
      "properties": {
        "type": "variant",
        "id": 3,
        "color": "#44ff44",
        "vzdal_m": 742,
        "prevyseni_m": 11,
        "cas_s": 210,
        "tempo_str": "4:43"
      }
    }
  ]
}