{
  "type": "FeatureCollection",
  "features": [
    {
      "type": "Feature",
      "geometry": {
        "type": "Point",
        "coordinates": [
          171.41495130987278,
          -118.73926222318748
        ]
      },
      "properties": {
        "type": "start",
        "isom": "203"
      }
    },
    {
      "type": "Feature",
      "geometry": {
        "type": "Point",
        "coordinates": [
          189.38640056746488,
          -154.84774502291194
        ]
      },
      "properties": {
        "type": "end",
        "isom": "111"
      }
    },
    {
      "type": "Feature",
      "geometry": {
        "type": "LineString",
        "coordinates": [
          [
            171.47890791291886,
            -118.78786439632465
          ],
          [
            172.21703717797595,
            -120.07971186687668
          ],
          [
            172.77062957710515,
            -121.1870058217696
          ],
          [
            173.32421591001628,
            -122.47884424596779
          ],
          [
            174.06233910885524,
            -123.95523618582506
          ],
          [
            174.9756265194393,
            -125.28617773044743
          ],
          [
            174.8214895256298,
            -125.98451093785057
          ],
          [
            174.65513170859901,
            -126.92108026311446
          ],
          [
            174.3111505236922,
            -128.03204389824384
          ],
          [
            174.0014194507888,
            -128.91678092867764
          ],
          [
            173.72724336798962,
            -129.83480759903995
          ],
          [
            174.11052964209662,
            -130.7731541495833
          ],
          [
            174.55963415221441,
            -132.1210142907558
          ],
          [
            175.39932273920883,
            -133.15539611292863
          ],
          [
            175.75225338457076,
            -134.10862534713203
          ],
          [
            175.73139938630376,
            -134.29078270171013
          ],
          [
            175.63241806265745,
            -135.2199457379709
          ],
          [
            175.54419303814888,
            -135.95149115243106
          ],
          [
            175.3834212307327,
            -136.8889183585441
          ],
          [
            175.47906504848842,
            -137.87118661105188
          ],
          [
            176.09486054192172,
            -138.71354063915618
          ],
          [
            176.47081404666628,
            -138.8300539150855
          ],
          [
            176.6926972824802,
            -139.0498389161382
          ],
          [
            177.08868954316964,
            -139.62427380359716
          ],
          [
            177.06771813368783,
            -140.2517913519418
          ],
          [
            176.4337647259434,
            -141.09757393929422
          ],
          [
            176.99320675694318,
            -142.43789298996992
          ],
          [
            177.94310064587398,
            -143.1373246824592
          ],
          [
            179.37957514739045,
            -143.95441783846024
          ],
          [
            180.84376164828137,
            -144.69134949856482
          ],
          [
            181.81188076860502,
            -145.36351885589704
          ],
          [
            182.5654686795924,
            -146.28051357164907
          ],
          [
            182.94693589307587,
            -147.621659657912
          ],
          [
            183.22401800126528,
            -148.51211709313054
          ],
          [
            183.37131219265356,
            -149.42921106208138
          ],
          [
            183.43031040458968,
            -150.16984737233656
          ],
          [
            183.58422188419974,
            -150.81567243517503
          ],
          [
            183.55333459061978,
            -151.64182836063276
          ],
          [
            183.8427285913897,
            -152.55768580081252
          ],
          [
            184.95861289274256,
            -152.89616242809242
          ],
          [
            185.86280668563697,
            -153.1473927528816
          ],
          [
            186.98591294882712,
            -153.4594479267739
          ],
          [
            187.89094589834843,
            -153.71010301079667
          ],
          [
            188.824778820762,
            -154.22125286019107
          ],
          [
            189.37838941854557,
            -154.77491340716827
          ]
        ]
      },
      "properties": {
        "type": "variant",
        "id": 1,
        "color": "#ff4444",
        "vzdal_m": 1227,
        "prevyseni_m": 0,
        "cas_s": 239,
        "tempo_str": "3:15"
      }
    },
    {
      "type": "Feature",
      "geometry": {
        "type": "LineString",
        "coordinates": [
          [
            171.47890791291886,
            -118.78786439632465
          ],
          [
            172.21703717797595,
            -120.07971186687668
          ],
          [
            172.77062957710515,
            -121.1870058217696
          ],
          [
            173.32421591001628,
            -122.47884424596779
          ],
          [
            174.06233910885524,
            -123.95523618582506
          ],
          [
            174.9756265194393,
            -125.28617773044743
          ],
          [
            174.8214895256298,
            -125.98451093785057
          ],
          [
            174.65513170859901,
            -126.92108026311446
          ],
          [
            174.3111505236922,
            -128.03204389824384
          ],
          [
            174.0014194507888,
            -128.91678092867764
          ],
          [
            173.72724336798962,
            -129.83480759903995
          ],
          [
            174.11052964209662,
            -130.7731541495833
          ],
          [
            174.55963415221441,
            -132.1210142907558
          ],
          [
            175.31410367763172,
            -133.03893695279356
          ],
          [
            176.30502235735563,
            -133.67913374135054
          ],
          [
            177.03505871644197,
            -134.40649532758562
          ],
          [
            177.93737064461573,
            -135.21263878687537
          ],
          [
            178.67551204210903,
            -136.13539731881687
          ],
          [
            179.4136595058204,
            -136.87361138145314
          ],
          [
            179.88095969168492,
            -137.51415491450285
          ],
          [
            180.1517948370956,
            -137.9809143826999
          ],
          [
            180.88993623458884,
            -138.90367291464136
          ],
          [
            181.62807763208212,
            -139.82643144658286
          ],
          [
            182.3662190295754,
            -140.74918997852436
          ],
          [
            183.1332115964476,
            -141.92964676366884
          ],
          [
            183.84016026270402,
            -143.56395364959326
          ],
          [
            184.57632702132173,
            -144.626031245396
          ],
          [
            185.1637402449626,
            -145.90597931880373
          ],
          [
            185.5051386198792,
            -147.0643324359043
          ],
          [
            185.87313260435496,
            -148.13179825705825
          ],
          [
            186.58995325048548,
            -149.6602741304668
          ],
          [
            187.3633805280538,
            -150.86626818023737
          ],
          [
            188.27122281894142,
            -152.00669208946664
          ],
          [
            188.64027228592468,
            -153.11397699800574
          ],
          [
            189.1938586188358,
            -154.40581542220394
          ],
          [
            189.37838941854557,
            -154.77491340716827
          ]
        ]
      },
      "properties": {
        "type": "variant",
        "id": 2,
        "color": "#4444ff",
        "vzdal_m": 1133,
        "prevyseni_m": 0,
        "cas_s": 235,
        "tempo_str": "3:27"
      }
    }
  ]
}