{
  "type": "FeatureCollection",
  "features": [
    {
      "type": "Feature",
      "geometry": {
        "type": "Point",
        "coordinates": [
          68.27513141940837,
          -174.73606861536885
        ]
      },
      "properties": {
        "type": "start",
        "isom": "417"
      }
    },
    {
      "type": "Feature",
      "geometry": {
        "type": "Point",
        "coordinates": [
          36.226002706689876,
          -217.41963341533543
        ]
      },
      "properties": {
        "type": "end",
        "isom": "417"
      }
    },
    {
      "type": "Feature",
      "geometry": {
        "type": "LineString",
        "coordinates": [
          [
            68.28630864680122,
            -174.78762091268678
          ],
          [
            67.36356972119891,
            -175.52575355969728
          ],
          [
            66.62537372774258,
            -176.26389525262283
          ],
          [
            65.26967352743674,
            -177.17250406156094
          ],
          [
            64.59533474573767,
            -178.29378490816813
          ],
          [
            63.11896095747934,
            -179.21643488657983
          ],
          [
            61.64259930165724,
            -179.76999592669858
          ],
          [
            61.088964439001224,
            -179.9545132580998
          ],
          [
            60.90441544063714,
            -180.13904868133122
          ],
          [
            59.981676515034835,
            -180.8771813283417
          ],
          [
            59.243480521578505,
            -181.61532302126724
          ],
          [
            57.76711279953829,
            -182.35342853053248
          ],
          [
            57.02891680608196,
            -183.09157022345804
          ],
          [
            56.29072081262563,
            -183.82971191638362
          ],
          [
            55.552518752951194,
            -184.75239807845568
          ],
          [
            54.81432882571298,
            -185.30599530223475
          ],
          [
            53.891589900110674,
            -186.04412794924525
          ],
          [
            53.33793683880031,
            -186.78227868808588
          ],
          [
            52.59973477912587,
            -187.70496485015795
          ],
          [
            51.86154485188765,
            -188.25856207393701
          ],
          [
            51.12334885843132,
            -188.9967037668626
          ],
          [
            50.38515286497499,
            -189.7348454597882
          ],
          [
            49.64695687151866,
            -190.47298715271376
          ],
          [
            48.90876087806234,
            -191.2111288456393
          ],
          [
            47.94020108672324,
            -192.3107971915729
          ],
          [
            47.880555301768645,
            -192.69915295481078
          ],
          [
            47.71524688125362,
            -193.1113099310923
          ],
          [
            47.512649656447415,
            -193.470895535281
          ],
          [
            47.284590099578004,
            -193.84646495779623
          ],
          [
            46.555990891597915,
            -194.93206719809177
          ],
          [
            45.6039333080854,
            -196.32509594962423
          ],
          [
            45.24281668676269,
            -197.43264839646156
          ],
          [
            44.875001970781774,
            -198.54473614262852
          ],
          [
            44.536223795709546,
            -199.66119308655092
          ],
          [
            44.389656301853,
            -200.61691049617102
          ],
          [
            43.92575593568877,
            -201.72991934728128
          ],
          [
            43.74120087110657,
            -202.09899923965912
          ],
          [
            43.74118873867036,
            -202.46808817795207
          ],
          [
            43.556639740306274,
            -202.65262360118348
          ],
          [
            42.81843161441372,
            -203.759854232402
          ],
          [
            42.08022348852117,
            -204.86708486362053
          ],
          [
            41.52657649342892,
            -205.4206911333147
          ],
          [
            41.34202142884672,
            -205.7897710256926
          ],
          [
            41.15747243048264,
            -205.97430644892395
          ],
          [
            40.41925823837198,
            -207.26608154928897
          ],
          [
            39.49650111411535,
            -208.55784760373888
          ],
          [
            38.94282378793254,
            -210.03417621916546
          ],
          [
            38.20460352960377,
            -211.51049578867693
          ],
          [
            37.46638327127499,
            -212.98681535818844
          ],
          [
            36.912712011310305,
            -214.2785995044685
          ],
          [
            36.54358974970969,
            -215.3858482275172
          ],
          [
            36.359016486473166,
            -216.30856152733452
          ],
          [
            36.358992221600715,
            -217.04673940392044
          ],
          [
            36.174437157018524,
            -217.41581929629834
          ]
        ]
      },
      "properties": {
        "type": "variant",
        "id": 1,
        "color": "#ff4444",
        "vzdal_m": 1498,
        "prevyseni_m": 11,
        "cas_s": 422,
        "tempo_str": "4:41"
      }
    },
    {
      "type": "Feature",
      "geometry": {
        "type": "LineString",
        "coordinates": [
          [
            68.28630864680122,
            -174.78762091268678
          ],
          [
            67.36356972119891,
            -175.52575355969728
          ],
          [
            66.62537372774258,
            -176.26389525262283
          ],
          [
            65.26967352743674,
            -177.17250406156094
          ],
          [
            65.17266669457945,
            -177.88095815162495
          ],
          [
            64.86475268036004,
            -179.00371833478025
          ],
          [
            64.83877654038794,
            -179.77015259673502
          ],
          [
            64.9233003438555,
            -180.50685350926418
          ],
          [
            64.89620042868967,
            -181.25136203956842
          ],
          [
            64.59522555381167,
            -181.61558535280477
          ],
          [
            63.85700529548289,
            -183.09190492231622
          ],
          [
            63.11880930202656,
            -183.8300466152418
          ],
          [
            62.7497113052984,
            -184.1991174617046
          ],
          [
            62.5651562407162,
            -184.56819735408246
          ],
          [
            61.08878851867598,
            -185.30630286334767
          ],
          [
            59.98151272714583,
            -185.8598819952966
          ],
          [
            59.61242079663578,
            -186.0444083726129
          ],
          [
            59.427871798271696,
            -186.22894379584432
          ],
          [
            59.058779867761636,
            -186.41347017316062
          ],
          [
            58.320583874305306,
            -187.1516118660862
          ],
          [
            57.951479811359036,
            -187.70522718169545
          ],
          [
            57.58235754975843,
            -188.81247590474413
          ],
          [
            57.21323528815781,
            -189.91972462779287
          ],
          [
            56.65956402819312,
            -191.21150877407294
          ],
          [
            55.921349836082456,
            -192.50328387443795
          ],
          [
            55.183135643971795,
            -193.79505897480297
          ],
          [
            54.444939650515465,
            -194.53320066772852
          ],
          [
            53.706743657059135,
            -195.27134236065407
          ],
          [
            53.15307846331255,
            -196.3785820377877
          ],
          [
            52.414870337420005,
            -197.4858126690062
          ],
          [
            51.676656145309344,
            -198.77758776937125
          ],
          [
            50.93842982076245,
            -200.43845180802919
          ],
          [
            50.384764627015876,
            -201.54569148516282
          ],
          [
            50.20020956243368,
            -201.91477137754066
          ],
          [
            50.015654497851486,
            -202.28385126991856
          ],
          [
            49.27744637195893,
            -203.39108190113706
          ],
          [
            48.90833624279455,
            -204.1292416858928
          ],
          [
            48.72376904577613,
            -204.86741051656364
          ],
          [
            48.53921398119393,
            -205.2364904089415
          ],
          [
            48.35465891661175,
            -205.60557030131937
          ],
          [
            47.616450790719185,
            -206.7128009325379
          ],
          [
            46.87824266482664,
            -207.82003156375646
          ],
          [
            45.95550373922433,
            -208.5581642107669
          ],
          [
            45.217307745768004,
            -209.29630590369248
          ],
          [
            44.47910568609356,
            -210.21899206576452
          ],
          [
            43.74090969263723,
            -210.95713375869008
          ],
          [
            43.55635462805505,
            -211.32621365106797
          ],
          [
            43.37179956347285,
            -211.6952935434458
          ],
          [
            42.63360357001652,
            -212.43343523637142
          ],
          [
            41.52632171226825,
            -213.1715588374668
          ],
          [
            40.78812571881191,
            -213.90970053039237
          ],
          [
            39.865386793209616,
            -214.64783317740284
          ],
          [
            38.94264786760731,
            -215.38596582441335
          ],
          [
            38.01990894200502,
            -216.12409847142382
          ],
          [
            37.097170016402714,
            -216.86223111843432
          ],
          [
            36.174437157018524,
            -217.41581929629834
          ]
        ]
      },
      "properties": {
        "type": "variant",
        "id": 2,
        "color": "#4444ff",
        "vzdal_m": 1499,
        "prevyseni_m": 13,
        "cas_s": 423,
        "tempo_str": "4:41"
      }
    },
    {
      "type": "Feature",
      "geometry": {
        "type": "LineString",
        "coordinates": [
          [
            68.28630864680122,
            -174.78762091268678
          ],
          [
            67.36356972119891,
            -175.52575355969728
          ],
          [
            66.62537372774258,
            -176.26389525262283
          ],
          [
            65.26967352743674,
            -177.17250406156094
          ],
          [
            65.17266669457945,
            -177.88095815162495
          ],
          [
            64.86475268036004,
            -179.00371833478025
          ],
          [
            64.83877654038794,
            -179.77015259673502
          ],
          [
            64.9233003438555,
            -180.50685350926418
          ],
          [
            64.89652051278217,
            -181.24368602879963
          ],
          [
            64.8378512307463,
            -181.94659872679273
          ],
          [
            64.7831025724708,
            -182.72393979501584
          ],
          [
            64.78329233638192,
            -183.46103926589007
          ],
          [
            64.45823949074412,
            -184.56001048686863
          ],
          [
            64.40890054642028,
            -185.68129809277036
          ],
          [
            64.38571808811766,
            -186.41874758283694
          ],
          [
            64.36253562981503,
            -187.15619707290352
          ],
          [
            64.33373955857208,
            -188.07221934184537
          ],
          [
            64.31191263865425,
            -188.82075206080333
          ],
          [
            64.38749988100236,
            -189.55413351083325
          ],
          [
            64.4871478052983,
            -190.2783552644986
          ],
          [
            64.5891140695376,
            -191.00216669456123
          ],
          [
            64.68242983601164,
            -191.56645734408727
          ],
          [
            64.59997217141624,
            -192.13801537447804
          ],
          [
            64.4103065161428,
            -193.05733339397136
          ],
          [
            64.22574538534249,
            -193.6109577554957
          ],
          [
            64.0411903207603,
            -193.9800376478736
          ],
          [
            63.85663525617811,
            -194.34911754025143
          ],
          [
            63.67208019159591,
            -194.71819743262932
          ],
          [
            63.48752512701372,
            -195.08727732500716
          ],
          [
            63.30297006243152,
            -195.45635721738506
          ],
          [
            62.564768002757084,
            -196.3790433794571
          ],
          [
            61.82656594308264,
            -197.30172954152914
          ],
          [
            61.642016944718556,
            -197.48626496476055
          ],
          [
            61.27292501420851,
            -197.67079134207685
          ],
          [
            60.53472902075218,
            -198.4089330350024
          ],
          [
            60.16563102402401,
            -198.77800388146522
          ],
          [
            59.796539093513964,
            -198.96253025878153
          ],
          [
            59.242892098421706,
            -199.51613652847567
          ],
          [
            58.320147106601304,
            -200.43881364463263
          ],
          [
            57.581945046926855,
            -201.3614998067047
          ],
          [
            56.84375511968864,
            -201.9150970304838
          ],
          [
            56.10554699379609,
            -203.0223276617023
          ],
          [
            55.367326735467316,
            -204.49864723121377
          ],
          [
            55.18277167088512,
            -204.86772712359166
          ],
          [
            54.44457567742879,
            -205.60586881651722
          ],
          [
            54.075483746918735,
            -205.79039519383352
          ],
          [
            53.337287753462405,
            -206.52853688675913
          ],
          [
            52.599091760006075,
            -207.26667857968468
          ],
          [
            51.67635283440377,
            -208.00481122669515
          ],
          [
            50.19998511236356,
            -208.74291673596036
          ],
          [
            49.6463320510532,
            -209.48106747480102
          ],
          [
            48.90813605759687,
            -210.2192091677266
          ],
          [
            47.733785021864705,
            -210.96377847398855
          ],
          [
            46.8781152742463,
            -211.6954654158325
          ],
          [
            45.77083341649803,
            -212.43358901692787
          ],
          [
            44.29446569445781,
            -213.17169452619308
          ],
          [
            42.8180979724176,
            -213.90980003545832
          ],
          [
            41.34173025037738,
            -214.64790554472356
          ],
          [
            39.86536252833717,
            -215.38601105398877
          ],
          [
            38.38899480629696,
            -216.124116563254
          ],
          [
            37.097170016402714,
            -216.86223111843432
          ],
          [
            36.174437157018524,
            -217.41581929629834
          ]
        ]
      },
      "properties": {
        "type": "variant",
        "id": 3,
        "color": "#44ff44",
        "vzdal_m": 1576,
        "prevyseni_m": 17,
        "cas_s": 429,
        "tempo_str": "4:32"
      }
    }
  ]
}