{
  "type": "FeatureCollection",
  "features": [
    {
      "type": "Feature",
      "geometry": {
        "type": "Point",
        "coordinates": [
          63.44421675282269,
          -161.9801180859073
        ]
      },
      "properties": {
        "type": "start",
        "isom": "109"
      }
    },
    {
      "type": "Feature",
      "geometry": {
        "type": "Point",
        "coordinates": [
          49.88235257270791,
          -212.16078544237718
        ]
      },
      "properties": {
        "type": "end",
        "isom": "115"
      }
    },
    {
      "type": "Feature",
      "geometry": {
        "type": "LineString",
        "coordinates": [
          [
            63.48861098005563,
            -162.05381734778754
          ],
          [
            62.01224932423353,
            -162.60737838790627
          ],
          [
            60.72042453433929,
            -163.34549294308658
          ],
          [
            59.244050746080966,
            -164.26814292149828
          ],
          [
            58.505854752624636,
            -165.00628461442383
          ],
          [
            57.58311582702233,
            -165.74441726143434
          ],
          [
            57.02943850083953,
            -167.2207458768609
          ],
          [
            56.47577330709295,
            -168.32798555399452
          ],
          [
            56.29121824251075,
            -168.6970654463724
          ],
          [
            55.73755911498229,
            -169.6197606543595
          ],
          [
            55.55300405040009,
            -169.9888405467374
          ],
          [
            55.55299798418198,
            -170.17338501588387
          ],
          [
            55.36844291959979,
            -170.54246490826173
          ],
          [
            54.63022266127101,
            -172.0187844777732
          ],
          [
            54.26110646588851,
            -172.94148873167543
          ],
          [
            54.07655746752443,
            -173.12602415490684
          ],
          [
            53.33833720919566,
            -174.60234372441832
          ],
          [
            52.41557401872091,
            -176.07865424801471
          ],
          [
            52.230994689266275,
            -177.18591201697848
          ],
          [
            51.861866361447554,
            -178.47770520917365
          ],
          [
            51.308201167700965,
            -179.58494488630728
          ],
          [
            50.385437977226225,
            -181.06125540990368
          ],
          [
            49.831760651043425,
            -182.53758402533026
          ],
          [
            49.093540392714644,
            -184.0139035948417
          ],
          [
            48.42414576411587,
            -185.354641682289
          ],
          [
            48.527699635010855,
            -186.04143593959583
          ],
          [
            48.58768149771092,
            -186.77243117042048
          ],
          [
            48.56361766482717,
            -187.55949799225357
          ],
          [
            48.58673052564394,
            -188.2682302120585
          ],
          [
            48.566828616879626,
            -188.99672643531633
          ],
          [
            48.548706089579554,
            -189.36688975595075
          ],
          [
            48.49310866657443,
            -190.29405520301756
          ],
          [
            48.356348709610955,
            -191.02712800508996
          ],
          [
            48.06541015750757,
            -191.9014666685108
          ],
          [
            47.880555301768645,
            -192.69915295481078
          ],
          [
            47.71524688125362,
            -193.1113099310923
          ],
          [
            47.512649656447415,
            -193.470895535281
          ],
          [
            47.284590099578004,
            -193.84646495779623
          ],
          [
            46.555990891597915,
            -194.93206719809177
          ],
          [
            45.6039333080854,
            -196.32509594962423
          ],
          [
            45.24281668676269,
            -197.43264839646156
          ],
          [
            44.875001970781774,
            -198.54473614262852
          ],
          [
            44.536223795709546,
            -199.66119308655092
          ],
          [
            44.389656301853,
            -200.61691049617102
          ],
          [
            44.425357877516596,
            -201.3664364170185
          ],
          [
            44.566215600453226,
            -202.07935744235874
          ],
          [
            44.64576732980952,
            -202.4304177986847
          ],
          [
            44.73433391738513,
            -202.82126056281393
          ],
          [
            44.82216787761567,
            -203.1623499830055
          ],
          [
            44.92633105977121,
            -203.55311839884743
          ],
          [
            45.023931434438175,
            -203.8942833609405
          ],
          [
            45.19123567247084,
            -204.26323362627002
          ],
          [
            45.33149695169446,
            -204.63835202610437
          ],
          [
            45.49696133647518,
            -205.0143435824861
          ],
          [
            45.55891550159879,
            -205.17120334492355
          ],
          [
            45.714003507281355,
            -205.55676361217792
          ],
          [
            45.79846186161666,
            -205.97782391636525
          ],
          [
            45.83361965429451,
            -206.70854030386695
          ],
          [
            46.46989883200366,
            -208.0345551814503
          ],
          [
            47.14377423284938,
            -209.05422193701457
          ],
          [
            47.36456023109107,
            -209.3580874749386
          ],
          [
            47.985397131994574,
            -210.95734181473708
          ],
          [
            48.72354459570602,
            -211.69555587498334
          ],
          [
            49.64624105778153,
            -212.2492345119982
          ],
          [
            49.830783989927504,
            -212.24924355791327
          ]
        ]
      },
      "properties": {
        "type": "variant",
        "id": 1,
        "color": "#ff4444",
        "vzdal_m": 1582,
        "prevyseni_m": 6,
        "cas_s": 424,
        "tempo_str": "4:28"
      }
    },
    {
      "type": "Feature",
      "geometry": {
        "type": "LineString",
        "coordinates": [
          [
            63.48861098005563,
            -162.05381734778754
          ],
          [
            63.48856245031074,
            -163.53017310095936
          ],
          [
            64.41123464751382,
            -164.82202961456014
          ],
          [
            65.14936997878904,
            -165.92933261309935
          ],
          [
            65.51841944577231,
            -167.03661751980837
          ],
          [
            65.3338461825358,
            -167.95933081962568
          ],
          [
            65.51837091602742,
            -168.51297327298022
          ],
          [
            66.07195724893855,
            -169.80481169475084
          ],
          [
            66.52116944975633,
            -170.92937724844276
          ],
          [
            66.36911884816432,
            -171.63478287124832
          ],
          [
            66.17086321462304,
            -172.55454666822538
          ],
          [
            66.0170432288319,
            -173.4886877907101
          ],
          [
            65.91244970430522,
            -174.19974177455953
          ],
          [
            65.66949624441138,
            -175.3340173186991
          ],
          [
            65.47178902059181,
            -176.2536497665896
          ],
          [
            65.26967352743674,
            -177.17250406156094
          ],
          [
            65.17266669457945,
            -177.88095815162495
          ],
          [
            64.86475268036004,
            -179.00371833478025
          ],
          [
            64.83877654038794,
            -179.77015259673502
          ],
          [
            64.9233003438555,
            -180.50685350926418
          ],
          [
            64.89652051278217,
            -181.24368602879963
          ],
          [
            64.8378512307463,
            -181.94659872679273
          ],
          [
            64.7831025724708,
            -182.72393979501584
          ],
          [
            64.78329233638192,
            -183.46103926589007
          ],
          [
            64.45823949074412,
            -184.56001048686863
          ],
          [
            64.40890054642028,
            -185.68129809277036
          ],
          [
            64.38571808811766,
            -186.41874758283694
          ],
          [
            64.36253562981503,
            -187.15619707290352
          ],
          [
            64.33373955857208,
            -188.07221934184537
          ],
          [
            64.31191263865425,
            -188.82075206080333
          ],
          [
            64.38749988100236,
            -189.55413351083325
          ],
          [
            64.4871478052983,
            -190.2783552644986
          ],
          [
            64.5891140695376,
            -191.00216669456123
          ],
          [
            64.6526167155081,
            -191.38686253773506
          ],
          [
            64.59997217141624,
            -192.13801537447804
          ],
          [
            64.4103065161428,
            -193.05733339397136
          ],
          [
            64.0411903207603,
            -193.9800376478736
          ],
          [
            63.85663525617811,
            -194.34911754025143
          ],
          [
            63.11842106406745,
            -195.6408926406164
          ],
          [
            62.380212938174886,
            -196.74812327183497
          ],
          [
            61.642016944718556,
            -197.48626496476055
          ],
          [
            60.71927801911625,
            -198.22439761177102
          ],
          [
            59.796539093513964,
            -198.96253025878153
          ],
          [
            58.87380016791166,
            -199.700662905792
          ],
          [
            58.13559810823722,
            -200.62334906786404
          ],
          [
            57.39739604856277,
            -201.54603522993608
          ],
          [
            56.65920612132455,
            -202.09963245371515
          ],
          [
            55.92099192921389,
            -203.3914075540802
          ],
          [
            55.18277167088512,
            -204.86772712359166
          ],
          [
            54.44457567742879,
            -205.60586881651722
          ],
          [
            54.260020612846596,
            -205.9749487088951
          ],
          [
            53.521806420735935,
            -207.2667238092601
          ],
          [
            52.783610427279605,
            -208.00486550218565
          ],
          [
            52.04539623516894,
            -209.2966406025507
          ],
          [
            51.30718810927639,
            -210.4038712337692
          ],
          [
            50.75353504796603,
            -211.14202197260988
          ],
          [
            50.568979983383834,
            -211.51110186498772
          ],
          [
            50.384430985019755,
            -211.69563728821913
          ],
          [
            49.830783989927504,
            -212.24924355791327
          ]
        ]
      },
      "properties": {
        "type": "variant",
        "id": 2,
        "color": "#4444ff",
        "vzdal_m": 1534,
        "prevyseni_m": 19,
        "cas_s": 406,
        "tempo_str": "4:24"
      }
    },
    {
      "type": "Feature",
      "geometry": {
        "type": "LineString",
        "coordinates": [
          [
            63.48861098005563,
            -162.05381734778754
          ],
          [
            62.01224325801542,
            -162.79192285705275
          ],
          [
            61.27403513212287,
            -163.89915348827125
          ],
          [
            60.53582700623032,
            -165.0063841194898
          ],
          [
            59.79760674790154,
            -166.48270368900128
          ],
          [
            59.24392942171874,
            -167.95903230442786
          ],
          [
            58.87482535877246,
            -168.51264762003711
          ],
          [
            58.50572736204429,
            -168.88171846649988
          ],
          [
            58.50569703095374,
            -169.8044408122323
          ],
          [
            58.50567883229941,
            -170.35807421967172
          ],
          [
            58.5056727660813,
            -170.54261868881818
          ],
          [
            58.505666699863184,
            -170.72716315796467
          ],
          [
            58.32111163528099,
            -171.09624305034257
          ],
          [
            58.13653837204446,
            -172.01895635015987
          ],
          [
            58.13651410717202,
            -172.7571342267458
          ],
          [
            57.39828778262514,
            -174.41799826540372
          ],
          [
            56.660073590514465,
            -175.70977336576874
          ],
          [
            55.73732253247594,
            -176.81699495107216
          ],
          [
            55.18366947116559,
            -177.55514568991282
          ],
          [
            54.44545527905492,
            -178.84692079027784
          ],
          [
            53.891790085308344,
            -179.95416046741144
          ],
          [
            53.70722288828993,
            -180.69232929808229
          ],
          [
            53.70719255719936,
            -181.61505164381467
          ],
          [
            53.70716829232692,
            -182.3532295204006
          ],
          [
            53.89168695960045,
            -183.0914164429016
          ],
          [
            53.70711976258204,
            -183.8295852735724
          ],
          [
            53.707095497709595,
            -184.56776315015833
          ],
          [
            53.52252830069118,
            -185.30593198082914
          ],
          [
            53.7070469679647,
            -186.04411890333014
          ],
          [
            53.70702270309226,
            -186.78229677991607
          ],
          [
            53.89154137036578,
            -187.52048370241707
          ],
          [
            53.70697417334736,
            -188.25865253308788
          ],
          [
            53.70694990847492,
            -188.9968304096738
          ],
          [
            53.337833713092415,
            -189.91953466357606
          ],
          [
            53.52235238036595,
            -190.65772158607703
          ],
          [
            53.52232811549351,
            -191.39589946266295
          ],
          [
            53.33775485225697,
            -192.31861276248029
          ],
          [
            53.15318158902044,
            -193.24132606229756
          ],
          [
            52.78405932741983,
            -194.34857478534624
          ],
          [
            52.5994860641833,
            -195.27128808516358
          ],
          [
            52.59946179931086,
            -196.0094659617495
          ],
          [
            52.59943753443842,
            -196.7476438383354
          ],
          [
            52.59941326956598,
            -197.48582171492131
          ],
          [
            52.599389004693535,
            -198.22399959150724
          ],
          [
            52.04571774472884,
            -199.51578373778733
          ],
          [
            51.86114448149231,
            -200.4384970376046
          ],
          [
            51.86112021661986,
            -201.17667491419053
          ],
          [
            51.861095951747416,
            -201.91485279077645
          ],
          [
            51.86107168687497,
            -202.65303066736234
          ],
          [
            51.86104742200253,
            -203.39120854394827
          ],
          [
            52.04556608927605,
            -204.1293954664493
          ],
          [
            52.230096888985805,
            -204.49849345065732
          ],
          [
            52.414609490041215,
            -205.42122484230478
          ],
          [
            52.414597357605,
            -205.79031378059773
          ],
          [
            51.8609260976403,
            -207.08209792687785
          ],
          [
            51.49179776982159,
            -208.37389111907302
          ],
          [
            50.75358357771092,
            -209.66566621943804
          ],
          [
            50.384461316110304,
            -210.77291494248675
          ],
          [
            50.19991231774622,
            -210.9574503657181
          ],
          [
            50.19990018531,
            -211.32653930401105
          ],
          [
            50.19989411909189,
            -211.51108377315754
          ],
          [
            50.0153390545097,
            -211.88016366553543
          ],
          [
            49.830783989927504,
            -212.24924355791327
          ]
        ]
      },
      "properties": {
        "type": "variant",
        "id": 3,
        "color": "#44ff44",
        "vzdal_m": 1477,
        "prevyseni_m": 6,
        "cas_s": 422,
        "tempo_str": "4:45"
      }
    }
  ]
}