{
  "type": "FeatureCollection",
  "features": [
    {
      "type": "Feature",
      "geometry": {
        "type": "Point",
        "coordinates": [
          58.15022037271178,
          -201.68275574123598
        ]
      },
      "properties": {
        "type": "start",
        "isom": "417"
      }
    },
    {
      "type": "Feature",
      "geometry": {
        "type": "Point",
        "coordinates": [
          115.95961161275467,
          -172.82578712922572
        ]
      },
      "properties": {
        "type": "end",
        "isom": "419"
      }
    },
    {
      "type": "Feature",
      "geometry": {
        "type": "LineString",
        "coordinates": [
          [
            58.135561710928556,
            -201.7306158827429
          ],
          [
            58.873751638166766,
            -201.17701865896385
          ],
          [
            59.611965830277434,
            -199.8852435585988
          ],
          [
            60.350180022388095,
            -198.59346845823381
          ],
          [
            61.088376015844425,
            -197.85532676530826
          ],
          [
            61.826572009300754,
            -197.11718507238265
          ],
          [
            62.74931093490306,
            -196.3790524253722
          ],
          [
            63.30297006243152,
            -195.45635721738506
          ],
          [
            63.48752512701372,
            -195.08727732500716
          ],
          [
            63.67208019159591,
            -194.71819743262932
          ],
          [
            63.85663525617811,
            -194.34911754025143
          ],
          [
            64.0411903207603,
            -193.9800376478736
          ],
          [
            64.04119638697841,
            -193.7954931787271
          ],
          [
            64.2257514515606,
            -193.42641328634923
          ],
          [
            64.77690558230762,
            -192.13504853941723
          ],
          [
            64.6575668185351,
            -191.416682052752
          ],
          [
            65.1485389069078,
            -191.2119248861669
          ],
          [
            66.25580863221984,
            -190.8428902233645
          ],
          [
            66.99399855945806,
            -190.2892929995854
          ],
          [
            67.73221881778683,
            -188.8129734300739
          ],
          [
            68.47042087746128,
            -187.89028726800183
          ],
          [
            69.02408000498976,
            -186.9675920600147
          ],
          [
            69.94682499681016,
            -186.04491494385775
          ],
          [
            71.2386437204863,
            -185.49134485782392
          ],
          [
            72.53047457659865,
            -184.5686858334971
          ],
          [
            73.82229330027478,
            -184.01511574746328
          ],
          [
            75.29866102231499,
            -183.27701023819807
          ],
          [
            75.66775295282505,
            -183.09248386088177
          ],
          [
            76.03684488333509,
            -182.90795748356544
          ],
          [
            76.40593681384516,
            -182.72343110624914
          ],
          [
            77.32865754079312,
            -182.5389318666781
          ],
          [
            78.06683533559512,
            -182.35442358119198
          ],
          [
            79.17409899468905,
            -182.16993338753602
          ],
          [
            79.91226465705482,
            -182.35451404034282
          ],
          [
            81.0195465148031,
            -181.61639043924745
          ],
          [
            81.20409551316719,
            -181.43185501601604
          ],
          [
            82.12681017389704,
            -181.4319002455915
          ],
          [
            82.86498796869904,
            -181.24739196010535
          ],
          [
            83.78770262942889,
            -181.2474371896808
          ],
          [
            84.34133749208492,
            -181.06291985827954
          ],
          [
            84.71042942259497,
            -180.87839348096324
          ],
          [
            85.63315014954294,
            -180.6938942413922
          ],
          [
            86.78450623590597,
            -179.98269315419464
          ],
          [
            87.46543558572255,
            -179.37734332352363
          ],
          [
            88.84346931048896,
            -178.76635483895248
          ],
          [
            89.6356086483461,
            -177.95951851365882
          ],
          [
            90.4313816434823,
            -177.18778452140137
          ],
          [
            91.72320036715844,
            -176.63421443536754
          ],
          [
            92.46137209574232,
            -176.63425061902785
          ],
          [
            93.56864182105437,
            -176.26521595622543
          ],
          [
            94.30681354963825,
            -176.26525213988577
          ],
          [
            95.04499134444025,
            -176.08074385439963
          ],
          [
            95.78315700680602,
            -176.26532450720646
          ],
          [
            96.5213287353899,
            -176.2653606908668
          ],
          [
            96.70587166753587,
            -176.2653697367819
          ],
          [
            97.07495753182782,
            -176.26538782861206
          ],
          [
            97.9976843249939,
            -175.89634411989454
          ],
          [
            99.10495405030593,
            -175.5273094570921
          ],
          [
            100.3967788402002,
            -174.7891949019118
          ],
          [
            101.31950563336626,
            -174.42015119319427
          ],
          [
            101.50405463173034,
            -174.23561576996286
          ],
          [
            103.16496528591654,
            -173.49751930661273
          ],
          [
            104.27222894501048,
            -173.31302911295677
          ],
          [
            105.7486027332688,
            -172.39037913454507
          ],
          [
            106.4867805280708,
            -172.20587084905895
          ],
          [
            107.40949518880065,
            -172.20591607863437
          ],
          [
            108.14766691738454,
            -172.20595226229472
          ],
          [
            108.51675278167649,
            -172.2059703541249
          ],
          [
            108.70128358138622,
            -172.57506833833293
          ],
          [
            109.25491844404225,
            -172.39055100693173
          ],
          [
            109.6240043083342,
            -172.3905690987619
          ],
          [
            109.99308410640802,
            -172.57513165973853
          ],
          [
            110.73125583499191,
            -172.5751678433989
          ],
          [
            111.65396442950365,
            -172.7597575421208
          ],
          [
            112.39213615808754,
            -172.75979372578112
          ],
          [
            113.13031395288954,
            -172.575285440295
          ],
          [
            113.86847961525531,
            -172.75986609310183
          ],
          [
            114.60665134383919,
            -172.75990227676218
          ],
          [
            115.34482307242307,
            -172.75993846042252
          ],
          [
            115.89845186886099,
            -172.75996559816778
          ]
        ]
      },
      "properties": {
        "type": "variant",
        "id": 1,
        "color": "#ff4444",
        "vzdal_m": 1905,
        "prevyseni_m": 87,
        "cas_s": 628,
        "tempo_str": "5:29"
      }
    },
    {
      "type": "Feature",
      "geometry": {
        "type": "LineString",
        "coordinates": [
          [
            58.135561710928556,
            -201.7306158827429
          ],
          [
            58.87372737329432,
            -201.91519653554974
          ],
          [
            59.61190516809632,
            -201.7306882500636
          ],
          [
            60.35007689668021,
            -201.73072443372394
          ],
          [
            60.90370569311812,
            -201.7307515714692
          ],
          [
            61.82642035384798,
            -201.73079680104462
          ],
          [
            62.195512284358024,
            -201.54627042372832
          ],
          [
            62.93367794672379,
            -201.73085107653515
          ],
          [
            63.671855741525796,
            -201.54634279104903
          ],
          [
            64.41002747010968,
            -201.54637897470937
          ],
          [
            65.51730326163984,
            -200.99279984276043
          ],
          [
            66.44001792236969,
            -200.99284507233585
          ],
          [
            67.54728158146364,
            -200.80835487867992
          ],
          [
            68.28545937626564,
            -200.6238465931938
          ],
          [
            69.02363717106762,
            -200.43933830770763
          ],
          [
            69.7618028334334,
            -200.62391896051446
          ],
          [
            70.49997456201729,
            -200.62395514417483
          ],
          [
            71.23814022438306,
            -200.80853579698163
          ],
          [
            71.97631801918506,
            -200.6240275114955
          ],
          [
            72.71448974776894,
            -200.62406369515585
          ],
          [
            73.26811854420684,
            -200.62409083290112
          ],
          [
            74.55993120166487,
            -200.25506521601375
          ],
          [
            75.851749925341,
            -199.70149512997992
          ],
          [
            76.77447065228897,
            -199.51699589040885
          ],
          [
            78.06628330974699,
            -199.1479702735215
          ],
          [
            79.17354696884094,
            -198.96348007986558
          ],
          [
            79.9117126312067,
            -199.1480607326724
          ],
          [
            81.3880742870288,
            -198.59449969255363
          ],
          [
            82.54330600520575,
            -198.10629783653368
          ],
          [
            83.23419964464445,
            -198.19681665356234
          ],
          [
            83.97193214292973,
            -198.21661745707266
          ],
          [
            84.69928044489187,
            -198.2802211277919
          ],
          [
            85.4521693799954,
            -198.3208672053934
          ],
          [
            86.18851193588193,
            -198.28944061531837
          ],
          [
            86.8666906429771,
            -198.2256793041749
          ],
          [
            87.6480403544896,
            -198.37974839385836
          ],
          [
            88.76982190395822,
            -197.6721391834247
          ],
          [
            89.6925608295605,
            -196.93400653641424
          ],
          [
            90.43075075679873,
            -196.38040931263512
          ],
          [
            91.16895281647317,
            -195.45772315056308
          ],
          [
            91.9071488099295,
            -194.71958145763753
          ],
          [
            92.8298877355318,
            -193.98144881062703
          ],
          [
            93.56809586142435,
            -192.87421817940853
          ],
          [
            93.75265092600655,
            -192.50513828703063
          ],
          [
            93.93720599058874,
            -192.1360583946528
          ],
          [
            94.12176712138904,
            -191.5824340331284
          ],
          [
            94.49088938298965,
            -190.47518531007972
          ],
          [
            95.22909750888222,
            -189.36795467886122
          ],
          [
            95.96729350233853,
            -188.62981298593562
          ],
          [
            96.70548949579485,
            -187.89167129301003
          ],
          [
            97.259130424669,
            -187.52260949246235
          ],
          [
            97.62822235517905,
            -187.33808311514602
          ],
          [
            97.99732035190722,
            -186.96901226868326
          ],
          [
            98.36641228241729,
            -186.78448589136696
          ],
          [
            98.73550421292731,
            -186.59995951405062
          ],
          [
            99.10459614343738,
            -186.41543313673432
          ],
          [
            99.47368807394743,
            -186.23090675941802
          ],
          [
            99.84278000445748,
            -186.04638038210172
          ],
          [
            100.21187193496755,
            -185.8618540047854
          ],
          [
            100.76550073140545,
            -185.86188114253068
          ],
          [
            101.13459266191552,
            -185.67735476521437
          ],
          [
            102.05730125642725,
            -185.86194446393628
          ],
          [
            102.98002198337522,
            -185.67744522436521
          ],
          [
            104.27184070705134,
            -185.12387513833139
          ],
          [
            105.56365943072748,
            -184.57030505229756
          ],
          [
            106.30183115931138,
            -184.57034123595793
          ],
          [
            106.67092308982143,
            -184.38581485864162
          ],
          [
            106.67092915603955,
            -184.20127038949514
          ],
          [
            106.85548422062172,
            -183.83219049711724
          ],
          [
            107.04005748385826,
            -182.90947719729994
          ],
          [
            107.40916154680453,
            -182.35586188169069
          ],
          [
            108.14735754026087,
            -181.6177201887651
          ],
          [
            109.07009039964504,
            -181.06413201090112
          ],
          [
            109.4391823301551,
            -180.87960563358482
          ],
          [
            109.99283539146548,
            -180.14145489474416
          ],
          [
            110.3619273219755,
            -179.95692851742785
          ],
          [
            111.46920311350567,
            -179.40334938547895
          ],
          [
            111.65374604565164,
            -179.40335843139403
          ],
          [
            112.20741123939823,
            -178.2961187542604
          ],
          [
            112.94561329907266,
            -177.37343259218835
          ],
          [
            113.49926636038303,
            -176.6352818533477
          ],
          [
            114.42201741842155,
            -175.52806026804427
          ],
          [
            115.16023767675033,
            -174.05174069853277
          ],
          [
            115.89845186886099,
            -172.75996559816778
          ]
        ]
      },
      "properties": {
        "type": "variant",
        "id": 2,
        "color": "#4444ff",
        "vzdal_m": 1916,
        "prevyseni_m": 89,
        "cas_s": 632,
        "tempo_str": "5:29"
      }
    },
    {
      "type": "Feature",
      "geometry": {
        "type": "LineString",
        "coordinates": [
          [
            58.135561710928556,
            -201.7306158827429
          ],
          [
            58.87372737329432,
            -201.91519653554974
          ],
          [
            59.61190516809632,
            -201.7306882500636
          ],
          [
            60.35007689668021,
            -201.73072443372394
          ],
          [
            60.90370569311812,
            -201.7307515714692
          ],
          [
            61.82642035384798,
            -201.73079680104462
          ],
          [
            62.195512284358024,
            -201.54627042372832
          ],
          [
            62.93367794672379,
            -201.73085107653515
          ],
          [
            63.671855741525796,
            -201.54634279104903
          ],
          [
            64.41002747010968,
            -201.54637897470937
          ],
          [
            65.70185226000392,
            -200.80826441952908
          ],
          [
            67.17821998204414,
            -200.07015891026384
          ],
          [
            68.10095284142832,
            -199.51657073239983
          ],
          [
            69.02370389946685,
            -198.40934914709638
          ],
          [
            70.31552868936109,
            -197.67123459191606
          ],
          [
            71.97643934354728,
            -196.93313812856593
          ],
          [
            73.45280099936937,
            -196.3795770884472
          ],
          [
            74.74462578926362,
            -195.6414625332669
          ],
          [
            75.66733438377537,
            -195.8260522319888
          ],
          [
            76.40550611235925,
            -195.82608841564917
          ],
          [
            77.14367784094314,
            -195.82612459930948
          ],
          [
            78.25092936760086,
            -196.0107233439465
          ],
          [
            78.98910716240285,
            -195.82621505846038
          ],
          [
            79.54273595884077,
            -195.8262421962056
          ],
          [
            80.6499996179347,
            -195.64175200254962
          ],
          [
            81.38817134651859,
            -195.64178818621
          ],
          [
            82.49543500561253,
            -195.45729799255403
          ],
          [
            83.4181617987786,
            -195.0882542838365
          ],
          [
            84.1563395935806,
            -194.9037459983504
          ],
          [
            84.89450525594637,
            -195.0883266511572
          ],
          [
            85.63267698453026,
            -195.08836283481753
          ],
          [
            86.55539164526012,
            -195.08840806439295
          ],
          [
            87.29359370493455,
            -194.16572190232094
          ],
          [
            88.03178969839088,
            -193.42758020939536
          ],
          [
            88.76998569184721,
            -192.68943851646978
          ],
          [
            89.50818775152166,
            -191.76675235439774
          ],
          [
            90.43092667712396,
            -191.02861970738724
          ],
          [
            91.7227514670182,
            -190.29050515220695
          ],
          [
            93.38366212120438,
            -189.55240868885681
          ],
          [
            94.86002984324459,
            -188.81430317959155
          ],
          [
            95.96729956855665,
            -188.44526851678913
          ],
          [
            96.89003849415894,
            -187.70713586977865
          ],
          [
            97.99732035190722,
            -186.96901226868326
          ],
          [
            98.36641228241729,
            -186.78448589136696
          ],
          [
            98.73550421292731,
            -186.59995951405062
          ],
          [
            99.10459614343738,
            -186.41543313673432
          ],
          [
            99.47368807394743,
            -186.23090675941802
          ],
          [
            99.84278000445748,
            -186.04638038210172
          ],
          [
            100.21187193496755,
            -185.8618540047854
          ],
          [
            100.76550073140545,
            -185.86188114253068
          ],
          [
            101.13459266191552,
            -185.67735476521437
          ],
          [
            102.05730125642725,
            -185.86194446393628
          ],
          [
            102.98002198337522,
            -185.67744522436521
          ],
          [
            104.27184070705134,
            -185.12387513833139
          ],
          [
            105.56365943072748,
            -184.57030505229756
          ],
          [
            106.30183115931138,
            -184.57034123595793
          ],
          [
            106.67092308982143,
            -184.38581485864162
          ],
          [
            106.67092915603955,
            -184.20127038949514
          ],
          [
            106.85548422062172,
            -183.83219049711724
          ],
          [
            107.04005748385826,
            -182.90947719729994
          ],
          [
            107.40916154680453,
            -182.35586188169069
          ],
          [
            108.33189440618872,
            -181.80227370382667
          ],
          [
            109.07009039964504,
            -181.06413201090112
          ],
          [
            109.4391823301551,
            -180.87960563358482
          ],
          [
            109.99283539146548,
            -180.14145489474416
          ],
          [
            110.3619273219755,
            -179.95692851742785
          ],
          [
            111.46920311350567,
            -179.40334938547895
          ],
          [
            111.65374604565164,
            -179.40335843139403
          ],
          [
            112.20741123939823,
            -178.2961187542604
          ],
          [
            112.94561329907266,
            -177.37343259218835
          ],
          [
            113.49926636038303,
            -176.6352818533477
          ],
          [
            114.42201741842155,
            -175.52806026804427
          ],
          [
            115.16023767675033,
            -174.05174069853277
          ],
          [
            115.89845186886099,
            -172.75996559816778
          ]
        ]
      },
      "properties": {
        "type": "variant",
        "id": 3,
        "color": "#44ff44",
        "vzdal_m": 1881,
        "prevyseni_m": 92,
        "cas_s": 644,
        "tempo_str": "5:42"
      }
    }
  ]
}