{
  "type": "FeatureCollection",
  "features": [
    {
      "type": "Feature",
      "geometry": {
        "type": "Point",
        "coordinates": [
          137.7097555486345,
          -206.1745921092179
        ]
      },
      "properties": {
        "type": "start",
        "isom": "204"
      }
    },
    {
      "type": "Feature",
      "geometry": {
        "type": "Point",
        "coordinates": [
          64.92472274392877,
          -246.2764469670204
        ]
      },
      "properties": {
        "type": "end",
        "isom": "204"
      }
    },
    {
      "type": "Feature",
      "geometry": {
        "type": "LineString",
        "coordinates": [
          [
            137.6293320708029,
            -206.13024973441088
          ],
          [
            135.41469994282215,
            -207.60660563866554
          ],
          [
            133.2000678148414,
            -209.08296154292023
          ],
          [
            130.6163543343307,
            -210.19019920340992
          ],
          [
            128.40175100891017,
            -210.92834203429564
          ],
          [
            125.4489273733093,
            -212.40467452438926
          ],
          [
            124.34158250675875,
            -213.88106554988556
          ],
          [
            122.86512748511801,
            -215.72655140498577
          ],
          [
            121.3887012660375,
            -216.83382418671704
          ],
          [
            119.54316489186682,
            -218.31019179805227
          ],
          [
            118.43582002531626,
            -219.78658282354857
          ],
          [
            116.95937940495564,
            -221.26296214196435
          ],
          [
            115.482938784595,
            -222.73934146038007
          ],
          [
            113.26830665661427,
            -224.2156973646348
          ],
          [
            112.53008634643396,
            -224.95388702384264
          ],
          [
            111.79188043753375,
            -225.32297014636603
          ],
          [
            110.68457877482348,
            -225.69204156180894
          ],
          [
            109.94637286592327,
            -226.06112468433233
          ],
          [
            108.46991784428256,
            -227.90661053943256
          ],
          [
            105.88620436377184,
            -229.01384819992225
          ],
          [
            102.93338072817099,
            -230.49018069001585
          ],
          [
            99.98055709257014,
            -231.96651318010947
          ],
          [
            97.02773345696929,
            -233.4428456702031
          ],
          [
            94.07489542008832,
            -235.28828469698115
          ],
          [
            91.12208618576757,
            -236.39551065039032
          ],
          [
            88.90749726162713,
            -236.7645469445916
          ],
          [
            87.06198969001665,
            -237.50270148255785
          ],
          [
            84.84737196331601,
            -238.60995085012806
          ],
          [
            82.26367288408541,
            -239.3480819739333
          ],
          [
            80.04908395994497,
            -239.71711826813453
          ],
          [
            78.94179669851478,
            -239.71708314689295
          ],
          [
            76.35808321800408,
            -240.82432080738263
          ],
          [
            74.51259004767368,
            -241.19336880866442
          ],
          [
            73.03620703243347,
            -241.1933219803423
          ],
          [
            70.45247915064266,
            -242.66966617751643
          ],
          [
            67.86875126885187,
            -244.14601037469058
          ],
          [
            67.13055976123175,
            -244.1459869605295
          ],
          [
            66.39235385233154,
            -244.5150700830529
          ],
          [
            64.91589883069082,
            -246.36055593815314
          ]
        ]
      },
      "properties": {
        "type": "variant",
        "id": 1,
        "color": "#ff4444",
        "vzdal_m": 1155,
        "prevyseni_m": 7,
        "cas_s": 320,
        "tempo_str": "4:37"
      }
    },
    {
      "type": "Feature",
      "geometry": {
        "type": "LineString",
        "coordinates": [
          [
            137.6293320708029,
            -206.13024973441088
          ],
          [
            135.7838389004725,
            -206.49929773569264
          ],
          [
            134.30745588523226,
            -206.49925090737054
          ],
          [
            132.4619627149019,
            -206.86829890865232
          ],
          [
            130.24737379076143,
            -207.2373352028536
          ],
          [
            128.7709763742411,
            -207.60639491121592
          ],
          [
            127.29457895772077,
            -207.97545461957827
          ],
          [
            125.81821034376063,
            -207.60630125457163
          ],
          [
            125.08001883614051,
            -207.60627784041057
          ],
          [
            123.97271717343024,
            -207.97534925585344
          ],
          [
            121.38898929163945,
            -209.4516934530276
          ],
          [
            118.80526140984865,
            -210.92803765020173
          ],
          [
            116.22156233061806,
            -211.66616877400696
          ],
          [
            114.00695900519752,
            -212.4043116048927
          ],
          [
            113.2687674975774,
            -212.40428819073162
          ],
          [
            112.53056158867719,
            -212.773371313255
          ],
          [
            111.42321672212661,
            -214.2497623387513
          ],
          [
            108.83950324161592,
            -215.356999999241
          ],
          [
            106.62495752131575,
            -214.61871668338884
          ],
          [
            105.14858890735563,
            -214.24956331838223
          ],
          [
            104.77949315354557,
            -214.24955161130168
          ],
          [
            103.6721914908353,
            -214.6186230267446
          ],
          [
            101.0884636090445,
            -216.0949672239187
          ],
          [
            99.61202298868388,
            -217.57134654233448
          ],
          [
            97.02829510689308,
            -219.04769073950865
          ],
          [
            94.44458162638239,
            -220.15492839999828
          ],
          [
            91.49175799078152,
            -221.6312608900919
          ],
          [
            88.53893435518067,
            -223.10759338018553
          ],
          [
            88.16983860137061,
            -223.107581673105
          ],
          [
            87.4316326924704,
            -223.47666479562838
          ],
          [
            84.8478904093995,
            -225.32211552948704
          ],
          [
            82.264205731449,
            -225.69114011660776
          ],
          [
            80.04955920218816,
            -227.5366025575469
          ],
          [
            78.9422143356376,
            -229.01299358304323
          ],
          [
            77.46575931399688,
            -230.85847943814343
          ],
          [
            75.98933309491636,
            -231.96575221987473
          ],
          [
            74.51287807327564,
            -233.81123807497494
          ],
          [
            73.03639424907473,
            -236.39493700344414
          ],
          [
            72.04635985220615,
            -238.24043828696736
          ],
          [
            71.9444458598692,
            -239.34775466585512
          ],
          [
            70.45252235448297,
            -241.562346567463
          ],
          [
            68.60698598031227,
            -243.03871417879824
          ],
          [
            67.86876567013196,
            -243.77690383800612
          ],
          [
            67.13055976123175,
            -244.1459869605295
          ],
          [
            66.39235385233154,
            -244.5150700830529
          ],
          [
            64.91589883069082,
            -246.36055593815314
          ]
        ]
      },
      "properties": {
        "type": "variant",
        "id": 2,
        "color": "#4444ff",
        "vzdal_m": 1200,
        "prevyseni_m": 3,
        "cas_s": 321,
        "tempo_str": "4:27"
      }
    },
    {
      "type": "Feature",
      "geometry": {
        "type": "LineString",
        "coordinates": [
          [
            137.6293320708029,
            -206.13024973441088
          ],
          [
            135.78386770303268,
            -205.7610846623237
          ],
          [
            134.30748468779245,
            -205.7610378340016
          ],
          [
            132.83110167255222,
            -205.76099100567941
          ],
          [
            130.98562290350193,
            -205.76093247027677
          ],
          [
            129.87833564207176,
            -205.76089734903516
          ],
          [
            128.03284247174136,
            -206.12994535031697
          ],
          [
            126.55645945650113,
            -206.12989852199482
          ],
          [
            124.341913736201,
            -205.3916152061427
          ],
          [
            123.60373662986098,
            -205.02248525529714
          ],
          [
            122.86555952352094,
            -204.65335530445157
          ],
          [
            122.12738241718093,
            -204.28422535360602
          ],
          [
            121.38919090956081,
            -204.28420193944496
          ],
          [
            120.6509850006606,
            -204.65328506196838
          ],
          [
            119.17454438029998,
            -206.12966438038413
          ],
          [
            117.3290080061293,
            -207.60603199171936
          ],
          [
            114.37618437052843,
            -209.082364481813
          ],
          [
            112.53069120019805,
            -209.45141248309477
          ],
          [
            110.31614547989791,
            -208.7131291672426
          ],
          [
            108.4706811121277,
            -208.34396409515546
          ],
          [
            106.62517354051722,
            -209.08211863312175
          ],
          [
            104.41058461637678,
            -209.451154927323
          ],
          [
            101.82688553714618,
            -210.1892860511282
          ],
          [
            99.61226781044554,
            -211.29653541869843
          ],
          [
            97.02853992865472,
            -212.7728796158726
          ],
          [
            95.18303235704424,
            -213.51103415383884
          ],
          [
            92.59931887653354,
            -214.61827181432852
          ],
          [
            92.23020872144339,
            -214.98736664393246
          ],
          [
            91.86109856635323,
            -215.3564614735364
          ],
          [
            91.12289265745302,
            -215.7255445960598
          ],
          [
            90.38468674855281,
            -216.09462771858318
          ],
          [
            88.17005462057207,
            -217.5709836228379
          ],
          [
            85.58632673878128,
            -219.04732782001204
          ],
          [
            83.74083356845088,
            -219.41637582129383
          ],
          [
            82.26445055321065,
            -219.41632899297173
          ],
          [
            80.04980402394982,
            -221.26179143391084
          ],
          [
            78.573334601029,
            -223.47638382569556
          ],
          [
            77.09687957938829,
            -225.32186968079577
          ],
          [
            75.2513288039375,
            -227.1673438288155
          ],
          [
            74.51312289503728,
            -227.53642695133888
          ],
          [
            73.82563689464078,
            -229.3867026036732
          ],
          [
            73.7537207396152,
            -230.15280928127527
          ],
          [
            73.61662692753114,
            -231.61631663307145
          ],
          [
            73.51025922318176,
            -233.1268475192397
          ],
          [
            72.43736291256705,
            -235.09031653473969
          ],
          [
            72.04640305604644,
            -237.13311867691394
          ],
          [
            71.961986745441,
            -238.98268128213547
          ],
          [
            71.9444458598692,
            -239.34775466585512
          ],
          [
            70.45252235448297,
            -241.562346567463
          ],
          [
            68.97606733284223,
            -243.40783242256325
          ],
          [
            67.86876567013196,
            -243.77690383800612
          ],
          [
            67.13055976123175,
            -244.1459869605295
          ],
          [
            66.39235385233154,
            -244.5150700830529
          ],
          [
            64.91589883069082,
            -246.36055593815314
          ]
        ]
      },
      "properties": {
        "type": "variant",
        "id": 3,
        "color": "#44ff44",
        "vzdal_m": 1274,
        "prevyseni_m": 4,
        "cas_s": 341,
        "tempo_str": "4:27"
      }
    }
  ]
}