{
  "type": "FeatureCollection",
  "features": [
    {
      "type": "Feature",
      "geometry": {
        "type": "Point",
        "coordinates": [
          186.78723611115862,
          -104.0259134999416
        ]
      },
      "properties": {
        "type": "start",
        "isom": "109"
      }
    },
    {
      "type": "Feature",
      "geometry": {
        "type": "Point",
        "coordinates": [
          198.2570294887899,
          -79.10411421617876
        ]
      },
      "properties": {
        "type": "end",
        "isom": "109"
      }
    },
    {
      "type": "Feature",
      "geometry": {
        "type": "LineString",
        "coordinates": [
          [
            186.76519444605128,
            -104.11289670707093
          ],
          [
            186.76521871092376,
            -103.37471883048502
          ],
          [
            186.76524297579618,
            -102.63654095389911
          ],
          [
            186.76526724066863,
            -101.89836307731319
          ],
          [
            186.7652915055411,
            -101.16018520072728
          ],
          [
            186.76530970419543,
            -100.60655179328785
          ],
          [
            186.9498647687776,
            -100.23747190090998
          ],
          [
            186.94987083499572,
            -100.05292743176351
          ],
          [
            187.1344258995779,
            -99.68384753938564
          ],
          [
            187.50354816117851,
            -98.57659881633693
          ],
          [
            187.50356635983286,
            -98.02296540889749
          ],
          [
            187.68812142441507,
            -97.65388551651962
          ],
          [
            187.68812749063315,
            -97.46934104737313
          ],
          [
            187.87268255521536,
            -97.10026115499527
          ],
          [
            188.05725581845186,
            -96.17754785517796
          ],
          [
            188.05726188467,
            -95.99300338603149
          ],
          [
            188.24181694925218,
            -95.62392349365362
          ],
          [
            188.42636594761626,
            -95.43938807042224
          ],
          [
            188.61092101219847,
            -95.07030817804437
          ],
          [
            189.16459227216316,
            -93.77852403176426
          ],
          [
            189.90281253049196,
            -92.30220446225277
          ],
          [
            190.64102065638448,
            -91.19497383103426
          ],
          [
            191.01012471933078,
            -90.641358515425
          ],
          [
            191.194679783913,
            -90.27227862304713
          ],
          [
            191.56377778064112,
            -89.90320777658434
          ],
          [
            191.74833284522336,
            -89.53412788420647
          ],
          [
            191.9328818435874,
            -89.34959246097507
          ],
          [
            192.11743690816962,
            -88.9805125685972
          ],
          [
            192.3019859065337,
            -88.79597714536582
          ],
          [
            192.4865409711159,
            -88.42689725298794
          ],
          [
            192.4865531035521,
            -88.05780831469498
          ],
          [
            192.6711081681343,
            -87.68872842231711
          ],
          [
            192.6711142343524,
            -87.50418395317064
          ],
          [
            192.8556692989346,
            -87.13510406079277
          ],
          [
            193.22476122944468,
            -86.95057768347645
          ],
          [
            193.40931629402684,
            -86.58149779109858
          ],
          [
            194.14751228748318,
            -85.84335609817302
          ],
          [
            194.88571434715766,
            -84.92066993610098
          ],
          [
            195.0702633455217,
            -84.73613451286958
          ],
          [
            195.2548184101039,
            -84.36705462049171
          ],
          [
            195.99301440356024,
            -83.62891292756615
          ],
          [
            196.54667959730682,
            -82.52167325043253
          ],
          [
            196.36216699625137,
            -81.59894185878505
          ],
          [
            196.91582612377985,
            -80.67624665079792
          ],
          [
            197.10037512214396,
            -80.49171122756654
          ],
          [
            197.28493018672614,
            -80.12263133518866
          ],
          [
            198.0231322464006,
            -79.1999451731166
          ],
          [
            198.20768124476464,
            -79.01540974988522
          ]
        ]
      },
      "properties": {
        "type": "variant",
        "id": 1,
        "color": "#ff4444",
        "vzdal_m": 778,
        "prevyseni_m": 10,
        "cas_s": 254,
        "tempo_str": "5:26"
      }
    },
    {
      "type": "Feature",
      "geometry": {
        "type": "LineString",
        "coordinates": [
          [
            186.76519444605128,
            -104.11289670707093
          ],
          [
            187.6879333716536,
            -103.37476406006044
          ],
          [
            188.42612936510994,
            -102.63662236713489
          ],
          [
            188.97978242642031,
            -101.89847162829423
          ],
          [
            189.3488864893666,
            -101.34485631268497
          ],
          [
            189.5334415539488,
            -100.9757764203071
          ],
          [
            190.2716254149689,
            -100.60672366567448
          ],
          [
            190.45618047955108,
            -100.23764377329661
          ],
          [
            191.00985173951577,
            -98.94585962701653
          ],
          [
            191.37894973624392,
            -98.57678878055376
          ],
          [
            191.5635048008261,
            -98.20770888817586
          ],
          [
            192.1171760607908,
            -96.91592474189578
          ],
          [
            192.8553963191196,
            -95.43960517238429
          ],
          [
            193.4090675790843,
            -94.14782102610421
          ],
          [
            193.9627449052671,
            -92.67149241067764
          ],
          [
            194.33184290199526,
            -92.30242156421485
          ],
          [
            194.88550202952374,
            -91.37972635622772
          ],
          [
            195.25458789381568,
            -91.37974444805789
          ],
          [
            195.62368589054384,
            -91.01067360159512
          ],
          [
            195.80823488890792,
            -90.82613817836372
          ],
          [
            196.17736321672666,
            -89.53434498616855
          ],
          [
            196.9155713426192,
            -88.42711435495002
          ],
          [
            197.1001264072014,
            -88.05803446257215
          ],
          [
            197.28468147178359,
            -87.68895457019427
          ],
          [
            197.65377340229364,
            -87.50442819287797
          ],
          [
            197.8383224006577,
            -87.31989276964659
          ],
          [
            198.02287746523993,
            -86.9508128772687
          ],
          [
            198.02290173011232,
            -86.2126350006828
          ],
          [
            198.0229259949848,
            -85.47445712409687
          ],
          [
            198.02295025985725,
            -84.73627924751096
          ],
          [
            198.0229745247297,
            -83.99810137092506
          ],
          [
            198.02299878960213,
            -83.25992349433913
          ],
          [
            198.39212105120274,
            -82.15267477129045
          ],
          [
            198.39214531607522,
            -81.41449689470453
          ],
          [
            198.57671857931172,
            -80.49178359488721
          ],
          [
            198.57673071174796,
            -80.12269465659426
          ],
          [
            198.3921999120382,
            -79.75359667238622
          ],
          [
            198.20768124476464,
            -79.01540974988522
          ]
        ]
      },
      "properties": {
        "type": "variant",
        "id": 2,
        "color": "#4444ff",
        "vzdal_m": 793,
        "prevyseni_m": 10,
        "cas_s": 255,
        "tempo_str": "5:22"
      }
    },
    {
      "type": "Feature",
      "geometry": {
        "type": "LineString",
        "coordinates": [
          [
            186.76519444605128,
            -104.11289670707093
          ],
          [
            186.5806818449959,
            -103.19016531542346
          ],
          [
            186.58070610986834,
            -102.45198743883755
          ],
          [
            186.39617531015858,
            -102.0828894546295
          ],
          [
            185.65804604510149,
            -100.79104198694381
          ],
          [
            185.6580703099739,
            -100.0528641103579
          ],
          [
            185.65808850862825,
            -99.49923070291847
          ],
          [
            185.28903904164497,
            -98.39194579620941
          ],
          [
            185.28906330651745,
            -97.6537679196235
          ],
          [
            185.28908757138987,
            -96.91559004303758
          ],
          [
            185.28911183626232,
            -96.17741216645167
          ],
          [
            185.28913610113477,
            -95.43923428986575
          ],
          [
            185.47369116571696,
            -95.0701543974879
          ],
          [
            185.65824623029914,
            -94.70107450511003
          ],
          [
            185.84281949353567,
            -93.77836120529271
          ],
          [
            185.84284375840812,
            -93.0401833287068
          ],
          [
            185.6583250911346,
            -92.3019964062058
          ],
          [
            185.65835542222516,
            -91.3792740604734
          ],
          [
            186.21202668218984,
            -90.08748991419331
          ],
          [
            186.7656797435002,
            -89.34933917535267
          ],
          [
            186.9502469405186,
            -88.61117034468184
          ],
          [
            187.68845506641117,
            -87.50393971346331
          ],
          [
            188.05755306313935,
            -87.13486886700052
          ],
          [
            188.2421081277215,
            -86.76578897462265
          ],
          [
            188.24211419393964,
            -86.58124450547618
          ],
          [
            188.42666925852183,
            -86.21216461309831
          ],
          [
            189.16488951685062,
            -84.73584504358682
          ],
          [
            189.7185547105972,
            -83.62860536645321
          ],
          [
            190.08764664110726,
            -83.44407898913691
          ],
          [
            191.37946536478339,
            -82.89050890310307
          ],
          [
            192.48673509009544,
            -82.52147424030063
          ],
          [
            192.67129622089573,
            -81.96784987877628
          ],
          [
            193.59404121271618,
            -81.04517276261933
          ],
          [
            194.7013109380282,
            -80.67613809981688
          ],
          [
            195.4394826666121,
            -80.67617428347724
          ],
          [
            196.1776604614141,
            -80.49166599799109
          ],
          [
            196.54675239192414,
            -80.30713962067479
          ],
          [
            196.9158443224342,
            -80.12261324335849
          ],
          [
            197.28493625294425,
            -79.93808686604218
          ],
          [
            198.0231322464006,
            -79.1999451731166
          ],
          [
            198.20768124476464,
            -79.01540974988522
          ]
        ]
      },
      "properties": {
        "type": "variant",
        "id": 3,
        "color": "#44ff44",
        "vzdal_m": 870,
        "prevyseni_m": 8,
        "cas_s": 258,
        "tempo_str": "4:56"
      }
    }
  ]
}