{
  "type": "FeatureCollection",
  "features": [
    {
      "type": "Feature",
      "geometry": {
        "type": "Point",
        "coordinates": [
          66.56031127285945,
          -97.72386009202464
        ]
      },
      "properties": {
        "type": "start",
        "isom": "417"
      }
    },
    {
      "type": "Feature",
      "geometry": {
        "type": "Point",
        "coordinates": [
          103.40243099289891,
          -70.6059335741146
        ]
      },
      "properties": {
        "type": "end",
        "isom": "109"
      }
    },
    {
      "type": "Feature",
      "geometry": {
        "type": "LineString",
        "coordinates": [
          [
            66.53009920680489,
            -97.72988822751077
          ],
          [
            66.53011133924112,
            -97.36079928890027
          ],
          [
            66.80694696922342,
            -96.71490721586261
          ],
          [
            66.89923360084167,
            -96.2535505657764
          ],
          [
            66.99152023245992,
            -95.79219391569015
          ],
          [
            66.99153236489612,
            -95.42310497707965
          ],
          [
            66.99154449733234,
            -95.05401603846914
          ],
          [
            66.99155662976855,
            -94.68492709985864
          ],
          [
            67.08383416205963,
            -94.5003871537303
          ],
          [
            67.08384629449586,
            -94.1312982151198
          ],
          [
            67.08385842693205,
            -93.7622092765093
          ],
          [
            67.08387055936828,
            -93.3931203378988
          ],
          [
            67.36070618935058,
            -92.74722826486114
          ],
          [
            67.45298372164166,
            -92.56268831873278
          ],
          [
            67.63754485244195,
            -92.00906395717085
          ],
          [
            67.72983148406018,
            -91.54770730708462
          ],
          [
            67.91438958175141,
            -91.08635518017532
          ],
          [
            68.28348757847952,
            -90.71728433427243
          ],
          [
            68.65258557520765,
            -90.34821348836955
          ],
          [
            69.11395503800874,
            -89.97914716564358
          ],
          [
            69.57532450080986,
            -89.6100808429176
          ],
          [
            70.2212368957569,
            -89.24102356654545
          ],
          [
            70.95942075677694,
            -88.87197081335019
          ],
          [
            71.60533315172398,
            -88.50291353697803
          ],
          [
            72.06670261452508,
            -88.13384721425206
          ],
          [
            72.52807207732619,
            -87.76478089152609
          ],
          [
            72.8971761402724,
            -87.21116557631795
          ],
          [
            73.26627413700054,
            -86.84209473041507
          ],
          [
            73.81991506587461,
            -86.473032930866
          ],
          [
            74.55809892689464,
            -86.10398017767073
          ],
          [
            74.92719692362276,
            -85.73490933176787
          ],
          [
            75.48083785249685,
            -85.3658475322188
          ],
          [
            75.94220731529794,
            -84.99678120949282
          ],
          [
            76.68039117631797,
            -84.62772845629758
          ],
          [
            77.04948917304608,
            -84.25865761039469
          ],
          [
            77.41858413666516,
            -83.98185899914444
          ],
          [
            77.8799445001391,
            -83.88960938037634
          ],
          [
            78.34130486361303,
            -83.79735976160823
          ],
          [
            79.07948872463307,
            -83.42830700841299
          ],
          [
            79.26403468988808,
            -83.33604382011417
          ],
          [
            79.81765742010784,
            -83.52061542848085
          ],
          [
            80.18674328439974,
            -83.52063352118847
          ],
          [
            80.55582914869164,
            -83.52065161389609
          ],
          [
            80.92491501298355,
            -83.52066970660371
          ],
          [
            81.29400087727547,
            -83.52068779931135
          ],
          [
            81.66308674156737,
            -83.52070589201897
          ],
          [
            82.12444710504131,
            -83.42845627325086
          ],
          [
            82.7703564668793,
            -83.15167123153132
          ],
          [
            82.8626279329523,
            -83.15167575470824
          ],
          [
            82.95490849835242,
            -82.87486357392727
          ],
          [
            83.41627796115353,
            -82.5057972512013
          ],
          [
            83.9699188900276,
            -82.13673545165221
          ],
          [
            84.33901991986477,
            -81.67539237109672
          ],
          [
            84.70812094970195,
            -81.21404929054121
          ],
          [
            84.80039544888399,
            -81.1217815790655
          ],
          [
            85.07721591332101,
            -80.93725067929097
          ],
          [
            85.35403334464901,
            -80.84499201416905
          ],
          [
            85.72312224204995,
            -80.75273787222405
          ],
          [
            86.27675710470594,
            -80.56822054198022
          ],
          [
            86.92266646654393,
            -80.2914355002607
          ],
          [
            87.66085032756396,
            -79.92238274706544
          ],
          [
            87.84539629281898,
            -79.83011955876663
          ],
          [
            87.9376647257829,
            -79.92239631659616
          ],
          [
            88.21449125643804,
            -79.55332094751637
          ],
          [
            88.39904328791116,
            -79.27651328991232
          ],
          [
            88.95268421678523,
            -78.90745149036323
          ],
          [
            89.5063251456593,
            -78.53838969081417
          ],
          [
            89.9676946084604,
            -78.1693233680882
          ],
          [
            90.42907013747961,
            -77.61571257605698
          ],
          [
            90.79817116731678,
            -77.15436949550147
          ],
          [
            91.16727523026302,
            -76.60075418029334
          ],
          [
            91.35183029484519,
            -76.23167428803664
          ],
          [
            91.62866289171843,
            -75.67805444965161
          ],
          [
            91.90549245548263,
            -75.2167068459192
          ],
          [
            92.18230988681063,
            -75.12444818079729
          ],
          [
            92.64367631650266,
            -74.84765409272394
          ],
          [
            93.10504577930377,
            -74.47858776999797
          ],
          [
            93.84322964032378,
            -74.10953501680271
          ],
          [
            94.3045991031249,
            -73.74046869407674
          ],
          [
            95.04278296414492,
            -73.37141594088149
          ],
          [
            95.68869232598294,
            -73.09463089916194
          ],
          [
            96.33460472092997,
            -72.72557362278978
          ],
          [
            96.7037027176581,
            -72.35650277688691
          ],
          [
            97.07279161505907,
            -72.26424863494191
          ],
          [
            97.44187747935096,
            -72.26426672764953
          ],
          [
            97.90324390904303,
            -71.98747263957617
          ],
          [
            98.27234190577116,
            -71.6184017936733
          ],
          [
            98.64143990249927,
            -71.24933094777042
          ],
          [
            99.19508083137335,
            -70.88026914822136
          ],
          [
            99.74872176024742,
            -70.51120734867229
          ],
          [
            100.3023566229034,
            -70.32669001842847
          ],
          [
            100.67144248719529,
            -70.32670811113609
          ],
          [
            100.94825688541424,
            -70.32672168066681
          ],
          [
            101.40961118267006,
            -70.41901653120397
          ],
          [
            101.77869704696197,
            -70.41903462391159
          ],
          [
            102.14778291125388,
            -70.4190527166192
          ],
          [
            102.60913720850971,
            -70.51134756715636
          ],
          [
            102.97822307280161,
            -70.51136565986398
          ],
          [
            103.43957737005744,
            -70.60366051040113
          ]
        ]
      },
      "properties": {
        "type": "variant",
        "id": 1,
        "color": "#ff4444",
        "vzdal_m": 2718,
        "prevyseni_m": 30,
        "cas_s": 706,
        "tempo_str": "4:19"
      }
    },
    {
      "type": "Feature",
      "geometry": {
        "type": "LineString",
        "coordinates": [
          [
            66.53009920680489,
            -97.72988822751077
          ],
          [
            66.89919720353302,
            -97.36081738160789
          ],
          [
            67.26829520026115,
            -96.991746535705
          ],
          [
            68.00647906128117,
            -96.62269378250974
          ],
          [
            68.65239145622823,
            -96.2536365061376
          ],
          [
            69.0214924860654,
            -95.79229342558207
          ],
          [
            69.4828680150846,
            -95.23868263355087
          ],
          [
            69.57514251426664,
            -95.14641492207515
          ],
          [
            69.75968847952164,
            -95.05415173377632
          ],
          [
            70.49787234054168,
            -94.68509898058107
          ],
          [
            70.95924180334278,
            -94.31603265785509
          ],
          [
            71.32833980007089,
            -93.9469618119522
          ],
          [
            71.69743779679902,
            -93.57789096604932
          ],
          [
            72.15880725960011,
            -93.20882464332335
          ],
          [
            72.80471965454717,
            -92.8397673669512
          ],
          [
            73.35836058342124,
            -92.47070556740212
          ],
          [
            73.81973004622235,
            -92.10163924467615
          ],
          [
            74.0965565768775,
            -91.73256387559636
          ],
          [
            74.4656545736056,
            -91.36349302969349
          ],
          [
            74.83475257033373,
            -90.9944221837906
          ],
          [
            75.20385966638902,
            -90.34853463392986
          ],
          [
            75.57296372933524,
            -89.79491931872172
          ],
          [
            75.94206779228148,
            -89.24130400351359
          ],
          [
            76.31116882211865,
            -88.77996092295808
          ],
          [
            76.68026681884677,
            -88.41089007705521
          ],
          [
            76.95709334950192,
            -88.04181470797542
          ],
          [
            77.14165144719314,
            -87.5804625810661
          ],
          [
            77.51074944392127,
            -87.21139173516323
          ],
          [
            77.69530450850344,
            -86.84231184290654
          ],
          [
            78.06440857144966,
            -86.2886965276984
          ],
          [
            78.52577803425076,
            -85.91963020497244
          ],
          [
            78.89488209719698,
            -85.36601488976432
          ],
          [
            79.44852302607107,
            -84.99695309021523
          ],
          [
            80.09443238790907,
            -84.7201680484957
          ],
          [
            80.371246786128,
            -84.72018161802642
          ],
          [
            80.5557866851649,
            -84.81246289903285
          ],
          [
            80.64805511812882,
            -84.90473965686239
          ],
          [
            81.10942154782086,
            -84.62794556878904
          ],
          [
            81.57078797751292,
            -84.35115148071569
          ],
          [
            81.93988597424104,
            -83.98208063481282
          ],
          [
            82.30898397096915,
            -83.61300978890993
          ],
          [
            82.67808196769728,
            -83.24393894300705
          ],
          [
            82.95490849835242,
            -82.87486357392727
          ],
          [
            83.41627796115353,
            -82.5057972512013
          ],
          [
            83.9699188900276,
            -82.13673545165221
          ],
          [
            84.33901991986477,
            -81.67539237109672
          ],
          [
            84.70812094970195,
            -81.21404929054121
          ],
          [
            85.07721591332101,
            -80.93725067929097
          ],
          [
            85.35403334464901,
            -80.84499201416905
          ],
          [
            85.72312224204995,
            -80.75273787222405
          ],
          [
            86.27675710470594,
            -80.56822054198022
          ],
          [
            86.92266646654393,
            -80.2914355002607
          ],
          [
            87.56857582838194,
            -80.01465045854115
          ],
          [
            87.75312179363694,
            -79.92238727024234
          ],
          [
            87.84539629281898,
            -79.83011955876663
          ],
          [
            88.30676575562006,
            -79.46105323604066
          ],
          [
            88.39904328791116,
            -79.27651328991232
          ],
          [
            88.95268421678523,
            -78.90745149036323
          ],
          [
            89.5063251456593,
            -78.53838969081417
          ],
          [
            89.9676946084604,
            -78.1693233680882
          ],
          [
            90.42907013747961,
            -77.61571257605698
          ],
          [
            90.79817116731678,
            -77.15436949550147
          ],
          [
            91.16727523026302,
            -76.60075418029334
          ],
          [
            91.35183029484519,
            -76.23167428803664
          ],
          [
            91.62866289171843,
            -75.67805444965161
          ],
          [
            91.90549245548263,
            -75.2167068459192
          ],
          [
            92.18230988681063,
            -75.12444818079729
          ],
          [
            92.64367631650266,
            -74.84765409272394
          ],
          [
            93.10504577930377,
            -74.47858776999797
          ],
          [
            93.84322964032378,
            -74.10953501680271
          ],
          [
            94.3045991031249,
            -73.74046869407674
          ],
          [
            95.04278296414492,
            -73.37141594088149
          ],
          [
            95.68869232598294,
            -73.09463089916194
          ],
          [
            96.33460472092997,
            -72.72557362278978
          ],
          [
            96.7037027176581,
            -72.35650277688691
          ],
          [
            97.07279161505907,
            -72.26424863494191
          ],
          [
            97.44187747935096,
            -72.26426672764953
          ],
          [
            97.90324390904303,
            -71.98747263957617
          ],
          [
            98.27234190577116,
            -71.6184017936733
          ],
          [
            98.64143990249927,
            -71.24933094777042
          ],
          [
            99.19508083137335,
            -70.88026914822136
          ],
          [
            99.74872176024742,
            -70.51120734867229
          ],
          [
            100.3023566229034,
            -70.32669001842847
          ],
          [
            100.67144248719529,
            -70.32670811113609
          ],
          [
            100.94825688541424,
            -70.32672168066681
          ],
          [
            101.40961118267006,
            -70.41901653120397
          ],
          [
            101.77869704696197,
            -70.41903462391159
          ],
          [
            102.14778291125388,
            -70.4190527166192
          ],
          [
            102.60913720850971,
            -70.51134756715636
          ],
          [
            102.97822307280161,
            -70.51136565986398
          ],
          [
            103.43957737005744,
            -70.60366051040113
          ]
        ]
      },
      "properties": {
        "type": "variant",
        "id": 2,
        "color": "#4444ff",
        "vzdal_m": 2607,
        "prevyseni_m": 35,
        "cas_s": 706,
        "tempo_str": "4:30"
      }
    },
    {
      "type": "Feature",
      "geometry": {
        "type": "LineString",
        "coordinates": [
          [
            66.53009920680489,
            -97.72988822751077
          ],
          [
            66.89919720353302,
            -97.36081738160789
          ],
          [
            67.26829520026115,
            -96.991746535705
          ],
          [
            68.00647906128117,
            -96.62269378250974
          ],
          [
            68.65239145622823,
            -96.2536365061376
          ],
          [
            69.0214924860654,
            -95.79229342558207
          ],
          [
            69.4828680150846,
            -95.23868263355087
          ],
          [
            69.57514251426664,
            -95.14641492207515
          ],
          [
            69.75968847952164,
            -95.05415173377632
          ],
          [
            70.49787234054168,
            -94.68509898058107
          ],
          [
            70.95924180334278,
            -94.31603265785509
          ],
          [
            71.32833980007089,
            -93.9469618119522
          ],
          [
            71.69743779679902,
            -93.57789096604932
          ],
          [
            72.15880725960011,
            -93.20882464332335
          ],
          [
            72.80471965454717,
            -92.8397673669512
          ],
          [
            73.35836058342124,
            -92.47070556740212
          ],
          [
            73.81973004622235,
            -92.10163924467615
          ],
          [
            74.18883107605953,
            -91.64029616412064
          ],
          [
            74.7424720049336,
            -91.27123436457158
          ],
          [
            75.29610686758957,
            -91.08671703432776
          ],
          [
            75.66519273188148,
            -91.08673512703538
          ],
          [
            76.40337659290151,
            -90.71768237384012
          ],
          [
            77.0492859547395,
            -90.44089733212058
          ],
          [
            77.78746981575954,
            -90.07184457892534
          ],
          [
            78.52565367677957,
            -89.70279182573007
          ],
          [
            79.26383753779959,
            -89.33373907253483
          ],
          [
            79.81747240045556,
            -89.149221742291
          ],
          [
            80.37110726311153,
            -88.96470441204718
          ],
          [
            81.10927292547724,
            -89.14928506676769
          ],
          [
            81.47835878976915,
            -89.14930315947531
          ],
          [
            81.84744465406106,
            -89.14932125218293
          ],
          [
            82.21653051835297,
            -89.14933934489055
          ],
          [
            82.40107041738986,
            -89.24162062589699
          ],
          [
            82.77015628168178,
            -89.2416387186046
          ],
          [
            83.13924214597368,
            -89.24165681131223
          ],
          [
            83.50832801026559,
            -89.24167490401985
          ],
          [
            84.06196287292155,
            -89.05715757377604
          ],
          [
            84.61560380179564,
            -88.68809577422697
          ],
          [
            84.80014673394159,
            -88.68810482058079
          ],
          [
            85.16924776377877,
            -88.22676174002528
          ],
          [
            85.53834879361594,
            -87.76541865946977
          ],
          [
            85.90745285656217,
            -87.21180334426164
          ],
          [
            86.36882231936328,
            -86.84273702153567
          ],
          [
            86.83019178216436,
            -86.4736706988097
          ],
          [
            87.19929281200154,
            -86.01232761825419
          ],
          [
            87.56839080872966,
            -85.64325677235131
          ],
          [
            88.21430320367672,
            -85.27419949597915
          ],
          [
            88.49112670122281,
            -84.99739636155198
          ],
          [
            88.95248706469674,
            -84.90514674278388
          ],
          [
            89.41385652749786,
            -84.53608042005791
          ],
          [
            89.87522599029896,
            -84.16701409733194
          ],
          [
            90.24432398702707,
            -83.79794325142906
          ],
          [
            90.6134219837552,
            -83.42887240552619
          ],
          [
            91.07479144655629,
            -83.05980608280022
          ],
          [
            91.62843237543036,
            -82.69074428325114
          ],
          [
            92.1820763374135,
            -82.22941024904945
          ],
          [
            92.55118343346878,
            -81.58352269918869
          ],
          [
            92.92029356263312,
            -80.84536291467532
          ],
          [
            93.28940369179745,
            -80.10720313016193
          ],
          [
            93.65851078785273,
            -79.46131558030118
          ],
          [
            94.02761788390802,
            -78.81542803044042
          ],
          [
            94.39671588063614,
            -78.44635718453755
          ],
          [
            94.76581994358237,
            -77.89274186932941
          ],
          [
            95.1349179403105,
            -77.52367102342654
          ],
          [
            95.41174447096564,
            -77.15459565434675
          ],
          [
            96.05765686591269,
            -76.78553837797459
          ],
          [
            96.42675486264082,
            -76.4164675320717
          ],
          [
            96.88812129233288,
            -76.13967344399836
          ],
          [
            96.98039882462395,
            -75.95513349787002
          ],
          [
            97.34950288757018,
            -75.40151818266189
          ],
          [
            97.99541224940819,
            -75.12473314094234
          ],
          [
            98.08768978169925,
            -74.940193194814
          ],
          [
            98.45677867910022,
            -74.847939052869
          ],
          [
            98.54905317828226,
            -74.75567134139328
          ],
          [
            98.64132767746429,
            -74.66340362991757
          ],
          [
            99.19496254012024,
            -74.47888629967375
          ],
          [
            99.74859740277623,
            -74.29436896942993
          ],
          [
            100.20995776625017,
            -74.20211935066183
          ],
          [
            100.57904969676018,
            -74.0175929740642
          ],
          [
            100.94815679281545,
            -73.37170542420345
          ],
          [
            101.31725478954358,
            -73.00263457830057
          ],
          [
            101.6863527862717,
            -72.63356373239769
          ],
          [
            102.23999674825482,
            -72.17222969819599
          ],
          [
            102.609097778092,
            -71.71088661764048
          ],
          [
            102.97819577482014,
            -71.34181577173761
          ],
          [
            103.34729983776637,
            -70.78820045652948
          ],
          [
            103.43957737005744,
            -70.60366051040113
          ]
        ]
      },
      "properties": {
        "type": "variant",
        "id": 3,
        "color": "#44ff44",
        "vzdal_m": 2605,
        "prevyseni_m": 36,
        "cas_s": 701,
        "tempo_str": "4:29"
      }
    },
    {
      "type": "Feature",
      "geometry": {
        "type": "LineString",
        "coordinates": [
          [
            66.53009920680489,
            -97.72988822751077
          ],
          [
            67.17598733687953,
            -98.0990088283596
          ],
          [
            67.72961006709927,
            -98.2835804367263
          ],
          [
            68.28323279731904,
            -98.46815204509298
          ],
          [
            68.74459316079297,
            -98.37590242632488
          ],
          [
            69.20595352426692,
            -98.28365280755678
          ],
          [
            69.75958232070478,
            -98.28367994661821
          ],
          [
            70.22094268417871,
            -98.19143032785011
          ],
          [
            70.59002854847061,
            -98.19144842055775
          ],
          [
            70.95911441276253,
            -98.19146651326535
          ],
          [
            71.32820027705444,
            -98.19148460597299
          ],
          [
            71.69728614134634,
            -98.1915026986806
          ],
          [
            72.15864650482028,
            -98.09925307991251
          ],
          [
            72.5277323691122,
            -98.09927117262012
          ],
          [
            72.8968182334041,
            -98.09928926532776
          ],
          [
            73.26590409769601,
            -98.09930735803539
          ],
          [
            73.63498996198791,
            -98.099325450743
          ],
          [
            74.00407582627982,
            -98.09934354345063
          ],
          [
            74.37316169057173,
            -98.09936163615824
          ],
          [
            74.74224755486364,
            -98.09937972886587
          ],
          [
            75.20360791833758,
            -98.00713011009776
          ],
          [
            75.57269378262949,
            -98.0071482028054
          ],
          [
            75.9417796469214,
            -98.00716629551302
          ],
          [
            76.67996350794142,
            -97.63811354231777
          ],
          [
            76.95678397237846,
            -97.45358264254321
          ],
          [
            77.32587286977942,
            -97.36132850059822
          ],
          [
            77.78723626636241,
            -97.17680664717751
          ],
          [
            78.34087112901838,
            -96.99228931693368
          ],
          [
            78.89450599167435,
            -96.80777198668986
          ],
          [
            79.54041535351234,
            -96.53098694497034
          ],
          [
            79.90950121780426,
            -96.53100503767794
          ],
          [
            80.27858708209617,
            -96.53102313038558
          ],
          [
            80.64767294638807,
            -96.53104122309318
          ],
          [
            81.01675881067999,
            -96.53105931580082
          ],
          [
            81.66264997386367,
            -96.80790768199702
          ],
          [
            82.30854113704734,
            -97.08475604819326
          ],
          [
            82.8621638672671,
            -97.26932765655994
          ],
          [
            83.231249731559,
            -97.26934574926754
          ],
          [
            83.60033559585092,
            -97.26936384197518
          ],
          [
            84.2462267590346,
            -97.54621220817138
          ],
          [
            84.70758105629042,
            -97.63850705870856
          ],
          [
            85.26120378651018,
            -97.82307866707522
          ],
          [
            85.81482651672994,
            -98.00765027544192
          ],
          [
            86.27618081398577,
            -98.09994512597906
          ],
          [
            86.64526667827768,
            -98.0999632186867
          ],
          [
            87.01434647635148,
            -98.28452578069955
          ],
          [
            87.75253033737151,
            -97.91547302750429
          ],
          [
            88.12162833409963,
            -97.54640218160142
          ],
          [
            88.49072633082775,
            -97.17733133569855
          ],
          [
            88.85982432755587,
            -96.80826048979567
          ],
          [
            89.04437332591993,
            -96.62372506684423
          ],
          [
            89.32118772413885,
            -96.62373863637495
          ],
          [
            89.78254202139469,
            -96.7160334869121
          ],
          [
            90.15162788568661,
            -96.71605157961973
          ],
          [
            90.70526274834258,
            -96.53153424937591
          ],
          [
            91.25890367721665,
            -96.16247244982685
          ],
          [
            91.72027314001774,
            -95.79340612710087
          ],
          [
            92.08937113674587,
            -95.424335281198
          ],
          [
            92.64301206561994,
            -95.05527348164891
          ],
          [
            93.01210399612995,
            -94.8707471050513
          ],
          [
            93.47346739271295,
            -94.68622525163056
          ],
          [
            94.11937675455094,
            -94.40944020991103
          ],
          [
            94.76528611638896,
            -94.13265516819148
          ],
          [
            95.226652546081,
            -93.85586108011813
          ],
          [
            95.6880220088821,
            -93.48679475739216
          ],
          [
            96.05712000561023,
            -93.11772391148929
          ],
          [
            96.42621800233835,
            -92.74865306558641
          ],
          [
            96.79531599906647,
            -92.37958221968353
          ],
          [
            97.16441399579459,
            -92.01051137378064
          ],
          [
            97.53351805874084,
            -91.45689605857251
          ],
          [
            97.81034458939597,
            -91.08782068949273
          ],
          [
            98.17945471856031,
            -90.34966090497934
          ],
          [
            98.27174135017854,
            -89.88830425489313
          ],
          [
            98.64084844623382,
            -89.24241670503237
          ],
          [
            99.00994644296195,
            -88.8733458591295
          ],
          [
            99.37905353901724,
            -88.22745830926874
          ],
          [
            99.65588613589048,
            -87.67383847088371
          ],
          [
            100.02499626505481,
            -86.93567868637032
          ],
          [
            100.02500839749105,
            -86.56658974775982
          ],
          [
            100.02502052992725,
            -86.19750080914932
          ],
          [
            100.02503266236346,
            -85.82841187053882
          ],
          [
            100.02504479479968,
            -85.45932293192831
          ],
          [
            100.30188042478198,
            -84.81343085889065
          ],
          [
            100.67099055394631,
            -84.07527107437727
          ],
          [
            101.04009765000161,
            -83.42938352451652
          ],
          [
            101.22465878080187,
            -82.87575916295458
          ],
          [
            101.31694541242011,
            -82.41440251286836
          ],
          [
            101.1324206789285,
            -81.86076005859879
          ],
          [
            101.1324328113647,
            -81.49167111998828
          ],
          [
            101.22471944298296,
            -81.03031446990207
          ],
          [
            101.22473157541917,
            -80.66122553129156
          ],
          [
            101.40929270621943,
            -80.10760116972963
          ],
          [
            101.68612833620175,
            -79.46170909669196
          ],
          [
            101.31706370367321,
            -78.81578536141596
          ],
          [
            101.31707583610942,
            -78.44669642280546
          ],
          [
            101.1325511026178,
            -77.8930539685359
          ],
          [
            101.31711223341807,
            -77.33942960697397
          ],
          [
            101.40939886503631,
            -76.87807295688775
          ],
          [
            101.22486806532656,
            -76.50897497192342
          ],
          [
            101.59396606205469,
            -76.13990412602054
          ],
          [
            101.96307012500093,
            -75.5862888108124
          ],
          [
            101.96308225743714,
            -75.21719987220192
          ],
          [
            102.05536888905539,
            -74.75584322211569
          ],
          [
            102.23993001985566,
            -74.20221886055376
          ],
          [
            102.51676564983796,
            -73.55632678751608
          ],
          [
            102.51677778227419,
            -73.18723784890558
          ],
          [
            102.5167899147104,
            -72.8181489102951
          ],
          [
            102.88590004387473,
            -72.07998912578171
          ],
          [
            103.07046117467499,
            -71.52636476421976
          ],
          [
            103.34729680465732,
            -70.8804726911821
          ],
          [
            103.43957737005744,
            -70.60366051040113
          ]
        ]
      },
      "properties": {
        "type": "variant",
        "id": 4,
        "color": "#ffaa00",
        "vzdal_m": 3090,
        "prevyseni_m": 58,
        "cas_s": 796,
        "tempo_str": "4:17"
      }
    }
  ]
}