{
  "type": "FeatureCollection",
  "features": [
    {
      "type": "Feature",
      "geometry": {
        "type": "Point",
        "coordinates": [
          118.31062202424033,
          -135.59194834387077
        ]
      },
      "properties": {
        "type": "start",
        "isom": "111"
      }
    },
    {
      "type": "Feature",
      "geometry": {
        "type": "Point",
        "coordinates": [
          164.77667011577597,
          -101.71460954870402
        ]
      },
      "properties": {
        "type": "end",
        "isom": "204"
      }
    },
    {
      "type": "Feature",
      "geometry": {
        "type": "LineString",
        "coordinates": [
          [
            118.43910351717844,
            -135.63029245948863
          ],
          [
            120.65373564515917,
            -134.1539365552339
          ],
          [
            123.60655928076005,
            -132.67760406514032
          ],
          [
            124.34476518966027,
            -132.3085209426169
          ],
          [
            125.08297109856048,
            -131.9394378200935
          ],
          [
            127.66669898035127,
            -130.46309362291933
          ],
          [
            129.51217774940156,
            -130.463152158322
          ],
          [
            131.7267954761022,
            -129.3559027907518
          ],
          [
            134.67961911170306,
            -127.87957030065819
          ],
          [
            136.8942224371236,
            -127.14142746977245
          ],
          [
            139.10882576254414,
            -126.40328463888672
          ],
          [
            141.69255364433494,
            -124.92694044171256
          ],
          [
            142.06166379942508,
            -124.55784561210862
          ],
          [
            142.7998697083253,
            -124.18876248958523
          ],
          [
            144.27631032868592,
            -122.71238317116948
          ],
          [
            145.75275094904654,
            -121.23600385275371
          ],
          [
            147.22919156940716,
            -119.75962453433796
          ],
          [
            147.9673974783074,
            -119.39054141181455
          ],
          [
            150.18205840884832,
            -117.17597243419091
          ],
          [
            150.55118296521857,
            -116.4377710679025
          ],
          [
            150.55119736649866,
            -116.06866453121803
          ],
          [
            150.9203219228689,
            -115.33046316492963
          ],
          [
            152.39676254322953,
            -113.85408384651386
          ],
          [
            153.5040786072199,
            -113.11590589438651
          ],
          [
            154.61138026993018,
            -112.74683447894365
          ],
          [
            157.1950937504409,
            -111.63959681845397
          ],
          [
            157.56420390553103,
            -111.27050198885003
          ],
          [
            158.30242421571134,
            -110.53231232964217
          ],
          [
            158.6715487720816,
            -109.79411096335373
          ],
          [
            159.04067332845185,
            -109.05590959706532
          ],
          [
            159.04073093357223,
            -107.57948345032743
          ],
          [
            159.4098986937828,
            -105.7339624739856
          ],
          [
            159.77900884887293,
            -105.36486764438168
          ],
          [
            160.51721475777316,
            -104.99578452185825
          ],
          [
            162.36273673066373,
            -103.8885234472075
          ],
          [
            163.4700446681172,
            -102.78123895768114
          ],
          [
            164.20825057701742,
            -102.41215583515775
          ],
          [
            164.94647088719773,
            -101.67396617594986
          ]
        ]
      },
      "properties": {
        "type": "variant",
        "id": 1,
        "color": "#ff4444",
        "vzdal_m": 818,
        "prevyseni_m": 36,
        "cas_s": 307,
        "tempo_str": "6:15"
      }
    },
    {
      "type": "Feature",
      "geometry": {
        "type": "LineString",
        "coordinates": [
          [
            118.43910351717844,
            -135.63029245948863
          ],
          [
            120.28465429262921,
            -133.78481831146894
          ],
          [
            122.49928642060998,
            -132.30846240721422
          ],
          [
            123.23750673079027,
            -131.57027274800635
          ],
          [
            123.60663128716052,
            -130.83207138171795
          ],
          [
            124.34483719606074,
            -130.46298825919453
          ],
          [
            125.08304310496095,
            -130.09390513667114
          ],
          [
            125.4521676613312,
            -129.35570377038272
          ],
          [
            126.92863708425203,
            -127.14111137859803
          ],
          [
            127.66687179571244,
            -126.03381518270567
          ],
          [
            128.0359963520827,
            -125.29561381641726
          ],
          [
            129.5124657750035,
            -123.08102142463255
          ],
          [
            130.98894959920443,
            -120.49732249616336
          ],
          [
            131.35807415557466,
            -119.75912112987496
          ],
          [
            131.7271987119449,
            -119.02091976358655
          ],
          [
            133.20368253614583,
            -116.43722083511737
          ],
          [
            134.68018076162684,
            -113.48441536996371
          ],
          [
            136.15662138198746,
            -112.00803605154796
          ],
          [
            137.20138589907918,
            -111.05966544208243
          ],
          [
            139.53542947236608,
            -110.37888389741128
          ],
          [
            141.35229403629359,
            -109.90093233912067
          ],
          [
            143.00864346486298,
            -108.95936219909879
          ],
          [
            143.65686699044392,
            -107.01911783584585
          ],
          [
            145.28742259791753,
            -104.90919762703642
          ],
          [
            146.56654445733187,
            -103.3716021829804
          ],
          [
            147.6599879242435,
            -102.51710927354938
          ],
          [
            148.19540605229108,
            -101.95251761144546
          ],
          [
            149.39916207498516,
            -100.10123328868548
          ],
          [
            150.15095666828302,
            -99.61910270878211
          ],
          [
            150.9209411779131,
            -99.45888208749726
          ],
          [
            151.65913268553322,
            -99.45890550165832
          ],
          [
            154.6118411108933,
            -100.9354253050405
          ],
          [
            156.82638683119345,
            -101.67370862089264
          ],
          [
            157.56457833881356,
            -101.67373203505372
          ],
          [
            158.3027842477138,
            -101.30464891253033
          ],
          [
            158.67188000152385,
            -101.30466061961084
          ],
          [
            159.0409757553339,
            -101.30467232669139
          ],
          [
            159.7791816642341,
            -100.93558920416798
          ],
          [
            160.14827741804416,
            -100.9356009112485
          ],
          [
            160.8864833269444,
            -100.56651778872511
          ],
          [
            161.6246748345645,
            -100.56654120288619
          ],
          [
            162.36288074346473,
            -100.19745808036278
          ],
          [
            162.7319764972748,
            -100.19746978744331
          ],
          [
            164.94647088719773,
            -101.67396617594986
          ]
        ]
      },
      "properties": {
        "type": "variant",
        "id": 2,
        "color": "#4444ff",
        "vzdal_m": 887,
        "prevyseni_m": 41,
        "cas_s": 311,
        "tempo_str": "5:49"
      }
    },
    {
      "type": "Feature",
      "geometry": {
        "type": "LineString",
        "coordinates": [
          [
            118.43910351717844,
            -135.63029245948863
          ],
          [
            120.28459668750884,
            -135.26124445820682
          ],
          [
            121.76097970274907,
            -135.26129128652894
          ],
          [
            123.2373627179893,
            -135.2613381148511
          ],
          [
            125.45195164212974,
            -134.89230182064983
          ],
          [
            126.92834905865007,
            -134.5232421122875
          ],
          [
            127.6665405662702,
            -134.52326552644854
          ],
          [
            128.4047464751704,
            -134.15418240392515
          ],
          [
            129.88112949041064,
            -134.1542292322473
          ],
          [
            131.35751250565087,
            -134.15427606056943
          ],
          [
            132.8338955208911,
            -134.15432288889156
          ],
          [
            134.6793886912215,
            -133.78527488760977
          ],
          [
            137.63221232682235,
            -132.30894239751615
          ],
          [
            139.8468444548031,
            -130.83258649326146
          ],
          [
            140.95414611751335,
            -130.4635150778186
          ],
          [
            141.69235202641357,
            -130.0944319552952
          ],
          [
            143.2564679789184,
            -129.847974991074
          ],
          [
            145.68654217431504,
            -128.1524013284169
          ],
          [
            147.65334120923353,
            -126.793377126233
          ],
          [
            148.70531536160564,
            -126.40358902298061
          ],
          [
            151.28904324339643,
            -124.92724482580647
          ],
          [
            152.76548386375705,
            -123.45086550739072
          ],
          [
            153.1346084201273,
            -122.71266414110231
          ],
          [
            153.87282873030762,
            -121.97447448189442
          ],
          [
            154.2419532866779,
            -121.23627311560601
          ],
          [
            155.71839390703852,
            -119.75989379719024
          ],
          [
            156.45659981593872,
            -119.39081067466685
          ],
          [
            157.19480572483894,
            -119.02172755214343
          ],
          [
            157.563901478649,
            -119.02173925922398
          ],
          [
            158.3021073875492,
            -118.65265613670059
          ],
          [
            158.67121754263937,
            -118.28356130709663
          ],
          [
            159.40945225409976,
            -117.17626511120429
          ],
          [
            159.77857681047,
            -116.43806374491588
          ],
          [
            160.5168547257707,
            -114.2234479389701
          ],
          [
            161.99330974741144,
            -112.37796208386986
          ],
          [
            163.10061768486491,
            -111.27067759434352
          ],
          [
            163.46974224123517,
            -110.53247622805509
          ],
          [
            163.46975664251525,
            -110.16336969137062
          ],
          [
            163.8388811988855,
            -109.42516832508221
          ],
          [
            164.20799135397567,
            -109.05607349547827
          ],
          [
            164.5771159103459,
            -108.31787212918987
          ],
          [
            164.94625486799626,
            -107.21056422621696
          ],
          [
            164.94626926927637,
            -106.84145768953249
          ],
          [
            164.5772023180265,
            -106.10323290908302
          ],
          [
            164.94632687439676,
            -105.3650315427946
          ],
          [
            164.57727432442698,
            -104.25770022566066
          ],
          [
            164.94639888079723,
            -103.51949885937223
          ],
          [
            164.94647088719773,
            -101.67396617594986
          ]
        ]
      },
      "properties": {
        "type": "variant",
        "id": 3,
        "color": "#44ff44",
        "vzdal_m": 873,
        "prevyseni_m": 35,
        "cas_s": 311,
        "tempo_str": "5:56"
      }
    }
  ]
}