{
  "type": "FeatureCollection",
  "features": [
    {
      "type": "Feature",
      "geometry": {
        "type": "Point",
        "coordinates": [
          45.409488630104214,
          -15.424378866098214
        ]
      },
      "properties": {
        "type": "start",
        "isom": "204"
      }
    },
    {
      "type": "Feature",
      "geometry": {
        "type": "Point",
        "coordinates": [
          56.58008438596876,
          -45.749548670575784
        ]
      },
      "properties": {
        "type": "end",
        "isom": "417"
      }
    },
    {
      "type": "Feature",
      "geometry": {
        "type": "LineString",
        "coordinates": [
          [
            45.329075808579134,
            -15.344231242679857
          ],
          [
            45.69814164981254,
            -15.528781162328732
          ],
          [
            45.88265481567774,
            -15.89788018484191
          ],
          [
            46.067154811708605,
            -16.451528582480915
          ],
          [
            46.06712847203993,
            -16.820627332732567
          ],
          [
            46.06711530220559,
            -17.005176707858396
          ],
          [
            46.25158895856778,
            -17.927923855749054
          ],
          [
            46.25153627923042,
            -18.66612135625236
          ],
          [
            46.25148359989308,
            -19.404318856755665
          ],
          [
            46.435957256255264,
            -20.327066004646323
          ],
          [
            46.989483584016526,
            -21.618912447311683
          ],
          [
            46.80491773881397,
            -21.98801092530181
          ],
          [
            46.98943090467917,
            -22.357109947814987
          ],
          [
            47.17394407054437,
            -22.726208970328166
          ],
          [
            47.54297040227477,
            -23.464407015354524
          ],
          [
            47.542917722937425,
            -24.20260451585783
          ],
          [
            47.542865043600074,
            -24.940802016361136
          ],
          [
            47.91186503566178,
            -26.04809881163914
          ],
          [
            48.09633869202398,
            -26.9708459595298
          ],
          [
            48.096299182520966,
            -27.524494084907282
          ],
          [
            48.28081234838616,
            -27.893593107420457
          ],
          [
            48.28078600871749,
            -28.26269185767211
          ],
          [
            48.46529917458269,
            -28.631790880185292
          ],
          [
            48.46524649524534,
            -29.3699883806886
          ],
          [
            49.01878599284093,
            -30.47728544822813
          ],
          [
            49.01870697383492,
            -31.58458169898309
          ],
          [
            49.94131231266392,
            -32.876428686171494
          ],
          [
            50.67936497612472,
            -34.35282477622421
          ],
          [
            51.23289130388598,
            -35.64467121888957
          ],
          [
            51.6018912959477,
            -36.75196801416757
          ],
          [
            52.15541762370896,
            -38.04381445683293
          ],
          [
            52.33993078957416,
            -38.41291347934611
          ],
          [
            52.33989128007115,
            -38.966561604723594
          ],
          [
            52.657417541570645,
            -39.442573078983315
          ],
          [
            52.89344394750108,
            -39.889309297137295
          ],
          [
            53.07795711336629,
            -40.25840831965047
          ],
          [
            53.81603611649575,
            -41.365705659451535
          ],
          [
            54.55408877995655,
            -42.842101749504245
          ],
          [
            54.92311511168695,
            -43.580299794530596
          ],
          [
            54.923075602183935,
            -44.13394791990808
          ],
          [
            55.29214144341735,
            -44.318497839556954
          ],
          [
            55.47665460928255,
            -44.68759686207013
          ],
          [
            56.583812623479766,
            -45.794894746394235
          ]
        ]
      },
      "properties": {
        "type": "variant",
        "id": 1,
        "color": "#ff4444",
        "vzdal_m": 911,
        "prevyseni_m": 5,
        "cas_s": 275,
        "tempo_str": "5:01"
      }
    },
    {
      "type": "Feature",
      "geometry": {
        "type": "LineString",
        "coordinates": [
          [
            45.329075808579134,
            -15.344231242679857
          ],
          [
            46.0672601703833,
            -14.975133581474301
          ],
          [
            46.251826015585856,
            -14.606035103484174
          ],
          [
            46.98998403772136,
            -14.606036192530269
          ],
          [
            47.912668395556395,
            -14.790586928963718
          ],
          [
            48.281734236789795,
            -14.975136848612593
          ],
          [
            48.65080007802321,
            -15.15968676826147
          ],
          [
            49.758010771557785,
            -15.528787152082268
          ],
          [
            50.49615562385895,
            -15.713337616254192
          ],
          [
            50.865221465092354,
            -15.897887535903065
          ],
          [
            51.23428730632577,
            -16.08243745555194
          ],
          [
            51.418813642025306,
            -16.266987102939297
          ],
          [
            51.603326807890504,
            -16.63608612545247
          ],
          [
            51.78780046425269,
            -17.55883327334313
          ],
          [
            51.78778729441835,
            -17.743382648468955
          ],
          [
            51.97230046028355,
            -18.112481670982135
          ],
          [
            51.97227412061488,
            -18.481580421233787
          ],
          [
            52.156787286480075,
            -18.850679443746962
          ],
          [
            52.156760946811396,
            -19.219778193998614
          ],
          [
            52.3412741126766,
            -19.588877216511793
          ],
          [
            52.710274104738325,
            -20.6961740117898
          ],
          [
            52.894747761100504,
            -21.61892115968046
          ],
          [
            52.89469508176315,
            -22.357118660183765
          ],
          [
            52.894681911928814,
            -22.54166803530959
          ],
          [
            53.079195077794026,
            -22.91076705782277
          ],
          [
            53.07916873812535,
            -23.279865808074426
          ],
          [
            53.26368190399054,
            -23.6489648305876
          ],
          [
            53.26364239448753,
            -24.202612955965083
          ],
          [
            53.44815556035273,
            -24.57171197847826
          ],
          [
            53.44812922068406,
            -24.94081072872991
          ],
          [
            53.63264238654926,
            -25.309909751243094
          ],
          [
            53.63260287704624,
            -25.863557876620572
          ],
          [
            53.817116042911444,
            -26.232656899133747
          ],
          [
            53.817089703242765,
            -26.601755649385403
          ],
          [
            54.00160286910796,
            -26.97085467189858
          ],
          [
            54.00155018977061,
            -27.709052172401883
          ],
          [
            54.18606335563581,
            -28.078151194915066
          ],
          [
            54.92412918893095,
            -29.369997909841945
          ],
          [
            55.29318186033002,
            -29.739097204616648
          ],
          [
            55.66224770156343,
            -29.92364712426552
          ],
          [
            55.846721357925624,
            -30.846394272156182
          ],
          [
            56.03119501428781,
            -31.76914142004684
          ],
          [
            56.400234515852546,
            -32.32279008994737
          ],
          [
            56.68667196566206,
            -32.745590382586464
          ],
          [
            56.458337603451646,
            -33.178949915704806
          ],
          [
            55.75113802492931,
            -34.74334387308793
          ],
          [
            55.84639211206718,
            -35.46012865030185
          ],
          [
            56.2153921041289,
            -36.56742544557986
          ],
          [
            56.39986576049109,
            -37.49017259347051
          ],
          [
            56.39981308115374,
            -38.22837009397382
          ],
          [
            56.3997999113194,
            -38.41291946909965
          ],
          [
            56.584313077184596,
            -38.782018491612824
          ],
          [
            56.58428673751593,
            -39.151117241864476
          ],
          [
            56.76879990338112,
            -39.52021626437766
          ],
          [
            56.76876039387812,
            -40.07386438975514
          ],
          [
            56.953273559743316,
            -40.44296341226831
          ],
          [
            56.95324722007464,
            -40.812062162519965
          ],
          [
            57.13776038593983,
            -41.18116118503314
          ],
          [
            57.13772087643682,
            -41.73480931041062
          ],
          [
            57.32223404230202,
            -42.1039083329238
          ],
          [
            57.32218136296467,
            -42.84210583342711
          ],
          [
            57.50669452882987,
            -43.21120485594029
          ],
          [
            57.506681358995536,
            -43.395754231066114
          ],
          [
            57.691194524860734,
            -43.76485325357929
          ],
          [
            57.691168185192055,
            -44.13395200383094
          ],
          [
            57.87568135105726,
            -44.503051026344124
          ],
          [
            57.87566818122292,
            -44.68760040146995
          ],
          [
            56.76836529884798,
            -45.61034564352994
          ],
          [
            56.583812623479766,
            -45.794894746394235
          ]
        ]
      },
      "properties": {
        "type": "variant",
        "id": 2,
        "color": "#4444ff",
        "vzdal_m": 1052,
        "prevyseni_m": 6,
        "cas_s": 271,
        "tempo_str": "4:18"
      }
    },
    {
      "type": "Feature",
      "geometry": {
        "type": "LineString",
        "coordinates": [
          [
            45.329075808579134,
            -15.344231242679857
          ],
          [
            45.14452313321092,
            -15.52878034554416
          ],
          [
            44.9599704578427,
            -15.713329448408464
          ],
          [
            44.590878276940614,
            -15.89787827901124
          ],
          [
            43.85266757546777,
            -16.636074690468448
          ],
          [
            43.114443704160585,
            -17.558820477051484
          ],
          [
            42.92987785895803,
            -17.927918955041616
          ],
          [
            43.114351515320216,
            -18.850666102932273
          ],
          [
            43.29882517168241,
            -19.77341325082293
          ],
          [
            43.483298828044596,
            -20.696160398713587
          ],
          [
            43.667811993909794,
            -21.065259421226767
          ],
          [
            43.667798824075454,
            -21.249808796352593
          ],
          [
            43.85231198994065,
            -21.618907818865768
          ],
          [
            43.8522593106033,
            -22.357105319369076
          ],
          [
            43.85220663126595,
            -23.09530281987238
          ],
          [
            44.221206623327674,
            -24.20259961515039
          ],
          [
            44.40568027968986,
            -25.12534676304105
          ],
          [
            44.59015393605205,
            -26.048093910931705
          ],
          [
            44.774627592414234,
            -26.970841058822362
          ],
          [
            45.14362758447596,
            -28.078137854100373
          ],
          [
            45.14357490513861,
            -28.816335354603677
          ],
          [
            45.143535395635595,
            -29.36998347998116
          ],
          [
            45.32804856150079,
            -29.739082502494337
          ],
          [
            45.32800905199778,
            -30.29273062787182
          ],
          [
            45.51252221786298,
            -30.661829650384995
          ],
          [
            46.06604854562424,
            -31.953676093050355
          ],
          [
            46.06599586628689,
            -32.69187359355366
          ],
          [
            46.06594318694954,
            -33.43007109405697
          ],
          [
            46.06591684728086,
            -33.79916984430862
          ],
          [
            46.250430013146065,
            -34.1682688668218
          ],
          [
            46.434930009176924,
            -34.72191726446081
          ],
          [
            46.61940366553911,
            -35.64466441235146
          ],
          [
            46.988403657600834,
            -36.75196120762947
          ],
          [
            46.98835097826348,
            -37.490158708132775
          ],
          [
            47.35735097032521,
            -38.59745550341078
          ],
          [
            47.357298290987856,
            -39.33565300391409
          ],
          [
            47.72632462271826,
            -40.07385104894044
          ],
          [
            47.910798279080446,
            -40.9965981968311
          ],
          [
            48.648890452044256,
            -41.91934616150633
          ],
          [
            49.01795629327767,
            -42.103896081155206
          ],
          [
            49.20246945914286,
            -42.47299510366839
          ],
          [
            50.53290342592217,
            -43.241883334971426
          ],
          [
            51.416851336708994,
            -43.76484399668746
          ],
          [
            52.15500935884449,
            -43.76484508573356
          ],
          [
            53.26222005237907,
            -44.13394546955436
          ],
          [
            54.18485173087675,
            -45.05669370649112
          ],
          [
            55.47658876011086,
            -45.61034373769927
          ],
          [
            56.39927311794589,
            -45.79489447413271
          ],
          [
            56.583812623479766,
            -45.794894746394235
          ]
        ]
      },
      "properties": {
        "type": "variant",
        "id": 3,
        "color": "#44ff44",
        "vzdal_m": 1024,
        "prevyseni_m": 7,
        "cas_s": 272,
        "tempo_str": "4:25"
      }
    }
  ]
}