{
  "type": "FeatureCollection",
  "features": [
    {
      "type": "Feature",
      "geometry": {
        "type": "Point",
        "coordinates": [
          193.92100394647935,
          -144.81167502023132
        ]
      },
      "properties": {
        "type": "start",
        "isom": "417"
      }
    },
    {
      "type": "Feature",
      "geometry": {
        "type": "Point",
        "coordinates": [
          148.83083137928082,
          -143.75681478074736
        ]
      },
      "properties": {
        "type": "end",
        "isom": "204"
      }
    },
    {
      "type": "Feature",
      "geometry": {
        "type": "LineString",
        "coordinates": [
          [
            194.10335048842094,
            -144.86035582739552
          ],
          [
            192.25785731809052,
            -145.22940382867733
          ],
          [
            190.78147430285028,
            -145.22935700035515
          ],
          [
            188.56692858255016,
            -144.49107368450302
          ],
          [
            187.4596845249603,
            -143.383718953208
          ],
          [
            186.72150741862026,
            -143.01458900236244
          ],
          [
            185.24515320594023,
            -142.27632910067138
          ],
          [
            184.13786594451005,
            -142.27629397942977
          ],
          [
            181.55426767424012,
            -140.43067934644367
          ],
          [
            180.81609056790012,
            -140.0615493955981
          ],
          [
            178.60155924888005,
            -138.95415954306148
          ],
          [
            177.86338214254002,
            -138.58502959221593
          ],
          [
            175.64880761967967,
            -138.5849593497327
          ],
          [
            173.43430510321983,
            -136.73935642382716
          ],
          [
            171.58884073544962,
            -136.37019135174
          ],
          [
            170.1124433189293,
            -136.73925106010233
          ],
          [
            167.89789759862913,
            -136.0009677442502
          ],
          [
            166.4215145833889,
            -136.00092091592805
          ],
          [
            164.94513156814867,
            -136.0008740876059
          ],
          [
            162.361440615455,
            -137.10811174881013
          ],
          [
            159.40861697985414,
            -138.58444423890376
          ],
          [
            157.19399925315346,
            -139.69169360647396
          ],
          [
            156.45579334425327,
            -140.06077672899738
          ],
          [
            156.0866831891631,
            -140.42987155860132
          ],
          [
            155.3484772802629,
            -140.7989546811247
          ],
          [
            154.97936712517273,
            -141.16804951072865
          ],
          [
            154.24116121627253,
            -141.53713263325204
          ],
          [
            153.5029553073723,
            -141.90621575577543
          ],
          [
            152.7647493984721,
            -142.27529887829886
          ],
          [
            150.55014607305156,
            -143.0134417091846
          ],
          [
            148.70463850144108,
            -143.75159624715087
          ]
        ]
      },
      "properties": {
        "type": "variant",
        "id": 1,
        "color": "#ff4444",
        "vzdal_m": 678,
        "prevyseni_m": 37,
        "cas_s": 247,
        "tempo_str": "6:04"
      }
    },
    {
      "type": "Feature",
      "geometry": {
        "type": "LineString",
        "coordinates": [
          [
            194.10335048842094,
            -144.86035582739552
          ],
          [
            191.8887615642805,
            -145.2293921215968
          ],
          [
            190.41236414776014,
            -145.59845182995912
          ],
          [
            188.19774642105952,
            -146.70570119752932
          ],
          [
            186.72137780709937,
            -146.3365478325227
          ],
          [
            185.24499479185914,
            -146.33650100420058
          ],
          [
            182.66128131134846,
            -147.44373866469024
          ],
          [
            179.7084576757476,
            -148.92007115478387
          ],
          [
            177.49391195544743,
            -148.1817878389317
          ],
          [
            174.91021287621683,
            -148.91991896273692
          ],
          [
            173.06470530460635,
            -149.6580735007032
          ],
          [
            170.850130781746,
            -149.65800325822
          ],
          [
            168.26653251147607,
            -147.8123886252339
          ],
          [
            167.52835540513607,
            -147.44325867438835
          ],
          [
            166.79017829879604,
            -147.07412872354277
          ],
          [
            165.3137952835558,
            -147.07408189522064
          ],
          [
            163.46833091578563,
            -146.7049168231335
          ],
          [
            161.9919704283624,
            -146.7048699955259
          ],
          [
            161.25379332202237,
            -146.33574004468036
          ],
          [
            160.51558741312218,
            -146.70482316720376
          ],
          [
            160.1464916593121,
            -146.70481146012324
          ],
          [
            158.67010864407186,
            -146.70476463180108
          ],
          [
            156.45557732505182,
            -145.59737477926447
          ],
          [
            153.50286889969175,
            -144.12085497588228
          ],
          [
            152.0265146870117,
            -143.38259507419122
          ],
          [
            151.28833758067168,
            -143.01346512334567
          ],
          [
            150.1810503192415,
            -143.01343000210406
          ],
          [
            148.70463850144108,
            -143.75159624715087
          ]
        ]
      },
      "properties": {
        "type": "variant",
        "id": 2,
        "color": "#4444ff",
        "vzdal_m": 660,
        "prevyseni_m": 39,
        "cas_s": 251,
        "tempo_str": "6:20"
      }
    },
    {
      "type": "Feature",
      "geometry": {
        "type": "LineString",
        "coordinates": [
          [
            194.10335048842094,
            -144.86035582739552
          ],
          [
            191.8887615642805,
            -145.2293921215968
          ],
          [
            190.41236414776014,
            -145.59845182995912
          ],
          [
            188.19774642105952,
            -146.70570119752932
          ],
          [
            186.72137780709937,
            -146.3365478325227
          ],
          [
            184.875884636769,
            -146.70559583380452
          ],
          [
            184.13767872786877,
            -147.07467895632792
          ],
          [
            181.18485509226792,
            -148.55101144642154
          ],
          [
            179.70842887318742,
            -149.6582842281528
          ],
          [
            178.97022296428716,
            -150.0273673506762
          ],
          [
            178.23201705538696,
            -150.39645047319962
          ],
          [
            176.75557643502634,
            -151.8728297916154
          ],
          [
            175.27910701210553,
            -154.08742218340007
          ],
          [
            173.8026663917449,
            -155.56380150181585
          ],
          [
            172.3262257713843,
            -157.0401808202316
          ],
          [
            171.21888090483372,
            -158.5165718457279
          ],
          [
            169.74245468575322,
            -159.62384462745916
          ],
          [
            169.00426317813307,
            -159.6238212132981
          ],
          [
            168.26605726923287,
            -159.99290433582152
          ],
          [
            167.52786576161276,
            -159.99288092166043
          ],
          [
            166.78968865527273,
            -159.62375097081488
          ],
          [
            166.42059290146267,
            -159.62373926373436
          ],
          [
            165.68241579512267,
            -159.25460931288882
          ],
          [
            163.83698022991265,
            -158.14723116743272
          ],
          [
            162.36069174888993,
            -156.30165165640275
          ],
          [
            161.99162479764007,
            -155.56342687595327
          ],
          [
            161.6225434451101,
            -155.19430863218827
          ],
          [
            160.88436633877006,
            -154.82517868134272
          ],
          [
            157.93165791341,
            -153.34865887796056
          ],
          [
            157.19348080707,
            -152.979528927115
          ],
          [
            156.82441385582013,
            -152.24130414666553
          ],
          [
            156.45533250329015,
            -151.87218590290053
          ],
          [
            155.71715539695015,
            -151.50305595205498
          ],
          [
            154.24082998683028,
            -150.02658297699494
          ],
          [
            151.6572173152803,
            -148.5500748806933
          ],
          [
            149.81178175007028,
            -147.4426967352372
          ],
          [
            149.07367665013075,
            -145.2280341009693
          ],
          [
            148.70463850144108,
            -143.75159624715087
          ]
        ]
      },
      "properties": {
        "type": "variant",
        "id": 3,
        "color": "#44ff44",
        "vzdal_m": 789,
        "prevyseni_m": 30,
        "cas_s": 252,
        "tempo_str": "5:18"
      }
    }
  ]
}