{
  "type": "FeatureCollection",
  "features": [
    {
      "type": "Feature",
      "geometry": {
        "type": "Point",
        "coordinates": [
          215.04755659163044,
          -76.88523637482312
        ]
      },
      "properties": {
        "type": "start",
        "isom": "204"
      }
    },
    {
      "type": "Feature",
      "geometry": {
        "type": "Point",
        "coordinates": [
          191.33190843816507,
          -89.20573901833929
        ]
      },
      "properties": {
        "type": "end",
        "isom": "109"
      }
    },
    {
      "type": "Feature",
      "geometry": {
        "type": "LineString",
        "coordinates": [
          [
            215.0011608646654,
            -76.80169929840034
          ],
          [
            214.2629527387728,
            -77.90892992961885
          ],
          [
            212.78658501673263,
            -78.64703543888407
          ],
          [
            211.67930315898434,
            -79.38515903997947
          ],
          [
            210.941107165528,
            -80.12330073290505
          ],
          [
            209.83382530777973,
            -80.86142433400045
          ],
          [
            209.09565357919584,
            -80.8613881503401
          ],
          [
            208.9111106470499,
            -80.86137910442501
          ],
          [
            208.54201871653984,
            -81.04590548174131
          ],
          [
            208.1729328522479,
            -81.04588738991114
          ],
          [
            207.80384092173782,
            -81.23041376722745
          ],
          [
            207.61929798959187,
            -81.23040472131237
          ],
          [
            207.25020605908182,
            -81.41493109862867
          ],
          [
            206.5120161318436,
            -81.96852832240776
          ],
          [
            206.14292420133353,
            -82.15305469972407
          ],
          [
            205.77383227082348,
            -82.33758107704037
          ],
          [
            205.40474034031342,
            -82.52210745435667
          ],
          [
            205.03564840980337,
            -82.70663383167299
          ],
          [
            204.66655647929332,
            -82.89116020898929
          ],
          [
            204.48200141471114,
            -83.26024010136716
          ],
          [
            203.7438054212548,
            -83.99838179429273
          ],
          [
            203.00560942779845,
            -84.73652348721829
          ],
          [
            202.26741343434216,
            -85.47466518014386
          ],
          [
            201.52920530844958,
            -86.58189581136239
          ],
          [
            200.79101538121137,
            -87.13549303514148
          ],
          [
            199.86827038939094,
            -88.05817015129844
          ],
          [
            199.86826432317284,
            -88.24271462044493
          ],
          [
            199.68370925859065,
            -88.6117945128228
          ],
          [
            198.76098246542455,
            -88.98083822154031
          ],
          [
            198.20735366898666,
            -88.98081108379506
          ],
          [
            197.46917587418466,
            -89.16531936928119
          ],
          [
            196.73100414560076,
            -89.16528318562084
          ],
          [
            195.9928324170169,
            -89.1652470019605
          ],
          [
            194.70101369334077,
            -89.71881708799432
          ],
          [
            193.77829296639277,
            -89.90331632756538
          ],
          [
            193.0401212378089,
            -89.90328014390504
          ],
          [
            192.30195557544312,
            -89.7186994910982
          ],
          [
            191.9328757773693,
            -89.53413693012155
          ],
          [
            191.74833891144146,
            -89.34958341506
          ],
          [
            191.37925911336762,
            -89.16502085408334
          ]
        ]
      },
      "properties": {
        "type": "variant",
        "id": 1,
        "color": "#ff4444",
        "vzdal_m": 780,
        "prevyseni_m": 58,
        "cas_s": 328,
        "tempo_str": "7:00"
      }
    },
    {
      "type": "Feature",
      "geometry": {
        "type": "LineString",
        "coordinates": [
          [
            215.0011608646654,
            -76.80169929840034
          ],
          [
            214.07845227015363,
            -76.61710959967841
          ],
          [
            212.97118254484155,
            -76.98614426248086
          ],
          [
            211.3102718906554,
            -77.724240725831
          ],
          [
            210.57207589719906,
            -78.46238241875658
          ],
          [
            209.4647940394508,
            -79.20050601985196
          ],
          [
            208.72662837708504,
            -79.01592536704514
          ],
          [
            207.98845664850114,
            -79.01588918338479
          ],
          [
            207.25028491991728,
            -79.01585299972446
          ],
          [
            206.51211319133338,
            -79.0158168160641
          ],
          [
            205.7739475289676,
            -78.83123616325729
          ],
          [
            205.0357697341656,
            -79.01574444874342
          ],
          [
            204.29759800558173,
            -79.01570826508306
          ],
          [
            203.9285121412898,
            -79.01569017325289
          ],
          [
            203.37487727863373,
            -79.20020750465412
          ],
          [
            203.0057974805599,
            -79.01564494367747
          ],
          [
            202.0830524887395,
            -79.93832205983442
          ],
          [
            200.7912398312815,
            -80.30734767672178
          ],
          [
            199.8685130381154,
            -80.6763913854393
          ],
          [
            198.57668218200305,
            -81.5990504097661
          ],
          [
            197.28486952454503,
            -81.96807602665343
          ],
          [
            196.17757553436053,
            -83.07528856604179
          ],
          [
            195.6239224730502,
            -83.81343930488245
          ],
          [
            195.2548184101039,
            -84.36705462049171
          ],
          [
            195.0702633455217,
            -84.73613451286958
          ],
          [
            194.33206735206537,
            -85.47427620579515
          ],
          [
            193.59387135860902,
            -86.21241789872073
          ],
          [
            193.40931629402684,
            -86.58149779109858
          ],
          [
            193.22476122944468,
            -86.95057768347645
          ],
          [
            192.8556692989346,
            -87.13510406079277
          ],
          [
            192.6711142343524,
            -87.50418395317064
          ],
          [
            192.6711081681343,
            -87.68872842231711
          ],
          [
            192.4865531035521,
            -88.05780831469498
          ],
          [
            192.4865409711159,
            -88.42689725298794
          ],
          [
            192.3019859065337,
            -88.79597714536582
          ],
          [
            192.11743690816962,
            -88.9805125685972
          ],
          [
            191.74834497765957,
            -89.16503894591352
          ],
          [
            191.37925911336762,
            -89.16502085408334
          ]
        ]
      },
      "properties": {
        "type": "variant",
        "id": 2,
        "color": "#4444ff",
        "vzdal_m": 791,
        "prevyseni_m": 58,
        "cas_s": 333,
        "tempo_str": "7:00"
      }
    },
    {
      "type": "Feature",
      "geometry": {
        "type": "LineString",
        "coordinates": [
          [
            215.0011608646654,
            -76.80169929840034
          ],
          [
            214.8165997338651,
            -77.35532365992468
          ],
          [
            214.07838554175441,
            -78.64709876028968
          ],
          [
            213.1556344837159,
            -79.75432034559313
          ],
          [
            212.6019632237512,
            -81.04610449187322
          ],
          [
            212.4174020929509,
            -81.59972885339756
          ],
          [
            211.67920609949456,
            -82.33787054632313
          ],
          [
            211.3101141689845,
            -82.52239692363943
          ],
          [
            210.57191210931006,
            -83.44508308571149
          ],
          [
            210.38736311094598,
            -83.62961850894288
          ],
          [
            210.01827118043593,
            -83.81414488625917
          ],
          [
            208.91099538890575,
            -84.3677240182081
          ],
          [
            207.61917059901154,
            -85.10583857338841
          ],
          [
            206.3273458091173,
            -85.84395312856871
          ],
          [
            205.95825387860722,
            -86.02847950588502
          ],
          [
            205.58916194809717,
            -86.21300588320133
          ],
          [
            204.48188009034888,
            -86.95112948429673
          ],
          [
            203.55915936340094,
            -87.13562872386777
          ],
          [
            202.63643257023483,
            -87.5046724325853
          ],
          [
            201.71369971085068,
            -88.05826061044931
          ],
          [
            200.97552798226678,
            -88.05822442678895
          ],
          [
            199.86825825695473,
            -88.4272590895914
          ],
          [
            199.49916632644465,
            -88.6117854669077
          ],
          [
            199.13008652837084,
            -88.42722290593106
          ],
          [
            198.5764455994967,
            -88.79628470647874
          ],
          [
            198.0228168030588,
            -88.7962575687335
          ],
          [
            197.65373700498495,
            -88.61169500775684
          ],
          [
            197.28465720691113,
            -88.42713244678019
          ],
          [
            196.9155774088373,
            -88.24256988580353
          ],
          [
            196.54649761076348,
            -88.05800732482689
          ],
          [
            195.2547031519598,
            -87.8733995342748
          ],
          [
            194.33195816013935,
            -88.79607665043177
          ],
          [
            193.04013337024512,
            -89.53419120561207
          ],
          [
            192.30195557544312,
            -89.7186994910982
          ],
          [
            191.9328757773693,
            -89.53413693012155
          ],
          [
            191.74833891144146,
            -89.34958341506
          ],
          [
            191.37925911336762,
            -89.16502085408334
          ]
        ]
      },
      "properties": {
        "type": "variant",
        "id": 3,
        "color": "#44ff44",
        "vzdal_m": 806,
        "prevyseni_m": 58,
        "cas_s": 327,
        "tempo_str": "6:45"
      }
    }
  ]
}