{
  "type": "FeatureCollection",
  "features": [
    {
      "type": "Feature",
      "geometry": {
        "type": "Point",
        "coordinates": [
          192.19899303874067,
          -97.33385813322771
        ]
      },
      "properties": {
        "type": "start",
        "isom": "109"
      }
    },
    {
      "type": "Feature",
      "geometry": {
        "type": "Point",
        "coordinates": [
          160.95171252471903,
          -122.89653362996219
        ]
      },
      "properties": {
        "type": "end",
        "isom": "109"
      }
    },
    {
      "type": "Feature",
      "geometry": {
        "type": "LineString",
        "coordinates": [
          [
            192.1171639283546,
            -97.28501368018874
          ],
          [
            191.563498734608,
            -98.39225335732235
          ],
          [
            190.27168001093187,
            -98.94582344335618
          ],
          [
            189.71804514827588,
            -99.1303407747574
          ],
          [
            189.34896535020204,
            -98.94577821378074
          ],
          [
            189.16442241805606,
            -98.94576916786566
          ],
          [
            188.61078755540004,
            -99.13028649926689
          ],
          [
            188.24169562488996,
            -99.31481287658319
          ],
          [
            188.057152692744,
            -99.3148038306681
          ],
          [
            187.68806076223393,
            -99.4993302079844
          ],
          [
            187.31896883172388,
            -99.68385658530072
          ],
          [
            187.1344137671417,
            -100.05293647767859
          ],
          [
            186.9498647687776,
            -100.23747190090998
          ],
          [
            186.76530970419543,
            -100.60655179328785
          ],
          [
            186.21166877532127,
            -100.97561359383553
          ],
          [
            185.84257684481122,
            -101.16013997115186
          ],
          [
            185.1043808513549,
            -101.89828166407742
          ],
          [
            184.1816419257526,
            -102.6364143110879
          ],
          [
            183.44344593229627,
            -103.37455600401346
          ],
          [
            182.70524993883993,
            -104.11269769693904
          ],
          [
            181.9670478791655,
            -105.03538385901109
          ],
          [
            181.22884581949106,
            -105.95807002108313
          ],
          [
            181.04429682112698,
            -106.14260544431453
          ],
          [
            180.30608262901632,
            -107.43438054467953
          ],
          [
            179.56788663555997,
            -108.1725222376051
          ],
          [
            178.82968457588552,
            -109.09520839967715
          ],
          [
            178.0914825162111,
            -110.01789456174919
          ],
          [
            177.53782338868263,
            -110.94058976973633
          ],
          [
            177.35326832410044,
            -111.3096696621142
          ],
          [
            177.16871932573636,
            -111.49420508534558
          ],
          [
            176.98416426115415,
            -111.86328497772345
          ],
          [
            176.24598040013404,
            -112.23233773235607
          ],
          [
            175.876888469624,
            -112.41686410967237
          ],
          [
            174.95416774267605,
            -112.60136334924343
          ],
          [
            174.76962481053008,
            -112.60135430332834
          ],
          [
            174.40053288002,
            -112.78588068064464
          ],
          [
            173.4777878881996,
            -113.7085577968016
          ],
          [
            172.73959796096136,
            -114.26215502058068
          ],
          [
            172.3705060304513,
            -114.44668139789701
          ],
          [
            171.81684690292286,
            -115.36937660588413
          ],
          [
            171.63229183834065,
            -115.738456498262
          ],
          [
            170.3404670484464,
            -116.47657105344231
          ],
          [
            169.60227105499007,
            -117.21471274636788
          ],
          [
            169.04863012611594,
            -117.58377454691558
          ],
          [
            168.67953819560591,
            -117.76830092423188
          ],
          [
            167.57225633785762,
            -118.50642452532728
          ],
          [
            166.83407247683752,
            -118.8754772799599
          ],
          [
            166.64952347847344,
            -119.06001270319129
          ],
          [
            166.2804315479634,
            -119.2445390805076
          ],
          [
            165.91133961745334,
            -119.42906545782391
          ],
          [
            164.98860069185102,
            -120.16719810483437
          ],
          [
            164.43495369675878,
            -120.72080437452857
          ],
          [
            164.06586176624873,
            -120.90533075184486
          ],
          [
            163.88131276788465,
            -121.08986617507625
          ],
          [
            163.51222083737457,
            -121.27439255239256
          ],
          [
            162.95858597471855,
            -121.45890988379378
          ],
          [
            162.7740309101364,
            -121.82798977617165
          ],
          [
            162.0358531153344,
            -122.01249806165778
          ],
          [
            161.85129805075218,
            -122.38157795403566
          ],
          [
            160.928565191368,
            -122.93516613189965
          ]
        ]
      },
      "properties": {
        "type": "variant",
        "id": 1,
        "color": "#ff4444",
        "vzdal_m": 1139,
        "prevyseni_m": 6,
        "cas_s": 342,
        "tempo_str": "5:00"
      }
    },
    {
      "type": "Feature",
      "geometry": {
        "type": "LineString",
        "coordinates": [
          [
            192.1171639283546,
            -97.28501368018874
          ],
          [
            191.5635048008261,
            -98.20770888817586
          ],
          [
            191.37894973624392,
            -98.57678878055376
          ],
          [
            190.82529667493358,
            -99.3149395193944
          ],
          [
            190.45618047955108,
            -100.23764377329661
          ],
          [
            190.2716254149689,
            -100.60672366567448
          ],
          [
            189.5334415539488,
            -100.9757764203071
          ],
          [
            189.3488864893666,
            -101.34485631268497
          ],
          [
            188.6106722972559,
            -102.63663141304998
          ],
          [
            187.87247023758147,
            -103.55931757512202
          ],
          [
            187.1342621116889,
            -104.66654820634055
          ],
          [
            186.39604791957825,
            -105.95832330670554
          ],
          [
            185.6578519261219,
            -106.69646499963112
          ],
          [
            184.73511300051962,
            -107.4345976466416
          ],
          [
            184.18145993920925,
            -108.17274838548225
          ],
          [
            183.44325787953483,
            -109.09543454755429
          ],
          [
            182.7050679522966,
            -109.6490317713334
          ],
          [
            181.96687195884027,
            -110.38717346425896
          ],
          [
            181.22866383294772,
            -111.49440409547748
          ],
          [
            180.8595415713471,
            -112.60165281852618
          ],
          [
            180.85951730647466,
            -113.33983069511208
          ],
          [
            180.30584604650997,
            -114.63161484139219
          ],
          [
            180.12129098192776,
            -115.00069473377006
          ],
          [
            179.9367359173456,
            -115.36977462614793
          ],
          [
            179.5676257881812,
            -116.10793441090367
          ],
          [
            178.27580099828697,
            -116.84604896608397
          ],
          [
            177.9067090677769,
            -117.0305753434003
          ],
          [
            177.35307420512086,
            -117.21509267480151
          ],
          [
            176.98398834082894,
            -117.21507458297133
          ],
          [
            176.61489641031886,
            -117.39960096028764
          ],
          [
            176.43034741195478,
            -117.58413638351904
          ],
          [
            175.87671254929876,
            -117.76865371492025
          ],
          [
            175.32306555420652,
            -118.32225998461443
          ],
          [
            174.40033876104044,
            -118.69130369333195
          ],
          [
            174.03124076431226,
            -119.06037453979472
          ],
          [
            172.92397710521834,
            -119.2448647334507
          ],
          [
            172.5548851747083,
            -119.42939111076701
          ],
          [
            172.18579324419824,
            -119.61391748808332
          ],
          [
            171.6321583815422,
            -119.79843481948453
          ],
          [
            171.26306645103216,
            -119.98296119680084
          ],
          [
            170.3403457240842,
            -120.16746043637188
          ],
          [
            169.6021739955003,
            -120.16742425271154
          ],
          [
            168.8640022669164,
            -120.16738806905119
          ],
          [
            167.5721835432403,
            -120.72095815508501
          ],
          [
            166.64946281629233,
            -120.90545739465607
          ],
          [
            166.28037088578228,
            -121.08998377197237
          ],
          [
            165.3576380263981,
            -121.64357194983639
          ],
          [
            164.25036830108604,
            -122.01260661263882
          ],
          [
            163.51219657250215,
            -122.01257042897846
          ],
          [
            162.77402484391826,
            -122.01253424531814
          ],
          [
            162.0358531153344,
            -122.01249806165778
          ],
          [
            161.85129805075218,
            -122.38157795403566
          ],
          [
            160.928565191368,
            -122.93516613189965
          ]
        ]
      },
      "properties": {
        "type": "variant",
        "id": 2,
        "color": "#4444ff",
        "vzdal_m": 1182,
        "prevyseni_m": 5,
        "cas_s": 342,
        "tempo_str": "4:49"
      }
    },
    {
      "type": "Feature",
      "geometry": {
        "type": "LineString",
        "coordinates": [
          [
            192.1171639283546,
            -97.28501368018874
          ],
          [
            191.3789800673345,
            -97.65406643482136
          ],
          [
            191.00988813682446,
            -97.83859281213766
          ],
          [
            190.82533913846035,
            -98.02312823536904
          ],
          [
            190.4562472079503,
            -98.20765461268535
          ],
          [
            189.71806334693022,
            -98.57670736731797
          ],
          [
            188.7953426199822,
            -98.761206606889
          ],
          [
            188.42626282190838,
            -98.57664404591236
          ],
          [
            188.2417198897624,
            -98.57663499999728
          ],
          [
            187.87262795925236,
            -98.76116137731357
          ],
          [
            186.7653582339403,
            -99.13019604011602
          ],
          [
            186.02718650535644,
            -99.13015985645569
          ],
          [
            185.28901477677255,
            -99.13012367279532
          ],
          [
            184.9199289124806,
            -99.13010558096515
          ],
          [
            184.55083698197055,
            -99.31463195828147
          ],
          [
            183.4435672566585,
            -99.68366662108389
          ],
          [
            181.9671995346183,
            -100.42177213034914
          ],
          [
            180.8599237430881,
            -100.97535126229803
          ],
          [
            180.49083181257805,
            -101.15987763961435
          ],
          [
            179.19900702268382,
            -101.89799219479467
          ],
          [
            178.2762680970815,
            -102.63612484180513
          ],
          [
            177.53806603740708,
            -103.5588110038772
          ],
          [
            177.1689559082427,
            -104.29697078863293
          ],
          [
            176.2462230488585,
            -104.85055896649693
          ],
          [
            175.50802705540218,
            -105.5887006594225
          ],
          [
            174.21620226550792,
            -106.3268152146028
          ],
          [
            174.03165933336194,
            -106.32680616868771
          ],
          [
            173.6625674028519,
            -106.51133254600404
          ],
          [
            172.92437140939558,
            -107.2494742389296
          ],
          [
            172.18616934972115,
            -108.17216040100165
          ],
          [
            170.8943445598269,
            -108.91027495618196
          ],
          [
            170.15614250015244,
            -109.83296111825399
          ],
          [
            169.04886064240418,
            -110.5710847193494
          ],
          [
            167.57249292036397,
            -111.30919022861461
          ],
          [
            166.09612519832373,
            -112.04729573787984
          ],
          [
            164.98883727435737,
            -112.96996380812172
          ],
          [
            164.80426401112084,
            -113.89267710793902
          ],
          [
            164.80423974624838,
            -114.63085498452493
          ],
          [
            164.80421548137596,
            -115.36903286111085
          ],
          [
            164.43512355086588,
            -115.55355923842717
          ],
          [
            164.0660134217015,
            -116.2917190231829
          ],
          [
            163.88145835711933,
            -116.66079891556078
          ],
          [
            163.14326236366298,
            -117.39894060848636
          ],
          [
            162.9587012328627,
            -117.9525649700107
          ],
          [
            162.22049310697014,
            -119.05979560122921
          ],
          [
            161.8513769115876,
            -119.98249985513145
          ],
          [
            161.66681578078732,
            -120.5361242166558
          ],
          [
            161.48226678242324,
            -120.72065963988717
          ],
          [
            161.1131748519132,
            -120.90518601720348
          ],
          [
            160.9286076548948,
            -121.6433548478743
          ],
          [
            160.9285773238042,
            -122.5660771936067
          ],
          [
            160.928565191368,
            -122.93516613189965
          ]
        ]
      },
      "properties": {
        "type": "variant",
        "id": 3,
        "color": "#44ff44",
        "vzdal_m": 1186,
        "prevyseni_m": 9,
        "cas_s": 344,
        "tempo_str": "4:49"
      }
    }
  ]
}