{
  "type": "FeatureCollection",
  "features": [
    {
      "type": "Feature",
      "geometry": {
        "type": "Point",
        "coordinates": [
          77.70106031794778,
          -106.51298144448516
        ]
      },
      "properties": {
        "type": "start",
        "isom": "111"
      }
    },
    {
      "type": "Feature",
      "geometry": {
        "type": "Point",
        "coordinates": [
          42.81933003956476,
          -96.20531321958453
        ]
      },
      "properties": {
        "type": "end",
        "isom": "204"
      }
    },
    {
      "type": "Feature",
      "geometry": {
        "type": "LineString",
        "coordinates": [
          [
            77.642390219824,
            -106.58234809282537
          ],
          [
            76.16603600714396,
            -105.84408819113426
          ],
          [
            74.8742224707289,
            -105.29038741132568
          ],
          [
            74.13603096310878,
            -105.29036399716463
          ],
          [
            72.84421742669373,
            -104.73666321735604
          ],
          [
            72.47512887352372,
            -104.55209824193328
          ],
          [
            71.7369373659036,
            -104.5520748277722
          ],
          [
            70.62963570319333,
            -104.92114624321508
          ],
          [
            69.52234844176316,
            -104.92111112197345
          ],
          [
            68.59961625787805,
            -104.7365285859299
          ],
          [
            67.86142475025794,
            -104.73650517176881
          ],
          [
            67.12323324263782,
            -104.73648175760776
          ],
          [
            65.83142690686282,
            -103.99822770945693
          ],
          [
            64.35507269418278,
            -103.25996780776585
          ],
          [
            63.2477998340327,
            -102.89082614983977
          ],
          [
            62.14053417452268,
            -102.33713122357146
          ],
          [
            61.217801990637575,
            -102.15254868752788
          ],
          [
            60.29506980675248,
            -101.96796615148432
          ],
          [
            59.925981253582464,
            -101.78340117606155
          ],
          [
            58.449627040902435,
            -101.04514127437047
          ],
          [
            58.080538487732426,
            -100.86057629894768
          ],
          [
            57.71143553328232,
            -101.04511786020939
          ],
          [
            56.60415547249219,
            -100.86052947062555
          ],
          [
            55.68144489052723,
            -100.12228712955526
          ],
          [
            54.2050906778472,
            -99.38402722786417
          ],
          [
            52.72873646516716,
            -98.64576732617309
          ],
          [
            51.06782717494205,
            -98.09205483928397
          ],
          [
            50.32965006860203,
            -97.72292488843843
          ],
          [
            49.96056151543202,
            -97.53835991301567
          ],
          [
            49.59147296226201,
            -97.3537949375929
          ],
          [
            48.48420010211193,
            -96.98465327966682
          ],
          [
            47.37691284068176,
            -96.9846181584252
          ],
          [
            46.82327641060672,
            -96.80004732946217
          ],
          [
            46.08508490298661,
            -96.8000239153011
          ],
          [
            44.977812042836526,
            -96.43088225737503
          ],
          [
            44.05507985895143,
            -96.24629972133144
          ],
          [
            43.316888351331315,
            -96.24627630717039
          ],
          [
            42.76324472061623,
            -96.24625874654959
          ]
        ]
      },
      "properties": {
        "type": "variant",
        "id": 1,
        "color": "#ff4444",
        "vzdal_m": 1012,
        "prevyseni_m": 12,
        "cas_s": 284,
        "tempo_str": "4:41"
      }
    },
    {
      "type": "Feature",
      "geometry": {
        "type": "LineString",
        "coordinates": [
          [
            77.642390219824,
            -106.58234809282537
          ],
          [
            76.90422751476407,
            -105.84411160529534
          ],
          [
            76.16606480970415,
            -105.10587511776532
          ],
          [
            75.42790210464423,
            -104.36763863023532
          ],
          [
            74.68973939958431,
            -103.62940214270529
          ],
          [
            73.7670216169793,
            -103.07571306997725
          ],
          [
            73.21341398946447,
            -102.15292916764525
          ],
          [
            72.47525848504459,
            -101.23013941177302
          ],
          [
            71.73709577998467,
            -100.49190292424299
          ],
          [
            70.99894027556479,
            -99.56911316837073
          ],
          [
            69.85226903211061,
            -98.84031441898736
          ],
          [
            69.61870753889117,
            -98.3744181443597
          ],
          [
            69.15351191099485,
            -98.27718175457242
          ],
          [
            68.7844161571848,
            -98.27717004749188
          ],
          [
            67.8616695720196,
            -98.46169404813277
          ],
          [
            67.12347806439948,
            -98.4616706339717
          ],
          [
            66.38528655677936,
            -98.46164721981063
          ],
          [
            66.0161908029693,
            -98.4616355127301
          ],
          [
            65.64710224979929,
            -98.27707053730734
          ],
          [
            65.09346581972426,
            -98.09249970834429
          ],
          [
            64.17073363583917,
            -97.90791717230071
          ],
          [
            63.43254212821905,
            -97.90789375813965
          ],
          [
            63.24799425131402,
            -97.90788790459938
          ],
          [
            62.87889129686391,
            -98.09242946586107
          ],
          [
            62.1406997892438,
            -98.09240605170002
          ],
          [
            61.40250828162368,
            -98.09238263753895
          ],
          [
            60.66431677400356,
            -98.09235922337787
          ],
          [
            59.926125266383444,
            -98.0923358092168
          ],
          [
            59.37248163566836,
            -98.092318248596
          ],
          [
            59.18793375876333,
            -98.09231239505573
          ],
          [
            58.080660898613246,
            -97.72317073712966
          ],
          [
            56.973402439743275,
            -96.98492254251912
          ],
          [
            55.86614398087329,
            -96.24667434790855
          ],
          [
            54.38978976819326,
            -95.50841444621747
          ],
          [
            54.020701215023244,
            -95.3238494707947
          ],
          [
            53.651612661853235,
            -95.13928449537194
          ],
          [
            53.282524108683226,
            -94.95471951994917
          ],
          [
            52.91343555551322,
            -94.77015454452639
          ],
          [
            52.5443470023432,
            -94.5855895691036
          ],
          [
            52.17525844917319,
            -94.40102459368084
          ],
          [
            51.437074142193126,
            -94.21644791117754
          ],
          [
            50.88343051147804,
            -94.21643035055673
          ],
          [
            49.96068392631284,
            -94.40095435119763
          ],
          [
            49.03793734114765,
            -94.58547835183853
          ],
          [
            48.29974583352754,
            -94.58545493767747
          ],
          [
            47.376999248362345,
            -94.76997893831836
          ],
          [
            46.26969758565207,
            -95.13905035376123
          ],
          [
            44.97784084539672,
            -95.69266918400608
          ],
          [
            44.055101460871576,
            -95.69263991630473
          ],
          [
            42.94779259752126,
            -96.24626460008984
          ],
          [
            42.76324472061623,
            -96.24625874654959
          ]
        ]
      },
      "properties": {
        "type": "variant",
        "id": 2,
        "color": "#4444ff",
        "vzdal_m": 1080,
        "prevyseni_m": 14,
        "cas_s": 304,
        "tempo_str": "4:41"
      }
    },
    {
      "type": "Feature",
      "geometry": {
        "type": "LineString",
        "coordinates": [
          [
            77.642390219824,
            -106.58234809282537
          ],
          [
            76.16603600714396,
            -105.84408819113426
          ],
          [
            74.8742224707289,
            -105.29038741132568
          ],
          [
            74.13603096310878,
            -105.29036399716463
          ],
          [
            72.84421742669373,
            -104.73666321735604
          ],
          [
            72.47512887352372,
            -104.55209824193328
          ],
          [
            71.7369373659036,
            -104.5520748277722
          ],
          [
            70.62963570319333,
            -104.92114624321508
          ],
          [
            69.52234844176316,
            -104.92111112197345
          ],
          [
            68.59961625787805,
            -104.7365285859299
          ],
          [
            67.86142475025794,
            -104.73650517176881
          ],
          [
            67.12323324263782,
            -104.73648175760776
          ],
          [
            66.20048665747262,
            -104.92100575824865
          ],
          [
            65.83139090366257,
            -104.92099405116811
          ],
          [
            64.90864431849738,
            -105.10551805180901
          ],
          [
            64.17045281087726,
            -105.10549463764794
          ],
          [
            63.063158348807036,
            -105.29001278474858
          ],
          [
            62.50951471809196,
            -105.28999522412778
          ],
          [
            61.77132321047184,
            -105.28997180996672
          ],
          [
            61.03312450221168,
            -105.47450166414788
          ],
          [
            60.84859102658674,
            -105.10538927392314
          ],
          [
            59.74131816643666,
            -104.73624761599706
          ],
          [
            59.00312665881655,
            -104.73622420183598
          ],
          [
            58.264935151196426,
            -104.73620078767493
          ],
          [
            57.52674364357631,
            -104.73617737351385
          ],
          [
            56.788552135956195,
            -104.73615395935279
          ],
          [
            55.86581995207109,
            -104.55157142330921
          ],
          [
            55.12765724701118,
            -103.8133349357792
          ],
          [
            54.38948734131121,
            -103.2596517165914
          ],
          [
            53.46677675934626,
            -102.52140937552115
          ],
          [
            52.54405897674126,
            -101.96772030279308
          ],
          [
            51.06770476406122,
            -101.229460401102
          ],
          [
            50.14497258017613,
            -101.04487786505844
          ],
          [
            49.9604247032711,
            -101.04487201151817
          ],
          [
            49.591336150101085,
            -100.86030703609539
          ],
          [
            49.037692519386,
            -100.86028947547457
          ],
          [
            48.484041688030864,
            -101.04482518319602
          ],
          [
            47.56133110606591,
            -100.30658284212574
          ],
          [
            46.823182802286084,
            -99.19923981791126
          ],
          [
            46.08502009722616,
            -98.46100333038123
          ],
          [
            45.34685739216624,
            -97.7227668428512
          ],
          [
            44.055051056391235,
            -96.9845127947004
          ],
          [
            42.76324472061623,
            -96.24625874654959
          ]
        ]
      },
      "properties": {
        "type": "variant",
        "id": 3,
        "color": "#44ff44",
        "vzdal_m": 1051,
        "prevyseni_m": 13,
        "cas_s": 292,
        "tempo_str": "4:37"
      }
    }
  ]
}