{
  "type": "FeatureCollection",
  "features": [
    {
      "type": "Feature",
      "geometry": {
        "type": "Point",
        "coordinates": [
          126.36103323418433,
          -181.25880267721615
        ]
      },
      "properties": {
        "type": "start",
        "isom": "204"
      }
    },
    {
      "type": "Feature",
      "geometry": {
        "type": "Point",
        "coordinates": [
          166.5688758789251,
          -104.87274192615948
        ]
      },
      "properties": {
        "type": "end",
        "isom": "204"
      }
    },
    {
      "type": "Feature",
      "geometry": {
        "type": "LineString",
        "coordinates": [
          [
            126.18832858845761,
            -181.39974885705456
          ],
          [
            125.81926163720773,
            -180.66152407660508
          ],
          [
            125.81927603848783,
            -180.2924175399206
          ],
          [
            125.81929043976793,
            -179.9233110032361
          ],
          [
            125.81930484104802,
            -179.55420446655165
          ],
          [
            125.45023788979816,
            -178.8159796861022
          ],
          [
            125.08117093854831,
            -178.07775490565268
          ],
          [
            124.71211838857855,
            -176.97042358851874
          ],
          [
            125.08124294494878,
            -176.23222222223032
          ],
          [
            125.08125734622888,
            -175.86311568554586
          ],
          [
            125.45038190259913,
            -175.12491431925744
          ],
          [
            125.81950645896939,
            -174.38671295296902
          ],
          [
            126.18863101533965,
            -173.6485115866806
          ],
          [
            126.92685132551996,
            -172.91032192747275
          ],
          [
            127.29597588189021,
            -172.17212056118433
          ],
          [
            127.66514364210074,
            -170.32659958484248
          ],
          [
            128.0343114023113,
            -168.48107860850067
          ],
          [
            128.772589317612,
            -166.26646280255488
          ],
          [
            129.5108384303525,
            -164.79006006997807
          ],
          [
            129.87996298672275,
            -164.05185870368965
          ],
          [
            130.24908754309303,
            -163.31365733740125
          ],
          [
            130.61821209946328,
            -162.57545597111283
          ],
          [
            130.61824090202347,
            -161.8372428977439
          ],
          [
            130.9873654583937,
            -161.09904153145547
          ],
          [
            130.9874230635141,
            -159.62261538471756
          ],
          [
            130.61835611226425,
            -158.8843906042681
          ],
          [
            130.61841371738464,
            -157.4079644575302
          ],
          [
            130.618471322505,
            -155.93153831079232
          ],
          [
            130.6185289276254,
            -154.4551121640544
          ],
          [
            130.6185433289055,
            -154.08600562736993
          ],
          [
            130.98766788527575,
            -153.3478042610815
          ],
          [
            130.6186009340259,
            -152.60957948063205
          ],
          [
            130.24953398277603,
            -151.87135470018256
          ],
          [
            130.61867294042636,
            -150.7640467972097
          ],
          [
            131.72601780697696,
            -149.2876557717134
          ],
          [
            133.20248722989777,
            -147.07306337992867
          ],
          [
            133.571611786268,
            -146.33486201364028
          ],
          [
            133.94073634263825,
            -145.59666064735185
          ],
          [
            134.3098608990085,
            -144.85845928106343
          ],
          [
            134.67898545537878,
            -144.120257914775
          ],
          [
            134.67904306049917,
            -142.64383176803713
          ],
          [
            134.72557555210088,
            -141.16740709540247
          ],
          [
            134.72564755850135,
            -139.32187441198008
          ],
          [
            136.66126582801058,
            -136.8661630496513
          ],
          [
            138.07433903048693,
            -135.30439880044628
          ],
          [
            139.30167508476288,
            -133.62209005359662
          ],
          [
            140.9054977717189,
            -131.8948151475819
          ],
          [
            142.6786786067483,
            -130.32081809411625
          ],
          [
            143.3259231773449,
            -129.79829064209156
          ],
          [
            144.1681264270534,
            -129.20014128268315
          ],
          [
            144.84035208552126,
            -128.73556912538336
          ],
          [
            145.68654217431504,
            -128.1524013284169
          ],
          [
            147.65334120923353,
            -126.793377126233
          ],
          [
            148.70531536160564,
            -126.40358902298061
          ],
          [
            151.28904324339643,
            -124.92724482580647
          ],
          [
            152.76548386375705,
            -123.45086550739072
          ],
          [
            153.1346084201273,
            -122.71266414110231
          ],
          [
            153.87282873030762,
            -121.97447448189442
          ],
          [
            154.2419532866779,
            -121.23627311560601
          ],
          [
            155.71839390703852,
            -119.75989379719024
          ],
          [
            156.45659981593872,
            -119.39081067466685
          ],
          [
            157.19480572483894,
            -119.02172755214343
          ],
          [
            157.563901478649,
            -119.02173925922398
          ],
          [
            158.3021073875492,
            -118.65265613670059
          ],
          [
            158.67121754263937,
            -118.28356130709663
          ],
          [
            159.40945225409976,
            -117.17626511120429
          ],
          [
            159.77857681047,
            -116.43806374491588
          ],
          [
            160.5168547257707,
            -114.2234479389701
          ],
          [
            161.99330974741144,
            -112.37796208386986
          ],
          [
            163.10061768486491,
            -111.27067759434352
          ],
          [
            163.46974224123517,
            -110.53247622805509
          ],
          [
            163.46975664251525,
            -110.16336969137062
          ],
          [
            163.8388811988855,
            -109.42516832508221
          ],
          [
            164.20799135397567,
            -109.05607349547827
          ],
          [
            164.5771159103459,
            -108.31787212918987
          ],
          [
            165.6844607768965,
            -106.84148110369357
          ],
          [
            166.05358533326674,
            -106.10327973740516
          ],
          [
            166.42272429091707,
            -104.99597183443228
          ]
        ]
      },
      "properties": {
        "type": "variant",
        "id": 1,
        "color": "#ff4444",
        "vzdal_m": 1265,
        "prevyseni_m": 47,
        "cas_s": 437,
        "tempo_str": "5:45"
      }
    },
    {
      "type": "Feature",
      "geometry": {
        "type": "LineString",
        "coordinates": [
          [
            126.18832858845761,
            -181.39974885705456
          ],
          [
            128.40293191387815,
            -180.6616060261688
          ],
          [
            130.24845388676871,
            -179.55434495151806
          ],
          [
            132.83216736727942,
            -178.44710729102837
          ],
          [
            134.30860798764004,
            -176.97072797261262
          ],
          [
            135.4159528541906,
            -175.49433694711635
          ],
          [
            137.26148922836128,
            -174.01796933578115
          ],
          [
            138.73791544744182,
            -172.91069655404985
          ],
          [
            140.21437046908252,
            -171.0652106989496
          ],
          [
            141.3217585394734,
            -168.4815000633999
          ],
          [
            143.16729491364407,
            -167.0051324520647
          ],
          [
            144.83758960118865,
            -165.47232545207137
          ],
          [
            147.28196583867046,
            -163.85676212260705
          ],
          [
            150.07364520439046,
            -163.02944736239036
          ],
          [
            150.29739998497382,
            -162.23415422914948
          ],
          [
            150.47889205390464,
            -161.4523655762711
          ],
          [
            150.15213829195648,
            -160.5616694179906
          ],
          [
            150.3661786568164,
            -159.31525452563736
          ],
          [
            149.81139291550764,
            -157.408573225718
          ],
          [
            149.81145052062803,
            -155.93214707898008
          ],
          [
            149.81150812574845,
            -154.4557209322422
          ],
          [
            149.8115657308688,
            -152.9792947855043
          ],
          [
            149.8116233359892,
            -151.50286863876642
          ],
          [
            149.07351823604967,
            -149.2882060044985
          ],
          [
            149.07356143988997,
            -148.18088639444508
          ],
          [
            149.44268599626022,
            -147.4426850281567
          ],
          [
            149.44274360138058,
            -145.96625888141878
          ],
          [
            149.442801206501,
            -144.4898327346809
          ],
          [
            149.4428588116214,
            -143.013406587943
          ],
          [
            150.1811367269221,
            -140.7987907819972
          ],
          [
            151.28852479731293,
            -138.21508014644752
          ],
          [
            153.50317132657378,
            -136.36961770550835
          ],
          [
            155.7177890532744,
            -135.26236833793814
          ],
          [
            157.93244998381536,
            -133.0477993603145
          ],
          [
            159.77798635798604,
            -131.57143174897928
          ],
          [
            160.14709651307618,
            -131.20233691937534
          ],
          [
            160.51622106944643,
            -130.46413555308692
          ],
          [
            161.99266168980708,
            -128.98775623467117
          ],
          [
            162.7308819999874,
            -128.2495665754633
          ],
          [
            163.0999840285406,
            -127.51136520846036
          ],
          [
            164.57646785274153,
            -124.92766627999117
          ],
          [
            165.6838415218523,
            -122.71306218112593
          ],
          [
            166.05296607822254,
            -121.97486081483753
          ],
          [
            166.79118638840285,
            -121.23667115562964
          ],
          [
            167.1603109447731,
            -120.49846978934123
          ],
          [
            167.52947870498366,
            -118.6529488129994
          ],
          [
            169.00594812790447,
            -116.43835642121469
          ],
          [
            169.00602013430498,
            -114.59282373779233
          ],
          [
            169.00609214070545,
            -112.74729105436995
          ],
          [
            169.00613534454573,
            -111.63997144431653
          ],
          [
            168.6370683932959,
            -110.90174666386704
          ],
          [
            168.26800144204603,
            -110.16352188341759
          ],
          [
            167.89892008951605,
            -109.79440363965257
          ],
          [
            167.5298531382662,
            -109.05617885920309
          ],
          [
            167.16078618701633,
            -108.3179540787536
          ],
          [
            166.4226522845166,
            -106.84150451785464
          ],
          [
            166.05358533326674,
            -106.10327973740516
          ],
          [
            166.42272429091707,
            -104.99597183443228
          ]
        ]
      },
      "properties": {
        "type": "variant",
        "id": 2,
        "color": "#4444ff",
        "vzdal_m": 1321,
        "prevyseni_m": 41,
        "cas_s": 441,
        "tempo_str": "5:34"
      }
    },
    {
      "type": "Feature",
      "geometry": {
        "type": "LineString",
        "coordinates": [
          [
            126.18832858845761,
            -181.39974885705456
          ],
          [
            126.92654889863792,
            -180.66155919784669
          ],
          [
            127.29565905372807,
            -180.29246436824275
          ],
          [
            127.66476920881823,
            -179.9233695386388
          ],
          [
            128.40297511771843,
            -179.5542864161154
          ],
          [
            128.7720852728086,
            -179.18519158651148
          ],
          [
            129.14119542789874,
            -178.8160967569075
          ],
          [
            129.5103055829889,
            -178.44700192730357
          ],
          [
            129.87943013935916,
            -177.70880056101518
          ],
          [
            130.24854029444933,
            -177.33970573141124
          ],
          [
            130.61765044953947,
            -176.9706109018073
          ],
          [
            130.98676060462964,
            -176.60151607220334
          ],
          [
            131.72496651352984,
            -176.23243294967995
          ],
          [
            133.5705028877005,
            -174.75606533834474
          ],
          [
            135.04695790934122,
            -172.9105794832445
          ],
          [
            136.8924942835119,
            -171.43421187190927
          ],
          [
            138.7380306576826,
            -169.95784426057406
          ],
          [
            140.58358143313336,
            -168.11237011255437
          ],
          [
            142.0600796586144,
            -165.1595646474007
          ],
          [
            142.42920421498465,
            -164.4213632811123
          ],
          [
            142.7983287713549,
            -163.6831619148239
          ],
          [
            143.16749653156543,
            -161.83764093848205
          ],
          [
            143.16755413668582,
            -160.36121479174415
          ],
          [
            143.1676117418062,
            -158.88478864500627
          ],
          [
            143.1676405443664,
            -158.1465755716373
          ],
          [
            143.53677950201674,
            -157.03926766866442
          ],
          [
            143.905904058387,
            -156.30106630237603
          ],
          [
            145.01327772749778,
            -154.0864622035108
          ],
          [
            144.64421077624792,
            -153.3482374230613
          ],
          [
            145.01337853645845,
            -151.50271644671946
          ],
          [
            145.2259045892233,
            -150.9605191115899
          ],
          [
            145.75162764919895,
            -150.02631371414265
          ],
          [
            146.1207522055692,
            -149.28811234785425
          ],
          [
            146.1208098106896,
            -147.81168620111634
          ],
          [
            146.12086741581,
            -146.33526005437844
          ],
          [
            146.12092502093037,
            -144.85883390764056
          ],
          [
            146.12098262605076,
            -143.38240776090265
          ],
          [
            146.12104023117115,
            -141.90598161416477
          ],
          [
            146.12109783629154,
            -140.42955546742687
          ],
          [
            146.12111223757165,
            -140.0604489307424
          ],
          [
            145.7520452863218,
            -139.32222415029293
          ],
          [
            145.75213169400237,
            -137.10758493018608
          ],
          [
            147.2286011169232,
            -134.89299253840136
          ],
          [
            148.7050561385639,
            -133.04750668330112
          ],
          [
            149.07418069493414,
            -132.30930531701273
          ],
          [
            150.55063571657487,
            -130.4638194619125
          ],
          [
            152.0270763369355,
            -128.98744014349674
          ],
          [
            153.5035313585762,
            -127.1419542883965
          ],
          [
            154.97997197893685,
            -125.66557496998075
          ],
          [
            156.45641259929747,
            -124.18919565156502
          ],
          [
            157.56374306456792,
            -123.08191116275319
          ],
          [
            157.93286762093817,
            -122.34370979646478
          ],
          [
            158.30199217730842,
            -121.60550843017637
          ],
          [
            159.04027009260912,
            -119.39089262423059
          ],
          [
            159.40943785281968,
            -117.54537164788876
          ],
          [
            159.77856240918993,
            -116.80717028160035
          ],
          [
            160.1477301694005,
            -114.9616493052585
          ],
          [
            161.62419959232128,
            -112.74705691347381
          ],
          [
            163.10061768486491,
            -111.27067759434352
          ],
          [
            163.46974224123517,
            -110.53247622805509
          ],
          [
            163.46975664251525,
            -110.16336969137062
          ],
          [
            163.8388811988855,
            -109.42516832508221
          ],
          [
            164.20799135397567,
            -109.05607349547827
          ],
          [
            164.5771159103459,
            -108.31787212918987
          ],
          [
            165.6844607768965,
            -106.84148110369357
          ],
          [
            166.05358533326674,
            -106.10327973740516
          ],
          [
            166.42272429091707,
            -104.99597183443228
          ]
        ]
      },
      "properties": {
        "type": "variant",
        "id": 3,
        "color": "#44ff44",
        "vzdal_m": 1235,
        "prevyseni_m": 39,
        "cas_s": 423,
        "tempo_str": "5:42"
      }
    }
  ]
}