{
  "type": "FeatureCollection",
  "features": [
    {
      "type": "Feature",
      "geometry": {
        "type": "Point",
        "coordinates": [
          194.24114661425136,
          -228.58789302362936
        ]
      },
      "properties": {
        "type": "start",
        "isom": "419"
      }
    },
    {
      "type": "Feature",
      "geometry": {
        "type": "Point",
        "coordinates": [
          124.16607606194599,
          -219.15940294432016
        ]
      },
      "properties": {
        "type": "end",
        "isom": "204"
      }
    },
    {
      "type": "Feature",
      "geometry": {
        "type": "LineString",
        "coordinates": [
          [
            194.17407916710127,
            -228.59293627925442
          ],
          [
            193.62048676797204,
            -227.48564232663026
          ],
          [
            193.2514069698982,
            -227.30107976565364
          ],
          [
            193.06687617018846,
            -226.93198178144556
          ],
          [
            192.88235750291494,
            -226.19379485894459
          ],
          [
            192.69782670320518,
            -225.82469687473653
          ],
          [
            191.40605044305582,
            -225.086455676745
          ],
          [
            190.85244591149038,
            -224.34825066241385
          ],
          [
            190.11432271265136,
            -222.87185872558166
          ],
          [
            188.82255251872013,
            -221.94907305844367
          ],
          [
            188.2689297885003,
            -221.76450145155195
          ],
          [
            187.89984999042647,
            -221.57993889057528
          ],
          [
            187.53077019235263,
            -221.39537632959863
          ],
          [
            186.2389878659852,
            -220.8416796007536
          ],
          [
            185.86990806791135,
            -220.65711703977692
          ],
          [
            185.50082826983754,
            -220.47255447880028
          ],
          [
            184.9472055396177,
            -220.28798287190855
          ],
          [
            184.5781257415439,
            -220.10342031093188
          ],
          [
            184.20904594347004,
            -219.91885774995524
          ],
          [
            184.02450301132407,
            -219.91884870404016
          ],
          [
            183.65542321325026,
            -219.7342861430635
          ],
          [
            182.91725148466637,
            -219.73424995940314
          ],
          [
            181.62547522451703,
            -218.99600876141164
          ],
          [
            180.51824189651364,
            -218.25777660933522
          ],
          [
            179.78008230036596,
            -217.8886514873819
          ],
          [
            179.41100250229215,
            -217.70408892640526
          ],
          [
            179.0419227042183,
            -217.5195263654286
          ],
          [
            178.48828784156228,
            -217.70404369682984
          ],
          [
            178.11919591105223,
            -217.88857007414614
          ],
          [
            177.1964569854499,
            -218.62670272115662
          ],
          [
            176.27373625850197,
            -218.8112019607277
          ],
          [
            175.12111656408223,
            -219.17061456293936
          ],
          [
            174.42556293256968,
            -219.15545411467346
          ],
          [
            173.68992793288734,
            -219.19385776914137
          ],
          [
            172.95323723766987,
            -219.16384683606324
          ],
          [
            172.2320362006315,
            -219.1007270229983
          ],
          [
            171.88149666807226,
            -219.02008446659454
          ],
          [
            171.49064508926872,
            -218.9301680162043
          ],
          [
            171.1401055567095,
            -218.84952545980053
          ],
          [
            170.75084812346515,
            -218.7587554566851
          ],
          [
            169.4056004949211,
            -218.41323741713265
          ],
          [
            168.4992645378183,
            -218.15462178993198
          ],
          [
            167.3822380190192,
            -217.8373783883631
          ],
          [
            166.46937395195704,
            -217.58846080154493
          ],
          [
            165.1111214098491,
            -216.9367713127379
          ],
          [
            164.1981426771209,
            -216.3198466216027
          ],
          [
            163.41004175615862,
            -215.6000956302485
          ],
          [
            162.73415980059846,
            -214.80870360291263
          ],
          [
            161.96766903053052,
            -213.90906655305906
          ],
          [
            161.22072563084149,
            -213.02273371713937
          ],
          [
            160.47518882079547,
            -212.27840801106888
          ],
          [
            160.09024959401887,
            -211.92085838882718
          ],
          [
            159.89772192170318,
            -211.74505607546902
          ],
          [
            159.60455478431345,
            -211.47735709831002
          ],
          [
            158.78950734053151,
            -210.8124838476364
          ],
          [
            158.58314736358255,
            -210.65687094974516
          ],
          [
            157.83952513295583,
            -210.10501024044956
          ],
          [
            157.14266525757017,
            -209.66975984491722
          ],
          [
            156.75933529500273,
            -209.46959448252238
          ],
          [
            156.37892309566845,
            -209.3124700108265
          ],
          [
            156.22127060719131,
            -209.24735363441465
          ],
          [
            155.84085840785704,
            -209.09022916271877
          ],
          [
            155.44144778454222,
            -208.95705114261693
          ],
          [
            155.0609030645964,
            -209.03211680225286
          ],
          [
            154.7105156309364,
            -208.7472658396478
          ],
          [
            154.5400142157951,
            -208.6983301198883
          ],
          [
            154.14176516111493,
            -208.60222136693386
          ],
          [
            153.61406838397997,
            -208.48522310336926
          ],
          [
            153.22328034247448,
            -208.3985795530217
          ],
          [
            152.48228185639067,
            -208.30061526026907
          ],
          [
            152.100704113411,
            -208.2695375607852
          ],
          [
            151.36320282366623,
            -208.2097227910655
          ],
          [
            150.6256832636006,
            -208.18776714774026
          ],
          [
            149.88816370353499,
            -208.165811504415
          ],
          [
            148.96173280301306,
            -208.1470044400222
          ],
          [
            148.2235610744292,
            -208.14696825636182
          ],
          [
            147.4853893458453,
            -208.1469320727015
          ],
          [
            146.74624798073611,
            -208.11698168049324
          ],
          [
            146.01921559881393,
            -208.03125848829188
          ],
          [
            145.30669629866912,
            -207.93160015528454
          ],
          [
            144.91618717869963,
            -207.85143164494528
          ],
          [
            144.17151335190627,
            -207.69855585196166
          ],
          [
            143.42727916497535,
            -207.54387813862618
          ],
          [
            142.292929957331,
            -207.30169722381305
          ],
          [
            141.58692809692474,
            -207.15096747034676
          ],
          [
            141.06121541462275,
            -207.03202348815262
          ],
          [
            140.6703630254421,
            -206.94203535226754
          ],
          [
            139.53814674017377,
            -206.68135885200715
          ],
          [
            138.40651050533725,
            -206.43453913374614
          ],
          [
            137.699108782767,
            -206.28697874333838
          ],
          [
            136.9906165665447,
            -206.14195180506863
          ],
          [
            136.2096344329862,
            -206.1804895914151
          ],
          [
            135.6654402005991,
            -206.42169398492663
          ],
          [
            134.77709354574972,
            -207.37861243005514
          ],
          [
            134.04733011423662,
            -208.67643650373017
          ],
          [
            133.36352322085412,
            -209.6914802602058
          ],
          [
            132.73552637046643,
            -210.51500127491667
          ],
          [
            132.00634991433316,
            -211.44771661833798
          ],
          [
            131.721663217262,
            -212.20186887193768
          ],
          [
            131.59023695111227,
            -212.58841839316585
          ],
          [
            131.36708161394,
            -213.25149849955469
          ],
          [
            131.12282518333484,
            -214.02831556143872
          ],
          [
            130.97141400874366,
            -214.43530336415895
          ],
          [
            130.84439944848603,
            -214.65335381515925
          ],
          [
            130.63712069826516,
            -215.00919667976285
          ],
          [
            130.4298419480443,
            -215.36503954436643
          ],
          [
            130.2236256918537,
            -215.72120125239775
          ],
          [
            129.43122578770522,
            -216.34821841038217
          ],
          [
            128.5210595456891,
            -216.5805491559418
          ],
          [
            127.34892242250646,
            -216.8816139415439
          ],
          [
            126.26263804425245,
            -217.70148370286043
          ],
          [
            125.15535618650416,
            -218.4396073039558
          ],
          [
            124.23261726090188,
            -219.17773995096627
          ]
        ]
      },
      "properties": {
        "type": "variant",
        "id": 1,
        "color": "#ff4444",
        "vzdal_m": 2312,
        "prevyseni_m": 75,
        "cas_s": 650,
        "tempo_str": "4:41"
      }
    },
    {
      "type": "Feature",
      "geometry": {
        "type": "LineString",
        "coordinates": [
          [
            194.17407916710127,
            -228.59293627925442
          ],
          [
            193.80499936902746,
            -228.40837371827774
          ],
          [
            193.43591957095362,
            -228.2238111573011
          ],
          [
            192.32867411051402,
            -227.8546679435176
          ],
          [
            191.22142865007442,
            -227.48552472973415
          ],
          [
            190.11418318963482,
            -227.11638151595065
          ],
          [
            189.37601146105095,
            -227.11634533229034
          ],
          [
            188.637839732467,
            -227.11630914863
          ],
          [
            187.89966193766503,
            -227.3008174341161
          ],
          [
            187.5305821395912,
            -227.11625487313947
          ],
          [
            186.7924164772254,
            -226.93167422033267
          ],
          [
            186.2387876807875,
            -226.93164708258738
          ],
          [
            184.7624199587473,
            -227.6697525918526
          ],
          [
            184.39332802823725,
            -227.85427896916892
          ],
          [
            184.0242482301634,
            -227.66971640819227
          ],
          [
            183.28608256779765,
            -227.48513575538541
          ],
          [
            182.54790477299565,
            -227.6696440408716
          ],
          [
            181.80973304441176,
            -227.66960785721122
          ],
          [
            181.07156131582786,
            -227.66957167355088
          ],
          [
            180.333389587244,
            -227.6695354898905
          ],
          [
            179.5952178586601,
            -227.6694993062302
          ],
          [
            178.67250926414837,
            -227.48490960750829
          ],
          [
            177.56526380370877,
            -227.1157663937248
          ],
          [
            176.45801834326915,
            -226.7466231799413
          ],
          [
            175.35077288282955,
            -226.37747996615786
          ],
          [
            174.61260115424565,
            -226.37744378249752
          ],
          [
            173.68989255973392,
            -226.19285408377561
          ],
          [
            172.58264709929432,
            -225.8237108699921
          ],
          [
            171.6599385047826,
            -225.6391211712702
          ],
          [
            170.55269304434296,
            -225.26997795748676
          ],
          [
            169.6299844498312,
            -225.08538825876482
          ],
          [
            168.52273898939163,
            -224.71624504498138
          ],
          [
            167.60003039487987,
            -224.53165534625947
          ],
          [
            166.49278493444027,
            -224.16251213247597
          ],
          [
            165.38553947400064,
            -223.79336891869247
          ],
          [
            164.27829401356107,
            -223.42422570490902
          ],
          [
            163.3555854190493,
            -223.2396360061871
          ],
          [
            162.06380915889994,
            -222.5013948081956
          ],
          [
            161.32476460520775,
            -221.76436901509268
          ],
          [
            160.49275611797245,
            -221.1584483303573
          ],
          [
            159.06217337529634,
            -220.39120113678018
          ],
          [
            157.9399640616001,
            -219.61829485048088
          ],
          [
            157.30412073091355,
            -218.7705301569022
          ],
          [
            156.55335130651935,
            -217.95221370963228
          ],
          [
            155.77200130455998,
            -217.78573429724662
          ],
          [
            155.0528939649975,
            -217.6785555844589
          ],
          [
            154.31906134288604,
            -217.72216248559036
          ],
          [
            153.3904430034921,
            -217.88735792152457
          ],
          [
            152.6522712749082,
            -217.88732173786426
          ],
          [
            152.28317934439815,
            -218.07184811518056
          ],
          [
            151.54500154959618,
            -218.25635640066668
          ],
          [
            150.8068358872304,
            -218.07177574785985
          ],
          [
            150.0686641586465,
            -218.07173956419953
          ],
          [
            149.3304984962807,
            -217.88715891139267
          ],
          [
            148.5923207014787,
            -218.0716671968788
          ],
          [
            147.85414897289485,
            -218.07163101321845
          ],
          [
            146.93142824594688,
            -218.2561302527895
          ],
          [
            146.19326864979922,
            -217.88700513083623
          ],
          [
            145.45509692121533,
            -217.8869689471759
          ],
          [
            144.71692519263144,
            -217.88693276351552
          ],
          [
            143.97875346404757,
            -217.88689657985515
          ],
          [
            143.24058173546368,
            -217.88686039619483
          ],
          [
            142.31787314095192,
            -217.70227069747295
          ],
          [
            141.57970141236805,
            -217.70223451381258
          ],
          [
            140.84152968378416,
            -217.70219833015224
          ],
          [
            139.7342660246902,
            -217.8866885238082
          ],
          [
            138.62699023316006,
            -218.4402676557571
          ],
          [
            137.33515937704772,
            -219.36292668008392
          ],
          [
            136.22788358551756,
            -219.9165058120328
          ],
          [
            134.7444355006534,
            -219.18831915440558
          ],
          [
            134.38246639649407,
            -219.547326414589
          ],
          [
            133.27520880361823,
            -219.54727213909845
          ],
          [
            132.53703707503436,
            -219.54723595543814
          ],
          [
            131.4297673497223,
            -219.91627061824056
          ],
          [
            131.24522441757634,
            -219.9162615723255
          ],
          [
            130.8761324870663,
            -220.1007879496418
          ],
          [
            129.76886276175424,
            -220.46982261244423
          ],
          [
            128.47705617051432,
            -220.6543037601851
          ],
          [
            127.000736978219,
            -219.9160535162785
          ],
          [
            125.70895465185154,
            -219.36235678743347
          ],
          [
            124.60170919141194,
            -218.99321357365
          ],
          [
            124.23261726090188,
            -219.17773995096627
          ]
        ]
      },
      "properties": {
        "type": "variant",
        "id": 2,
        "color": "#4444ff",
        "vzdal_m": 2029,
        "prevyseni_m": 74,
        "cas_s": 672,
        "tempo_str": "5:31"
      }
    },
    {
      "type": "Feature",
      "geometry": {
        "type": "LineString",
        "coordinates": [
          [
            194.17407916710127,
            -228.59293627925442
          ],
          [
            193.06680944178922,
            -228.96197094205684
          ],
          [
            192.14407051618693,
            -229.7001035890673
          ],
          [
            190.8522457262927,
            -230.43821814424763
          ],
          [
            190.1140739977088,
            -230.4381819605873
          ],
          [
            189.56044520127088,
            -230.43815482284202
          ],
          [
            188.6377244743229,
            -230.6226540624131
          ],
          [
            188.08408961166688,
            -230.80717139381431
          ],
          [
            186.9768502174454,
            -230.25348371088435
          ],
          [
            186.60775828693534,
            -230.43801008820066
          ],
          [
            185.86958655835144,
            -230.43797390454029
          ],
          [
            185.13141482976758,
            -230.43793772087997
          ],
          [
            184.39324310118369,
            -230.4379015372196
          ],
          [
            183.47053450667195,
            -230.25331183849772
          ],
          [
            183.1014547085981,
            -230.06874927752105
          ],
          [
            182.36328298001422,
            -230.0687130938607
          ],
          [
            181.62511125143035,
            -230.06867691020034
          ],
          [
            181.07148852121054,
            -229.88410530330862
          ],
          [
            180.7023965907005,
            -230.06863168062492
          ],
          [
            180.33330466019044,
            -230.25315805794122
          ],
          [
            179.96421272968038,
            -230.43768443525755
          ],
          [
            179.59512079917033,
            -230.62221081257385
          ],
          [
            179.22602886866025,
            -230.80673718989016
          ],
          [
            177.74966114662007,
            -231.54484269915537
          ],
          [
            176.27329342457983,
            -232.2829482084206
          ],
          [
            174.79692570253962,
            -233.0210537176858
          ],
          [
            173.32055798049942,
            -233.75915922695106
          ],
          [
            172.39783725355144,
            -233.9436584665221
          ],
          [
            170.92146953151124,
            -234.6817639757873
          ],
          [
            169.44510180947103,
            -235.41986948505254
          ],
          [
            168.15327701957676,
            -236.15798404023286
          ],
          [
            167.0460012280466,
            -236.71156317218174
          ],
          [
            165.58302778249268,
            -236.6615290740333
          ],
          [
            164.23930752578312,
            -236.30191661156363
          ],
          [
            163.5504597835635,
            -236.11756407865403
          ],
          [
            163.2060359124537,
            -236.02538781219928
          ],
          [
            162.82259278105408,
            -235.91524622727675
          ],
          [
            162.6595804055948,
            -235.8559969492525
          ],
          [
            162.2743155683565,
            -235.71596670068897
          ],
          [
            162.11130319289722,
            -235.6567174226647
          ],
          [
            161.72603835565891,
            -235.51668717410115
          ],
          [
            161.3345119495702,
            -235.38393847436024
          ],
          [
            160.81636617868392,
            -235.2483271816973
          ],
          [
            160.42574113191833,
            -235.14609114984123
          ],
          [
            160.25302587495625,
            -235.10088738562024
          ],
          [
            159.86240082819063,
            -234.9986513537642
          ],
          [
            159.51697031426647,
            -234.90824382532222
          ],
          [
            159.12634526750085,
            -234.80600779346616
          ],
          [
            157.90412388649284,
            -234.25645245378823
          ],
          [
            157.08076175299962,
            -234.3119965938629
          ],
          [
            156.5271329565617,
            -234.31196945611762
          ],
          [
            156.15805315848786,
            -234.12740689514098
          ],
          [
            155.60443042826807,
            -233.94283528824926
          ],
          [
            154.6817218337563,
            -233.75824558952732
          ],
          [
            153.75901323924458,
            -233.5736558908054
          ],
          [
            153.0208415106607,
            -233.5736197071451
          ],
          [
            152.28266978207682,
            -233.57358352348473
          ],
          [
            151.54449805349293,
            -233.5735473398244
          ],
          [
            150.80632632490904,
            -233.57351115616402
          ],
          [
            149.8836177303973,
            -233.3889214574421
          ],
          [
            148.59183540402984,
            -232.83522472859707
          ],
          [
            147.484577811154,
            -232.8351704531066
          ],
          [
            146.19280761722277,
            -231.91238478596858
          ],
          [
            144.71648842492743,
            -231.17413454206198
          ],
          [
            143.60925509692407,
            -230.43590238998556
          ],
          [
            142.3174788367747,
            -229.69766119199403
          ],
          [
            141.02570257662535,
            -228.95941999400253
          ],
          [
            139.91846924862196,
            -228.22118784192608
          ],
          [
            138.44215005632665,
            -227.48293759801945
          ],
          [
            137.51945966046924,
            -226.7447144918581
          ],
          [
            136.22767733410177,
            -226.19101776301306
          ],
          [
            135.4895056055179,
            -226.19098157935275
          ],
          [
            134.08649580940943,
            -226.06687891822565
          ],
          [
            133.84725889242327,
            -225.62713600749294
          ],
          [
            133.41696059032284,
            -225.39398413983145
          ],
          [
            132.90593488656484,
            -225.26813259080916
          ],
          [
            132.53686115470913,
            -224.89902556068603
          ],
          [
            132.16778135663532,
            -224.71446299970935
          ],
          [
            131.79870155856148,
            -224.5299004387327
          ],
          [
            131.42962176048763,
            -224.34533787775607
          ],
          [
            131.0605419624138,
            -224.1607753167794
          ],
          [
            130.87599903026782,
            -224.16076627086431
          ],
          [
            130.506919232194,
            -223.97620370988767
          ],
          [
            129.9532965019742,
            -223.79163210299595
          ],
          [
            129.2151247733903,
            -223.79159591933558
          ],
          [
            128.66150204317051,
            -223.60702431244385
          ],
          [
            128.47697730967886,
            -223.0533818590893
          ],
          [
            127.92338491054963,
            -221.9460879064652
          ],
          [
            127.18523744683819,
            -221.20787384621892
          ],
          [
            126.26254098476267,
            -220.65419520920406
          ],
          [
            125.33985665512337,
            -219.73142763389626
          ],
          [
            124.41714806061162,
            -219.54683793517435
          ],
          [
            124.23261726090188,
            -219.17773995096627
          ]
        ]
      },
      "properties": {
        "type": "variant",
        "id": 3,
        "color": "#44ff44",
        "vzdal_m": 2109,
        "prevyseni_m": 71,
        "cas_s": 666,
        "tempo_str": "5:15"
      }
    }
  ]
}