{
  "type": "FeatureCollection",
  "features": [
    {
      "type": "Feature",
      "geometry": {
        "type": "Point",
        "coordinates": [
          25.06448817459945,
          -55.24493662381573
        ]
      },
      "properties": {
        "type": "start",
        "isom": "111"
      }
    },
    {
      "type": "Feature",
      "geometry": {
        "type": "Point",
        "coordinates": [
          43.49804522168157,
          -41.04868768620674
        ]
      },
      "properties": {
        "type": "end",
        "isom": "417"
      }
    },
    {
      "type": "Feature",
      "geometry": {
        "type": "LineString",
        "coordinates": [
          [
            25.026885515635996,
            -55.20686632109074
          ],
          [
            26.503148880569636,
            -55.94506599968624
          ],
          [
            27.43190798992505,
            -56.392312935865434
          ],
          [
            28.15042476043549,
            -56.40215309988812
          ],
          [
            29.07666110506005,
            -56.569878241639934
          ],
          [
            29.835259949827673,
            -56.561865024880646
          ],
          [
            30.76299567200935,
            -56.35560565857671
          ],
          [
            32.27606700641097,
            -55.684698710003374
          ],
          [
            33.407607366916686,
            -54.93875324688345
          ],
          [
            34.153847705043994,
            -54.177434671379906
          ],
          [
            34.915083551159846,
            -53.479478933706616
          ],
          [
            36.088915839523025,
            -52.605546333575134
          ],
          [
            37.3663943898274,
            -51.84329644584155
          ],
          [
            38.24340283715309,
            -51.278379982357926
          ],
          [
            38.45545647172821,
            -51.035117320339275
          ],
          [
            38.58474065771859,
            -50.59976954509583
          ],
          [
            38.71041150216492,
            -49.423211143954354
          ],
          [
            39.60602007635126,
            -48.00946219984392
          ],
          [
            39.975178106425034,
            -46.90216649361201
          ],
          [
            40.709158535532154,
            -45.5842345265987
          ],
          [
            40.918313825399466,
            -45.54997537933595
          ],
          [
            41.082546837971655,
            -45.05667437592289
          ],
          [
            41.08257317764033,
            -44.687575625671236
          ],
          [
            41.267139022842876,
            -44.31847714768111
          ],
          [
            41.451744377548444,
            -43.395730544313494
          ],
          [
            41.820902407622214,
            -42.288434838081585
          ],
          [
            42.00545508299043,
            -42.10388573521728
          ],
          [
            43.11274479553103,
            -41.36568986828312
          ],
          [
            43.481850146267455,
            -40.99659166255452
          ]
        ]
      },
      "properties": {
        "type": "variant",
        "id": 1,
        "color": "#ff4444",
        "vzdal_m": 729,
        "prevyseni_m": 5,
        "cas_s": 186,
        "tempo_str": "4:15"
      }
    },
    {
      "type": "Feature",
      "geometry": {
        "type": "LineString",
        "coordinates": [
          [
            25.026885515635996,
            -55.20686632109074
          ],
          [
            25.026925025139004,
            -54.653218195713265
          ],
          [
            25.58064890041533,
            -53.17682401149122
          ],
          [
            26.31891228122553,
            -51.7004300995307
          ],
          [
            26.68803080179629,
            -51.146782518676275
          ],
          [
            26.688057141464967,
            -50.77768376842462
          ],
          [
            27.610846857974703,
            -49.48583950385145
          ],
          [
            27.97993903887679,
            -49.30129067324868
          ],
          [
            28.533570725312753,
            -49.116742114907424
          ],
          [
            29.640886777522027,
            -48.00944749772161
          ],
          [
            29.64089994735636,
            -47.82489812259578
          ],
          [
            29.807449156844175,
            -47.349073218519
          ],
          [
            30.166296880353315,
            -47.288467796227955
          ],
          [
            30.555449140320505,
            -47.222742930670606
          ],
          [
            31.275028189624056,
            -47.10434808885445
          ],
          [
            32.20344689041139,
            -46.95538305929278
          ],
          [
            32.59213147943893,
            -46.89302049702987
          ],
          [
            33.52055018022628,
            -46.74405546746821
          ],
          [
            34.44896606476232,
            -46.595096069902354
          ],
          [
            35.168609669607854,
            -46.479629868167876
          ],
          [
            35.888250458604006,
            -46.36416366642925
          ],
          [
            36.27693504763155,
            -46.301801104166344
          ],
          [
            36.99657865247708,
            -46.18633490243187
          ],
          [
            37.38526324150462,
            -46.12397234016897
          ],
          [
            38.10490684635016,
            -46.00850613843449
          ],
          [
            38.493591435377695,
            -45.946143576171586
          ],
          [
            39.212522722767545,
            -45.829382013392184
          ],
          [
            39.33596972756257,
            -45.82703365153138
          ],
          [
            39.781119756978185,
            -45.736246468706774
          ],
          [
            40.918313825399466,
            -45.54997537933595
          ],
          [
            41.082546837971655,
            -45.05667437592289
          ],
          [
            41.08257317764033,
            -44.687575625671236
          ],
          [
            41.267139022842876,
            -44.31847714768111
          ],
          [
            41.451744377548444,
            -43.395730544313494
          ],
          [
            41.820902407622214,
            -42.288434838081585
          ],
          [
            42.00545508299043,
            -42.10388573521728
          ],
          [
            43.11274479553103,
            -41.36568986828312
          ],
          [
            43.481850146267455,
            -40.99659166255452
          ]
        ]
      },
      "properties": {
        "type": "variant",
        "id": 2,
        "color": "#4444ff",
        "vzdal_m": 716,
        "prevyseni_m": 5,
        "cas_s": 192,
        "tempo_str": "4:28"
      }
    },
    {
      "type": "Feature",
      "geometry": {
        "type": "LineString",
        "coordinates": [
          [
            25.026885515635996,
            -55.20686632109074
          ],
          [
            26.503148880569636,
            -55.94506599968624
          ],
          [
            27.43190798992505,
            -56.392312935865434
          ],
          [
            28.15042476043549,
            -56.40215309988812
          ],
          [
            29.07666110506005,
            -56.569878241639934
          ],
          [
            29.835259949827673,
            -56.561865024880646
          ],
          [
            30.76299567200935,
            -56.35560565857671
          ],
          [
            32.27606700641097,
            -55.684698710003374
          ],
          [
            33.407607366916686,
            -54.93875324688345
          ],
          [
            34.153847705043994,
            -54.177434671379906
          ],
          [
            34.915083551159846,
            -53.479478933706616
          ],
          [
            36.088915839523025,
            -52.605546333575134
          ],
          [
            37.3663943898274,
            -51.84329644584155
          ],
          [
            38.24340283715309,
            -51.278379982357926
          ],
          [
            38.45545647172821,
            -51.035117320339275
          ],
          [
            38.58474065771859,
            -50.59976954509583
          ],
          [
            38.71041150216492,
            -49.423211143954354
          ],
          [
            39.175486534557606,
            -48.81872364090543
          ],
          [
            39.5531727713914,
            -48.633003366987374
          ],
          [
            39.95246481848055,
            -48.48957381274972
          ],
          [
            40.121081578261425,
            -48.43774839775955
          ],
          [
            40.51013631032598,
            -48.31817598030771
          ],
          [
            41.70963864678974,
            -48.14377723880879
          ],
          [
            42.66351001488436,
            -47.51844079300519
          ],
          [
            42.79330801734278,
            -47.30118095350974
          ],
          [
            43.55652350817414,
            -45.8520741182361
          ],
          [
            43.807608910351554,
            -45.55142706606898
          ],
          [
            43.736035604592175,
            -44.605065108855946
          ],
          [
            43.5540132113592,
            -44.450832521022384
          ],
          [
            43.8507184399858,
            -43.94938220909079
          ],
          [
            44.035310624857026,
            -43.21118498084901
          ],
          [
            44.03536330419438,
            -42.47298748034571
          ],
          [
            44.035376474028716,
            -42.288438105219875
          ],
          [
            43.481850146267455,
            -40.99659166255452
          ]
        ]
      },
      "properties": {
        "type": "variant",
        "id": 3,
        "color": "#44ff44",
        "vzdal_m": 764,
        "prevyseni_m": 5,
        "cas_s": 190,
        "tempo_str": "4:09"
      }
    }
  ]
}