{
  "type": "FeatureCollection",
  "features": [
    {
      "type": "Feature",
      "geometry": {
        "type": "Point",
        "coordinates": [
          56.16726095685926,
          -119.00741793403859
        ]
      },
      "properties": {
        "type": "start",
        "isom": "204"
      }
    },
    {
      "type": "Feature",
      "geometry": {
        "type": "Point",
        "coordinates": [
          40.02918700350287,
          -112.75610565502895
        ]
      },
      "properties": {
        "type": "end",
        "isom": "204"
      }
    },
    {
      "type": "Feature",
      "geometry": {
        "type": "LineString",
        "coordinates": [
          [
            56.194994358440105,
            -119.0442678364538
          ],
          [
            55.45681049742008,
            -119.41332058964905
          ],
          [
            55.087724633128175,
            -119.41330249694144
          ],
          [
            54.71863876883627,
            -119.4132844042338
          ],
          [
            54.07274760565258,
            -119.1364360380376
          ],
          [
            53.33458800950499,
            -118.76731091401186
          ],
          [
            52.59642841335739,
            -118.3981857899861
          ],
          [
            52.13507411610155,
            -118.30589093944896
          ],
          [
            51.765988251809645,
            -118.30587284674132
          ],
          [
            51.12009708862596,
            -118.02902448054512
          ],
          [
            50.75101122433405,
            -118.02900638783748
          ],
          [
            50.381925360042146,
            -118.02898829512988
          ],
          [
            49.82830262982239,
            -117.8444166867632
          ],
          [
            49.4592288979667,
            -117.47530965544506
          ],
          [
            48.99788370003803,
            -117.10619810095002
          ],
          [
            48.44426096981827,
            -116.92162649258334
          ],
          [
            47.70610137367068,
            -116.5525013685576
          ],
          [
            47.33702764181498,
            -116.18339433723946
          ],
          [
            46.967953909959284,
            -115.81428730592135
          ],
          [
            46.59888017810359,
            -115.44518027460323
          ],
          [
            46.13753498017492,
            -115.07606872010821
          ],
          [
            45.583918316173275,
            -114.70695264243626
          ],
          [
            44.93802715298959,
            -114.43010427624004
          ],
          [
            44.38439229033362,
            -114.61462160648388
          ],
          [
            44.01530642604171,
            -114.61460351377625
          ],
          [
            43.64622056174981,
            -114.61458542106861
          ],
          [
            43.277134697457896,
            -114.614567328361
          ],
          [
            42.7235150003472,
            -114.33772348534168
          ],
          [
            42.16989833634555,
            -113.96860740766975
          ],
          [
            41.52401020627092,
            -113.59948680682092
          ],
          [
            40.785850610123326,
            -113.23036168279518
          ],
          [
            40.1399624800487,
            -112.86124108194632
          ],
          [
            40.047694047084775,
            -112.76896432411678
          ]
        ]
      },
      "properties": {
        "type": "variant",
        "id": 1,
        "color": "#ff4444",
        "vzdal_m": 989,
        "prevyseni_m": 0,
        "cas_s": 236,
        "tempo_str": "3:59"
      }
    },
    {
      "type": "Feature",
      "geometry": {
        "type": "LineString",
        "coordinates": [
          [
            56.194994358440105,
            -119.0442678364538
          ],
          [
            55.82589636171198,
            -119.41333868235668
          ],
          [
            55.272255432837916,
            -119.78240048190574
          ],
          [
            54.71862057018195,
            -119.96691781214956
          ],
          [
            54.257260206708,
            -120.05916743091767
          ],
          [
            53.79589984323406,
            -120.15141704968576
          ],
          [
            53.42681397894216,
            -120.15139895697814
          ],
          [
            52.96545361546822,
            -120.24364857574623
          ],
          [
            52.59636775117632,
            -120.2436304830386
          ],
          [
            52.04273288852034,
            -120.42814781328242
          ],
          [
            51.581372525046405,
            -120.52039743205053
          ],
          [
            50.93548136186273,
            -120.24354906585431
          ],
          [
            50.28959019867905,
            -119.96670069965809
          ],
          [
            49.92050433438715,
            -119.96668260695047
          ],
          [
            49.36688160416738,
            -119.78211099858379
          ],
          [
            48.90552730691155,
            -119.68981614804665
          ],
          [
            48.44417300965572,
            -119.59752129750949
          ],
          [
            47.7982848795811,
            -119.22840069666064
          ],
          [
            47.429211147725404,
            -118.85929366534252
          ],
          [
            46.87559448372375,
            -118.49017758767059
          ],
          [
            46.41424928579508,
            -118.12106603317555
          ],
          [
            46.04517555393939,
            -117.75195900185743
          ],
          [
            45.583830356010715,
            -117.3828474473624
          ],
          [
            45.21475662415502,
            -117.01374041604429
          ],
          [
            44.84568289229933,
            -116.64463338472615
          ],
          [
            44.47660916044364,
            -116.27552635340801
          ],
          [
            44.10753542858794,
            -115.9064193220899
          ],
          [
            43.36937583244034,
            -115.53729419806416
          ],
          [
            42.90803063451167,
            -115.16818264356912
          ],
          [
            42.35441397051002,
            -114.79906656589719
          ],
          [
            41.80079730650837,
            -114.42995048822524
          ],
          [
            41.43172357465268,
            -114.06084345690714
          ],
          [
            41.062649842796986,
            -113.691736425589
          ],
          [
            40.693576110941294,
            -113.32262939427089
          ],
          [
            40.23223091301262,
            -112.95351783977586
          ],
          [
            40.047694047084775,
            -112.76896432411678
          ]
        ]
      },
      "properties": {
        "type": "variant",
        "id": 2,
        "color": "#4444ff",
        "vzdal_m": 1038,
        "prevyseni_m": 0,
        "cas_s": 252,
        "tempo_str": "4:02"
      }
    }
  ]
}