{
  "type": "FeatureCollection",
  "features": [
    {
      "type": "Feature",
      "geometry": {
        "type": "Point",
        "coordinates": [
          65.2220158764136,
          -102.17881981109018
        ]
      },
      "properties": {
        "type": "start",
        "isom": "417"
      }
    },
    {
      "type": "Feature",
      "geometry": {
        "type": "Point",
        "coordinates": [
          61.280735540593845,
          -85.20348515735114
        ]
      },
      "properties": {
        "type": "end",
        "isom": "417"
      }
    },
    {
      "type": "Feature",
      "geometry": {
        "type": "LineString",
        "coordinates": [
          [
            65.27702797612604,
            -102.23010384491364
          ],
          [
            65.64615973313634,
            -101.307349210283
          ],
          [
            65.27709998252652,
            -100.38457116149128
          ],
          [
            64.90803303127666,
            -99.6463463810418
          ],
          [
            64.72353555885196,
            -98.35446764910586
          ],
          [
            63.80082497688702,
            -97.6162253080356
          ],
          [
            63.062662271827094,
            -96.87798882050556
          ],
          [
            62.32450676740722,
            -95.95519906463332
          ],
          [
            62.1399732917823,
            -95.58608667440858
          ],
          [
            61.40181058672237,
            -94.84785018687856
          ],
          [
            61.03275803675261,
            -93.7405188697446
          ],
          [
            61.0327868393128,
            -93.00230579637565
          ],
          [
            61.40192579696315,
            -91.89499789340276
          ],
          [
            61.4019329976032,
            -91.71044462506053
          ],
          [
            61.58649527578833,
            -91.34134394191632
          ],
          [
            61.58652407834852,
            -90.60313086854738
          ],
          [
            61.586545680268664,
            -90.04947106352067
          ],
          [
            61.58655288090871,
            -89.86491779517843
          ],
          [
            61.58658888410896,
            -88.94215145346725
          ],
          [
            60.84845498160923,
            -87.46570189256829
          ],
          [
            61.03301725979435,
            -87.09660120942408
          ],
          [
            61.03302446043441,
            -86.91204794108184
          ],
          [
            61.21758673861954,
            -86.54294725793763
          ],
          [
            61.21759393925958,
            -86.3583939895954
          ],
          [
            61.21760113989963,
            -86.17384072125316
          ],
          [
            61.21760834053968,
            -85.98928745291092
          ],
          [
            61.217615541179725,
            -85.80473418456869
          ],
          [
            61.21763714309987,
            -85.25107437954198
          ]
        ]
      },
      "properties": {
        "type": "variant",
        "id": 1,
        "color": "#ff4444",
        "vzdal_m": 515,
        "prevyseni_m": 8,
        "cas_s": 168,
        "tempo_str": "5:25"
      }
    },
    {
      "type": "Feature",
      "geometry": {
        "type": "LineString",
        "coordinates": [
          [
            65.27702797612604,
            -102.23010384491364
          ],
          [
            66.01524828630635,
            -101.49191418570575
          ],
          [
            66.75349739904685,
            -100.01551145312894
          ],
          [
            66.38445204971714,
            -98.72362686765274
          ],
          [
            66.75358380672743,
            -97.80087223302209
          ],
          [
            66.75360540864757,
            -97.2472124279954
          ],
          [
            67.30730664448306,
            -95.7708038418783
          ],
          [
            68.13047542369885,
            -94.26722882963621
          ],
          [
            68.0225727010392,
            -93.54833613244026
          ],
          [
            68.21107617386924,
            -92.63191753435166
          ],
          [
            68.26899002400972,
            -91.89827394533673
          ],
          [
            68.04568536874444,
            -90.9724422791412
          ],
          [
            67.49207054058954,
            -90.23421164515146
          ],
          [
            67.49209214250969,
            -89.68055184012475
          ],
          [
            66.9384773143548,
            -88.942321206135
          ],
          [
            66.20032180993493,
            -88.01953145026275
          ],
          [
            65.46218070679515,
            -86.72763515770602
          ],
          [
            65.09309215362514,
            -86.54307018228324
          ],
          [
            64.90855147736016,
            -86.35851106040074
          ],
          [
            64.53946292419016,
            -86.17394608497797
          ],
          [
            63.43219726468013,
            -85.62025115870966
          ],
          [
            63.06310871151011,
            -85.43568618328689
          ],
          [
            62.324917203889996,
            -85.43566276912581
          ],
          [
            61.95582865071999,
            -85.25109779370304
          ],
          [
            61.21763714309987,
            -85.25107437954198
          ]
        ]
      },
      "properties": {
        "type": "variant",
        "id": 2,
        "color": "#4444ff",
        "vzdal_m": 592,
        "prevyseni_m": 13,
        "cas_s": 185,
        "tempo_str": "5:12"
      }
    },
    {
      "type": "Feature",
      "geometry": {
        "type": "LineString",
        "coordinates": [
          [
            65.27702797612604,
            -102.23010384491364
          ],
          [
            64.16972631341577,
            -102.5991752603565
          ],
          [
            63.24700853081077,
            -102.04548618762847
          ],
          [
            62.508874628311034,
            -100.56903662672948
          ],
          [
            61.77071192325111,
            -99.83080013919948
          ],
          [
            61.21709709509622,
            -99.09256950520972
          ],
          [
            60.848030143846366,
            -98.35434472476024
          ],
          [
            60.66349666822143,
            -97.9852323345355
          ],
          [
            60.109889040706584,
            -97.06244843220352
          ],
          [
            60.109917843266786,
            -96.32423535883458
          ],
          [
            60.109939445186924,
            -95.77057555380787
          ],
          [
            59.92540596956199,
            -95.40146316358313
          ],
          [
            59.92542037084209,
            -95.03235662689866
          ],
          [
            59.74088689521715,
            -94.66324423667392
          ],
          [
            59.74090129649725,
            -94.29413769998943
          ],
          [
            59.55638942279247,
            -93.37136550473798
          ],
          [
            59.37187754908768,
            -92.44859330948653
          ],
          [
            59.37190635164788,
            -91.71038023611759
          ],
          [
            59.371935154208074,
            -90.97216716274863
          ],
          [
            59.37194955548817,
            -90.60306062606416
          ],
          [
            59.55651183367329,
            -90.23395994291997
          ],
          [
            59.55651903431334,
            -90.04940667457772
          ],
          [
            59.55652623495339,
            -89.86485340623548
          ],
          [
            59.74108851313853,
            -89.49575272309129
          ],
          [
            59.92565079132365,
            -89.12665203994707
          ],
          [
            60.479337625879026,
            -88.01934999051446
          ],
          [
            60.6639071047042,
            -87.46569603902802
          ],
          [
            60.84846938288932,
            -87.0965953558838
          ],
          [
            61.03303166107446,
            -86.72749467273961
          ],
          [
            61.21759393925958,
            -86.3583939895954
          ],
          [
            61.21760113989963,
            -86.17384072125316
          ],
          [
            61.21760834053968,
            -85.98928745291092
          ],
          [
            61.217615541179725,
            -85.80473418456869
          ],
          [
            61.21763714309987,
            -85.25107437954198
          ]
        ]
      },
      "properties": {
        "type": "variant",
        "id": 3,
        "color": "#44ff44",
        "vzdal_m": 556,
        "prevyseni_m": 8,
        "cas_s": 177,
        "tempo_str": "5:18"
      }
    }
  ]
}