{
  "type": "FeatureCollection",
  "features": [
    {
      "type": "Feature",
      "geometry": {
        "type": "Point",
        "coordinates": [
          113.35846286521894,
          -175.49085355072714
        ]
      },
      "properties": {
        "type": "start",
        "isom": "204"
      }
    },
    {
      "type": "Feature",
      "geometry": {
        "type": "Point",
        "coordinates": [
          113.8331476471367,
          -219.17587453660414
        ]
      },
      "properties": {
        "type": "end",
        "isom": "419"
      }
    },
    {
      "type": "Feature",
      "geometry": {
        "type": "LineString",
        "coordinates": [
          [
            113.34602195798195,
            -175.4401670542608
          ],
          [
            113.89959615845686,
            -177.10109441432436
          ],
          [
            114.82226835565993,
            -178.39295092792514
          ],
          [
            115.19132995507942,
            -179.13114689634122
          ],
          [
            115.19130569020699,
            -179.86932477292714
          ],
          [
            115.19128142533455,
            -180.60750264951304
          ],
          [
            115.1912571604621,
            -181.34568052609896
          ],
          [
            115.19123289558966,
            -182.08385840268488
          ],
          [
            115.1912086307172,
            -182.82203627927078
          ],
          [
            115.19119649828097,
            -183.19112521756375
          ],
          [
            114.63752523831629,
            -184.48290936384385
          ],
          [
            114.63750097344385,
            -185.22108724042977
          ],
          [
            114.63747670857141,
            -185.95926511701566
          ],
          [
            115.19106304148252,
            -187.25110353878628
          ],
          [
            115.1910448428282,
            -187.80473694622572
          ],
          [
            115.37557564253795,
            -188.17383493043374
          ],
          [
            115.37555137766552,
            -188.91201280701966
          ],
          [
            115.37552711279305,
            -189.65019068360562
          ],
          [
            115.37550284792061,
            -190.38836856019154
          ],
          [
            115.37547858304816,
            -191.12654643677746
          ],
          [
            115.37545431817573,
            -191.86472431336335
          ],
          [
            115.1908871211573,
            -192.60289314403417
          ],
          [
            115.37540578843084,
            -193.3410800665352
          ],
          [
            115.37538152355837,
            -194.0792579431211
          ],
          [
            115.37535725868595,
            -194.81743581970701
          ],
          [
            115.37533299381352,
            -195.55561369629294
          ],
          [
            115.55984559486892,
            -196.4783450879404
          ],
          [
            115.55980919756024,
            -197.58561190281927
          ],
          [
            116.29794452883547,
            -198.69291490135848
          ],
          [
            116.66699399581874,
            -199.80019980806753
          ],
          [
            116.66696973094629,
            -200.53837768465345
          ],
          [
            116.48240253392788,
            -201.27654651532424
          ],
          [
            116.29782320447325,
            -202.38380428428806
          ],
          [
            115.55960294614447,
            -203.86012385379954
          ],
          [
            114.8213826878157,
            -205.336443423311
          ],
          [
            114.82135842294323,
            -206.0746212998969
          ],
          [
            114.8213341580708,
            -206.81279917648283
          ],
          [
            114.82130989319835,
            -207.55097705306875
          ],
          [
            114.63673662996183,
            -208.47369035288605
          ],
          [
            114.6367123650894,
            -209.21186822947197
          ],
          [
            114.63668810021693,
            -209.9500461060579
          ],
          [
            114.63666383534449,
            -210.68822398264382
          ],
          [
            114.63663957047204,
            -211.4264018592297
          ],
          [
            114.26751730887143,
            -212.5336505822784
          ],
          [
            113.52930311676077,
            -213.8254256826434
          ],
          [
            113.34474805217857,
            -214.19450557502128
          ],
          [
            113.16019298759639,
            -214.56358546739915
          ],
          [
            112.79107072599577,
            -215.67083419044786
          ],
          [
            112.79104646112333,
            -216.40901206703379
          ],
          [
            112.79102219625088,
            -217.1471899436197
          ],
          [
            113.34462672781636,
            -217.88539495795087
          ],
          [
            113.5291575275261,
            -218.2544929421589
          ],
          [
            113.89821306072749,
            -219.17723337972146
          ]
        ]
      },
      "properties": {
        "type": "variant",
        "id": 1,
        "color": "#ff4444",
        "vzdal_m": 1245,
        "prevyseni_m": 15,
        "cas_s": 348,
        "tempo_str": "4:39"
      }
    },
    {
      "type": "Feature",
      "geometry": {
        "type": "LineString",
        "coordinates": [
          [
            113.34602195798195,
            -175.4401670542608
          ],
          [
            113.16145476096352,
            -176.1783358849316
          ],
          [
            113.34597342823706,
            -176.9165228074326
          ],
          [
            113.34594916336461,
            -177.65470068401854
          ],
          [
            113.34592489849217,
            -178.39287856060446
          ],
          [
            113.53043749954759,
            -179.31560995225192
          ],
          [
            113.53041323467514,
            -180.05378782883784
          ],
          [
            112.97676017336478,
            -180.7919385676785
          ],
          [
            113.1612788406383,
            -181.5301254901795
          ],
          [
            112.7921565790377,
            -182.63737421322818
          ],
          [
            112.0539302544908,
            -184.29823825188618
          ],
          [
            111.31571606238013,
            -185.59001335225116
          ],
          [
            110.76205086863357,
            -186.69725302938477
          ],
          [
            110.57747153917893,
            -187.80451079834856
          ],
          [
            110.3928922097243,
            -188.91176856731235
          ],
          [
            110.39287401106995,
            -189.46540197475179
          ],
          [
            110.39284974619751,
            -190.2035798513377
          ],
          [
            110.20827648296097,
            -191.12629315115498
          ],
          [
            110.76187494830833,
            -192.04904263463268
          ],
          [
            110.94640574801808,
            -192.4181406188407
          ],
          [
            111.13093654772784,
            -192.78723860304876
          ],
          [
            111.31544914878324,
            -193.70996999469622
          ],
          [
            111.31542488391081,
            -194.44814787128215
          ],
          [
            111.13085768689238,
            -195.186316701953
          ],
          [
            111.31537635416592,
            -195.92450362445396
          ],
          [
            111.31535208929346,
            -196.66268150103988
          ],
          [
            111.31532782442102,
            -197.4008593776258
          ],
          [
            111.31530355954858,
            -198.1390372542117
          ],
          [
            111.68435302653185,
            -199.24632216092076
          ],
          [
            111.68433482787752,
            -199.7999555683602
          ],
          [
            112.05339642729702,
            -200.5381515367763
          ],
          [
            112.05337216242458,
            -201.2763294133622
          ],
          [
            112.23789082969809,
            -202.0145163358632
          ],
          [
            112.05332363267968,
            -202.75268516653404
          ],
          [
            112.05329936780723,
            -203.49086304311993
          ],
          [
            112.05327510293479,
            -204.22904091970585
          ],
          [
            112.05325083806235,
            -204.96721879629177
          ],
          [
            112.0532265731899,
            -205.70539667287767
          ],
          [
            112.05320230831747,
            -206.4435745494636
          ],
          [
            112.6067886412286,
            -207.73541297123418
          ],
          [
            112.42221537799206,
            -208.65812627105151
          ],
          [
            112.6067401114837,
            -209.21176872440603
          ],
          [
            112.7912527125391,
            -210.13450011605352
          ],
          [
            112.97577137981264,
            -210.8726870385545
          ],
          [
            112.79120418279422,
            -211.61085586922536
          ],
          [
            112.79116778548556,
            -212.71812268410423
          ],
          [
            112.60660058846715,
            -213.45629151477502
          ],
          [
            112.60657025737657,
            -214.37901386050743
          ],
          [
            112.60654599250414,
            -215.11719173709332
          ],
          [
            112.79105859355955,
            -216.03992312874084
          ],
          [
            112.7910343286871,
            -216.77810100532673
          ],
          [
            113.16009592810661,
            -217.51629697374278
          ],
          [
            113.34462672781636,
            -217.88539495795087
          ],
          [
            113.5291575275261,
            -218.2544929421589
          ],
          [
            113.89821306072749,
            -219.17723337972146
          ]
        ]
      },
      "properties": {
        "type": "variant",
        "id": 2,
        "color": "#4444ff",
        "vzdal_m": 1236,
        "prevyseni_m": 19,
        "cas_s": 366,
        "tempo_str": "4:56"
      }
    },
    {
      "type": "Feature",
      "geometry": {
        "type": "LineString",
        "coordinates": [
          [
            113.34602195798195,
            -175.4401670542608
          ],
          [
            113.8996204233293,
            -176.36291653773844
          ],
          [
            114.82231688540483,
            -176.91659517475333
          ],
          [
            115.56044008424382,
            -178.39298711158548
          ],
          [
            116.29856328308281,
            -179.86937904841764
          ],
          [
            116.85213748355773,
            -181.5303064084812
          ],
          [
            117.7748096807608,
            -182.822162922082
          ],
          [
            118.51293287959979,
            -184.29855485891417
          ],
          [
            118.51290861472735,
            -185.0367327355001
          ],
          [
            118.5128843498549,
            -185.77491061208602
          ],
          [
            118.51286008498246,
            -186.5130884886719
          ],
          [
            118.69737268603788,
            -187.4358198803194
          ],
          [
            118.69734842116543,
            -188.17399775690532
          ],
          [
            118.69732415629299,
            -188.91217563349122
          ],
          [
            118.69731202385677,
            -189.2812645717842
          ],
          [
            118.88184282356652,
            -189.65036255599225
          ],
          [
            119.06637362327625,
            -190.01946054020027
          ],
          [
            119.80449682211524,
            -191.49585247703246
          ],
          [
            120.17354628909852,
            -192.6031373837415
          ],
          [
            120.35805889015394,
            -193.52586877538897
          ],
          [
            120.54257755742746,
            -194.26405569789
          ],
          [
            120.54256542499125,
            -194.63314463618295
          ],
          [
            120.35799216175471,
            -195.55585793600022
          ],
          [
            120.35796789688227,
            -196.29403581258615
          ],
          [
            120.35794363200984,
            -197.03221368917207
          ],
          [
            120.1733703687733,
            -197.95492698898937
          ],
          [
            120.17334610390087,
            -198.6931048655753
          ],
          [
            120.1733218390284,
            -199.43128274216122
          ],
          [
            120.17329757415597,
            -200.16946061874714
          ],
          [
            119.98873037713754,
            -200.90762944941793
          ],
          [
            120.17324904441108,
            -201.64581637191895
          ],
          [
            120.17322477953863,
            -202.38399424850488
          ],
          [
            120.17319444844807,
            -203.30671659423726
          ],
          [
            119.80407825306558,
            -204.22942084813948
          ],
          [
            119.43495599146497,
            -205.33666957118817
          ],
          [
            119.43493172659252,
            -206.0748474477741
          ],
          [
            119.43490746172009,
            -206.81302532435998
          ],
          [
            119.43488319684762,
            -207.5512032009459
          ],
          [
            119.61939579790305,
            -208.47393459259337
          ],
          [
            119.6193654668125,
            -209.39665693832575
          ],
          [
            119.06568814062969,
            -210.87298555375233
          ],
          [
            119.06565780953912,
            -211.79570789948474
          ],
          [
            118.51199261579255,
            -212.90294757661835
          ],
          [
            117.77377842368189,
            -214.19472267698336
          ],
          [
            117.22010109749908,
            -215.67105129240994
          ],
          [
            117.0355460329169,
            -216.04013118478778
          ],
          [
            116.8509909683347,
            -216.40921107716568
          ],
          [
            116.29733184080624,
            -217.3319062851528
          ],
          [
            115.37458684898581,
            -218.2545834013098
          ],
          [
            114.26730499123755,
            -218.99270700240515
          ],
          [
            113.89821306072749,
            -219.17723337972146
          ]
        ]
      },
      "properties": {
        "type": "variant",
        "id": 3,
        "color": "#44ff44",
        "vzdal_m": 1298,
        "prevyseni_m": 11,
        "cas_s": 362,
        "tempo_str": "4:38"
      }
    }
  ]
}