{
  "type": "FeatureCollection",
  "features": [
    {
      "type": "Feature",
      "geometry": {
        "type": "Point",
        "coordinates": [
          80.60159710846722,
          -257.9263696438971
        ]
      },
      "properties": {
        "type": "start",
        "isom": "109"
      }
    },
    {
      "type": "Feature",
      "geometry": {
        "type": "Point",
        "coordinates": [
          117.04265506449697,
          -221.10046158741878
        ]
      },
      "properties": {
        "type": "end",
        "isom": "204"
      }
    },
    {
      "type": "Feature",
      "geometry": {
        "type": "LineString",
        "coordinates": [
          [
            80.67921136864932,
            -257.9299436357664
          ],
          [
            81.41740736210565,
            -257.1918019428408
          ],
          [
            82.70923215199988,
            -256.4536873876605
          ],
          [
            83.06993894625991,
            -256.13767809232024
          ],
          [
            83.18723208603548,
            -255.7483336784761
          ],
          [
            83.30452522581105,
            -255.35898926463187
          ],
          [
            83.71265108237168,
            -254.0221923118722
          ],
          [
            83.99172776277318,
            -253.12900862564086
          ],
          [
            84.14932648126077,
            -252.62461462137802
          ],
          [
            84.27080444317467,
            -252.23582493940953
          ],
          [
            84.3233373493372,
            -252.06769360465523
          ],
          [
            84.44515897693725,
            -251.67976529836073
          ],
          [
            84.82078693821505,
            -250.51510143350657
          ],
          [
            85.17902914672035,
            -249.4043434545416
          ],
          [
            85.39045991256776,
            -248.73340998446872
          ],
          [
            85.87694828683942,
            -247.17833389743453
          ],
          [
            86.23451654766673,
            -246.06572412618635
          ],
          [
            86.52211542732316,
            -245.17632765547788
          ],
          [
            86.86889902399557,
            -244.06703936528396
          ],
          [
            87.8768710197911,
            -243.16673889473648
          ],
          [
            88.61506701324743,
            -242.42859720181093
          ],
          [
            88.98417714241181,
            -241.6904374170552
          ],
          [
            89.35326907292186,
            -241.5059110397389
          ],
          [
            90.09146506637819,
            -240.76776934681328
          ],
          [
            90.27602013096039,
            -240.39868945443544
          ],
          [
            91.01421612441672,
            -239.6605477615099
          ],
          [
            91.75240605165493,
            -239.10695053773077
          ],
          [
            92.85969397562133,
            -238.1842824674889
          ],
          [
            93.41334703693167,
            -237.44613172864823
          ],
          [
            94.33608596253397,
            -236.70799908163775
          ],
          [
            95.25882488813629,
            -235.9698664346273
          ],
          [
            95.9970208815926,
            -235.2317247417017
          ],
          [
            96.36611281210266,
            -235.0471983643854
          ],
          [
            96.73520474261272,
            -234.8626719870691
          ],
          [
            97.4733764711966,
            -234.86270817072946
          ],
          [
            98.20856455024852,
            -234.54346210243946
          ],
          [
            98.99899404751814,
            -234.86644172679107
          ],
          [
            100.05698965367641,
            -234.4937458752477
          ],
          [
            101.16427151142469,
            -233.7556222741523
          ],
          [
            102.08700437080887,
            -233.20203409628832
          ],
          [
            102.45609630131892,
            -233.01750771897198
          ],
          [
            102.82518216561087,
            -233.01752581080217
          ],
          [
            103.19427409612092,
            -232.83299943348587
          ],
          [
            103.93244582470481,
            -232.8330356171462
          ],
          [
            104.6706175532887,
            -232.83307180080658
          ],
          [
            105.59332614780044,
            -233.0176614995285
          ],
          [
            106.51604687474841,
            -232.83316225995742
          ],
          [
            107.62331660006046,
            -232.46412759715497
          ],
          [
            108.73059845780872,
            -231.72600399605957
          ],
          [
            109.46879445126507,
            -230.98786230313402
          ],
          [
            109.65334951584724,
            -230.61878241075613
          ],
          [
            110.39155764173981,
            -229.51155177953763
          ],
          [
            111.12974756897802,
            -228.95795455575853
          ],
          [
            111.86794962865245,
            -228.03526839368647
          ],
          [
            112.42160268996282,
            -227.29711765484583
          ],
          [
            113.34434768178323,
            -226.37444053868887
          ],
          [
            113.71346994338384,
            -225.2671918156402
          ],
          [
            114.08258007254824,
            -224.52903203088445
          ],
          [
            114.26713513713044,
            -224.15995213850655
          ],
          [
            115.00533719680487,
            -223.23726597643451
          ],
          [
            115.74353925647931,
            -222.31457981436245
          ],
          [
            116.48173524993565,
            -221.5764381214369
          ],
          [
            117.03538224502788,
            -221.0228318517427
          ]
        ]
      },
      "properties": {
        "type": "variant",
        "id": 1,
        "color": "#ff4444",
        "vzdal_m": 1516,
        "prevyseni_m": 62,
        "cas_s": 478,
        "tempo_str": "5:15"
      }
    },
    {
      "type": "Feature",
      "geometry": {
        "type": "LineString",
        "coordinates": [
          [
            80.67921136864932,
            -257.9299436357664
          ],
          [
            81.41740736210565,
            -257.1918019428408
          ],
          [
            82.70923215199988,
            -256.4536873876605
          ],
          [
            83.06993894625991,
            -256.13767809232024
          ],
          [
            83.18723208603548,
            -255.7483336784761
          ],
          [
            83.30452522581105,
            -255.35898926463187
          ],
          [
            83.71265108237168,
            -254.0221923118722
          ],
          [
            83.99172776277318,
            -253.12900862564086
          ],
          [
            84.14932648126077,
            -252.62461462137802
          ],
          [
            84.27080444317467,
            -252.23582493940953
          ],
          [
            84.76687515438834,
            -250.68225913470428
          ],
          [
            85.8466743161153,
            -249.99478474809027
          ],
          [
            86.76940717549948,
            -249.44119657022625
          ],
          [
            86.95396224008168,
            -249.07211667784836
          ],
          [
            87.13851730466386,
            -248.70303678547052
          ],
          [
            88.43033602834,
            -248.1494666994367
          ],
          [
            88.79942795885006,
            -247.96494032212036
          ],
          [
            89.16851988936011,
            -247.78041394480405
          ],
          [
            90.09125881496242,
            -247.04228129779355
          ],
          [
            91.01399774056472,
            -246.3041486507831
          ],
          [
            92.12127959831298,
            -245.56602504968768
          ],
          [
            92.85947559176931,
            -244.82788335676213
          ],
          [
            93.22857358849748,
            -244.45881251029934
          ],
          [
            93.41312865307967,
            -244.08973261792147
          ],
          [
            93.78224484846217,
            -243.16702836401925
          ],
          [
            94.15133677897222,
            -242.98250198670294
          ],
          [
            94.88950850755612,
            -242.9825381703633
          ],
          [
            95.07405143970209,
            -242.98254721627836
          ],
          [
            95.44314337021214,
            -242.79802083896206
          ],
          [
            95.99677216665006,
            -242.79804797670732
          ],
          [
            96.36586409716008,
            -242.61352159939102
          ],
          [
            96.919492893598,
            -242.61354873713626
          ],
          [
            97.28858482410806,
            -242.42902235981995
          ],
          [
            98.02675655269195,
            -242.42905854348032
          ],
          [
            98.94947727963992,
            -242.24455930390926
          ],
          [
            99.50313034095028,
            -241.5064085650686
          ],
          [
            100.42585713411634,
            -241.1373648563511
          ],
          [
            101.16402886270023,
            -241.13740104001144
          ],
          [
            101.79076144862358,
            -241.1012886501066
          ],
          [
            102.58643014908782,
            -241.2637358170401
          ],
          [
            103.56754513763359,
            -241.3776413011425
          ],
          [
            104.25955366405076,
            -241.2435051850839
          ],
          [
            105.2141645516672,
            -241.05231322394567
          ],
          [
            105.91143598184512,
            -240.9617149756504
          ],
          [
            106.3137671038272,
            -240.8518528922151
          ],
          [
            106.67218177652467,
            -240.7900199769577
          ],
          [
            107.06152160903453,
            -240.722851920782
          ],
          [
            107.78232045188537,
            -240.6085832256637
          ],
          [
            108.92728068899397,
            -240.4717752379746
          ],
          [
            109.88477537813604,
            -240.31020409669716
          ],
          [
            111.1943000785856,
            -239.55672854016362
          ],
          [
            111.80901509126112,
            -238.6977191638294
          ],
          [
            112.61002563844768,
            -237.44916535579117
          ],
          [
            113.15469861605372,
            -236.1546520088417
          ],
          [
            113.75389494806271,
            -234.61172497901254
          ],
          [
            114.51481708271254,
            -233.13281410545227
          ],
          [
            115.37335879265399,
            -231.72584350650848
          ],
          [
            116.12022656999014,
            -230.25385028475904
          ],
          [
            116.58171362348759,
            -229.38554302582355
          ],
          [
            116.78864021763364,
            -229.02928887610386
          ],
          [
            116.97442314602448,
            -228.6078440646737
          ],
          [
            117.01270930754288,
            -228.45589100858066
          ],
          [
            117.1354179958766,
            -228.0669666028594
          ],
          [
            117.14882803462407,
            -227.2909848181133
          ],
          [
            117.10287981340296,
            -226.55471661389018
          ],
          [
            117.04863556335893,
            -225.8210757923521
          ],
          [
            117.18995903258474,
            -225.16315011601102
          ],
          [
            117.03527305310189,
            -224.3446322963793
          ],
          [
            117.03529731797433,
            -223.60645441979338
          ],
          [
            117.03532158284678,
            -222.8682765432075
          ],
          [
            117.03534584771921,
            -222.13009866662156
          ],
          [
            117.03537011259165,
            -221.39192079003564
          ],
          [
            117.03538224502788,
            -221.0228318517427
          ]
        ]
      },
      "properties": {
        "type": "variant",
        "id": 2,
        "color": "#4444ff",
        "vzdal_m": 1600,
        "prevyseni_m": 54,
        "cas_s": 482,
        "tempo_str": "5:01"
      }
    },
    {
      "type": "Feature",
      "geometry": {
        "type": "LineString",
        "coordinates": [
          [
            80.67921136864932,
            -257.9299436357664
          ],
          [
            81.97103615854355,
            -257.19182908058605
          ],
          [
            83.03432235830148,
            -256.2559042698132
          ],
          [
            84.00106300811224,
            -255.53102836333372
          ],
          [
            85.47743073015245,
            -254.79292285406854
          ],
          [
            85.84652266066252,
            -254.60839647675223
          ],
          [
            86.21561459117257,
            -254.42387009943587
          ],
          [
            86.40016358953665,
            -254.23933467620452
          ],
          [
            86.7692555200467,
            -254.05480829888822
          ],
          [
            87.50742724863059,
            -254.05484448254853
          ],
          [
            88.9837949706708,
            -253.31673897328332
          ],
          [
            90.46016269271102,
            -252.57863346401808
          ],
          [
            91.93652434853311,
            -252.02507242389936
          ],
          [
            92.85926934035353,
            -251.1023953077424
          ],
          [
            94.33563706239374,
            -250.36428979847716
          ],
          [
            95.25835778934172,
            -250.17979055890615
          ],
          [
            96.181096714944,
            -249.44165791189565
          ],
          [
            97.65746443698423,
            -248.7035524026304
          ],
          [
            98.39564829800435,
            -248.3344996479978
          ],
          [
            98.58020336258652,
            -247.96541975561993
          ],
          [
            98.76475842716872,
            -247.59633986324206
          ],
          [
            99.13388068876932,
            -246.48909114019338
          ],
          [
            99.87209488087998,
            -245.19731603982834
          ],
          [
            100.61029087433633,
            -244.45917434690278
          ],
          [
            101.53303586615674,
            -243.53649723074582
          ],
          [
            102.27123792583117,
            -242.61381106867378
          ],
          [
            102.45581118906772,
            -241.69109776885645
          ],
          [
            102.87582529644618,
            -241.38737787993327
          ],
          [
            103.55281089866592,
            -241.37882458698155
          ],
          [
            104.40355603923577,
            -241.1671035164292
          ],
          [
            105.39629761797158,
            -241.03136869481548
          ],
          [
            105.91143598184512,
            -240.9617149756504
          ],
          [
            106.3137671038272,
            -240.8518528922151
          ],
          [
            106.67218177652467,
            -240.7900199769577
          ],
          [
            107.06152160903453,
            -240.722851920782
          ],
          [
            107.78232045188537,
            -240.6085832256637
          ],
          [
            108.92728068899397,
            -240.4717752379746
          ],
          [
            109.88477537813604,
            -240.31020409669716
          ],
          [
            111.1943000785856,
            -239.55672854016362
          ],
          [
            111.80901509126112,
            -238.6977191638294
          ],
          [
            112.61002563844768,
            -237.44916535579117
          ],
          [
            113.15469861605372,
            -236.1546520088417
          ],
          [
            113.75389494806271,
            -234.61172497901254
          ],
          [
            114.51481708271254,
            -233.13281410545227
          ],
          [
            115.37335879265399,
            -231.72584350650848
          ],
          [
            116.12022656999014,
            -230.25385028475904
          ],
          [
            116.58171362348759,
            -229.38554302582355
          ],
          [
            116.78864021763364,
            -229.02928887610386
          ],
          [
            116.97442314602448,
            -228.6078440646737
          ],
          [
            117.01270930754288,
            -228.45589100858066
          ],
          [
            117.1354179958766,
            -228.0669666028594
          ],
          [
            117.14882803462407,
            -227.2909848181133
          ],
          [
            117.10287981340296,
            -226.55471661389018
          ],
          [
            117.04863556335893,
            -225.8210757923521
          ],
          [
            117.18995903258474,
            -225.16315011601102
          ],
          [
            117.03527305310189,
            -224.3446322963793
          ],
          [
            116.85075438582835,
            -223.60644537387833
          ],
          [
            117.03532158284678,
            -222.8682765432075
          ],
          [
            117.03534584771921,
            -222.13009866662156
          ],
          [
            117.03537011259165,
            -221.39192079003564
          ],
          [
            117.03538224502788,
            -221.0228318517427
          ]
        ]
      },
      "properties": {
        "type": "variant",
        "id": 3,
        "color": "#44ff44",
        "vzdal_m": 1558,
        "prevyseni_m": 54,
        "cas_s": 480,
        "tempo_str": "5:08"
      }
    }
  ]
}