{
  "type": "FeatureCollection",
  "features": [
    {
      "type": "Feature",
      "geometry": {
        "type": "Point",
        "coordinates": [
          56.50696384270132,
          -114.63003976740904
        ]
      },
      "properties": {
        "type": "start",
        "isom": "111"
      }
    },
    {
      "type": "Feature",
      "geometry": {
        "type": "Point",
        "coordinates": [
          77.43791039540427,
          -123.20684731156602
        ]
      },
      "properties": {
        "type": "end",
        "isom": "526"
      }
    },
    {
      "type": "Feature",
      "geometry": {
        "type": "LineString",
        "coordinates": [
          [
            56.471954345893614,
            -114.6152141426585
          ],
          [
            56.90853089997907,
            -114.8711833014366
          ],
          [
            57.439502133935,
            -115.05861853572634
          ],
          [
            57.856014204552054,
            -114.98437092892259
          ],
          [
            58.22510006884396,
            -114.98438902163021
          ],
          [
            58.59418593313586,
            -114.98440711433784
          ],
          [
            58.96327179742778,
            -114.98442520704545
          ],
          [
            59.33235766171968,
            -114.98444329975308
          ],
          [
            59.70144352601159,
            -114.9844613924607
          ],
          [
            60.0705293903035,
            -114.98447948516832
          ],
          [
            60.45646941066254,
            -114.98665922041968
          ],
          [
            60.80870111888732,
            -114.98451567058356
          ],
          [
            60.90097258496029,
            -114.98452019376046
          ],
          [
            61.54686374814397,
            -115.2613685599567
          ],
          [
            61.91594961243588,
            -115.26138665266431
          ],
          [
            62.28503547672779,
            -115.26140474537193
          ],
          [
            62.661358973835334,
            -115.26673551466318
          ],
          [
            63.0232072053116,
            -115.26144093078717
          ],
          [
            63.48456793077481,
            -115.15817899486622
          ],
          [
            63.829607365152526,
            -115.12394186130574
          ],
          [
            64.4072761632972,
            -115.35378101309338
          ],
          [
            64.96089889351697,
            -115.53835262146008
          ],
          [
            65.32998475780887,
            -115.53837071416768
          ],
          [
            65.78672922204055,
            -115.62605531576118
          ],
          [
            66.43723021824837,
            -115.90751393090106
          ],
          [
            67.17538981439598,
            -116.2766390549268
          ],
          [
            67.72901254461573,
            -116.4612106632935
          ],
          [
            68.09809840890765,
            -116.4612287560011
          ],
          [
            68.65173327156361,
            -116.27671142575731
          ],
          [
            69.12150760240766,
            -116.54921300592717
          ],
          [
            69.45104036239943,
            -116.88575280607581
          ],
          [
            70.21315250349164,
            -117.22422821057776
          ],
          [
            70.77291214376687,
            -117.38758913910854
          ],
          [
            71.14654415541918,
            -117.41283635372181
          ],
          [
            71.70416679757484,
            -117.54191256428668
          ],
          [
            71.98452912949575,
            -117.62242004997417
          ],
          [
            72.17518611984993,
            -117.73154371809474
          ],
          [
            72.27624967144493,
            -117.82895644954151
          ],
          [
            72.6322910524842,
            -118.39101151741839
          ],
          [
            72.9586488621574,
            -118.896124705669
          ],
          [
            73.54202391394168,
            -119.22966266301731
          ],
          [
            74.26026232050017,
            -119.6420989558268
          ],
          [
            74.76237982106055,
            -119.746227519029
          ],
          [
            75.47999987848056,
            -120.15194388110253
          ],
          [
            75.88644805217677,
            -120.50011863589673
          ],
          [
            76.0507420108617,
            -120.78847618352187
          ],
          [
            76.36766164555902,
            -121.55490081268674
          ],
          [
            76.70914072518777,
            -122.21558107748463
          ],
          [
            77.17257428778561,
            -122.60285305025253
          ],
          [
            77.32502663235348,
            -123.1052819686807
          ],
          [
            77.4172950653174,
            -123.19755872651024
          ]
        ]
      },
      "properties": {
        "type": "variant",
        "id": 1,
        "color": "#ff4444",
        "vzdal_m": 1316,
        "prevyseni_m": 0,
        "cas_s": 313,
        "tempo_str": "3:58"
      }
    },
    {
      "type": "Feature",
      "geometry": {
        "type": "LineString",
        "coordinates": [
          [
            56.471954345893614,
            -114.6152141426585
          ],
          [
            57.01946120411723,
            -114.90967552271333
          ],
          [
            57.74466044561037,
            -115.28394108072732
          ],
          [
            58.40962176922654,
            -115.6303037105524
          ],
          [
            58.87096696715521,
            -115.99941526504742
          ],
          [
            59.332312165083884,
            -116.36852681954245
          ],
          [
            59.88592882908553,
            -116.73764289721439
          ],
          [
            60.439545493087174,
            -117.10675897488633
          ],
          [
            60.900890691015846,
            -117.47587052938135
          ],
          [
            61.49054115467687,
            -117.86020298232681
          ],
          [
            62.00465136533576,
            -118.12737807946118
          ],
          [
            62.605950815456694,
            -118.56051281129739
          ],
          [
            63.11537554567676,
            -118.39870143215335
          ],
          [
            63.48446140996867,
            -118.39871952486097
          ],
          [
            64.03808414018843,
            -118.58329113322766
          ],
          [
            64.49943843744425,
            -118.6755859837648
          ],
          [
            65.14532656751888,
            -119.04470658461366
          ],
          [
            65.51440939870173,
            -119.1369969119739
          ],
          [
            66.1603005618854,
            -119.4138452781701
          ],
          [
            66.62165485914124,
            -119.50614012870727
          ],
          [
            67.08300915639708,
            -119.59843497924442
          ],
          [
            67.5443634536529,
            -119.69072982978157
          ],
          [
            67.91344931794482,
            -119.69074792248918
          ],
          [
            68.46707204816457,
            -119.87531953085588
          ],
          [
            68.93575233989205,
            -120.04518376875428
          ],
          [
            69.48204300942204,
            -120.33673045906497
          ],
          [
            69.85112887371396,
            -120.33674855177259
          ],
          [
            70.22021473800586,
            -120.3367666444802
          ],
          [
            70.86610590118954,
            -120.61361501067643
          ],
          [
            71.60426549733715,
            -120.98274013470217
          ],
          [
            72.34242509348475,
            -121.35186525872793
          ],
          [
            72.52696499252166,
            -121.44414653973435
          ],
          [
            72.71150489155855,
            -121.53642782074078
          ],
          [
            73.17285008948723,
            -121.90553937523583
          ],
          [
            73.6890835658212,
            -121.8318938638144
          ],
          [
            74.00329631725306,
            -121.81330784917536
          ],
          [
            74.55691904747283,
            -121.99787945754203
          ],
          [
            74.92599884554662,
            -122.18244201955491
          ],
          [
            75.66415844169423,
            -122.55156714358066
          ],
          [
            76.21777510569586,
            -122.92068322125259
          ],
          [
            76.58686096998778,
            -122.92070131396021
          ],
          [
            77.04821526724362,
            -123.01299616449735
          ],
          [
            77.4172950653174,
            -123.19755872651024
          ]
        ]
      },
      "properties": {
        "type": "variant",
        "id": 2,
        "color": "#4444ff",
        "vzdal_m": 1257,
        "prevyseni_m": 0,
        "cas_s": 314,
        "tempo_str": "4:09"
      }
    },
    {
      "type": "Feature",
      "geometry": {
        "type": "LineString",
        "coordinates": [
          [
            56.471954345893614,
            -114.6152141426585
          ],
          [
            57.01946120411723,
            -114.90967552271333
          ],
          [
            57.74466044561037,
            -115.28394108072732
          ],
          [
            58.40962176922654,
            -115.6303037105524
          ],
          [
            58.87096696715521,
            -115.99941526504742
          ],
          [
            59.332312165083884,
            -116.36852681954245
          ],
          [
            59.88592882908553,
            -116.73764289721439
          ],
          [
            60.439545493087174,
            -117.10675897488633
          ],
          [
            60.80861922494287,
            -117.47586600620444
          ],
          [
            61.49054115467687,
            -117.86020298232681
          ],
          [
            62.00465136533576,
            -118.12737807946118
          ],
          [
            62.48103927118602,
            -118.47420148749602
          ],
          [
            63.02848851913391,
            -118.85215680011429
          ],
          [
            63.582498660187255,
            -119.22042838697267
          ],
          [
            64.3202588157745,
            -119.58612613059073
          ],
          [
            64.78988052193688,
            -119.94827402009463
          ],
          [
            65.16779386038893,
            -120.31881160852262
          ],
          [
            65.52094711231832,
            -120.88598511486911
          ],
          [
            65.8930215210052,
            -121.34268863796167
          ],
          [
            66.61671491284955,
            -121.72764511750987
          ],
          [
            67.04885198579278,
            -122.01219147958072
          ],
          [
            67.63221020900623,
            -122.38983942521975
          ],
          [
            68.09456637426653,
            -122.47865156091922
          ],
          [
            68.4521621318169,
            -122.5386122790885
          ],
          [
            68.93445399153416,
            -122.62597958726761
          ],
          [
            69.4756234316751,
            -122.92885011705584
          ],
          [
            69.81432683441085,
            -123.31640579539736
          ],
          [
            70.47567564840932,
            -123.70743821378903
          ],
          [
            71.15567539177054,
            -123.95209901158279
          ],
          [
            71.80113075829051,
            -124.23781012486074
          ],
          [
            72.43223589672019,
            -123.93061170825395
          ],
          [
            73.16634349468474,
            -123.55373227065712
          ],
          [
            73.23970128217793,
            -123.5164859620308
          ],
          [
            73.72642125685307,
            -123.65873897269714
          ],
          [
            74.09550712114498,
            -123.65875706540477
          ],
          [
            74.5568614184008,
            -123.75105191594191
          ],
          [
            74.92594728269272,
            -123.75107000864955
          ],
          [
            75.57185664453071,
            -123.47428496693
          ],
          [
            76.12549150718668,
            -123.28976763668618
          ],
          [
            76.58685187066062,
            -123.19751801791809
          ],
          [
            76.95593773495253,
            -123.1975361106257
          ],
          [
            77.32502359924443,
            -123.19755420333333
          ],
          [
            77.4172950653174,
            -123.19755872651024
          ]
        ]
      },
      "properties": {
        "type": "variant",
        "id": 3,
        "color": "#44ff44",
        "vzdal_m": 1315,
        "prevyseni_m": 0,
        "cas_s": 308,
        "tempo_str": "3:54"
      }
    }
  ]
}