{
  "type": "FeatureCollection",
  "features": [
    {
      "type": "Feature",
      "geometry": {
        "type": "Point",
        "coordinates": [
          195.773245240985,
          -130.26747026372882
        ]
      },
      "properties": {
        "type": "start",
        "isom": "109"
      }
    },
    {
      "type": "Feature",
      "geometry": {
        "type": "Point",
        "coordinates": [
          165.95933678960242,
          -70.79396994639126
        ]
      },
      "properties": {
        "type": "end",
        "isom": "204"
      }
    },
    {
      "type": "Feature",
      "geometry": {
        "type": "LineString",
        "coordinates": [
          [
            195.80693671823212,
            -130.3186545757101
          ],
          [
            195.0688135193931,
            -128.84226263887794
          ],
          [
            194.8843009183377,
            -127.91953124723045
          ],
          [
            194.14617771949872,
            -126.4431393103983
          ],
          [
            193.22350552229562,
            -125.1512827967975
          ],
          [
            192.48538232345663,
            -123.67489085996533
          ],
          [
            191.93179599054548,
            -122.38305243819471
          ],
          [
            191.19366065927028,
            -121.27574943965551
          ],
          [
            190.64008645879537,
            -119.61482207959193
          ],
          [
            189.90196325995637,
            -118.13843014275977
          ],
          [
            189.16384006111738,
            -116.66203820592759
          ],
          [
            189.16385219355362,
            -116.29294926763463
          ],
          [
            188.79477239547975,
            -116.10838670665798
          ],
          [
            188.9793456587163,
            -115.18567340684068
          ],
          [
            188.79483305766087,
            -114.26294201519319
          ],
          [
            188.42577752445948,
            -113.34020157763064
          ],
          [
            188.79488158740577,
            -112.78658626202136
          ],
          [
            188.7949058522782,
            -112.04840838543545
          ],
          [
            188.79493011715064,
            -111.31023050884954
          ],
          [
            188.7949543820231,
            -110.57205263226362
          ],
          [
            188.79497864689552,
            -109.83387475567771
          ],
          [
            188.79499684554986,
            -109.28024134823828
          ],
          [
            188.61046604584013,
            -108.91114336403025
          ],
          [
            188.61049031071255,
            -108.17296548744433
          ],
          [
            187.68781811350948,
            -106.88110897384354
          ],
          [
            186.9496949146705,
            -105.40471703701138
          ],
          [
            186.2115717158315,
            -103.9283251001792
          ],
          [
            185.65797931670224,
            -102.82103114755508
          ],
          [
            185.4734485169925,
            -102.45193316334702
          ],
          [
            184.7353253181535,
            -100.97554122651486
          ],
          [
            183.99720211931452,
            -99.49914928968268
          ],
          [
            183.2590728542574,
            -98.20730182199699
          ],
          [
            182.52092539054595,
            -97.46908776175073
          ],
          [
            181.78280219170696,
            -95.99269582491856
          ],
          [
            181.59827139199723,
            -95.62359784071052
          ],
          [
            181.4137405922875,
            -95.25449985650248
          ],
          [
            180.67561132723037,
            -93.96265238881678
          ],
          [
            180.49108052752064,
            -93.59355440460872
          ],
          [
            179.75292093137296,
            -93.22442928265542
          ],
          [
            179.01479773253396,
            -91.74803734582326
          ],
          [
            178.17895085076123,
            -90.78015411813546
          ],
          [
            177.53851493754732,
            -89.90252028703779
          ],
          [
            176.80039173870833,
            -88.42612835020562
          ],
          [
            176.062250341215,
            -87.50336982081288
          ],
          [
            175.1395720777938,
            -86.39605777635857
          ],
          [
            174.58597967866456,
            -85.28876382373444
          ],
          [
            173.84784434738935,
            -84.18146082519523
          ],
          [
            173.10970294989602,
            -83.25870229580248
          ],
          [
            172.37156155240268,
            -82.33594376640974
          ],
          [
            171.63342622112748,
            -81.22864076787054
          ],
          [
            170.895278757416,
            -80.49042670762428
          ],
          [
            170.1571373599227,
            -79.56766817823154
          ],
          [
            169.41899596242936,
            -78.6449096488388
          ],
          [
            168.68085456493603,
            -77.72215111944607
          ],
          [
            167.94271316744272,
            -76.79939259005333
          ],
          [
            167.2045899686037,
            -75.32300065322116
          ],
          [
            166.6510036356926,
            -74.03116223145055
          ],
          [
            166.6210213006698,
            -73.4237610703801
          ],
          [
            166.65105216543748,
            -72.55480647827872
          ],
          [
            166.2820026984542,
            -71.44752157156967
          ],
          [
            165.9129410990347,
            -70.70932560315359
          ]
        ]
      },
      "properties": {
        "type": "variant",
        "id": 1,
        "color": "#ff4444",
        "vzdal_m": 1860,
        "prevyseni_m": 22,
        "cas_s": 541,
        "tempo_str": "4:50"
      }
    },
    {
      "type": "Feature",
      "geometry": {
        "type": "LineString",
        "coordinates": [
          [
            195.80693671823212,
            -130.3186545757101
          ],
          [
            195.0688135193931,
            -128.84226263887794
          ],
          [
            194.33069032055414,
            -127.36587070204575
          ],
          [
            193.40799992469672,
            -126.62764759588441
          ],
          [
            192.66986459342147,
            -125.5203445973452
          ],
          [
            191.93171712971005,
            -124.78213053709894
          ],
          [
            191.1935696659986,
            -124.04391647685269
          ],
          [
            190.08633027177714,
            -123.49022879392274
          ],
          [
            189.53273180642978,
            -122.56747931044508
          ],
          [
            188.61004141057234,
            -121.82925620428374
          ],
          [
            187.133722218277,
            -121.09100596037713
          ],
          [
            186.94918535234916,
            -120.90645244531557
          ],
          [
            186.58010555427532,
            -120.7218898843389
          ],
          [
            186.0264888902736,
            -120.35277380830071
          ],
          [
            185.6574090921998,
            -120.16821124732405
          ],
          [
            185.10379849441622,
            -119.61455070213934
          ],
          [
            184.73471869634238,
            -119.42998814116271
          ],
          [
            184.36563889826854,
            -119.24542558018605
          ],
          [
            183.4429303037568,
            -119.06083588146413
          ],
          [
            182.5202399078994,
            -118.32261277530279
          ],
          [
            181.413006579896,
            -117.58438062322637
          ],
          [
            180.6748712486208,
            -116.47707762468715
          ],
          [
            179.7671681203497,
            -115.720809504494
          ],
          [
            179.09849836551498,
            -114.93812495461206
          ],
          [
            178.0185977329931,
            -114.39212498007018
          ],
          [
            176.73649503140055,
            -113.6035940608569
          ],
          [
            175.83738977263394,
            -113.03326619856044
          ],
          [
            174.99346294402372,
            -111.57461657699173
          ],
          [
            174.58516073921953,
            -110.20226715850903
          ],
          [
            174.58518500409198,
            -109.46408928192312
          ],
          [
            174.58520926896443,
            -108.7259114053372
          ],
          [
            174.58523353383686,
            -107.98773352875129
          ],
          [
            174.5852577987093,
            -107.24955565216537
          ],
          [
            174.58528206358176,
            -106.51137777557946
          ],
          [
            174.40076946252634,
            -105.58864638393197
          ],
          [
            174.21625079525282,
            -104.85045946143097
          ],
          [
            174.40081799227121,
            -104.11229063076016
          ],
          [
            174.4008422571437,
            -103.37411275417423
          ],
          [
            174.09883057456935,
            -102.2810600085838
          ],
          [
            174.17375465052766,
            -101.53396171749304
          ],
          [
            174.1467037642469,
            -100.7878118757629
          ],
          [
            174.185341886101,
            -100.06091147456937
          ],
          [
            173.84735298372232,
            -99.12956282605998
          ],
          [
            173.6628403826669,
            -98.2068314344125
          ],
          [
            173.47832778161148,
            -97.28410004276502
          ],
          [
            173.47835204648393,
            -96.54592216617911
          ],
          [
            173.47835811270207,
            -96.36137769703264
          ],
          [
            173.2938273129923,
            -95.99227971282458
          ],
          [
            173.2938333792104,
            -95.80773524367811
          ],
          [
            173.10930257950065,
            -95.43863725947006
          ],
          [
            172.74022884764494,
            -95.06953022934692
          ],
          [
            172.5556980479352,
            -94.7004322451389
          ],
          [
            172.18663038229758,
            -94.1467807458693
          ],
          [
            172.0021177812422,
            -93.2240493542218
          ],
          [
            172.0021420461146,
            -92.4858714776359
          ],
          [
            171.81761731262299,
            -91.93222902428137
          ],
          [
            171.6331168440038,
            -90.64040869434095
          ],
          [
            171.26407950945674,
            -89.16403484933893
          ],
          [
            170.89503004247348,
            -88.05674994262989
          ],
          [
            170.15689471119825,
            -86.94944694409068
          ],
          [
            169.7878573766512,
            -85.47307309908868
          ],
          [
            169.23427104374005,
            -84.18123467731807
          ],
          [
            168.8652215767568,
            -83.07394977060903
          ],
          [
            168.4961721097735,
            -81.96666486389998
          ],
          [
            168.49619637464596,
            -81.22848698731407
          ],
          [
            168.31168377359054,
            -80.30575559566658
          ],
          [
            168.31169590602676,
            -79.93666665737364
          ],
          [
            168.49625097060897,
            -79.56758676499577
          ],
          [
            168.3117201708992,
            -79.19848878078771
          ],
          [
            167.57359697206022,
            -77.72209684395555
          ],
          [
            167.57362123693267,
            -76.98391896736963
          ],
          [
            167.20457176994938,
            -75.87663406066059
          ],
          [
            167.02005916889397,
            -74.9539026690131
          ],
          [
            166.46646070354663,
            -74.03115318553546
          ],
          [
            166.65103396678313,
            -73.10843988571816
          ],
          [
            166.65105823165558,
            -72.37026200913225
          ],
          [
            166.09747189874443,
            -71.07842358736164
          ],
          [
            165.9129410990347,
            -70.70932560315359
          ]
        ]
      },
      "properties": {
        "type": "variant",
        "id": 2,
        "color": "#4444ff",
        "vzdal_m": 1941,
        "prevyseni_m": 21,
        "cas_s": 552,
        "tempo_str": "4:44"
      }
    },
    {
      "type": "Feature",
      "geometry": {
        "type": "LineString",
        "coordinates": [
          [
            195.80693671823212,
            -130.3186545757101
          ],
          [
            195.0688135193931,
            -128.84226263887794
          ],
          [
            194.8843009183377,
            -127.91953124723045
          ],
          [
            194.14617771949872,
            -126.4431393103983
          ],
          [
            193.59257925415136,
            -125.52038982692063
          ],
          [
            193.40806665309594,
            -124.59765843527315
          ],
          [
            193.03901718611266,
            -123.4903735285641
          ],
          [
            193.03904145098508,
            -122.75219565197818
          ],
          [
            192.8545288499297,
            -121.82946426033071
          ],
          [
            192.85455311480212,
            -121.09128638374479
          ],
          [
            192.67002838131052,
            -120.53764393039029
          ],
          [
            192.67006477861915,
            -119.43037711551142
          ],
          [
            192.6700890434916,
            -118.69219923892551
          ],
          [
            192.85465624051002,
            -117.95403040825465
          ],
          [
            192.67013757323647,
            -117.21584348575368
          ],
          [
            192.67016183810895,
            -116.47766560916776
          ],
          [
            192.4856371046173,
            -115.92402315581325
          ],
          [
            192.67021036785385,
            -115.00130985599594
          ],
          [
            192.30116090087054,
            -113.89402494928689
          ],
          [
            192.3011790995249,
            -113.34039154184745
          ],
          [
            192.11664829981513,
            -112.9712935576394
          ],
          [
            192.11667256468758,
            -112.23311568105349
          ],
          [
            191.93215996363216,
            -111.31038428940602
          ],
          [
            191.74764736257674,
            -110.38765289775853
          ],
          [
            191.74765949501298,
            -110.01856395946557
          ],
          [
            191.19407316210183,
            -108.72672553769497
          ],
          [
            190.82502369511857,
            -107.61944063098592
          ],
          [
            189.9023514979155,
            -106.32758411738516
          ],
          [
            189.16422829907648,
            -104.85119218055297
          ],
          [
            188.4260990340194,
            -103.55934471286729
          ],
          [
            187.50340863816197,
            -102.82112160670593
          ],
          [
            186.76526117445053,
            -102.08290754645968
          ],
          [
            186.02710764452095,
            -101.5292379553599
          ],
          [
            185.6580521113196,
            -100.60649751779734
          ],
          [
            185.65807637619204,
            -99.86831964121141
          ],
          [
            185.65808850862825,
            -99.49923070291847
          ],
          [
            185.10450217571713,
            -98.20739228114785
          ],
          [
            185.10452644058955,
            -97.46921440456194
          ],
          [
            185.1045446392439,
            -96.9155809971225
          ],
          [
            185.2890997038261,
            -96.54650110474464
          ],
          [
            185.28912396869853,
            -95.80832322815871
          ],
          [
            185.28914823357098,
            -95.0701453515728
          ],
          [
            184.92011089902394,
            -93.5937715065708
          ],
          [
            184.1819695015306,
            -92.67101297717807
          ],
          [
            183.44382810403727,
            -91.74825444778533
          ],
          [
            182.52113770817988,
            -91.01003134162399
          ],
          [
            181.96753924283252,
            -90.08728185814633
          ],
          [
            181.22939784533918,
            -89.16452332875359
          ],
          [
            180.49125038162774,
            -88.42630926850734
          ],
          [
            179.56855391955222,
            -87.87263063149247
          ],
          [
            178.8304125220589,
            -86.94987210209973
          ],
          [
            178.09228325700178,
            -85.65802463441403
          ],
          [
            177.35415399194468,
            -84.36617716672835
          ],
          [
            176.43146359608727,
            -83.62795406056699
          ],
          [
            175.87788332939425,
            -82.15157116964991
          ],
          [
            175.1397358656828,
            -81.41335710940365
          ],
          [
            174.40159446818947,
            -80.49059858001091
          ],
          [
            173.66344700447806,
            -79.75238451976465
          ],
          [
            173.29437327262232,
            -79.38327748964153
          ],
          [
            173.10984247291256,
            -79.01417950543348
          ],
          [
            172.18715814327325,
            -78.09141193012566
          ],
          [
            171.0799248152699,
            -77.35317977804922
          ],
          [
            170.34177735155845,
            -76.61496571780296
          ],
          [
            170.15724048563058,
            -76.43041220274141
          ],
          [
            169.78816068755677,
            -76.24584964176475
          ],
          [
            168.86547029169935,
            -75.5076265356034
          ],
          [
            167.57369403155,
            -74.7693853376119
          ],
          [
            166.83535017349382,
            -73.4629640455983
          ],
          [
            166.83558903136534,
            -72.73935999334029
          ],
          [
            166.83561329623777,
            -72.00118211675438
          ],
          [
            166.09747796496256,
            -70.89387911821515
          ],
          [
            165.9129410990347,
            -70.70932560315359
          ]
        ]
      },
      "properties": {
        "type": "variant",
        "id": 3,
        "color": "#44ff44",
        "vzdal_m": 1909,
        "prevyseni_m": 24,
        "cas_s": 557,
        "tempo_str": "4:51"
      }
    }
  ]
}