{
  "type": "FeatureCollection",
  "features": [
    {
      "type": "Feature",
      "geometry": {
        "type": "Point",
        "coordinates": [
          193.81863631288795,
          -72.0026254710726
        ]
      },
      "properties": {
        "type": "start",
        "isom": "419"
      }
    },
    {
      "type": "Feature",
      "geometry": {
        "type": "Point",
        "coordinates": [
          210.74739526975912,
          -86.34625144920327
        ]
      },
      "properties": {
        "type": "end",
        "isom": "109"
      }
    },
    {
      "type": "Feature",
      "geometry": {
        "type": "LineString",
        "coordinates": [
          [
            193.7788813895496,
            -72.00250282035698
          ],
          [
            194.7015778516251,
            -72.55618145737184
          ],
          [
            195.80883544450091,
            -72.55623573286236
          ],
          [
            196.54699504064862,
            -72.92536085481565
          ],
          [
            196.91607483872244,
            -73.10992341579231
          ],
          [
            197.65422230243388,
            -73.84813747603857
          ],
          [
            198.3923697661453,
            -74.58635153628482
          ],
          [
            199.13051722985674,
            -75.32456559653109
          ],
          [
            200.4222995562242,
            -75.87826232537613
          ],
          [
            201.1604712848081,
            -75.87829850903647
          ],
          [
            202.08317987931986,
            -76.06288820775838
          ],
          [
            202.45225967739367,
            -76.24745076873504
          ],
          [
            202.8213394754675,
            -76.43201332971168
          ],
          [
            203.00587027517724,
            -76.80111131391972
          ],
          [
            203.74400560645248,
            -77.90841431245894
          ],
          [
            204.85123893445584,
            -78.64664646453537
          ],
          [
            205.95847226245922,
            -79.3848786166118
          ],
          [
            206.5120707278066,
            -80.30762810008946
          ],
          [
            206.69660152751635,
            -80.67672608429748
          ],
          [
            207.2501939266456,
            -81.78402003692163
          ],
          [
            207.4347247263553,
            -82.15311802112967
          ],
          [
            207.61925552606507,
            -82.52221600533771
          ],
          [
            208.35739692355838,
            -83.44497453473045
          ],
          [
            208.91099538890575,
            -84.3677240182081
          ],
          [
            209.2800751869796,
            -84.55228657918475
          ],
          [
            209.46461205290746,
            -84.73684009424632
          ],
          [
            210.2027595166189,
            -85.47505415449257
          ],
          [
            210.5718271822565,
            -86.02870565376219
          ],
          [
            210.75635798196626,
            -86.39780363797023
          ]
        ]
      },
      "properties": {
        "type": "variant",
        "id": 1,
        "color": "#ff4444",
        "vzdal_m": 636,
        "prevyseni_m": 3,
        "cas_s": 193,
        "tempo_str": "5:02"
      }
    },
    {
      "type": "Feature",
      "geometry": {
        "type": "LineString",
        "coordinates": [
          [
            193.7788813895496,
            -72.00250282035698
          ],
          [
            194.14793085653287,
            -73.109787727066
          ],
          [
            194.1479065916604,
            -73.84796560365193
          ],
          [
            194.33243739137015,
            -74.21706358785997
          ],
          [
            194.33242525893394,
            -74.58615252615293
          ],
          [
            194.70150505700775,
            -74.77071508712957
          ],
          [
            194.88604798915375,
            -74.77072413304467
          ],
          [
            195.0705787888635,
            -75.1398221172527
          ],
          [
            195.25511565479135,
            -75.32437563231427
          ],
          [
            195.43965252071922,
            -75.50892914737584
          ],
          [
            195.62418938664706,
            -75.6934826624374
          ],
          [
            195.8087080539206,
            -76.4316695849384
          ],
          [
            195.99323885363037,
            -76.80076756914644
          ],
          [
            196.3623186517042,
            -76.9853301301231
          ],
          [
            196.54685551763203,
            -77.16988364518465
          ],
          [
            196.73139238355992,
            -77.35443716024622
          ],
          [
            196.91592924948776,
            -77.53899067530779
          ],
          [
            197.10046611541563,
            -77.72354419036935
          ],
          [
            198.02315651127304,
            -78.4617672965307
          ],
          [
            198.7613039749845,
            -79.19998135677696
          ],
          [
            199.4994393062597,
            -80.30728435531617
          ],
          [
            200.23756250509868,
            -81.78367629214834
          ],
          [
            200.97570996881012,
            -82.5218903523946
          ],
          [
            202.26748622895948,
            -83.26013155038612
          ],
          [
            203.7438054212548,
            -83.99838179429273
          ],
          [
            205.2201246135501,
            -84.73663203819933
          ],
          [
            206.69644380584546,
            -85.47488228210594
          ],
          [
            207.6191524003572,
            -85.65947198082785
          ],
          [
            208.91093472672466,
            -86.21316870967289
          ],
          [
            209.8336433212364,
            -86.3977584083948
          ],
          [
            210.57181504982026,
            -86.39779459205515
          ],
          [
            210.75635798196626,
            -86.39780363797023
          ]
        ]
      },
      "properties": {
        "type": "variant",
        "id": 2,
        "color": "#4444ff",
        "vzdal_m": 651,
        "prevyseni_m": 2,
        "cas_s": 193,
        "tempo_str": "4:57"
      }
    },
    {
      "type": "Feature",
      "geometry": {
        "type": "LineString",
        "coordinates": [
          [
            193.7788813895496,
            -72.00250282035698
          ],
          [
            194.88612684998918,
            -72.37164603414044
          ],
          [
            195.62429857857308,
            -72.3716822178008
          ],
          [
            196.73153797279457,
            -72.92536990073074
          ],
          [
            197.46968543650598,
            -73.663583960977
          ],
          [
            198.20783290021745,
            -74.40179802122326
          ],
          [
            198.9459803639289,
            -75.14001208146952
          ],
          [
            200.23775662407826,
            -75.87825327946103
          ],
          [
            200.97592835266215,
            -75.87828946312138
          ],
          [
            201.71410008124602,
            -75.87832564678173
          ],
          [
            202.4522718098299,
            -75.87836183044207
          ],
          [
            203.1904435384138,
            -75.87839801410242
          ],
          [
            204.48222586478124,
            -76.43209474294746
          ],
          [
            205.404934459293,
            -76.61668444166936
          ],
          [
            206.14310618787687,
            -76.6167206253297
          ],
          [
            206.69672891809665,
            -76.80129223222144
          ],
          [
            207.0658087161705,
            -76.9858547931981
          ],
          [
            207.80396831231818,
            -77.3549799151514
          ],
          [
            208.54211577602962,
            -78.09319397539767
          ],
          [
            209.28025717352293,
            -79.0159525047904
          ],
          [
            210.01838643858005,
            -80.30779997247609
          ],
          [
            210.3874359055633,
            -81.41508487918513
          ],
          [
            210.57196670527307,
            -81.78418286339318
          ],
          [
            210.7564975049828,
            -82.15328084760122
          ],
          [
            210.75647324011038,
            -82.89145872418713
          ],
          [
            210.57189997687382,
            -83.81417202400445
          ],
          [
            210.5718757120014,
            -84.55234990059036
          ],
          [
            210.38731458120108,
            -85.1059742621147
          ],
          [
            210.75636404818437,
            -86.21325916882374
          ],
          [
            210.75635798196626,
            -86.39780363797023
          ]
        ]
      },
      "properties": {
        "type": "variant",
        "id": 3,
        "color": "#44ff44",
        "vzdal_m": 696,
        "prevyseni_m": 4,
        "cas_s": 193,
        "tempo_str": "4:38"
      }
    }
  ]
}