{
  "type": "FeatureCollection",
  "features": [
    {
      "type": "Feature",
      "geometry": {
        "type": "Point",
        "coordinates": [
          208.7006900069074,
          -157.49210407284463
        ]
      },
      "properties": {
        "type": "start",
        "isom": "109"
      }
    },
    {
      "type": "Feature",
      "geometry": {
        "type": "Point",
        "coordinates": [
          181.30161864814758,
          -190.6345786498765
        ]
      },
      "properties": {
        "type": "end",
        "isom": "109"
      }
    },
    {
      "type": "Feature",
      "geometry": {
        "type": "LineString",
        "coordinates": [
          [
            208.72405023438776,
            -157.44732475429848
          ],
          [
            208.5394769711512,
            -158.37003805411578
          ],
          [
            208.53945270627878,
            -159.1082159307017
          ],
          [
            208.53942844140633,
            -159.84639380728763
          ],
          [
            208.5394223751882,
            -160.03093827643409
          ],
          [
            208.35486731060604,
            -160.40001816881195
          ],
          [
            208.3548491119517,
            -160.9536515762514
          ],
          [
            208.17029404736945,
            -161.32273146862926
          ],
          [
            208.17026978249706,
            -162.06090934521518
          ],
          [
            208.17025765006082,
            -162.42999828350813
          ],
          [
            207.9857025854786,
            -162.799078175886
          ],
          [
            207.98567832060618,
            -163.53725605247192
          ],
          [
            207.61655605900557,
            -164.6445047755206
          ],
          [
            206.8783418668949,
            -165.93627987588562
          ],
          [
            206.14013374100236,
            -167.04351050710414
          ],
          [
            205.40193168132788,
            -167.96619666917618
          ],
          [
            205.21738268296383,
            -168.15073209240757
          ],
          [
            204.84829075245378,
            -168.3352584697239
          ],
          [
            204.11009475899743,
            -169.07340016264945
          ],
          [
            203.92554576063336,
            -169.25793558588086
          ],
          [
            203.1873376347408,
            -170.3651662170994
          ],
          [
            202.44912950884827,
            -171.47239684831789
          ],
          [
            201.71093351539193,
            -172.21053854124347
          ],
          [
            200.97272538949935,
            -173.317769172462
          ],
          [
            200.6036334589893,
            -173.5022955497783
          ],
          [
            200.6036213265531,
            -173.87138448807127
          ],
          [
            199.86541926687866,
            -174.7940706501433
          ],
          [
            199.12720507476797,
            -176.08584575050833
          ],
          [
            198.9426500101858,
            -176.4549256428862
          ],
          [
            198.38899694887544,
            -177.19307638172683
          ],
          [
            198.20444188429326,
            -177.5621562741047
          ],
          [
            197.46624589083692,
            -178.30029796703028
          ],
          [
            196.91259282952657,
            -179.03844870587093
          ],
          [
            196.3589215695619,
            -180.33023285215103
          ],
          [
            196.35891550334378,
            -180.5147773212975
          ],
          [
            196.17436043876157,
            -180.88385721367536
          ],
          [
            195.98980537417938,
            -181.25293710605322
          ],
          [
            195.8052503095972,
            -181.6220169984311
          ],
          [
            195.62069524501499,
            -181.99109689080896
          ],
          [
            195.4361401804328,
            -182.36017678318686
          ],
          [
            194.67772967253313,
            -183.26927227676907
          ],
          [
            194.07028329619035,
            -184.1057000519475
          ],
          [
            193.8648911004465,
            -184.45348178163005
          ],
          [
            193.34608922494613,
            -185.0654610888093
          ],
          [
            193.09341953296905,
            -185.3649026975234
          ],
          [
            192.34713835184527,
            -186.04699600811313
          ],
          [
            191.63583351519625,
            -186.86767486494693
          ],
          [
            190.8759879488293,
            -187.58512318639023
          ],
          [
            189.54836446228452,
            -188.38229170492033
          ],
          [
            188.48116741680641,
            -188.77595847431212
          ],
          [
            186.93958265241645,
            -189.35052791991282
          ],
          [
            186.16602705513688,
            -189.63588551382998
          ],
          [
            185.78470346167964,
            -189.7899910423504
          ],
          [
            185.40258149633576,
            -190.15875990088622
          ],
          [
            184.28441212195875,
            -190.97734830907117
          ],
          [
            183.25602154654743,
            -191.03316980267564
          ],
          [
            182.3333129520357,
            -190.84858010395374
          ],
          [
            181.41060435752397,
            -190.66399040523186
          ],
          [
            181.226061425378,
            -190.66398135931678
          ]
        ]
      },
      "properties": {
        "type": "variant",
        "id": 1,
        "color": "#ff4444",
        "vzdal_m": 1264,
        "prevyseni_m": 6,
        "cas_s": 345,
        "tempo_str": "4:33"
      }
    },
    {
      "type": "Feature",
      "geometry": {
        "type": "LineString",
        "coordinates": [
          [
            208.72405023438776,
            -157.44732475429848
          ],
          [
            207.98584210849518,
            -158.554555385517
          ],
          [
            206.69401731860094,
            -159.2926699406973
          ],
          [
            205.21764959656073,
            -160.03077544996253
          ],
          [
            204.84855766605068,
            -160.21530182727884
          ],
          [
            204.6640026014685,
            -160.5843817196567
          ],
          [
            204.47944753688625,
            -160.95346161203457
          ],
          [
            203.37217174535616,
            -161.5070407439835
          ],
          [
            203.00307981484607,
            -161.6915671212998
          ],
          [
            202.81853081648197,
            -161.8761025445312
          ],
          [
            202.6339757518998,
            -162.24518243690906
          ],
          [
            202.26485955651728,
            -163.1678866908113
          ],
          [
            202.26483529164483,
            -163.90606456739718
          ],
          [
            201.52661503331606,
            -165.38238413690868
          ],
          [
            201.52660290087985,
            -165.75147307520163
          ],
          [
            200.78838264255108,
            -167.22779264471313
          ],
          [
            200.05018664909474,
            -167.96593433763869
          ],
          [
            199.31197852320219,
            -169.0731649688572
          ],
          [
            199.12742345862,
            -169.44224486123508
          ],
          [
            198.94286839403782,
            -169.81132475361295
          ],
          [
            198.20466026814526,
            -170.91855538483148
          ],
          [
            197.46646427468892,
            -171.65669707775706
          ],
          [
            196.72825008257826,
            -172.94847217812207
          ],
          [
            195.9900480229038,
            -173.87115834019409
          ],
          [
            195.43638889537536,
            -174.79385354818123
          ],
          [
            195.25183383079317,
            -175.1629334405591
          ],
          [
            194.88272976784688,
            -175.71654875616838
          ],
          [
            194.69817470326467,
            -176.08562864854625
          ],
          [
            194.32908277275465,
            -176.27015502586255
          ],
          [
            194.14453377439054,
            -176.45469044909396
          ],
          [
            193.95997870980838,
            -176.82377034147183
          ],
          [
            193.4063377809342,
            -177.1928321420195
          ],
          [
            192.8526665209695,
            -178.48461628829958
          ],
          [
            192.11444626264077,
            -179.96093585781108
          ],
          [
            191.3762442029663,
            -180.88362201988312
          ],
          [
            190.63803607707376,
            -181.99085265110165
          ],
          [
            189.8998218849631,
            -183.28262775146666
          ],
          [
            188.9770829593608,
            -184.02076039847714
          ],
          [
            188.23888696590444,
            -184.75890209140272
          ],
          [
            187.5006788400119,
            -185.86613272262122
          ],
          [
            186.76248891277368,
            -186.4197299464003
          ],
          [
            185.6552070550254,
            -187.15785354749573
          ],
          [
            184.73247419564123,
            -187.71144172535972
          ],
          [
            184.54791913105902,
            -188.0805216177376
          ],
          [
            183.44063727331076,
            -188.81864521883298
          ],
          [
            182.51789834770844,
            -189.55677786584351
          ],
          [
            181.59515942210615,
            -190.29491051285396
          ],
          [
            181.226061425378,
            -190.66398135931678
          ]
        ]
      },
      "properties": {
        "type": "variant",
        "id": 2,
        "color": "#4444ff",
        "vzdal_m": 1207,
        "prevyseni_m": 7,
        "cas_s": 349,
        "tempo_str": "4:48"
      }
    },
    {
      "type": "Feature",
      "geometry": {
        "type": "LineString",
        "coordinates": [
          [
            208.72405023438776,
            -157.44732475429848
          ],
          [
            207.98584210849518,
            -158.554555385517
          ],
          [
            206.69402338481908,
            -159.10812547155084
          ],
          [
            205.77130265787108,
            -159.29262471112187
          ],
          [
            204.66403293255902,
            -159.66165937392432
          ],
          [
            203.3722142088829,
            -160.21522945995815
          ],
          [
            202.634042480299,
            -160.2151932762978
          ],
          [
            201.52676062255074,
            -160.9533168773932
          ],
          [
            200.60403382938466,
            -161.32236058611073
          ],
          [
            199.31220903949043,
            -162.06047514129105
          ],
          [
            198.57400091359787,
            -163.16770577250955
          ],
          [
            198.02035391850563,
            -163.72131204220375
          ],
          [
            197.65126198799558,
            -163.90583841952005
          ],
          [
            196.5439801302473,
            -164.64396202061545
          ],
          [
            195.43669827249906,
            -165.38208562171084
          ],
          [
            195.06760634198898,
            -165.56661199902715
          ],
          [
            194.32941034853266,
            -166.3047536919527
          ],
          [
            193.59120828885818,
            -167.22743985402477
          ],
          [
            192.85298803052945,
            -168.70375942353624
          ],
          [
            192.1147920370731,
            -169.4419011164618
          ],
          [
            191.37659604361676,
            -170.18004280938737
          ],
          [
            190.45385105179633,
            -171.10271992554433
          ],
          [
            189.90017372561354,
            -172.57904854097092
          ],
          [
            189.16195346728477,
            -174.0553681104824
          ],
          [
            189.16192920241232,
            -174.79354598706828
          ],
          [
            189.16190493753987,
            -175.5317238636542
          ],
          [
            188.79278267593926,
            -176.6389725867029
          ],
          [
            188.0545745500467,
            -177.74620321792145
          ],
          [
            187.31636642415415,
            -178.85343384913998
          ],
          [
            186.3936032336794,
            -180.32974437273634
          ],
          [
            185.83995017236904,
            -181.06789511157703
          ],
          [
            185.28628497862246,
            -182.17513478871064
          ],
          [
            184.91716271702185,
            -183.28238351175932
          ],
          [
            184.73258945378532,
            -184.20509681157665
          ],
          [
            184.5480161905488,
            -185.12781011139396
          ],
          [
            184.1788939289482,
            -186.23505883444264
          ],
          [
            183.6252226689835,
            -187.5268429807227
          ],
          [
            182.88700847687284,
            -188.81861808108772
          ],
          [
            182.1488124834165,
            -189.55675977401333
          ],
          [
            181.41061042374207,
            -190.47944593608537
          ],
          [
            181.226061425378,
            -190.66398135931678
          ]
        ]
      },
      "properties": {
        "type": "variant",
        "id": 3,
        "color": "#44ff44",
        "vzdal_m": 1238,
        "prevyseni_m": 9,
        "cas_s": 345,
        "tempo_str": "4:38"
      }
    }
  ]
}