{
  "type": "FeatureCollection",
  "features": [
    {
      "type": "Feature",
      "geometry": {
        "type": "Point",
        "coordinates": [
          15.45792063185342,
          -120.0909142675224
        ]
      },
      "properties": {
        "type": "start",
        "isom": "109"
      }
    },
    {
      "type": "Feature",
      "geometry": {
        "type": "Point",
        "coordinates": [
          30.367545521577195,
          -107.88033758851839
        ]
      },
      "properties": {
        "type": "end",
        "isom": "203"
      }
    },
    {
      "type": "Feature",
      "geometry": {
        "type": "LineString",
        "coordinates": [
          [
            15.426601023093738,
            -120.10561593878778
          ],
          [
            15.14980482352913,
            -119.5519689613413
          ],
          [
            15.334365954329405,
            -118.99834459977937
          ],
          [
            15.33437808676562,
            -118.62925566116887
          ],
          [
            15.334390219201833,
            -118.26016672255837
          ],
          [
            15.426676850820078,
            -117.79881007247215
          ],
          [
            15.6112349485113,
            -117.33745794556282
          ],
          [
            15.980342044566582,
            -116.69157039570207
          ],
          [
            16.349443074403755,
            -116.23022731514656
          ],
          [
            16.718544104240934,
            -115.76888423459106
          ],
          [
            16.90310523504121,
            -115.21525987302911
          ],
          [
            16.903117367477424,
            -114.84617093441861
          ],
          [
            16.903129499913636,
            -114.4770819958081
          ],
          [
            16.90314163234985,
            -114.10799305719762
          ],
          [
            17.087699730041074,
            -113.6466409302883
          ],
          [
            17.456797726769196,
            -113.2775700843854
          ],
          [
            18.01043865564327,
            -112.90850828483636
          ],
          [
            18.564079584517348,
            -112.53944648528727
          ],
          [
            18.93317758124547,
            -112.1703756393844
          ],
          [
            19.302278611082645,
            -111.7090325588289
          ],
          [
            19.763648073883743,
            -111.33996623610292
          ],
          [
            20.501831934903773,
            -110.97091348290766
          ],
          [
            21.147744329850827,
            -110.6018562065355
          ],
          [
            21.609113792651925,
            -110.23278988380953
          ],
          [
            21.978214822489104,
            -109.77144680325402
          ],
          [
            22.531855751363178,
            -109.40238500370496
          ],
          [
            23.085496680237256,
            -109.03332320415589
          ],
          [
            23.731409075184306,
            -108.66426592778372
          ],
          [
            24.192778537985404,
            -108.29519960505776
          ],
          [
            24.561876534713527,
            -107.92612875915489
          ],
          [
            25.300060395733556,
            -107.55707600595963
          ],
          [
            25.94596975757156,
            -107.28029096424008
          ],
          [
            26.499604620227526,
            -107.09577363399626
          ],
          [
            27.053239482883495,
            -106.91125630375245
          ],
          [
            27.422319280957296,
            -107.09581886576531
          ],
          [
            27.975935944958948,
            -107.46493494343726
          ],
          [
            28.62182710814262,
            -107.74178330963348
          ],
          [
            29.17544983836238,
            -107.92635491800014
          ],
          [
            29.63680413561821,
            -108.01864976853732
          ],
          [
            30.098164499092146,
            -107.92640014976921
          ],
          [
            30.374978897311077,
            -107.92641371929993
          ]
        ]
      },
      "properties": {
        "type": "variant",
        "id": 1,
        "color": "#ff4444",
        "vzdal_m": 1235,
        "prevyseni_m": 31,
        "cas_s": 306,
        "tempo_str": "4:07"
      }
    },
    {
      "type": "Feature",
      "geometry": {
        "type": "LineString",
        "coordinates": [
          [
            15.426601023093738,
            -120.10561593878778
          ],
          [
            15.887961386567676,
            -120.01336632001967
          ],
          [
            16.533873781514732,
            -119.64430904364751
          ],
          [
            17.17978314335273,
            -119.36752400192798
          ],
          [
            17.733424072226807,
            -118.9984622023789
          ],
          [
            18.194793535027905,
            -118.62939587965295
          ],
          [
            18.748434463901983,
            -118.26033408010387
          ],
          [
            19.486618324922013,
            -117.89128132690861
          ],
          [
            19.855710255432026,
            -117.70675495031098
          ],
          [
            20.224796119723937,
            -117.7067730430186
          ],
          [
            20.593881984015844,
            -117.70679113572623
          ],
          [
            21.055242347489784,
            -117.61454151695813
          ],
          [
            21.79342620850981,
            -117.24548876376288
          ],
          [
            22.34706713738389,
            -116.8764269642138
          ],
          [
            22.71616513411201,
            -116.50735611831094
          ],
          [
            23.177534596913112,
            -116.13828979558495
          ],
          [
            23.454361127568255,
            -115.76921442650517
          ],
          [
            24.100270489406252,
            -115.49242938478562
          ],
          [
            24.469368486134375,
            -115.12335853888275
          ],
          [
            24.83847558218966,
            -114.477470989022
          ],
          [
            25.115311212171964,
            -113.83157891598434
          ],
          [
            25.48441527511819,
            -113.27796360077622
          ],
          [
            25.761244838882394,
            -112.8166159970438
          ],
          [
            26.130330703174298,
            -112.81663408975142
          ],
          [
            26.59169409975729,
            -112.63211223633068
          ],
          [
            27.0530696287765,
            -112.07850144429948
          ],
          [
            27.05307266188555,
            -111.98622920964685
          ],
          [
            27.145359293503798,
            -111.52487255956063
          ],
          [
            27.514457290231917,
            -111.15580171365774
          ],
          [
            27.883558320069096,
            -110.69445863310224
          ],
          [
            28.344918683543032,
            -110.60220901433414
          ],
          [
            28.71400454783494,
            -110.60222710704177
          ],
          [
            29.267642443599964,
            -110.32543754214532
          ],
          [
            29.636752572764298,
            -109.58727775763194
          ],
          [
            29.821313703564574,
            -109.03365339607001
          ],
          [
            30.190423832728914,
            -108.29549361155661
          ],
          [
            30.374978897311077,
            -107.92641371929993
          ]
        ]
      },
      "properties": {
        "type": "variant",
        "id": 2,
        "color": "#4444ff",
        "vzdal_m": 1116,
        "prevyseni_m": 26,
        "cas_s": 321,
        "tempo_str": "4:47"
      }
    },
    {
      "type": "Feature",
      "geometry": {
        "type": "LineString",
        "coordinates": [
          [
            15.426601023093738,
            -120.10561593878778
          ],
          [
            15.887961386567676,
            -120.01336632001967
          ],
          [
            16.533873781514732,
            -119.64430904364751
          ],
          [
            17.17978314335273,
            -119.36752400192798
          ],
          [
            17.733424072226807,
            -118.9984622023789
          ],
          [
            18.194793535027905,
            -118.62939587965295
          ],
          [
            18.748434463901983,
            -118.26033408010387
          ],
          [
            19.117532460630105,
            -117.89126323420099
          ],
          [
            19.302093591430378,
            -117.33763887263903
          ],
          [
            19.4866516891216,
            -116.87628674572973
          ],
          [
            19.855749685849723,
            -116.50721589982686
          ],
          [
            20.501662080796777,
            -116.13815862345469
          ],
          [
            20.870763110633952,
            -115.67681554289919
          ],
          [
            21.239861107362074,
            -115.3077446969963
          ],
          [
            21.332135606544103,
            -115.21547698552058
          ],
          [
            21.701233603272225,
            -114.84640613961771
          ],
          [
            22.070337666218457,
            -114.29279082440956
          ],
          [
            22.439444762273737,
            -113.64690327454882
          ],
          [
            22.900817258183892,
            -113.18556471717021
          ],
          [
            23.177640755729982,
            -112.90876158274307
          ],
          [
            23.546747851785266,
            -112.26287403288231
          ],
          [
            24.10038878065934,
            -111.89381223333324
          ],
          [
            24.654029709533418,
            -111.52475043378416
          ],
          [
            25.207670638407492,
            -111.1556886342351
          ],
          [
            25.76131156728157,
            -110.78662683468603
          ],
          [
            26.222681030082665,
            -110.41756051196008
          ],
          [
            26.49951362695592,
            -109.86394067357502
          ],
          [
            26.776349256938225,
            -109.21804860053737
          ],
          [
            26.960901288411343,
            -108.9412409429333
          ],
          [
            27.422267718103388,
            -108.66444685485995
          ],
          [
            27.883628081577324,
            -108.57219723609185
          ],
          [
            28.2527291114145,
            -108.11085415553634
          ],
          [
            28.714092507997492,
            -107.92633230211563
          ],
          [
            29.0831783722894,
            -107.92635039482326
          ],
          [
            29.54453266954523,
            -108.0186452453604
          ],
          [
            30.005893033019174,
            -107.92639562659232
          ],
          [
            30.374978897311077,
            -107.92641371929993
          ]
        ]
      },
      "properties": {
        "type": "variant",
        "id": 3,
        "color": "#44ff44",
        "vzdal_m": 1103,
        "prevyseni_m": 26,
        "cas_s": 320,
        "tempo_str": "4:49"
      }
    }
  ]
}