{
  "type": "FeatureCollection",
  "features": [
    {
      "type": "Feature",
      "geometry": {
        "type": "Point",
        "coordinates": [
          104.45786436578355,
          -28.603665378461823
        ]
      },
      "properties": {
        "type": "start",
        "isom": "109"
      }
    },
    {
      "type": "Feature",
      "geometry": {
        "type": "Point",
        "coordinates": [
          83.94760908314434,
          -44.509839605496644
        ]
      },
      "properties": {
        "type": "end",
        "isom": "111"
      }
    },
    {
      "type": "Feature",
      "geometry": {
        "type": "LineString",
        "coordinates": [
          [
            104.47157462769765,
            -28.57592402909729
          ],
          [
            104.10248876340576,
            -28.57590593638967
          ],
          [
            103.73340289911384,
            -28.575887843682047
          ],
          [
            103.272048601858,
            -28.483592993144892
          ],
          [
            102.8883987252313,
            -28.45639669040271
          ],
          [
            102.5083037213899,
            -28.64109900015639
          ],
          [
            102.00507701178792,
            -29.072833365899847
          ],
          [
            101.25806589687197,
            -29.443599513100278
          ],
          [
            100.85796952813493,
            -29.663595442976078
          ],
          [
            100.47412779899794,
            -30.144011027468125
          ],
          [
            100.43666389268355,
            -30.693504851998103
          ],
          [
            100.2275261256767,
            -31.25184837074979
          ],
          [
            100.16320134969904,
            -31.436788323635824
          ],
          [
            99.65745331361234,
            -31.7718500361703
          ],
          [
            99.04479664604156,
            -32.11081060199345
          ],
          [
            98.38296724699883,
            -32.45687510240115
          ],
          [
            97.92779573218105,
            -32.59074125888559
          ],
          [
            97.56681582311715,
            -32.64618959157002
          ],
          [
            97.09061737275744,
            -32.649346287428195
          ],
          [
            96.7296260056819,
            -32.67950478231765
          ],
          [
            96.1509851039468,
            -32.86826553037613
          ],
          [
            95.80749352128501,
            -33.37941233989835
          ],
          [
            95.42366726251393,
            -33.72872290395047
          ],
          [
            95.01979806273248,
            -34.25469509126982
          ],
          [
            94.6821360025316,
            -34.9372931738356
          ],
          [
            94.51972580800019,
            -35.49825681259179
          ],
          [
            94.45194615655947,
            -35.78180965631789
          ],
          [
            94.13692777879994,
            -35.957196205493894
          ],
          [
            93.675567415326,
            -36.049445824261994
          ],
          [
            93.02965805348799,
            -36.32623086598153
          ],
          [
            92.93738355430597,
            -36.41849857745725
          ],
          [
            92.84510602201489,
            -36.60303852358559
          ],
          [
            92.56827645825068,
            -37.064386127318
          ],
          [
            92.0146355293766,
            -37.43344792686707
          ],
          [
            91.59268244696969,
            -37.869627873007765
          ],
          [
            91.24419896916206,
            -38.16011162522591
          ],
          [
            90.90734153919225,
            -38.54066046457571
          ],
          [
            90.44124991131623,
            -38.90435421268822
          ],
          [
            89.9849303943928,
            -39.236037264956906
          ],
          [
            89.71207762761091,
            -39.649905281787184
          ],
          [
            89.19641908926921,
            -40.080361910197404
          ],
          [
            88.69960164657799,
            -40.16257918681587
          ],
          [
            87.96917886794117,
            -40.503896229632375
          ],
          [
            87.2273847903727,
            -40.87661230297052
          ],
          [
            86.8473090718187,
            -41.216356249718
          ],
          [
            86.47821107509058,
            -41.58542709562088
          ],
          [
            86.1091100452534,
            -42.04677017617638
          ],
          [
            85.74000901541622,
            -42.50811325673189
          ],
          [
            85.37091101868812,
            -42.877184102634764
          ],
          [
            85.00181302195999,
            -43.24625494853764
          ],
          [
            84.63271502523186,
            -43.61532579444052
          ],
          [
            84.26361399539469,
            -44.076668874996024
          ],
          [
            83.9867844316305,
            -44.53801647872844
          ]
        ]
      },
      "properties": {
        "type": "variant",
        "id": 1,
        "color": "#ff4444",
        "vzdal_m": 1494,
        "prevyseni_m": 24,
        "cas_s": 391,
        "tempo_str": "4:21"
      }
    },
    {
      "type": "Feature",
      "geometry": {
        "type": "LineString",
        "coordinates": [
          [
            104.47157462769765,
            -28.57592402909729
          ],
          [
            104.28702259622453,
            -28.852731686701357
          ],
          [
            104.13304212597944,
            -29.415276032883597
          ],
          [
            103.45654907047722,
            -29.77541332463546
          ],
          [
            102.71836520945718,
            -30.144466077830717
          ],
          [
            102.0724558476192,
            -30.421251119550256
          ],
          [
            101.61109548414524,
            -30.513500738318353
          ],
          [
            101.08194770735413,
            -30.818218069643873
          ],
          [
            100.51616955943335,
            -30.90621804166822
          ],
          [
            100.14175426856231,
            -31.54242622152366
          ],
          [
            99.47016579022375,
            -31.861932937339045
          ],
          [
            98.86864380947299,
            -32.21698079926429
          ],
          [
            98.18860511076348,
            -32.51855099772052
          ],
          [
            97.83732972083386,
            -32.604767015132104
          ],
          [
            97.44196666924759,
            -32.64151027443608
          ],
          [
            96.99873097306016,
            -32.655291644346626
          ],
          [
            96.6417396979332,
            -32.70441932480221
          ],
          [
            96.1509851039468,
            -32.86826553037613
          ],
          [
            95.80749352128501,
            -33.37941233989835
          ],
          [
            95.42366726251393,
            -33.72872290395047
          ],
          [
            94.93840428609072,
            -34.14027099742791
          ],
          [
            94.41379980609088,
            -34.20403731662473
          ],
          [
            94.04471394179897,
            -34.20401922391711
          ],
          [
            93.67562807750707,
            -34.20400113120949
          ],
          [
            93.21426771403314,
            -34.29625074997758
          ],
          [
            93.02972478188718,
            -34.29624170362377
          ],
          [
            92.760522790578,
            -34.35766931783244
          ],
          [
            92.2915378877581,
            -34.75756669147165
          ],
          [
            91.73789695888402,
            -35.12662849102072
          ],
          [
            90.99971309786399,
            -35.49568124421598
          ],
          [
            90.67408807928604,
            -36.08348078726447
          ],
          [
            90.26151103818964,
            -36.41836740532698
          ],
          [
            90.26150800508059,
            -36.51063963997961
          ],
          [
            89.89241000835246,
            -36.87971048588249
          ],
          [
            89.7078549437703,
            -37.24879037813918
          ],
          [
            89.15421401489621,
            -37.61785217768825
          ],
          [
            88.7851160181681,
            -37.986923023591125
          ],
          [
            88.41601802143997,
            -38.35599386949401
          ],
          [
            88.04691395849375,
            -38.909609184702134
          ],
          [
            87.86236192702063,
            -39.1864168423062
          ],
          [
            87.67781596176562,
            -39.27868003060501
          ],
          [
            87.49326999651062,
            -39.370943218903825
          ],
          [
            87.03190053370952,
            -39.7400095416298
          ],
          [
            86.66279950387234,
            -40.20135262218531
          ],
          [
            86.28777748708319,
            -40.967739326563226
          ],
          [
            85.92457924554367,
            -41.67767219121207
          ],
          [
            85.55547214948838,
            -42.32355974107283
          ],
          [
            85.18637111965121,
            -42.78490282162833
          ],
          [
            84.81726705670498,
            -43.338518136836456
          ],
          [
            84.44816602686781,
            -43.799861217391964
          ],
          [
            84.07906196392157,
            -44.35347653260009
          ],
          [
            83.9867844316305,
            -44.53801647872844
          ]
        ]
      },
      "properties": {
        "type": "variant",
        "id": 2,
        "color": "#4444ff",
        "vzdal_m": 1491,
        "prevyseni_m": 19,
        "cas_s": 385,
        "tempo_str": "4:18"
      }
    }
  ]
}