{
  "type": "FeatureCollection",
  "features": [
    {
      "type": "Feature",
      "geometry": {
        "type": "Point",
        "coordinates": [
          103.10302812038218,
          -65.53057824249868
        ]
      },
      "properties": {
        "type": "start",
        "isom": "109"
      }
    },
    {
      "type": "Feature",
      "geometry": {
        "type": "Point",
        "coordinates": [
          104.0566059929319,
          -86.63199327496453
        ]
      },
      "properties": {
        "type": "end",
        "isom": "115"
      }
    },
    {
      "type": "Feature",
      "geometry": {
        "type": "LineString",
        "coordinates": [
          [
            103.08628939298158,
            -65.48475004249387
          ],
          [
            103.36308862565527,
            -65.94612478528771
          ],
          [
            103.75099088321292,
            -66.41795761823793
          ],
          [
            103.91668102478447,
            -67.05341874018065
          ],
          [
            104.28574262420395,
            -67.79161471010927
          ],
          [
            104.47026735769559,
            -68.34525716437884
          ],
          [
            104.65479209118722,
            -68.8988996186484
          ],
          [
            105.02385672371575,
            -69.5448233539244
          ],
          [
            105.39291832313523,
            -70.28301932385303
          ],
          [
            105.57744305662686,
            -70.83666177812259
          ],
          [
            105.66969935715457,
            -71.29802747456262
          ],
          [
            105.76195565768228,
            -71.75939317100266
          ],
          [
            106.03874882413784,
            -72.40531238310174
          ],
          [
            106.03873669170162,
            -72.77440132171225
          ],
          [
            106.13099299222932,
            -73.23576701815229
          ],
          [
            106.13098085979311,
            -73.60485595676278
          ],
          [
            106.13096872735692,
            -73.97394489537328
          ],
          [
            106.22322502788462,
            -74.43531059181332
          ],
          [
            106.2232128954484,
            -74.80439953042382
          ],
          [
            106.3154691959761,
            -75.26576522686385
          ],
          [
            106.49999392946775,
            -75.81940768113341
          ],
          [
            106.68451866295938,
            -76.37305013540298
          ],
          [
            106.80899257166422,
            -76.84057600130681
          ],
          [
            106.73437028821726,
            -77.16342089044154
          ],
          [
            106.70798451566512,
            -77.66582867746638
          ],
          [
            106.70422123846484,
            -78.03740104105198
          ],
          [
            106.67498947830674,
            -78.32983503048143
          ],
          [
            106.50676091208759,
            -78.77494691996357
          ],
          [
            106.2817939009448,
            -79.31624333594914
          ],
          [
            106.14801451929024,
            -79.87882890685682
          ],
          [
            106.1668797176231,
            -80.2484586222306
          ],
          [
            106.13288049246607,
            -80.58647051349342
          ],
          [
            106.11685520761344,
            -81.03474702156284
          ],
          [
            106.1496320247793,
            -81.35773931834463
          ],
          [
            106.14142362299182,
            -81.72672263554314
          ],
          [
            106.07482877075401,
            -82.1003830136763
          ],
          [
            105.96699872799226,
            -82.55454092059097
          ],
          [
            105.9280973210055,
            -82.94600052228832
          ],
          [
            105.9700554075468,
            -83.33759920152352
          ],
          [
            105.86479202963758,
            -83.72513396655454
          ],
          [
            105.57700325581412,
            -84.21613580275327
          ],
          [
            105.20789919286787,
            -84.7697511179614
          ],
          [
            104.83878906370354,
            -85.50791090247478
          ],
          [
            104.4634720073426,
            -86.10153130944028
          ],
          [
            104.10058093781107,
            -86.61514153289104
          ]
        ]
      },
      "properties": {
        "type": "variant",
        "id": 1,
        "color": "#ff4444",
        "vzdal_m": 1220,
        "prevyseni_m": 0,
        "cas_s": 292,
        "tempo_str": "3:59"
      }
    },
    {
      "type": "Feature",
      "geometry": {
        "type": "LineString",
        "coordinates": [
          [
            103.08628939298158,
            -65.48475004249387
          ],
          [
            103.17854569350929,
            -65.9461157389339
          ],
          [
            103.17853167249544,
            -66.37265835850381
          ],
          [
            103.17852142863688,
            -66.6842936161549
          ],
          [
            103.17850929620066,
            -67.0533825547654
          ],
          [
            103.27076559672837,
            -67.51474825120545
          ],
          [
            103.27075346429216,
            -67.88383718981594
          ],
          [
            103.27074133185594,
            -68.25292612842644
          ],
          [
            103.15958270903444,
            -68.79559730200369
          ],
          [
            103.45525089980231,
            -69.26792975595913
          ],
          [
            103.84277764675043,
            -69.78071111576648
          ],
          [
            104.00884633204056,
            -70.28295147619944
          ],
          [
            104.00883419960437,
            -70.65204041480995
          ],
          [
            104.00882206716815,
            -71.02112935342045
          ],
          [
            104.00880993473194,
            -71.39021829203095
          ],
          [
            104.00879780229572,
            -71.75930723064145
          ],
          [
            104.0087856698595,
            -72.12839616925196
          ],
          [
            104.00877353742331,
            -72.49748510786245
          ],
          [
            104.00876140498707,
            -72.86657404647295
          ],
          [
            104.19328613847873,
            -73.42021650074253
          ],
          [
            104.19327400604249,
            -73.78930543935303
          ],
          [
            104.10098737442425,
            -74.25066208943925
          ],
          [
            104.10097524198805,
            -74.61975102804975
          ],
          [
            104.10096310955181,
            -74.98883996666025
          ],
          [
            104.10095097711562,
            -75.35792890527075
          ],
          [
            104.1009388446794,
            -75.72701784388124
          ],
          [
            104.10092671224318,
            -76.09610678249174
          ],
          [
            104.10091457980697,
            -76.46519572110225
          ],
          [
            104.14100977454515,
            -76.61110675826134
          ],
          [
            103.63817215758591,
            -76.92407595112583
          ],
          [
            103.4549900524237,
            -77.20334193608491
          ],
          [
            103.45497791998748,
            -77.57243087469541
          ],
          [
            103.5472342205152,
            -78.03379657113545
          ],
          [
            103.91629581993467,
            -78.77199254106407
          ],
          [
            103.91628368749845,
            -79.14108147967457
          ],
          [
            103.91627155506224,
            -79.51017041828507
          ],
          [
            104.00852785558996,
            -79.97153611472511
          ],
          [
            104.19305258908157,
            -80.52517856899468
          ],
          [
            104.28531798893646,
            -80.70972756147683
          ],
          [
            104.28530585650026,
            -81.07881650008733
          ],
          [
            104.37756215702797,
            -81.54018219652737
          ],
          [
            104.3344199642182,
            -81.83942720077731
          ],
          [
            104.46980632511945,
            -82.3706368315779
          ],
          [
            104.46979419268324,
            -82.7397257701884
          ],
          [
            104.65431892617487,
            -83.29336822445796
          ],
          [
            104.65430679373866,
            -83.66245716306847
          ],
          [
            104.65429466130244,
            -84.03154610167897
          ],
          [
            104.65428252886622,
            -84.40063504028947
          ],
          [
            104.65427039643001,
            -84.76972397889998
          ],
          [
            104.65425826399381,
            -85.13881291751048
          ],
          [
            104.74651759763057,
            -85.50790637929788
          ],
          [
            104.74651456452152,
            -85.6001786139505
          ],
          [
            104.38736308952322,
            -86.08970981261379
          ],
          [
            104.10058093781107,
            -86.61514153289104
          ]
        ]
      },
      "properties": {
        "type": "variant",
        "id": 2,
        "color": "#4444ff",
        "vzdal_m": 1197,
        "prevyseni_m": 0,
        "cas_s": 297,
        "tempo_str": "4:08"
      }
    },
    {
      "type": "Feature",
      "geometry": {
        "type": "LineString",
        "coordinates": [
          [
            103.08628939298158,
            -65.48475004249387
          ],
          [
            102.90172826218132,
            -66.0383744040558
          ],
          [
            102.62489263219902,
            -66.68426647709347
          ],
          [
            102.25578250303467,
            -67.42242626160684
          ],
          [
            101.97894687305237,
            -68.0683183346445
          ],
          [
            101.78787583945618,
            -68.55279855199352
          ],
          [
            101.79437360981586,
            -68.99103163481695
          ],
          [
            101.79436147737967,
            -69.36012057342745
          ],
          [
            101.70206877954331,
            -70.00602169281892
          ],
          [
            101.53301322132042,
            -70.60902071052757
          ],
          [
            101.24067201876075,
            -71.20553812741852
          ],
          [
            101.14838538714248,
            -71.66689477750475
          ],
          [
            101.14837325470627,
            -72.03598371611525
          ],
          [
            101.05608662308804,
            -72.49734036620147
          ],
          [
            100.77925099310572,
            -73.14323243923913
          ],
          [
            100.77923886066951,
            -73.51232137784963
          ],
          [
            100.68695222905127,
            -73.97367802793585
          ],
          [
            100.2557850110976,
            -74.6354937109809
          ],
          [
            100.35825101172608,
            -75.09256292672826
          ],
          [
            100.45378612374863,
            -75.54312665799095
          ],
          [
            100.50838431266581,
            -75.91024673272297
          ],
          [
            100.7574435999155,
            -76.59721401181568
          ],
          [
            101.17141321453147,
            -76.88144479043342
          ],
          [
            101.14820036749022,
            -77.29550109131489
          ],
          [
            101.14818823505401,
            -77.66459002992539
          ],
          [
            101.1481761026178,
            -78.0336789685359
          ],
          [
            101.34099168189054,
            -78.56287598903516
          ],
          [
            101.30149203169802,
            -78.93479796536914
          ],
          [
            101.71388354027553,
            -79.60748043232125
          ],
          [
            101.4412885367345,
            -80.25788363565792
          ],
          [
            101.16851774384024,
            -80.79957423309877
          ],
          [
            101.1961541403395,
            -81.17760604455523
          ],
          [
            101.14920583895741,
            -81.63204105876031
          ],
          [
            101.13948990605435,
            -81.99949187573212
          ],
          [
            101.41389765558351,
            -82.64681045195401
          ],
          [
            101.60936357887569,
            -83.20094672496745
          ],
          [
            101.97843731073137,
            -83.57005375628557
          ],
          [
            102.255233510296,
            -84.12370073373205
          ],
          [
            102.3474898108237,
            -84.58506643017208
          ],
          [
            102.49552553293877,
            -85.0987147058203
          ],
          [
            102.99414004054613,
            -85.4139938012425
          ],
          [
            103.42413962432221,
            -85.81323238133417
          ],
          [
            103.82378170513742,
            -86.1537667900972
          ],
          [
            104.10058093781107,
            -86.61514153289104
          ]
        ]
      },
      "properties": {
        "type": "variant",
        "id": 3,
        "color": "#44ff44",
        "vzdal_m": 1254,
        "prevyseni_m": 0,
        "cas_s": 304,
        "tempo_str": "4:02"
      }
    }
  ]
}