{
  "type": "FeatureCollection",
  "features": [
    {
      "type": "Feature",
      "geometry": {
        "type": "Point",
        "coordinates": [
          82.67820850220392,
          -50.31621395768621
        ]
      },
      "properties": {
        "type": "start",
        "isom": "204"
      }
    },
    {
      "type": "Feature",
      "geometry": {
        "type": "Point",
        "coordinates": [
          78.54043361548604,
          -74.65644419984851
        ]
      },
      "properties": {
        "type": "end",
        "isom": "204"
      }
    },
    {
      "type": "Feature",
      "geometry": {
        "type": "LineString",
        "coordinates": [
          [
            82.62654052114394,
            -50.37118567317297
          ],
          [
            83.36467442364366,
            -51.84763523407192
          ],
          [
            83.5492078992686,
            -52.216747624296666
          ],
          [
            83.5491934979885,
            -52.58585416098114
          ],
          [
            83.54918629734846,
            -52.77040742932338
          ],
          [
            84.1027795235832,
            -54.06229786833985
          ],
          [
            84.28731299920813,
            -54.431410258564576
          ],
          [
            84.47184647483307,
            -54.80052264878932
          ],
          [
            84.47183927419302,
            -54.98507591713156
          ],
          [
            84.65637274981795,
            -55.3541883073563
          ],
          [
            84.84088462352273,
            -56.27696050260776
          ],
          [
            84.84085582096255,
            -57.0151735759767
          ],
          [
            84.65627194085727,
            -57.93793406414761
          ],
          [
            83.91803722939686,
            -59.045230260039965
          ],
          [
            83.54890547238655,
            -59.967984894670614
          ],
          [
            83.36434319420142,
            -60.33708557781482
          ],
          [
            83.1797809160163,
            -60.70618626095903
          ],
          [
            82.99521863783117,
            -61.07528694410323
          ],
          [
            82.25696952509067,
            -62.55168967668006
          ],
          [
            81.88783056744032,
            -63.65899757965294
          ],
          [
            81.14961432052846,
            -64.58174050756033
          ],
          [
            80.22684613344312,
            -65.31992431322794
          ],
          [
            79.11952286881271,
            -66.24265553369753
          ],
          [
            78.19675468172737,
            -66.98083933936513
          ],
          [
            77.27398649464202,
            -67.71902314503275
          ],
          [
            76.72029966008665,
            -68.82632519446535
          ],
          [
            76.72027085752646,
            -69.56453826783431
          ],
          [
            76.7202492556063,
            -70.11819807286102
          ],
          [
            76.90478273123124,
            -70.48731046308576
          ],
          [
            76.90477553059118,
            -70.67186373142799
          ],
          [
            77.08930900621613,
            -71.04097612165273
          ],
          [
            77.08930180557607,
            -71.22552938999497
          ],
          [
            77.273835281201,
            -71.59464178021972
          ],
          [
            77.82742850743576,
            -72.88653221923617
          ],
          [
            78.19648105740552,
            -73.99386353637013
          ],
          [
            78.56554800865538,
            -74.73208831681961
          ]
        ]
      },
      "properties": {
        "type": "variant",
        "id": 1,
        "color": "#ff4444",
        "vzdal_m": 763,
        "prevyseni_m": 14,
        "cas_s": 240,
        "tempo_str": "5:15"
      }
    },
    {
      "type": "Feature",
      "geometry": {
        "type": "LineString",
        "coordinates": [
          [
            82.62654052114394,
            -50.37118567317297
          ],
          [
            83.36467442364366,
            -51.84763523407192
          ],
          [
            83.18011214545854,
            -52.21673591721614
          ],
          [
            82.99554266663337,
            -52.77038986870258
          ],
          [
            82.81098038844824,
            -53.139490551846784
          ],
          [
            82.44185583207798,
            -53.87769191813519
          ],
          [
            82.44184863143794,
            -54.062245186477426
          ],
          [
            82.4418414307979,
            -54.24679845481967
          ],
          [
            82.44183423015784,
            -54.4313517231619
          ],
          [
            82.4418270295178,
            -54.61590499150414
          ],
          [
            82.25726475133267,
            -54.985005674648356
          ],
          [
            82.4417982269576,
            -55.354118064873084
          ],
          [
            82.44178382567749,
            -55.72322460155756
          ],
          [
            82.25722154749236,
            -56.09232528470177
          ],
          [
            82.07264486802715,
            -56.83053250453045
          ],
          [
            82.25716394237199,
            -57.568751431439665
          ],
          [
            82.25713513981178,
            -58.30696450480862
          ],
          [
            82.2571063372516,
            -59.045177578177565
          ],
          [
            82.2570775346914,
            -59.78339065154651
          ],
          [
            82.44158940839618,
            -60.70616284679795
          ],
          [
            82.25702713021106,
            -61.07526352994217
          ],
          [
            82.25699832765086,
            -61.813476603311116
          ],
          [
            82.25696952509067,
            -62.55168967668006
          ],
          [
            82.25694072253047,
            -63.28990275004901
          ],
          [
            82.07237844434535,
            -63.65900343319321
          ],
          [
            81.88781616616022,
            -64.02810411633742
          ],
          [
            81.703239486695,
            -64.7663113361661
          ],
          [
            81.7032106841348,
            -65.50452440953504
          ],
          [
            81.51862680402954,
            -66.42728489770596
          ],
          [
            81.33405418783276,
            -67.35004538623414
          ],
          [
            81.1494703077275,
            -68.27280587440507
          ],
          [
            80.96488642762222,
            -69.19556636257597
          ],
          [
            80.96485762506202,
            -69.93377943594493
          ],
          [
            80.2266085123215,
            -71.41018216852176
          ],
          [
            80.41112758666635,
            -72.14840109543097
          ],
          [
            80.4111059847462,
            -72.70206090045768
          ],
          [
            80.22655090720113,
            -72.88660831525965
          ],
          [
            80.04199582965605,
            -73.07115573006162
          ],
          [
            79.85744795275102,
            -73.07114987652135
          ],
          [
            79.48834499830092,
            -73.25569143778306
          ],
          [
            79.1192420438508,
            -73.44023299904475
          ],
          [
            78.56554800865538,
            -74.73208831681961
          ]
        ]
      },
      "properties": {
        "type": "variant",
        "id": 2,
        "color": "#4444ff",
        "vzdal_m": 712,
        "prevyseni_m": 30,
        "cas_s": 254,
        "tempo_str": "5:56"
      }
    },
    {
      "type": "Feature",
      "geometry": {
        "type": "LineString",
        "coordinates": [
          [
            82.62654052114394,
            -50.37118567317297
          ],
          [
            81.88833461224372,
            -50.740268795696366
          ],
          [
            81.7037723340586,
            -51.10936947884057
          ],
          [
            80.9655632877868,
            -51.84755913840572
          ],
          [
            81.15007516149159,
            -52.770331333657175
          ],
          [
            80.96551288330645,
            -53.13943201680138
          ],
          [
            81.5190948456327,
            -54.431322455460574
          ],
          [
            81.70362112061758,
            -54.984988114027544
          ],
          [
            81.51905884243246,
            -55.35408879717176
          ],
          [
            80.78084979616064,
            -56.092278456736906
          ],
          [
            80.04261508470024,
            -57.19957465262925
          ],
          [
            79.858038405235,
            -57.93778187245794
          ],
          [
            79.67346892640984,
            -58.49143582394438
          ],
          [
            79.11979649313456,
            -59.22963133669253
          ],
          [
            78.56611685921924,
            -60.152380117782904
          ],
          [
            78.3815545810341,
            -60.52148080092711
          ],
          [
            78.19699230284897,
            -60.89058148407132
          ],
          [
            77.64329826765355,
            -62.18243680184617
          ],
          [
            76.90507075683318,
            -63.10517972939628
          ],
          [
            76.16685044665287,
            -63.84336938860417
          ],
          [
            75.42860133391237,
            -65.31977212118099
          ],
          [
            75.05946237626202,
            -66.42708002415387
          ],
          [
            74.87490009807689,
            -66.79618070729808
          ],
          [
            74.69030181669152,
            -68.08804773215347
          ],
          [
            74.69027301413132,
            -68.82626080552242
          ],
          [
            75.24385903972602,
            -70.30270451288112
          ],
          [
            75.79748826916101,
            -70.67182861018638
          ],
          [
            75.98202174478594,
            -71.04094100041112
          ],
          [
            76.72018444984587,
            -71.77917748794114
          ],
          [
            77.4583327536257,
            -72.88652051215563
          ],
          [
            78.19646665612541,
            -74.36297007305461
          ],
          [
            78.56554800865538,
            -74.73208831681961
          ]
        ]
      },
      "properties": {
        "type": "variant",
        "id": 3,
        "color": "#44ff44",
        "vzdal_m": 777,
        "prevyseni_m": 24,
        "cas_s": 249,
        "tempo_str": "5:20"
      }
    }
  ]
}