{
  "type": "FeatureCollection",
  "features": [
    {
      "type": "Feature",
      "geometry": {
        "type": "Point",
        "coordinates": [
          138.09395239269577,
          -209.78448573779886
        ]
      },
      "properties": {
        "type": "start",
        "isom": "417"
      }
    },
    {
      "type": "Feature",
      "geometry": {
        "type": "Point",
        "coordinates": [
          188.22603607520023,
          -168.25373390537206
        ]
      },
      "properties": {
        "type": "end",
        "isom": "109"
      }
    },
    {
      "type": "Feature",
      "geometry": {
        "type": "LineString",
        "coordinates": [
          [
            138.04238441653717,
            -209.85448940642033
          ],
          [
            138.78055007890293,
            -210.03907005922713
          ],
          [
            139.51872787370493,
            -209.854561773741
          ],
          [
            140.25689960228883,
            -209.85459795740135
          ],
          [
            140.81052839872675,
            -209.85462509514662
          ],
          [
            141.73324305945658,
            -209.85467032472204
          ],
          [
            142.65596378640456,
            -209.670171085151
          ],
          [
            143.39414158120653,
            -209.48566279966485
          ],
          [
            143.57869057957063,
            -209.3011273764335
          ],
          [
            144.13232544222666,
            -209.11661004503227
          ],
          [
            144.87049717081052,
            -209.11664622869262
          ],
          [
            145.60866889939442,
            -209.11668241235293
          ],
          [
            146.16229769583234,
            -209.11670955009822
          ],
          [
            146.5313956925605,
            -208.7476387036354
          ],
          [
            146.71593862470647,
            -208.7476477495505
          ],
          [
            147.08503055521652,
            -208.5631213722342
          ],
          [
            148.56139693872112,
            -207.865736348192
          ],
          [
            149.2982942115797,
            -207.8679316399558
          ],
          [
            150.0358137716453,
            -207.88988728328107
          ],
          [
            150.77333333171094,
            -207.91184292660628
          ],
          [
            151.5045485162623,
            -207.9422786760745
          ],
          [
            152.23785993293833,
            -208.00200341698203
          ],
          [
            153.17499584577848,
            -207.08706413426023
          ],
          [
            154.46682063567272,
            -206.3489495790799
          ],
          [
            156.1277312898589,
            -205.61085311572978
          ],
          [
            157.604092945681,
            -205.057292075611
          ],
          [
            158.89592380179334,
            -204.13463305128423
          ],
          [
            159.44958292932182,
            -203.21193784329714
          ],
          [
            160.37232792114224,
            -202.28926072714015
          ],
          [
            161.11051784838045,
            -201.73566350336108
          ],
          [
            161.848725974273,
            -200.62843287214253
          ],
          [
            162.40237903558335,
            -199.8902821333019
          ],
          [
            163.32511796118567,
            -199.1521494862914
          ],
          [
            164.06330788842388,
            -198.5985522625123
          ],
          [
            164.80150994809833,
            -197.67586610044026
          ],
          [
            165.3551630094087,
            -196.93771536159957
          ],
          [
            166.277901935011,
            -196.19958271458913
          ],
          [
            167.01609792846733,
            -195.46144102166355
          ],
          [
            167.75429392192365,
            -194.723299328738
          ],
          [
            168.49249598159807,
            -193.80061316666595
          ],
          [
            169.23069804127252,
            -192.87792700459391
          ],
          [
            169.96889403472886,
            -192.1397853116683
          ],
          [
            171.2607188246231,
            -191.401670756488
          ],
          [
            171.44527388920528,
            -191.03259086411015
          ],
          [
            171.81438401836968,
            -190.2944310793544
          ],
          [
            171.9989390829519,
            -189.92535118697654
          ],
          [
            172.73715327506255,
            -188.6335760866115
          ],
          [
            173.4753674671732,
            -187.3418009862465
          ],
          [
            174.21357559306574,
            -186.23457035502796
          ],
          [
            175.13630845244992,
            -185.68098217716397
          ],
          [
            175.87451051212437,
            -184.75829601509193
          ],
          [
            176.61270650558072,
            -184.02015432216638
          ],
          [
            177.35090249903706,
            -183.2820126292408
          ],
          [
            178.08910455871148,
            -182.35932646716873
          ],
          [
            179.01184348431377,
            -181.62119382015825
          ],
          [
            179.75006374264254,
            -180.14487425064678
          ],
          [
            180.48825973609888,
            -179.40673255772123
          ],
          [
            181.22646786199144,
            -178.29950192650267
          ],
          [
            181.9646820541021,
            -177.00772682613768
          ],
          [
            182.70289624621276,
            -175.71595172577267
          ],
          [
            183.44111043832342,
            -174.42417662540765
          ],
          [
            184.17932463043408,
            -173.13240152504267
          ],
          [
            184.91753882254474,
            -171.84062642467765
          ],
          [
            185.6557408822192,
            -170.9179402626056
          ],
          [
            186.39393687567554,
            -170.17979856968003
          ],
          [
            187.13213286913185,
            -169.44165687675448
          ],
          [
            187.8703288625882,
            -168.7035151838289
          ],
          [
            188.23942685931635,
            -168.33444433736614
          ]
        ]
      },
      "properties": {
        "type": "variant",
        "id": 1,
        "color": "#ff4444",
        "vzdal_m": 1878,
        "prevyseni_m": 50,
        "cas_s": 592,
        "tempo_str": "5:15"
      }
    },
    {
      "type": "Feature",
      "geometry": {
        "type": "LineString",
        "coordinates": [
          [
            138.04238441653717,
            -209.85448940642033
          ],
          [
            138.78055007890293,
            -210.03907005922713
          ],
          [
            139.703276872069,
            -209.67002635050963
          ],
          [
            140.8105708622535,
            -208.56281381112126
          ],
          [
            141.54876685570983,
            -207.8246721181957
          ],
          [
            142.6900273045691,
            -207.11189838515986
          ],
          [
            143.39602916497535,
            -207.26262813862618
          ],
          [
            144.14026335190627,
            -207.41730585196166
          ],
          [
            145.06201953211155,
            -207.60653528626744
          ],
          [
            145.7821629518844,
            -207.72205794837947
          ],
          [
            146.71599322066947,
            -207.0867475272322
          ],
          [
            147.08508515117953,
            -206.9022211499159
          ],
          [
            147.45417708168958,
            -206.7176947725996
          ],
          [
            147.82326901219963,
            -206.53316839528327
          ],
          [
            148.93055086994792,
            -205.79504479418787
          ],
          [
            150.40691859198813,
            -205.0569392849227
          ],
          [
            151.88328631402834,
            -204.31883377565745
          ],
          [
            152.99057423799474,
            -203.3961657054156
          ],
          [
            153.91332529603324,
            -202.28894412011215
          ],
          [
            154.83606422163552,
            -201.55081147310165
          ],
          [
            155.5742723475281,
            -200.44358084188315
          ],
          [
            156.86609713742234,
            -199.70546628670283
          ],
          [
            157.60429313087866,
            -198.96732459377722
          ],
          [
            158.52703205648098,
            -198.22919194676678
          ],
          [
            159.2652280499373,
            -197.4910502538412
          ],
          [
            159.81888111124766,
            -196.75289951500056
          ],
          [
            160.74162003684995,
            -196.01476686799006
          ],
          [
            161.4798099640882,
            -195.46116964421094
          ],
          [
            162.2180120237626,
            -194.5384834821389
          ],
          [
            162.77166508507298,
            -193.80033274329824
          ],
          [
            163.32531814638332,
            -193.0621820044576
          ],
          [
            163.50986714474743,
            -192.8776465812262
          ],
          [
            164.06353233849399,
            -191.7704069040926
          ],
          [
            164.2480874030762,
            -191.40132701171473
          ],
          [
            164.9862833965325,
            -190.66318531878917
          ],
          [
            165.90902232213483,
            -189.9250526717787
          ],
          [
            166.83176124773712,
            -189.1869200247682
          ],
          [
            167.56995724119346,
            -188.4487783318426
          ],
          [
            168.30815323464978,
            -187.71063663891704
          ],
          [
            169.23089216025207,
            -186.97250399190656
          ],
          [
            170.15363108585439,
            -186.23437134489606
          ],
          [
            170.8918270793107,
            -185.4962296519705
          ],
          [
            171.63002307276705,
            -184.75808795904493
          ],
          [
            172.18367006785928,
            -184.20448168935076
          ],
          [
            172.3682251324415,
            -183.8354017969729
          ],
          [
            173.2437610663276,
            -182.47487258757855
          ],
          [
            173.84464745044468,
            -181.43639606538937
          ],
          [
            174.39829444553695,
            -180.88278979569517
          ],
          [
            175.5055763032852,
            -180.14466619459978
          ],
          [
            176.79740109317947,
            -179.40655163941946
          ],
          [
            178.08923194929181,
            -178.48389261509269
          ],
          [
            178.82742794274813,
            -177.74575092216713
          ],
          [
            179.93470980049642,
            -177.00762732107174
          ],
          [
            180.48836286180676,
            -176.26947658223108
          ],
          [
            181.41110178740908,
            -175.5313439352206
          ],
          [
            182.1492917146473,
            -174.97774671144148
          ],
          [
            182.51839577759358,
            -174.42413139583223
          ],
          [
            182.70295084217577,
            -174.05505150345437
          ],
          [
            183.44114683563208,
            -173.31690981052878
          ],
          [
            184.17934282908843,
            -172.57876811760323
          ],
          [
            184.91753882254474,
            -171.84062642467765
          ],
          [
            185.6557408822192,
            -170.9179402626056
          ],
          [
            186.39393687567554,
            -170.17979856968003
          ],
          [
            187.13213286913185,
            -169.44165687675448
          ],
          [
            187.8703288625882,
            -168.7035151838289
          ],
          [
            188.23942685931635,
            -168.33444433736614
          ]
        ]
      },
      "properties": {
        "type": "variant",
        "id": 2,
        "color": "#4444ff",
        "vzdal_m": 1827,
        "prevyseni_m": 64,
        "cas_s": 590,
        "tempo_str": "5:22"
      }
    },
    {
      "type": "Feature",
      "geometry": {
        "type": "LineString",
        "coordinates": [
          [
            138.04238441653717,
            -209.85448940642033
          ],
          [
            138.78056221133917,
            -209.66998112093418
          ],
          [
            139.5187582047955,
            -208.93183942800863
          ],
          [
            140.25696633068804,
            -207.8246087967901
          ],
          [
            141.02996541462275,
            -206.75077348815262
          ],
          [
            141.16488028580267,
            -206.78183569500285
          ],
          [
            141.36427245330876,
            -206.34830731910876
          ],
          [
            142.1024745129832,
            -205.42562115703674
          ],
          [
            142.2870295775654,
            -205.05654126465888
          ],
          [
            142.84068263887576,
            -204.31839052581822
          ],
          [
            144.13250136255186,
            -203.7648204397844
          ],
          [
            144.87070342222634,
            -202.84213427771235
          ],
          [
            145.42435648353668,
            -202.1039835388717
          ],
          [
            146.9007242055769,
            -201.36587802960645
          ],
          [
            148.00800606332518,
            -200.62775442851105
          ],
          [
            148.37709799383524,
            -200.44322805119475
          ],
          [
            149.11530611972776,
            -199.33599741997625
          ],
          [
            149.85352031183845,
            -198.0442223196112
          ],
          [
            150.59174663638532,
            -196.38335828095327
          ],
          [
            151.1454118301319,
            -195.27611860381964
          ],
          [
            152.06816895438854,
            -193.98435254936973
          ],
          [
            152.99090787999083,
            -193.24621990235926
          ],
          [
            154.46728166824917,
            -192.32356992394756
          ],
          [
            155.57456352599743,
            -191.58544632285216
          ],
          [
            156.49730245159975,
            -190.8473136758417
          ],
          [
            157.23549237883796,
            -190.29371645206257
          ],
          [
            157.97369443851238,
            -189.37103028999053
          ],
          [
            158.34279243524057,
            -189.00195944352774
          ],
          [
            158.52734749982275,
            -188.63287955114987
          ],
          [
            158.89644549655094,
            -188.26380870468708
          ],
          [
            159.26553742706096,
            -188.07928232737075
          ],
          [
            160.0037334205173,
            -187.3411406344452
          ],
          [
            160.55738041560954,
            -186.78753436475102
          ],
          [
            160.74193548019173,
            -186.41845447237316
          ],
          [
            161.1110274107018,
            -186.23392809505685
          ],
          [
            162.21830926845007,
            -185.49580449396146
          ],
          [
            162.40286433303226,
            -185.1267246015836
          ],
          [
            162.58741333139633,
            -184.94218917835218
          ],
          [
            162.77197446219665,
            -184.38856481682785
          ],
          [
            162.95652952677884,
            -184.01948492444998
          ],
          [
            163.6947315864533,
            -183.09679876237792
          ],
          [
            164.4329275799096,
            -182.35865706945236
          ],
          [
            165.35567863794813,
            -181.2514354841489
          ],
          [
            166.2784054311142,
            -180.8823917754314
          ],
          [
            167.38568728886247,
            -180.144268174336
          ],
          [
            168.12388328231881,
            -179.40612648141044
          ],
          [
            168.86209747442948,
            -178.11435138104542
          ],
          [
            169.7422233874526,
            -177.2886439117496
          ],
          [
            170.21674834653996,
            -176.32505004290704
          ],
          [
            170.9666922377835,
            -175.65875999599103
          ],
          [
            171.57763028547907,
            -174.37418677019994
          ],
          [
            172.24070619469717,
            -173.57501120974788
          ],
          [
            173.10341204881541,
            -172.75730552153328
          ],
          [
            174.14608852705047,
            -172.1456556200406
          ],
          [
            175.01438357411467,
            -171.38324205738166
          ],
          [
            176.24406347521088,
            -170.54838998264327
          ],
          [
            176.61315540572093,
            -170.36386360532697
          ],
          [
            176.982247336231,
            -170.17933722801064
          ],
          [
            177.72041906481488,
            -170.179373411671
          ],
          [
            178.45859079339877,
            -170.17940959533132
          ],
          [
            179.3812933216924,
            -170.54854376319972
          ],
          [
            180.1194650502763,
            -170.54857994686006
          ],
          [
            180.48855091456824,
            -170.54859803869024
          ],
          [
            180.8576428450783,
            -170.3640716613739
          ],
          [
            181.96491257039034,
            -169.9950369985715
          ],
          [
            182.8876332973383,
            -169.81053775900045
          ],
          [
            183.6258050259222,
            -169.8105739426608
          ],
          [
            184.36397675450607,
            -169.81061012632114
          ],
          [
            185.10214848308996,
            -169.81064630998148
          ],
          [
            186.3939672067661,
            -169.25707622394765
          ],
          [
            187.8703349288063,
            -168.51897071468244
          ],
          [
            188.23942685931635,
            -168.33444433736614
          ]
        ]
      },
      "properties": {
        "type": "variant",
        "id": 3,
        "color": "#44ff44",
        "vzdal_m": 1865,
        "prevyseni_m": 64,
        "cas_s": 600,
        "tempo_str": "5:21"
      }
    }
  ]
}