{
  "type": "FeatureCollection",
  "features": [
    {
      "type": "Feature",
      "geometry": {
        "type": "Point",
        "coordinates": [
          192.6622996038174,
          -180.56233200296384
        ]
      },
      "properties": {
        "type": "start",
        "isom": "109"
      }
    },
    {
      "type": "Feature",
      "geometry": {
        "type": "Point",
        "coordinates": [
          134.05014929941225,
          -175.6527904587346
        ]
      },
      "properties": {
        "type": "end",
        "isom": "111"
      }
    },
    {
      "type": "Feature",
      "geometry": {
        "type": "LineString",
        "coordinates": [
          [
            192.69931292663773,
            -180.611301944272
          ],
          [
            191.9611048007453,
            -181.71853257468823
          ],
          [
            191.22290880728906,
            -182.456674266494
          ],
          [
            190.4847128138328,
            -183.19481595829973
          ],
          [
            189.74651682037657,
            -183.9329576501055
          ],
          [
            188.63923496262836,
            -184.67108124920364
          ],
          [
            187.52112316117595,
            -185.38073689835133
          ],
          [
            186.79407489944222,
            -185.21989710026114
          ],
          [
            186.2385063648608,
            -185.20988520369147
          ],
          [
            185.32538063301277,
            -185.43819265464165
          ],
          [
            184.180829796143,
            -185.28457551926616
          ],
          [
            183.26105753282812,
            -184.92331032496577
          ],
          [
            182.16050838228065,
            -184.5421161775019
          ],
          [
            181.43578826495715,
            -184.5062387006993
          ],
          [
            180.64300297932462,
            -184.36787209797137
          ],
          [
            179.76198242371242,
            -184.44207739735694
          ],
          [
            178.67335213540787,
            -183.9364301315638
          ],
          [
            177.74769175093638,
            -183.19076423827588
          ],
          [
            176.6340735118863,
            -182.47473624475109
          ],
          [
            175.1666820955147,
            -181.72176231998554
          ],
          [
            174.43818020970352,
            -181.32485769447104
          ],
          [
            174.21499587195524,
            -181.26564940621302
          ],
          [
            173.54081692833768,
            -182.10423436840142
          ],
          [
            172.40526063669967,
            -182.80702326669405
          ],
          [
            171.57317431943525,
            -183.0544804008889
          ],
          [
            170.36956354101432,
            -182.27110755920808
          ],
          [
            169.08329202836384,
            -181.71069660457383
          ],
          [
            168.45250058470876,
            -182.25092983587444
          ],
          [
            167.6014256250431,
            -182.08642739459566
          ],
          [
            166.1251064327479,
            -181.34817714654415
          ],
          [
            165.39858682504396,
            -181.41318678471796
          ],
          [
            164.41971721571397,
            -181.23716442281878
          ],
          [
            163.54151751514078,
            -180.9789615589803
          ],
          [
            162.80334578655695,
            -180.97892537356506
          ],
          [
            161.61562270662358,
            -180.49877314959937
          ],
          [
            160.98541300252347,
            -179.4729171209002
          ],
          [
            159.79141538598122,
            -178.83499691473355
          ],
          [
            158.84637125927156,
            -178.12237106865322
          ],
          [
            157.62736324150057,
            -177.52343646425604
          ],
          [
            156.8630115240107,
            -177.16172428301334
          ],
          [
            156.52900741795668,
            -177.28772841143046
          ],
          [
            155.97537255530068,
            -177.47224574167427
          ],
          [
            154.68359022893333,
            -176.91854900928183
          ],
          [
            153.76086950198547,
            -177.10304824681805
          ],
          [
            153.22543642850164,
            -177.1970604441939
          ],
          [
            152.28702190248814,
            -177.03760465799337
          ],
          [
            151.87408876879465,
            -177.06772919968898
          ],
          [
            150.99639090305686,
            -177.34425803248686
          ],
          [
            149.8312725046919,
            -177.14733593566638
          ],
          [
            149.142491618499,
            -176.37017015668926
          ],
          [
            148.00882737317735,
            -175.57692889456916
          ],
          [
            147.13894990509638,
            -174.88152812755158
          ],
          [
            146.97775289765656,
            -174.50297995074038
          ],
          [
            146.63945950006146,
            -174.22565804945125
          ],
          [
            145.6140640050034,
            -174.98679435487693
          ],
          [
            144.90371422426105,
            -175.04311241629398
          ],
          [
            144.16265627327095,
            -175.0582117880025
          ],
          [
            143.4483850995184,
            -175.18829187478437
          ],
          [
            142.14447055849413,
            -175.6382095166331
          ],
          [
            141.20446027246382,
            -176.352989166423
          ],
          [
            140.30313962558364,
            -176.60548129250103
          ],
          [
            139.17909982924954,
            -176.90938188396294
          ],
          [
            138.24951402254203,
            -176.63359933320635
          ],
          [
            137.3199437185431,
            -176.64140450856732
          ],
          [
            136.4138581451382,
            -176.36402001233878
          ],
          [
            135.67568641655438,
            -176.36398382692354
          ],
          [
            134.38390409018703,
            -175.8102870945311
          ],
          [
            134.01482429211325,
            -175.62572453251823
          ]
        ]
      },
      "properties": {
        "type": "variant",
        "id": 1,
        "color": "#ff4444",
        "vzdal_m": 1783,
        "prevyseni_m": 31,
        "cas_s": 375,
        "tempo_str": "3:30"
      }
    },
    {
      "type": "Feature",
      "geometry": {
        "type": "LineString",
        "coordinates": [
          [
            192.69931292663773,
            -180.611301944272
          ],
          [
            192.5148003255823,
            -179.6885705513919
          ],
          [
            192.14575085859906,
            -178.58128564285278
          ],
          [
            191.5091594206679,
            -176.95564284132598
          ],
          [
            190.6535668090607,
            -176.02212192021463
          ],
          [
            190.04773118191343,
            -175.06562730004086
          ],
          [
            189.24982499457346,
            -174.38258676214693
          ],
          [
            188.39057717850386,
            -173.83942674253632
          ],
          [
            187.60007910183663,
            -173.27157867475898
          ],
          [
            186.54758726341944,
            -172.64152721348606
          ],
          [
            185.25370015241356,
            -172.3307605635936
          ],
          [
            183.84457385798495,
            -171.53831871544628
          ],
          [
            183.10384120641427,
            -171.37186368213145
          ],
          [
            181.83963936679612,
            -170.80375639313283
          ],
          [
            181.24856788450276,
            -170.41063351854623
          ],
          [
            180.75399493627998,
            -170.57452385993878
          ],
          [
            179.58382459095475,
            -170.9179869937591
          ],
          [
            178.63342405320142,
            -170.70996852659815
          ],
          [
            177.75166325352905,
            -170.46065316582064
          ],
          [
            177.01004716255275,
            -170.4202949884203
          ],
          [
            176.82684804572145,
            -170.4359794363324
          ],
          [
            175.71971712727594,
            -171.309549033071
          ],
          [
            174.59043857725007,
            -170.65602287149468
          ],
          [
            173.78404828916965,
            -169.6664005002074
          ],
          [
            173.4918027101711,
            -169.4454835061487
          ],
          [
            172.03089276424973,
            -168.79944271710906
          ],
          [
            170.90471525743087,
            -168.50091526172005
          ],
          [
            170.3940488653046,
            -168.68250770279354
          ],
          [
            169.59036622975447,
            -168.42208740158586
          ],
          [
            168.27999877037007,
            -169.09485155144688
          ],
          [
            167.0527023333845,
            -169.32979950963366
          ],
          [
            166.24897814772035,
            -169.5101940124662
          ],
          [
            165.36214427708657,
            -169.2661299586707
          ],
          [
            164.64973762836757,
            -169.18064414011644
          ],
          [
            163.94265200632896,
            -169.08103837832107
          ],
          [
            163.6161229135569,
            -168.8829947033132
          ],
          [
            162.4380736459721,
            -169.5162169690358
          ],
          [
            161.72070775564507,
            -169.53476811191024
          ],
          [
            160.70213178721815,
            -169.25216483402963
          ],
          [
            159.96101900488148,
            -168.4941804745477
          ],
          [
            159.33789170920187,
            -167.66475120124431
          ],
          [
            158.374764315194,
            -167.32241753248502
          ],
          [
            157.45204358824608,
            -167.50691677002123
          ],
          [
            156.71387185966228,
            -167.50688058460597
          ],
          [
            155.6632108881979,
            -167.2098728277257
          ],
          [
            154.97555262800603,
            -167.9923831491622
          ],
          [
            154.18836463610754,
            -168.85670675611763
          ],
          [
            153.43794610842377,
            -169.5840570110519
          ],
          [
            151.9475443759504,
            -170.36319342523095
          ],
          [
            150.93432210514305,
            -171.12120978959518
          ],
          [
            149.97052360275345,
            -171.86422823343378
          ],
          [
            149.11999546459177,
            -172.4507594478767
          ],
          [
            148.0634069424399,
            -173.25388281848367
          ],
          [
            146.7926860966421,
            -174.1300260111985
          ],
          [
            146.1747683102558,
            -174.6807857966136
          ],
          [
            145.27248517984543,
            -175.05346915368642
          ],
          [
            144.53213464696407,
            -175.0379174719919
          ],
          [
            143.8047634092918,
            -175.1210075424365
          ],
          [
            142.69593920902068,
            -175.46484602320427
          ],
          [
            141.9425370775573,
            -175.8012042597505
          ],
          [
            140.84352584598483,
            -176.50780690560433
          ],
          [
            140.12903110370843,
            -176.64809879848306
          ],
          [
            139.01399015083817,
            -176.96602132327635
          ],
          [
            137.95036327697076,
            -176.6872988629999
          ],
          [
            137.13513691569122,
            -176.5806831972102
          ],
          [
            136.22931521299225,
            -176.364010965985
          ],
          [
            135.49114348440844,
            -176.36397478056972
          ],
          [
            134.01482429211325,
            -175.62572453251823
          ]
        ]
      },
      "properties": {
        "type": "variant",
        "id": 2,
        "color": "#4444ff",
        "vzdal_m": 1865,
        "prevyseni_m": 38,
        "cas_s": 385,
        "tempo_str": "3:26"
      }
    },
    {
      "type": "Feature",
      "geometry": {
        "type": "LineString",
        "coordinates": [
          [
            192.69931292663773,
            -180.611301944272
          ],
          [
            191.9611048007453,
            -181.71853257468823
          ],
          [
            191.22290880728906,
            -182.456674266494
          ],
          [
            190.4847128138328,
            -183.19481595829973
          ],
          [
            189.74651682037657,
            -183.9329576501055
          ],
          [
            188.63923496262836,
            -184.67108124920364
          ],
          [
            187.52112316117595,
            -185.38073689835133
          ],
          [
            186.79407489944222,
            -185.21989710026114
          ],
          [
            186.2385063648608,
            -185.20988520369147
          ],
          [
            185.32538063301277,
            -185.43819265464165
          ],
          [
            184.180829796143,
            -185.28457551926616
          ],
          [
            183.26105753282812,
            -184.92331032496577
          ],
          [
            182.16050838228065,
            -184.5421161775019
          ],
          [
            181.43578826495715,
            -184.5062387006993
          ],
          [
            180.64300297932462,
            -184.36787209797137
          ],
          [
            179.76198242371242,
            -184.44207739735694
          ],
          [
            178.67335213540787,
            -183.9364301315638
          ],
          [
            177.74769175093638,
            -183.19076423827588
          ],
          [
            176.6340735118863,
            -182.47473624475109
          ],
          [
            175.1666820955147,
            -181.72176231998554
          ],
          [
            173.85941580495958,
            -181.0036956067282
          ],
          [
            172.75969092528362,
            -180.2544425160318
          ],
          [
            171.6598491473193,
            -179.50536369865102
          ],
          [
            170.77168591369002,
            -178.90093919200956
          ],
          [
            169.8160621351567,
            -178.39564656473635
          ],
          [
            169.0778904065729,
            -178.3956103793211
          ],
          [
            167.97060854882474,
            -179.13373397841926
          ],
          [
            167.23243682024093,
            -179.13369779300402
          ],
          [
            166.49426509165713,
            -179.13366160758878
          ],
          [
            165.38701963121758,
            -178.7645183908554
          ],
          [
            164.46431103670594,
            -178.5799286897811
          ],
          [
            163.54160244219426,
            -178.39533898870678
          ],
          [
            162.80343071361045,
            -178.39530280329154
          ],
          [
            162.06525898502665,
            -178.3952666178763
          ],
          [
            161.32708725644284,
            -178.39523043246106
          ],
          [
            160.39819831014916,
            -178.59099805747724
          ],
          [
            159.2228746905278,
            -178.40734050075685
          ],
          [
            157.80653659280816,
            -177.55455577701943
          ],
          [
            156.93969189713496,
            -177.25267402751527
          ],
          [
            156.52900741795668,
            -177.28772841143046
          ],
          [
            155.97537255530068,
            -177.47224574167427
          ],
          [
            154.68359022893333,
            -176.91854900928183
          ],
          [
            153.76086950198547,
            -177.10304824681805
          ],
          [
            153.22543642850164,
            -177.1970604441939
          ],
          [
            152.28702190248814,
            -177.03760465799337
          ],
          [
            151.87408876879465,
            -177.06772919968898
          ],
          [
            150.99639090305686,
            -177.34425803248686
          ],
          [
            149.8312725046919,
            -177.14733593566638
          ],
          [
            149.142491618499,
            -176.37017015668926
          ],
          [
            148.00882737317735,
            -175.57692889456916
          ],
          [
            147.13894990509638,
            -174.88152812755158
          ],
          [
            146.97775289765656,
            -174.50297995074038
          ],
          [
            146.63945950006146,
            -174.22565804945125
          ],
          [
            145.6140640050034,
            -174.98679435487693
          ],
          [
            144.90371422426105,
            -175.04311241629398
          ],
          [
            144.16265627327095,
            -175.0582117880025
          ],
          [
            143.4483850995184,
            -175.18829187478437
          ],
          [
            142.14447055849413,
            -175.6382095166331
          ],
          [
            141.20446027246382,
            -176.352989166423
          ],
          [
            140.30313962558364,
            -176.60548129250103
          ],
          [
            139.17909982924954,
            -176.90938188396294
          ],
          [
            138.24951402254203,
            -176.63359933320635
          ],
          [
            137.3199437185431,
            -176.64140450856732
          ],
          [
            136.4138581451382,
            -176.36402001233878
          ],
          [
            135.67568641655438,
            -176.36398382692354
          ],
          [
            134.38390409018703,
            -175.8102870945311
          ],
          [
            134.01482429211325,
            -175.62572453251823
          ]
        ]
      },
      "properties": {
        "type": "variant",
        "id": 3,
        "color": "#44ff44",
        "vzdal_m": 1765,
        "prevyseni_m": 35,
        "cas_s": 379,
        "tempo_str": "3:34"
      }
    }
  ]
}