{
  "type": "FeatureCollection",
  "features": [
    {
      "type": "Feature",
      "geometry": {
        "type": "Point",
        "coordinates": [
          81.38230010460295,
          -50.65464354826612
        ]
      },
      "properties": {
        "type": "start",
        "isom": "204"
      }
    },
    {
      "type": "Feature",
      "geometry": {
        "type": "Point",
        "coordinates": [
          26.83393605890483,
          -33.5702937228327
        ]
      },
      "properties": {
        "type": "end",
        "isom": "109"
      }
    },
    {
      "type": "Feature",
      "geometry": {
        "type": "LineString",
        "coordinates": [
          [
            81.33470224543714,
            -50.74025123543284
          ],
          [
            81.15016876981221,
            -50.371138845208094
          ],
          [
            80.78108021664221,
            -50.186573869785335
          ],
          [
            80.4119916634722,
            -50.002008894362554
          ],
          [
            80.04288870902208,
            -50.18655045562425
          ],
          [
            79.85834083211705,
            -50.18654460208399
          ],
          [
            79.67379295521202,
            -50.186538748543725
          ],
          [
            79.489245078307,
            -50.18653289500345
          ],
          [
            79.1201421238569,
            -50.37107445626516
          ],
          [
            78.75103916940678,
            -50.55561601752686
          ],
          [
            78.01284766178667,
            -50.555592603365795
          ],
          [
            76.53649344910663,
            -49.81733270167471
          ],
          [
            75.61378286714168,
            -49.079090360604425
          ],
          [
            74.69107228517673,
            -48.34084801953414
          ],
          [
            73.9529239813969,
            -47.23350499531965
          ],
          [
            73.39932355452211,
            -46.12616782464542
          ],
          [
            73.21479007889717,
            -45.757055434420685
          ],
          [
            73.03025660327225,
            -45.38794304419594
          ],
          [
            72.29210109885237,
            -44.46515328832369
          ],
          [
            71.73850067197758,
            -43.35781611764946
          ],
          [
            70.81579009001263,
            -42.61957377657918
          ],
          [
            70.0776273849527,
            -41.88133728904917
          ],
          [
            69.89308670868772,
            -41.69677816716666
          ],
          [
            69.52399815551772,
            -41.51221319174389
          ],
          [
            68.41673969664774,
            -40.77396499713334
          ],
          [
            68.04765114347772,
            -40.589400021710574
          ],
          [
            67.12491895959262,
            -40.404817485666996
          ],
          [
            66.94038548396769,
            -40.03570509544225
          ],
          [
            66.57129693079769,
            -39.85114012001948
          ],
          [
            65.46403127128767,
            -39.29744519375117
          ],
          [
            65.09494271811765,
            -39.1128802183284
          ],
          [
            64.35675121049753,
            -39.11285680416733
          ],
          [
            63.61855970287741,
            -39.11283339000626
          ],
          [
            62.8803681952573,
            -39.11280997584519
          ],
          [
            62.32673176518226,
            -38.92823914688215
          ],
          [
            62.14219108891728,
            -38.74368002499965
          ],
          [
            61.77310253574728,
            -38.559115049576874
          ],
          [
            60.850370351862175,
            -38.3745325135333
          ],
          [
            60.112207646802254,
            -37.636296026003286
          ],
          [
            59.92766697053727,
            -37.451736904120786
          ],
          [
            59.55857841736726,
            -37.26717192869801
          ],
          [
            59.18948986419725,
            -37.08260695327524
          ],
          [
            58.82040131102725,
            -36.898041977852465
          ],
          [
            58.45130555721719,
            -36.89803027077193
          ],
          [
            58.08221700404718,
            -36.71346529534916
          ],
          [
            57.15948482016208,
            -36.52888275930559
          ],
          [
            56.97493694325705,
            -36.52887690576532
          ],
          [
            56.60584839008704,
            -36.34431193034255
          ],
          [
            56.23675983691703,
            -36.159746954919775
          ],
          [
            55.86767128374702,
            -35.97518197949701
          ],
          [
            55.498582730577006,
            -35.790617004074235
          ],
          [
            55.129494177407,
            -35.60605202865146
          ],
          [
            54.02219251469673,
            -35.97512344409433
          ],
          [
            52.73033577444138,
            -36.52874227433917
          ],
          [
            51.99214426682126,
            -36.5287188601781
          ],
          [
            51.25395275920115,
            -36.52869544601703
          ],
          [
            50.51576125158104,
            -36.52867203185597
          ],
          [
            49.77756974396092,
            -36.52864861769489
          ],
          [
            49.0393782363408,
            -36.52862520353383
          ],
          [
            48.11664605245571,
            -36.34404266749025
          ],
          [
            47.009373192305624,
            -35.97490100956418
          ],
          [
            45.71755965589057,
            -35.4212002297556
          ],
          [
            44.610272394460395,
            -35.42116510851399
          ],
          [
            43.87208088684028,
            -35.42114169435292
          ],
          [
            43.13388217858011,
            -35.60567154853409
          ],
          [
            42.7647936254101,
            -35.42110657311132
          ],
          [
            42.02660211778999,
            -35.421083158950246
          ],
          [
            41.1038555326248,
            -35.605607159591145
          ],
          [
            40.365664025004676,
            -35.605583745430074
          ],
          [
            39.62747251738456,
            -35.60556033126901
          ],
          [
            38.704740333499466,
            -35.42097779522543
          ],
          [
            37.41293399772445,
            -34.68272374707462
          ],
          [
            35.79319747192301,
            -34.047538335671966
          ],
          [
            34.73462195258304,
            -33.30091109243803
          ],
          [
            33.967450483178645,
            -32.38162359411794
          ],
          [
            33.63386773809405,
            -32.14660722474095
          ],
          [
            33.188917333818,
            -31.947362541539636
          ],
          [
            32.90419483608725,
            -31.77867155281796
          ],
          [
            32.061153577079345,
            -31.914254969273312
          ],
          [
            31.322962069459226,
            -31.91423155511224
          ],
          [
            30.584763361199062,
            -32.09876140929341
          ],
          [
            29.47746889912884,
            -32.28327955639404
          ],
          [
            27.81650920442338,
            -33.02143994790058
          ],
          [
            26.89374821797809,
            -33.57507048522596
          ]
        ]
      },
      "properties": {
        "type": "variant",
        "id": 1,
        "color": "#ff4444",
        "vzdal_m": 1697,
        "prevyseni_m": 8,
        "cas_s": 472,
        "tempo_str": "4:38"
      }
    },
    {
      "type": "Feature",
      "geometry": {
        "type": "LineString",
        "coordinates": [
          [
            81.33470224543714,
            -50.74025123543284
          ],
          [
            81.15016876981221,
            -50.371138845208094
          ],
          [
            80.78108021664221,
            -50.186573869785335
          ],
          [
            80.4119916634722,
            -50.002008894362554
          ],
          [
            80.04288870902208,
            -50.18655045562425
          ],
          [
            79.85834083211705,
            -50.18654460208399
          ],
          [
            79.67379295521202,
            -50.186538748543725
          ],
          [
            79.489245078307,
            -50.18653289500345
          ],
          [
            79.1201421238569,
            -50.37107445626516
          ],
          [
            78.75103916940678,
            -50.55561601752686
          ],
          [
            78.01284766178667,
            -50.555592603365795
          ],
          [
            76.7210341253716,
            -50.00189182355721
          ],
          [
            75.61376846586158,
            -49.4481968972889
          ],
          [
            75.42922058895655,
            -49.44819104374863
          ],
          [
            75.04422833414151,
            -49.528301354391054
          ],
          [
            74.8190899739521,
            -49.69798995258847
          ],
          [
            74.40086211059345,
            -49.9595210195771
          ],
          [
            73.71872334936756,
            -51.02360937936532
          ],
          [
            72.95862766703121,
            -51.78388751462568
          ],
          [
            72.19905532472072,
            -52.699578352427196
          ],
          [
            71.55354235858978,
            -53.87734655961669
          ],
          [
            71.47307173243149,
            -54.198431099549396
          ],
          [
            70.47229837656991,
            -54.71461683672893
          ],
          [
            69.43936899611775,
            -54.87971779696743
          ],
          [
            68.4503595257692,
            -55.28402749959623
          ],
          [
            67.33830533266146,
            -55.63159533474984
          ],
          [
            66.23552053945195,
            -55.999585526651984
          ],
          [
            65.10946772264569,
            -56.285267196508784
          ],
          [
            64.04108976488111,
            -56.766159933037386
          ],
          [
            62.536171476473235,
            -57.440716124273216
          ],
          [
            61.57200838839754,
            -57.602462522859945
          ],
          [
            61.04495703742284,
            -57.360095734088006
          ],
          [
            60.300144354808666,
            -57.30872971500838
          ],
          [
            59.56421848991217,
            -57.26777213333059
          ],
          [
            58.49592460694039,
            -57.03729447640522
          ],
          [
            57.71233638047181,
            -56.82975983757243
          ],
          [
            57.52779570420683,
            -56.64520071568993
          ],
          [
            57.15870715103682,
            -56.46063574026716
          ],
          [
            56.78962579850686,
            -56.09151749650215
          ],
          [
            56.42053724533686,
            -55.90695252107938
          ],
          [
            56.05144869216685,
            -55.7223875456566
          ],
          [
            55.12871650828175,
            -55.53780500961303
          ],
          [
            53.836910172506734,
            -54.79955096146222
          ],
          [
            53.09874746744682,
            -54.0613144739322
          ],
          [
            52.176036885481864,
            -53.32307213286192
          ],
          [
            51.253326303516914,
            -52.584829791791634
          ],
          [
            49.77697209083688,
            -51.846569890100554
          ],
          [
            48.669699230686795,
            -51.47742823217447
          ],
          [
            47.93150772306668,
            -51.477404818013405
          ],
          [
            47.00877553918159,
            -51.292822281969826
          ],
          [
            46.08604335529649,
            -51.108239745926255
          ],
          [
            44.71474179482677,
            -50.51921179583234
          ],
          [
            43.791390918100774,
            -50.024862706614336
          ],
          [
            43.139127899546544,
            -49.25791640207344
          ],
          [
            42.4842982313757,
            -48.45197322560823
          ],
          [
            41.575548168207405,
            -47.886164276272126
          ],
          [
            40.66248046319834,
            -47.123028275997385
          ],
          [
            40.30992429576657,
            -46.43878224574237
          ],
          [
            40.11493918186527,
            -46.03714967010567
          ],
          [
            39.2690456809337,
            -45.37003216164388
          ],
          [
            38.428567707619216,
            -44.76474422504997
          ],
          [
            37.82062934214018,
            -43.39034152199917
          ],
          [
            37.646706077729235,
            -42.453849821223244
          ],
          [
            37.31300179406913,
            -41.292147150458995
          ],
          [
            37.158115395879435,
            -40.910982966373886
          ],
          [
            37.093759602835306,
            -40.752583216217786
          ],
          [
            37.031597377290446,
            -40.37967865933229
          ],
          [
            36.4899857946379,
            -40.03473926129814
          ],
          [
            36.12089724146789,
            -39.850174285875376
          ],
          [
            35.01362438131781,
            -39.4810326279493
          ],
          [
            34.45998795124277,
            -39.29646179898626
          ],
          [
            34.09090659871281,
            -38.92734355522125
          ],
          [
            33.90637312308788,
            -38.558231164996506
          ],
          [
            33.72183964746295,
            -38.189118774771764
          ],
          [
            32.799129065498,
            -37.45087643370149
          ],
          [
            32.61458838923302,
            -37.26631731181898
          ],
          [
            32.24549983606301,
            -37.08175233639621
          ],
          [
            32.060959159798024,
            -36.897193214513706
          ],
          [
            31.691870606628015,
            -36.71262823909093
          ],
          [
            30.953722302848195,
            -35.605285214876446
          ],
          [
            30.215573999068372,
            -34.49794219066195
          ],
          [
            29.66194476963338,
            -34.12881809335668
          ],
          [
            29.29285621646337,
            -33.94425311793391
          ],
          [
            28.55466470884325,
            -33.944229703772834
          ],
          [
            28.370131233218324,
            -33.5751173135481
          ],
          [
            27.631939725598208,
            -33.57509389938703
          ],
          [
            26.89374821797809,
            -33.57507048522596
          ]
        ]
      },
      "properties": {
        "type": "variant",
        "id": 2,
        "color": "#4444ff",
        "vzdal_m": 1849,
        "prevyseni_m": 4,
        "cas_s": 494,
        "tempo_str": "4:27"
      }
    },
    {
      "type": "Feature",
      "geometry": {
        "type": "LineString",
        "coordinates": [
          [
            81.33470224543714,
            -50.74025123543284
          ],
          [
            81.15016876981221,
            -50.371138845208094
          ],
          [
            80.78108021664221,
            -50.186573869785335
          ],
          [
            80.4119916634722,
            -50.002008894362554
          ],
          [
            80.04288870902208,
            -50.18655045562425
          ],
          [
            79.85834083211705,
            -50.18654460208399
          ],
          [
            79.67379295521202,
            -50.186538748543725
          ],
          [
            79.489245078307,
            -50.18653289500345
          ],
          [
            79.1201421238569,
            -50.37107445626516
          ],
          [
            78.75103916940678,
            -50.55561601752686
          ],
          [
            78.01284766178667,
            -50.555592603365795
          ],
          [
            76.7210341253716,
            -50.00189182355721
          ],
          [
            75.61376846586158,
            -49.4481968972889
          ],
          [
            75.2279592161162,
            -49.39322644491445
          ],
          [
            74.13737104934124,
            -49.817256605651224
          ],
          [
            72.66101683666122,
            -49.078996703960144
          ],
          [
            71.18466262398117,
            -48.34073680226906
          ],
          [
            70.44649991892126,
            -47.602500314739046
          ],
          [
            69.70833721386133,
            -46.86426382720903
          ],
          [
            68.78561943125634,
            -46.31057475448098
          ],
          [
            68.41653087808632,
            -46.12600977905821
          ],
          [
            67.86288724737123,
            -46.1259922184374
          ],
          [
            67.49379869420123,
            -45.94142724301464
          ],
          [
            67.12471014103122,
            -45.75686226759186
          ],
          [
            66.75562158786121,
            -45.57229729216909
          ],
          [
            66.38655463661134,
            -44.83407251171961
          ],
          [
            66.01746608344133,
            -44.64950753629684
          ],
          [
            65.09473389955625,
            -44.46492500025327
          ],
          [
            64.35654239193613,
            -44.464901586092196
          ],
          [
            63.43381020805103,
            -44.280319050048625
          ],
          [
            63.06472165488101,
            -44.09575407462585
          ],
          [
            62.32655174918104,
            -43.54207085543807
          ],
          [
            61.58839624476117,
            -42.61928109956582
          ],
          [
            61.40386276913624,
            -42.250168709341075
          ],
          [
            60.66570006407631,
            -41.51193222181106
          ],
          [
            59.92754455965645,
            -40.58914246593881
          ],
          [
            59.55845600648644,
            -40.40457749051604
          ],
          [
            58.82026449886632,
            -40.40455407635496
          ],
          [
            58.0820729912462,
            -40.4045306621939
          ],
          [
            57.343881483626085,
            -40.40450724803283
          ],
          [
            56.60568997600597,
            -40.40448383387176
          ],
          [
            55.867498468385854,
            -40.40446041971069
          ],
          [
            55.12930696076573,
            -40.40443700554962
          ],
          [
            54.02200529805546,
            -40.773508420992485
          ],
          [
            53.587157807085106,
            -40.59509163353034
          ],
          [
            53.58555900010588,
            -40.577969941691784
          ],
          [
            53.09928031481042,
            -40.40437261660668
          ],
          [
            52.73019176164041,
            -40.219807641183905
          ],
          [
            51.43837822522535,
            -39.666106861375326
          ],
          [
            51.25383034832032,
            -39.66610100783506
          ],
          [
            50.88474179515031,
            -39.481536032412286
          ],
          [
            49.96201681190526,
            -39.11240022802648
          ],
          [
            48.67020327549021,
            -38.558699448217894
          ],
          [
            47.93203336979023,
            -38.00501622903012
          ],
          [
            47.562944816620224,
            -37.820451253607345
          ],
          [
            46.824753309000116,
            -37.820427839446275
          ],
          [
            46.45565755519006,
            -37.82041613236574
          ],
          [
            46.08655460073995,
            -38.004957693627446
          ],
          [
            45.34836309311983,
            -38.004934279466376
          ],
          [
            44.610171585499714,
            -38.004910865305305
          ],
          [
            43.8719800778796,
            -38.004887451144235
          ],
          [
            43.50289152470959,
            -37.82032247572146
          ],
          [
            43.13380297153957,
            -37.635757500298695
          ],
          [
            42.395611463919465,
            -37.63573408613762
          ],
          [
            41.65742715693939,
            -37.45115740363432
          ],
          [
            40.91922844867923,
            -37.63568725781548
          ],
          [
            40.18103694105911,
            -37.63566384365441
          ],
          [
            39.25829035589392,
            -37.82018784429532
          ],
          [
            38.52013485147405,
            -36.89739808842306
          ],
          [
            37.5974242695091,
            -36.15915574735278
          ],
          [
            36.61160768336727,
            -35.27545630475116
          ],
          [
            36.043804532923545,
            -34.42951658095738
          ],
          [
            35.817773985977176,
            -34.081737340500574
          ],
          [
            34.96792474887263,
            -33.4685528761202
          ],
          [
            34.21968203980325,
            -32.69971113535505
          ],
          [
            33.967450483178645,
            -32.38162359411794
          ],
          [
            33.63386773809405,
            -32.14660722474095
          ],
          [
            33.188917333818,
            -31.947362541539636
          ],
          [
            32.90419483608725,
            -31.77867155281796
          ],
          [
            32.061153577079345,
            -31.914254969273312
          ],
          [
            31.138414192554198,
            -31.914225701571972
          ],
          [
            30.58477056183911,
            -31.914208140951175
          ],
          [
            29.47746889912884,
            -32.28327955639404
          ],
          [
            28.00104988068836,
            -33.20599906978309
          ],
          [
            26.89374821797809,
            -33.57507048522596
          ]
        ]
      },
      "properties": {
        "type": "variant",
        "id": 3,
        "color": "#44ff44",
        "vzdal_m": 1692,
        "prevyseni_m": 6,
        "cas_s": 485,
        "tempo_str": "4:46"
      }
    }
  ]
}