{
  "type": "FeatureCollection",
  "features": [
    {
      "type": "Feature",
      "geometry": {
        "type": "Point",
        "coordinates": [
          89.12449181905235,
          -236.56761052524232
        ]
      },
      "properties": {
        "type": "start",
        "isom": "204"
      }
    },
    {
      "type": "Feature",
      "geometry": {
        "type": "Point",
        "coordinates": [
          148.26000565060102,
          -219.02771196120835
        ]
      },
      "properties": {
        "type": "end",
        "isom": "531"
      }
    },
    {
      "type": "Feature",
      "geometry": {
        "type": "LineString",
        "coordinates": [
          [
            89.1688899286649,
            -236.52320132686887
          ],
          [
            90.09161065561287,
            -236.3387020872978
          ],
          [
            90.82978238419675,
            -236.33873827095817
          ],
          [
            91.01432531634272,
            -236.33874731687328
          ],
          [
            91.38340511441655,
            -236.5233098778499
          ],
          [
            92.85972430671187,
            -237.2615601217565
          ],
          [
            94.15149450064311,
            -238.18434578889452
          ],
          [
            95.81236269130252,
            -238.73806060956971
          ],
          [
            96.73507128581427,
            -238.92265030829162
          ],
          [
            97.84231674625387,
            -239.29179352207512
          ],
          [
            99.31863593854918,
            -240.0300437659817
          ],
          [
            100.05680766713307,
            -240.03007994964207
          ],
          [
            101.16405312757269,
            -240.39922316342552
          ],
          [
            102.58643014908782,
            -241.2637358170401
          ],
          [
            103.56754513763359,
            -241.3776413011425
          ],
          [
            104.25955366405076,
            -241.2435051850839
          ],
          [
            105.2141645516672,
            -241.05231322394567
          ],
          [
            105.91143598184512,
            -240.9617149756504
          ],
          [
            106.3137671038272,
            -240.8518528922151
          ],
          [
            106.67218177652467,
            -240.7900199769577
          ],
          [
            107.06152160903453,
            -240.722851920782
          ],
          [
            107.78232045188537,
            -240.6085832256637
          ],
          [
            108.92728068899397,
            -240.4717752379746
          ],
          [
            109.65282288520862,
            -240.38236124302142
          ],
          [
            109.95934951571017,
            -240.27319314734473
          ],
          [
            110.32735643770438,
            -240.0895721980841
          ],
          [
            110.69517016092657,
            -239.9025322457779
          ],
          [
            111.01359445464489,
            -239.7038029452399
          ],
          [
            112.42121445200371,
            -239.10796368022045
          ],
          [
            113.15941044546003,
            -238.36982198729487
          ],
          [
            113.89760643891636,
            -237.6316802943693
          ],
          [
            114.6358084985908,
            -236.70899413229728
          ],
          [
            115.18945549368304,
            -236.15538786260308
          ],
          [
            115.5585474241931,
            -235.97086148528678
          ],
          [
            116.29674341764944,
            -235.23271979236122
          ],
          [
            116.85039041274167,
            -234.67911352266702
          ],
          [
            117.21948234325173,
            -234.49458714535072
          ],
          [
            118.32676420100002,
            -233.7564635442553
          ],
          [
            119.61858899089425,
            -233.018348989075
          ],
          [
            120.35677891813248,
            -232.46475176529592
          ],
          [
            121.46406684209886,
            -231.54208369505406
          ],
          [
            122.7558916319931,
            -230.80396913987374
          ],
          [
            124.2322532878152,
            -230.250408099755
          ],
          [
            125.7086210098554,
            -229.51230259048978
          ],
          [
            127.1465471064925,
            -228.73225702503245
          ],
          [
            128.05094177268015,
            -227.95823980285076
          ],
          [
            128.25923926826957,
            -227.8062515178373
          ],
          [
            129.1579976014481,
            -227.196301302987
          ],
          [
            129.53643617924922,
            -226.99780428591683
          ],
          [
            129.91692968044677,
            -226.84093195568215
          ],
          [
            131.29007056899283,
            -226.3200269108165
          ],
          [
            131.9482653972038,
            -226.09061283997448
          ],
          [
            132.0973716981317,
            -226.0323189293585
          ],
          [
            132.47413313620555,
            -225.86506935838133
          ],
          [
            132.8508945742794,
            -225.69781978740423
          ],
          [
            133.21524764873354,
            -225.51770589821226
          ],
          [
            133.7276404339302,
            -225.4072645521266
          ],
          [
            134.31183658115205,
            -224.63648734802763
          ],
          [
            134.4760381310508,
            -224.45882798348862
          ],
          [
            134.93593747126107,
            -224.3455097501427
          ],
          [
            136.0431950641369,
            -224.34556402563322
          ],
          [
            137.33501378781304,
            -223.7919939395994
          ],
          [
            138.07318551639693,
            -223.79203012325974
          ],
          [
            138.44227744690699,
            -223.6075037459434
          ],
          [
            139.36499817385496,
            -223.4230045063724
          ],
          [
            140.10318203487506,
            -223.05395175173976
          ],
          [
            140.4722739653851,
            -222.86942537442346
          ],
          [
            141.39501289098743,
            -222.13129272741295
          ],
          [
            141.76411088771556,
            -221.7622218809502
          ],
          [
            141.94866595229777,
            -221.39314198857232
          ],
          [
            142.31775788280783,
            -221.20861561125602
          ],
          [
            142.68684981331788,
            -221.0240892339397
          ],
          [
            143.60958873892017,
            -220.28595658692925
          ],
          [
            144.53232159830438,
            -219.73236840906523
          ],
          [
            144.90141352881443,
            -219.54784203174893
          ],
          [
            145.27050545932445,
            -219.3633156544326
          ],
          [
            146.37777518463653,
            -218.99428099163018
          ],
          [
            147.1159469132204,
            -218.99431717529052
          ],
          [
            147.8541186418043,
            -218.99435335895083
          ],
          [
            148.22320450609624,
            -218.99437145078102
          ]
        ]
      },
      "properties": {
        "type": "variant",
        "id": 1,
        "color": "#ff4444",
        "vzdal_m": 1819,
        "prevyseni_m": 37,
        "cas_s": 539,
        "tempo_str": "4:56"
      }
    },
    {
      "type": "Feature",
      "geometry": {
        "type": "LineString",
        "coordinates": [
          [
            89.1688899286649,
            -236.52320132686887
          ],
          [
            90.09161065561287,
            -236.3387020872978
          ],
          [
            90.82978238419675,
            -236.33873827095817
          ],
          [
            91.75250311114472,
            -236.1542390313871
          ],
          [
            92.49066877351049,
            -236.33881968419394
          ],
          [
            93.78249356340473,
            -235.60070512901362
          ],
          [
            95.07431835329898,
            -234.86259057383333
          ],
          [
            96.18158201239292,
            -234.67810038017737
          ],
          [
            96.9197537409768,
            -234.67813656383768
          ],
          [
            97.84256922208415,
            -234.49344922474464
          ],
          [
            98.99899404751814,
            -234.86644172679107
          ],
          [
            100.05698965367641,
            -234.4937458752477
          ],
          [
            101.16427151142469,
            -233.7556222741523
          ],
          [
            102.08700437080887,
            -233.20203409628832
          ],
          [
            102.45609630131892,
            -233.01750771897198
          ],
          [
            102.82518216561087,
            -233.01752581080217
          ],
          [
            103.19427409612092,
            -232.83299943348587
          ],
          [
            103.93244582470481,
            -232.8330356171462
          ],
          [
            104.6706175532887,
            -232.83307180080658
          ],
          [
            105.59332614780044,
            -233.0176614995285
          ],
          [
            106.51604687474841,
            -232.83316225995742
          ],
          [
            107.25421860333229,
            -232.8331984436178
          ],
          [
            107.80785346598832,
            -232.64868111221654
          ],
          [
            108.17693326406214,
            -232.8332436731932
          ],
          [
            108.91510499264604,
            -232.83327985685352
          ],
          [
            109.65327672122991,
            -232.83331604051386
          ],
          [
            110.39144844981381,
            -232.83335222417423
          ],
          [
            111.49871817512586,
            -232.46431756137181
          ],
          [
            112.23688990370974,
            -232.46435374503213
          ],
          [
            112.97506163229363,
            -232.46438992869247
          ],
          [
            114.26688035596975,
            -231.91081984265864
          ],
          [
            115.18960714913584,
            -231.5417761339411
          ],
          [
            116.48141980659386,
            -231.17275051705377
          ],
          [
            117.95778146241595,
            -230.61918947693505
          ],
          [
            119.06506938638235,
            -229.69652140669314
          ],
          [
            119.6187224476927,
            -228.95837066785248
          ],
          [
            121.0950901697329,
            -228.22026515858727
          ],
          [
            122.20234169639063,
            -228.40486390322428
          ],
          [
            123.1250684895567,
            -228.03582019450675
          ],
          [
            124.23235034730499,
            -227.29769659341133
          ],
          [
            125.15506500803484,
            -227.29774182298675
          ],
          [
            125.89324280283684,
            -227.11323353750063
          ],
          [
            126.81595746356669,
            -227.11327876707605
          ],
          [
            127.36958626000458,
            -227.11330590482135
          ],
          [
            127.73866605807844,
            -227.29786846579796
          ],
          [
            128.47683778666232,
            -227.29790464945833
          ],
          [
            129.60147342642566,
            -226.97099030753216
          ],
          [
            130.90361139186896,
            -226.45472741169885
          ],
          [
            131.78371669015107,
            -226.14796635768502
          ],
          [
            133.0676108765295,
            -225.59151644913877
          ],
          [
            133.9144294959274,
            -224.99449218480484
          ],
          [
            134.66416712430492,
            -224.21007128714493
          ],
          [
            135.00134061427877,
            -223.5463440676622
          ],
          [
            135.48959659878957,
            -223.42281454215558
          ],
          [
            136.41231732573752,
            -223.23831530258454
          ],
          [
            137.15048905432138,
            -223.23835148624485
          ],
          [
            138.44230777799754,
            -222.68478140021102
          ],
          [
            139.36503457116362,
            -222.31573769149352
          ],
          [
            139.73412650167367,
            -222.13121131417722
          ],
          [
            140.10321843218372,
            -221.94668493686086
          ],
          [
            141.0259512915679,
            -221.3930967589969
          ],
          [
            141.39504322207796,
            -221.20857038168057
          ],
          [
            141.76413515258804,
            -221.02404400436427
          ],
          [
            142.1332270830981,
            -220.83951762704797
          ],
          [
            142.31777001524407,
            -220.83952667296307
          ],
          [
            142.6868619457541,
            -220.65500029564674
          ],
          [
            142.87141094411817,
            -220.47046487241536
          ],
          [
            143.24050287462822,
            -220.28593849509906
          ],
          [
            144.71687059666846,
            -219.54783298583382
          ],
          [
            145.8241463881986,
            -218.9942538538849
          ],
          [
            146.56231811678248,
            -218.99429003754523
          ],
          [
            147.30048984536637,
            -218.9943262212056
          ],
          [
            148.03866157395026,
            -218.99436240486594
          ],
          [
            148.22320450609624,
            -218.99437145078102
          ]
        ]
      },
      "properties": {
        "type": "variant",
        "id": 2,
        "color": "#4444ff",
        "vzdal_m": 1737,
        "prevyseni_m": 53,
        "cas_s": 533,
        "tempo_str": "5:07"
      }
    },
    {
      "type": "Feature",
      "geometry": {
        "type": "LineString",
        "coordinates": [
          [
            89.1688899286649,
            -236.52320132686887
          ],
          [
            90.09161065561287,
            -236.3387020872978
          ],
          [
            90.82978238419675,
            -236.33873827095817
          ],
          [
            91.75250311114472,
            -236.1542390313871
          ],
          [
            92.49066877351049,
            -236.33881968419394
          ],
          [
            93.78249356340473,
            -235.60070512901362
          ],
          [
            95.07431835329898,
            -234.86259057383333
          ],
          [
            96.18158201239292,
            -234.67810038017737
          ],
          [
            96.9197537409768,
            -234.67813656383768
          ],
          [
            97.84256922208415,
            -234.49344922474464
          ],
          [
            98.99899404751814,
            -234.86644172679107
          ],
          [
            100.05698965367641,
            -234.4937458752477
          ],
          [
            101.16427151142469,
            -233.7556222741523
          ],
          [
            102.08700437080887,
            -233.20203409628832
          ],
          [
            102.45609630131892,
            -233.01750771897198
          ],
          [
            102.82518216561087,
            -233.01752581080217
          ],
          [
            103.19427409612092,
            -232.83299943348587
          ],
          [
            103.93244582470481,
            -232.8330356171462
          ],
          [
            104.6706175532887,
            -232.83307180080658
          ],
          [
            105.59332614780044,
            -233.0176614995285
          ],
          [
            106.51604687474841,
            -232.83316225995742
          ],
          [
            107.62331660006046,
            -232.46412759715497
          ],
          [
            108.36150652729867,
            -231.91053037337588
          ],
          [
            108.91515958860904,
            -231.17237963453522
          ],
          [
            110.20698437850328,
            -230.4342650793549
          ],
          [
            111.49880916839753,
            -229.69615052417464
          ],
          [
            112.79063395829176,
            -228.95803596899432
          ],
          [
            113.52882388552999,
            -228.4044387452152
          ],
          [
            114.26702594520442,
            -227.48175258314316
          ],
          [
            115.00522193866074,
            -226.7436108902176
          ],
          [
            116.11250986262715,
            -225.8209428199757
          ],
          [
            117.18995903258474,
            -225.16315011601102
          ],
          [
            117.75728036236056,
            -224.32138962809356
          ],
          [
            118.45579721841641,
            -223.76609117338828
          ],
          [
            119.17386673928017,
            -222.08270568715983
          ],
          [
            119.88183318896102,
            -220.9559308692026
          ],
          [
            120.61202298134305,
            -219.96993931141543
          ],
          [
            121.43444579891455,
            -219.35273359026425
          ],
          [
            122.15109869514602,
            -218.38738170802517
          ],
          [
            122.36651221385283,
            -218.225657312671
          ],
          [
            122.69949971982143,
            -217.9900941537935
          ],
          [
            123.03197884124128,
            -217.75422070847992
          ],
          [
            123.48291397888849,
            -217.5507407523392
          ],
          [
            123.66637182826204,
            -217.53663752093178
          ],
          [
            124.0321657315448,
            -217.45083918604797
          ],
          [
            125.16314136231755,
            -217.18032055226777
          ],
          [
            125.86171707072336,
            -217.0140271616083
          ],
          [
            126.6317481694492,
            -216.96344462011552
          ],
          [
            127.00083403374114,
            -216.9634627119457
          ],
          [
            127.34892242250646,
            -216.8816139415439
          ],
          [
            127.69516048147108,
            -216.79268229273956
          ],
          [
            128.1080855643665,
            -217.14794075457183
          ],
          [
            129.58440475666183,
            -217.88619099847847
          ],
          [
            129.95348455473564,
            -218.0707535594551
          ],
          [
            131.42980374703097,
            -218.8090038033617
          ],
          [
            132.3525123415427,
            -218.9935935020836
          ],
          [
            133.0906840701266,
            -218.99362968574397
          ],
          [
            134.01339266463836,
            -219.17821938446585
          ],
          [
            134.9361012591501,
            -219.36280908318776
          ],
          [
            135.67427298773399,
            -219.36284526684813
          ],
          [
            136.41244471631788,
            -219.36288145050847
          ],
          [
            137.5197083754118,
            -219.1783912568525
          ],
          [
            138.44243516857787,
            -218.80934754813495
          ],
          [
            139.18060689716177,
            -218.80938373179532
          ],
          [
            140.10332762410974,
            -218.62488449222425
          ],
          [
            140.8414993526936,
            -218.62492067588462
          ],
          [
            141.21058521698555,
            -218.6249387677148
          ],
          [
            141.39512814913152,
            -218.62494781362986
          ],
          [
            141.76421401342347,
            -218.62496590546004
          ],
          [
            142.13329381149728,
            -218.8095284664367
          ],
          [
            142.87146554008118,
            -218.80956465009706
          ],
          [
            143.60964333488317,
            -218.62505636461094
          ],
          [
            144.34780899724896,
            -218.80963701741774
          ],
          [
            145.08598072583283,
            -218.80967320107808
          ],
          [
            145.82415245441672,
            -218.80970938473845
          ],
          [
            146.5623241830006,
            -218.80974556839877
          ],
          [
            147.30049591158448,
            -218.8097817520591
          ],
          [
            148.22320450609624,
            -218.99437145078102
          ]
        ]
      },
      "properties": {
        "type": "variant",
        "id": 3,
        "color": "#44ff44",
        "vzdal_m": 1822,
        "prevyseni_m": 50,
        "cas_s": 538,
        "tempo_str": "4:55"
      }
    }
  ]
}