{
  "type": "FeatureCollection",
  "features": [
    {
      "type": "Feature",
      "geometry": {
        "type": "Point",
        "coordinates": [
          86.03851396308379,
          -111.41202329528468
        ]
      },
      "properties": {
        "type": "start",
        "isom": "417"
      }
    },
    {
      "type": "Feature",
      "geometry": {
        "type": "Point",
        "coordinates": [
          124.54554331362559,
          -273.018276934072
        ]
      },
      "properties": {
        "type": "end",
        "isom": "109"
      }
    },
    {
      "type": "Feature",
      "geometry": {
        "type": "LineString",
        "coordinates": [
          [
            86.09033618389738,
            -111.57421451799775
          ],
          [
            84.61370406360228,
            -116.00339734292538
          ],
          [
            84.61354602559022,
            -118.21798984443531
          ],
          [
            83.87528264478003,
            -119.69438375639584
          ],
          [
            83.87507192743062,
            -122.64717375840905
          ],
          [
            83.87486121008124,
            -125.59996376042228
          ],
          [
            83.87465049273183,
            -128.55275376243551
          ],
          [
            83.87443977538241,
            -131.50554376444873
          ],
          [
            84.61233440083117,
            -135.19653235601135
          ],
          [
            84.61222904215646,
            -136.67292735701798
          ],
          [
            83.87380762333422,
            -140.3639137704884
          ],
          [
            83.13538620451196,
            -144.05490018395884
          ],
          [
            83.8732808299607,
            -147.74588877552148
          ],
          [
            83.13475405246376,
            -152.9132701899985
          ],
          [
            83.13454333511436,
            -155.86606019201173
          ],
          [
            83.13449065577701,
            -156.60425769251506
          ],
          [
            82.3962272749668,
            -158.08065160447558
          ],
          [
            81.65780585614455,
            -161.771638017946
          ],
          [
            78.70475233290375,
            -167.67721366578806
          ],
          [
            77.96648895209356,
            -169.1536075777486
          ],
          [
            79.44248892034045,
            -173.58279475886062
          ],
          [
            80.1803835457892,
            -177.27378335042326
          ],
          [
            81.6563835140361,
            -181.70297053153527
          ],
          [
            81.65617279668669,
            -184.6557605335485
          ],
          [
            81.65606743801199,
            -186.13215553455512
          ],
          [
            82.39412010147278,
            -187.60855162460783
          ],
          [
            83.87012006971968,
            -192.03773880571987
          ],
          [
            86.08422538076472,
            -197.2051245763813
          ],
          [
            86.82212000621347,
            -200.89611316794392
          ],
          [
            87.56001463166221,
            -204.58710175950657
          ],
          [
            87.55990927298751,
            -206.06349676051317
          ],
          [
            88.2979619364483,
            -207.5398928505659
          ],
          [
            88.2978565777736,
            -209.0162878515725
          ],
          [
            89.03590924123439,
            -210.49268394162524
          ],
          [
            89.03585656189705,
            -211.23088144212855
          ],
          [
            89.77390922535784,
            -212.70727753218122
          ],
          [
            90.51190920948129,
            -214.92187112273726
          ],
          [
            90.5118038508066,
            -216.39826612374387
          ],
          [
            91.24985651426739,
            -217.8746622137966
          ],
          [
            91.24964579691799,
            -220.8274522158098
          ],
          [
            93.46380378730038,
            -225.25664048596795
          ],
          [
            94.20185645076118,
            -226.73303657602062
          ],
          [
            94.93990911422196,
            -228.20943266607335
          ],
          [
            96.39343817108698,
            -232.64469111000466
          ],
          [
            97.15385638725496,
            -235.5914109382447
          ],
          [
            99.36796169830001,
            -240.75879670890615
          ],
          [
            100.10585632374875,
            -244.4497853004688
          ],
          [
            101.58185629199565,
            -248.8789724815808
          ],
          [
            102.3197509174444,
            -252.56996107314345
          ],
          [
            104.53390890782678,
            -256.9991493433016
          ],
          [
            106.01017227276044,
            -257.73734902189705
          ],
          [
            110.43890968822402,
            -260.6901455581869
          ],
          [
            111.17696235168482,
            -262.1665416482396
          ],
          [
            111.91506769448297,
            -262.904740237789
          ],
          [
            113.3913310594166,
            -263.6429399163845
          ],
          [
            116.34380510994654,
            -265.8575367740788
          ],
          [
            117.08185777340736,
            -267.3339328641315
          ],
          [
            117.81991043686814,
            -268.81032895418423
          ],
          [
            120.77238448739809,
            -271.0249258118785
          ],
          [
            122.24864785233174,
            -271.763125490474
          ],
          [
            123.72491121726537,
            -272.5013251690695
          ],
          [
            124.46301656006352,
            -273.23952375861893
          ]
        ]
      },
      "properties": {
        "type": "variant",
        "id": 1,
        "color": "#ff4444",
        "vzdal_m": 1210,
        "prevyseni_m": 4,
        "cas_s": 324,
        "tempo_str": "4:27"
      }
    },
    {
      "type": "Feature",
      "geometry": {
        "type": "LineString",
        "coordinates": [
          [
            86.09033618389738,
            -111.57421451799775
          ],
          [
            86.82812545067142,
            -116.74159811056698
          ],
          [
            89.04233612039117,
            -120.4325888802218
          ],
          [
            89.78023074583992,
            -124.12357747178443
          ],
          [
            92.73249407902046,
            -129.29096433149198
          ],
          [
            95.68475741220098,
            -134.4583511911995
          ],
          [
            98.63707342471888,
            -138.88754055040374
          ],
          [
            100.11323143097783,
            -141.10213523000584
          ],
          [
            100.85128409443863,
            -142.57853132005857
          ],
          [
            102.32728406268552,
            -147.0077185011706
          ],
          [
            103.06517868813427,
            -150.69870709273323
          ],
          [
            104.5412313357185,
            -154.38969677334197
          ],
          [
            104.5410206183691,
            -157.34248677535518
          ],
          [
            107.4932312722123,
            -163.24807113556602
          ],
          [
            109.70733658325734,
            -168.41545690622746
          ],
          [
            110.44523120870609,
            -172.10644549779008
          ],
          [
            111.92123117695297,
            -176.53563267890212
          ],
          [
            114.13533648799802,
            -181.70301844956356
          ],
          [
            114.87333647212147,
            -183.91761204011956
          ],
          [
            114.87328379278411,
            -184.65580954062287
          ],
          [
            115.61133645624491,
            -186.1322056306756
          ],
          [
            117.21824730851468,
            -189.03329624400524
          ],
          [
            117.82544176728996,
            -191.29959140133704
          ],
          [
            117.8253890879526,
            -192.03778890184034
          ],
          [
            118.56344175141341,
            -193.51418499189307
          ],
          [
            118.56338907207605,
            -194.25238249239638
          ],
          [
            119.30144173553686,
            -195.72877858244905
          ],
          [
            120.03949439899765,
            -197.20517467250178
          ],
          [
            120.03944171966029,
            -197.9433721730051
          ],
          [
            120.7774943831211,
            -199.41976826305782
          ],
          [
            121.51554704658189,
            -200.8961643531105
          ],
          [
            121.51549436724454,
            -201.6343618536138
          ],
          [
            122.25354703070533,
            -203.11075794366653
          ],
          [
            124.46765234175038,
            -208.27814371432797
          ],
          [
            124.46759966241304,
            -209.01634121483127
          ],
          [
            125.20565232587383,
            -210.49273730488397
          ],
          [
            125.94370498933463,
            -211.96913339493668
          ],
          [
            127.41970495758152,
            -216.39832057604872
          ],
          [
            129.10426802564388,
            -222.7387948400135
          ],
          [
            126.43792988711637,
            -223.9887006604257
          ],
          [
            125.94270408192497,
            -225.99488590449948
          ],
          [
            124.46607196162986,
            -230.42406872942715
          ],
          [
            124.46586124428045,
            -233.37685873144036
          ],
          [
            122.98922912398537,
            -237.80604155636803
          ],
          [
            122.98901840663595,
            -240.75883155838127
          ],
          [
            122.25059698781371,
            -244.4498179718517
          ],
          [
            120.7739648675186,
            -248.87900079677934
          ],
          [
            119.29738542656085,
            -252.56998612120367
          ],
          [
            120.03543809002166,
            -254.04638221125637
          ],
          [
            120.03528005200961,
            -256.2609747127663
          ],
          [
            119.2970166711994,
            -257.7373686247268
          ],
          [
            120.0350693346602,
            -259.21376471477953
          ],
          [
            122.24933268371728,
            -262.16655798393106
          ],
          [
            122.9873853471781,
            -263.6429540739838
          ],
          [
            123.72543801063888,
            -265.11935016403646
          ],
          [
            123.72522729328949,
            -268.0721401660497
          ],
          [
            123.72501657594007,
            -271.0249301680629
          ],
          [
            124.46301656006352,
            -273.23952375861893
          ]
        ]
      },
      "properties": {
        "type": "variant",
        "id": 2,
        "color": "#4444ff",
        "vzdal_m": 1185,
        "prevyseni_m": 3,
        "cas_s": 318,
        "tempo_str": "4:28"
      }
    }
  ]
}