{
  "type": "FeatureCollection",
  "features": [
    {
      "type": "Feature",
      "geometry": {
        "type": "Point",
        "coordinates": [
          123.56805529197749,
          -222.2523389384503
        ]
      },
      "properties": {
        "type": "start",
        "isom": "312"
      }
    },
    {
      "type": "Feature",
      "geometry": {
        "type": "Point",
        "coordinates": [
          197.7435249444768,
          -202.40304993362835
        ]
      },
      "properties": {
        "type": "end",
        "isom": "419"
      }
    },
    {
      "type": "Feature",
      "geometry": {
        "type": "LineString",
        "coordinates": [
          [
            123.4943424066101,
            -222.3149597427961
          ],
          [
            124.41706919977618,
            -221.94591603407858
          ],
          [
            124.9707040624322,
            -221.76139870267733
          ],
          [
            125.7088757910161,
            -221.7614348863377
          ],
          [
            126.81613945011001,
            -221.5769446926817
          ],
          [
            127.73886624327609,
            -221.20790098396418
          ],
          [
            128.47703797185997,
            -221.20793716762452
          ],
          [
            128.66158090400594,
            -221.20794621353966
          ],
          [
            128.84612383615192,
            -221.2079552594547
          ],
          [
            129.21521576666197,
            -221.0234288821384
          ],
          [
            130.32249155819216,
            -220.46984975018952
          ],
          [
            131.06066328677605,
            -220.46988593384984
          ],
          [
            132.16793301208807,
            -220.10085127104742
          ],
          [
            132.721561808526,
            -220.10087840879265
          ],
          [
            134.01337446598401,
            -219.7318527919053
          ],
          [
            134.8114354328175,
            -219.58712366095614
          ],
          [
            135.67426692151588,
            -219.5473897359946
          ],
          [
            136.41243865009974,
            -219.54742591965496
          ],
          [
            137.3351533108296,
            -219.54747114923038
          ],
          [
            138.62697810072385,
            -218.80935659405006
          ],
          [
            139.18060689716177,
            -218.80938373179532
          ],
          [
            140.28787055625568,
            -218.62489353813936
          ],
          [
            141.02604228483958,
            -218.62492972179973
          ],
          [
            141.21058521698555,
            -218.6249387677148
          ],
          [
            141.39512814913152,
            -218.62494781362986
          ],
          [
            142.13329987771542,
            -218.62498399729023
          ],
          [
            142.87147160629928,
            -218.62502018095057
          ],
          [
            143.60963726866507,
            -218.80960083375743
          ],
          [
            144.34781506346707,
            -218.62509254827125
          ],
          [
            145.08598679205096,
            -218.6251287319316
          ],
          [
            145.82415852063482,
            -218.62516491559197
          ],
          [
            146.56233024921872,
            -218.62520109925228
          ],
          [
            147.3005019778026,
            -218.62523728291265
          ],
          [
            148.0386797726046,
            -218.4407289974265
          ],
          [
            148.77684543497037,
            -218.62530965023336
          ],
          [
            149.51501716355426,
            -218.62534583389368
          ],
          [
            150.6222808226482,
            -218.44085564023771
          ],
          [
            151.3604586174502,
            -218.2563473547516
          ],
          [
            152.09863034603407,
            -218.2563835384119
          ],
          [
            153.20590007134612,
            -217.8873488756095
          ],
          [
            154.15027514508535,
            -217.77372768409148
          ],
          [
            154.868702039141,
            -217.66777183327312
          ],
          [
            155.4204734472542,
            -217.70209893477696
          ],
          [
            155.98599022053023,
            -217.83097890705105
          ],
          [
            156.37691150203423,
            -217.914395950103
          ],
          [
            156.76445206918604,
            -218.22988072477395
          ],
          [
            157.4890301240654,
            -218.99325756352795
          ],
          [
            158.13216147487978,
            -219.79449201035493
          ],
          [
            159.13313082508103,
            -220.42449408578383
          ],
          [
            160.57986000979338,
            -221.22028478157745
          ],
          [
            162.0561152356991,
            -221.9768361535664
          ],
          [
            162.84405415360044,
            -222.12539161363097
          ],
          [
            163.54016620042867,
            -222.08820826663896
          ],
          [
            164.51611144476215,
            -221.8835210338336
          ],
          [
            165.77948903400585,
            -221.06123301291638
          ],
          [
            166.70906113208648,
            -220.3050150792091
          ],
          [
            166.99435305559444,
            -220.03958201328987
          ],
          [
            167.30441513915085,
            -219.78320568040908
          ],
          [
            167.75960965112031,
            -219.6041087820711
          ],
          [
            168.4871848378622,
            -219.49544925435833
          ],
          [
            169.3668701255048,
            -219.23732464462853
          ],
          [
            169.60353067034734,
            -218.79665595009084
          ],
          [
            170.01389009626152,
            -218.56947261582445
          ],
          [
            170.7063912587151,
            -218.74733700224803
          ],
          [
            171.62560280930404,
            -218.9612154004198
          ],
          [
            172.57195957448437,
            -219.13372694960432
          ],
          [
            173.5054223851183,
            -219.1912254003528
          ],
          [
            174.44569645907737,
            -219.15323175691165
          ],
          [
            175.39760952255418,
            -218.91154712895124
          ],
          [
            176.35918846031453,
            -218.36211507531243
          ],
          [
            177.04876289814047,
            -217.73899700983964
          ],
          [
            177.81556229631582,
            -216.82533638969403
          ],
          [
            178.15481308466798,
            -216.2432662351106
          ],
          [
            179.04200763127187,
            -214.9359037973779
          ],
          [
            179.7802036247282,
            -214.19776210445235
          ],
          [
            180.88748548247645,
            -213.45963850335696
          ],
          [
            181.6256814759328,
            -212.72149681043138
          ],
          [
            182.73296333368106,
            -211.98337320933598
          ],
          [
            182.91751233204513,
            -211.79883778610457
          ],
          [
            183.8402573238656,
            -210.87616066994767
          ],
          [
            184.76299624946788,
            -210.13802802293716
          ],
          [
            185.13208817997793,
            -209.95350164562086
          ],
          [
            185.3166432445601,
            -209.58442175324296
          ],
          [
            185.6857533737245,
            -208.84626196848723
          ],
          [
            186.05484530423456,
            -208.66173559117095
          ],
          [
            186.79304129769088,
            -207.92359389824537
          ],
          [
            187.90032315543917,
            -207.18547029714998
          ],
          [
            189.37669087747938,
            -206.44736478788477
          ],
          [
            189.74578280798943,
            -206.2628384105684
          ],
          [
            190.85306466573772,
            -205.52471480947304
          ],
          [
            191.96033439104977,
            -205.15568014667062
          ],
          [
            192.32942632155985,
            -204.9711537693543
          ],
          [
            192.69851218585177,
            -204.97117186118444
          ],
          [
            193.0676041163618,
            -204.78664548386814
          ],
          [
            194.54397183840203,
            -204.04853997460296
          ],
          [
            195.46671076400432,
            -203.31040732759246
          ],
          [
            196.38943755717042,
            -202.94136361887493
          ],
          [
            196.75852948768048,
            -202.75683724155863
          ],
          [
            197.68125628084653,
            -202.3877935328411
          ]
        ]
      },
      "properties": {
        "type": "variant",
        "id": 1,
        "color": "#ff4444",
        "vzdal_m": 2261,
        "prevyseni_m": 12,
        "cas_s": 619,
        "tempo_str": "4:33"
      }
    },
    {
      "type": "Feature",
      "geometry": {
        "type": "LineString",
        "coordinates": [
          [
            123.4943424066101,
            -222.3149597427961
          ],
          [
            123.67889140497418,
            -222.1304243195647
          ],
          [
            124.41709953086674,
            -221.02319368834617
          ],
          [
            125.15529552432307,
            -220.2850519954206
          ],
          [
            125.52439352105122,
            -219.9159811489578
          ],
          [
            125.89348545156128,
            -219.7314547716415
          ],
          [
            126.26257738207133,
            -219.5469283943252
          ],
          [
            127.00074911065522,
            -219.54696457798556
          ],
          [
            127.55438397331125,
            -219.36244724658434
          ],
          [
            127.73893903789345,
            -218.99336735420644
          ],
          [
            127.92349410247563,
            -218.6242874618286
          ],
          [
            128.66169009593196,
            -217.88614576890302
          ],
          [
            129.39989822182451,
            -216.77891513768446
          ],
          [
            130.14360149533246,
            -215.8594142456874
          ],
          [
            130.97141400874366,
            -214.43530336415895
          ],
          [
            131.12282518333484,
            -214.02831556143872
          ],
          [
            131.4786592825261,
            -212.91995844636028
          ],
          [
            132.08875900506024,
            -211.40633995873472
          ],
          [
            132.89239539016882,
            -210.3093428283356
          ],
          [
            133.70107161006248,
            -209.25660766848267
          ],
          [
            133.85882824431846,
            -209.04348941367297
          ],
          [
            134.64411088577666,
            -207.60065316598036
          ],
          [
            134.77709354574972,
            -207.37861243005514
          ],
          [
            135.88817694206773,
            -206.33219431286633
          ],
          [
            136.59033093477362,
            -206.11129306746378
          ],
          [
            137.34498278794965,
            -206.21418707363674
          ],
          [
            137.699108782767,
            -206.28697874333838
          ],
          [
            138.83397310402606,
            -206.52370565106548
          ],
          [
            139.53814674017377,
            -206.68135885200715
          ],
          [
            140.6703630254421,
            -206.94203535226754
          ],
          [
            140.8456187788956,
            -206.98238546651262
          ],
          [
            141.7634285620263,
            -207.18864990871336
          ],
          [
            142.46943042243257,
            -207.33937966217965
          ],
          [
            143.60377963007693,
            -207.58156057699273
          ],
          [
            144.7391048252877,
            -207.81507800362314
          ],
          [
            144.91618717869963,
            -207.85143164494528
          ],
          [
            145.30669629866912,
            -207.93160015528454
          ],
          [
            146.01921559881393,
            -208.03125848829188
          ],
          [
            146.56318251019678,
            -208.10052951514012
          ],
          [
            147.4853893458453,
            -208.1469320727015
          ],
          [
            148.2235610744292,
            -208.14696825636182
          ],
          [
            148.96173280301306,
            -208.1470044400222
          ],
          [
            149.70378381351858,
            -208.1603225935837
          ],
          [
            150.44130337358422,
            -208.1822782369089
          ],
          [
            151.17882293364983,
            -208.20423388023417
          ],
          [
            151.917376259242,
            -208.25460637555832
          ],
          [
            152.65068767591802,
            -208.31433111646587
          ],
          [
            153.36018907810396,
            -208.42893426623868
          ],
          [
            154.2786738967444,
            -208.63257608015087
          ],
          [
            155.39252129150165,
            -208.94300871868595
          ],
          [
            156.4714683617657,
            -209.35069466836623
          ],
          [
            157.8197524210285,
            -209.39852944274864
          ],
          [
            158.5579180833943,
            -209.5831100955555
          ],
          [
            159.2960958781963,
            -209.39860181006932
          ],
          [
            159.66518174248824,
            -209.3986199018995
          ],
          [
            159.84973074085232,
            -209.21408447866813
          ],
          [
            160.7724454015822,
            -209.21412970824355
          ],
          [
            161.51061713016605,
            -209.21416589190386
          ],
          [
            162.43333179089592,
            -209.21421112147934
          ],
          [
            163.17150958569792,
            -209.02970283599316
          ],
          [
            163.9096813142818,
            -209.02973901965353
          ],
          [
            164.64785910908378,
            -208.84523073416742
          ],
          [
            165.38602477144957,
            -209.02981138697422
          ],
          [
            166.12419650003346,
            -209.02984757063456
          ],
          [
            166.86236216239922,
            -209.2144282234414
          ],
          [
            167.7850889555653,
            -208.84538451472386
          ],
          [
            168.5232728165854,
            -208.47633176009126
          ],
          [
            168.89236474709546,
            -208.29180538277495
          ],
          [
            169.9996344724075,
            -207.9227707199725
          ],
          [
            170.55326933506353,
            -207.7382533885713
          ],
          [
            170.7378183334276,
            -207.5537179653399
          ],
          [
            171.66053299415745,
            -207.55376319491532
          ],
          [
            172.58325372110542,
            -207.36926395534428
          ],
          [
            173.32143151590742,
            -207.18475566985816
          ],
          [
            173.6905295126356,
            -206.81568482339537
          ],
          [
            174.4287012412195,
            -206.8157210070557
          ],
          [
            174.9823300376574,
            -206.81574814480098
          ],
          [
            175.90504469838726,
            -206.8157933743764
          ],
          [
            176.82776542533523,
            -206.63129413480536
          ],
          [
            177.56593715391912,
            -206.6313303184657
          ],
          [
            178.304108882503,
            -206.63136650212607
          ],
          [
            179.04228061108688,
            -206.63140268578638
          ],
          [
            179.78044627345264,
            -206.8159833385932
          ],
          [
            180.51862406825464,
            -206.6314750531071
          ],
          [
            181.4413447952026,
            -206.44697581353603
          ],
          [
            182.17951652378648,
            -206.4470119971964
          ],
          [
            182.91768825237037,
            -206.4470481808567
          ],
          [
            183.65586604717237,
            -206.2625398953706
          ],
          [
            184.02495797768242,
            -206.0780135180543
          ],
          [
            184.7631297062663,
            -206.07804970171463
          ],
          [
            185.5013014348502,
            -206.07808588537495
          ],
          [
            186.60857116016226,
            -205.70905122257253
          ],
          [
            187.34674288874615,
            -205.7090874062329
          ],
          [
            188.08492674976623,
            -205.3400346516003
          ],
          [
            188.45401868027628,
            -205.15550827428393
          ],
          [
            189.00765354293236,
            -204.97099094288276
          ],
          [
            189.37674547344238,
            -204.78646456556646
          ],
          [
            190.11491720202625,
            -204.78650074922678
          ],
          [
            190.85308893061014,
            -204.78653693288712
          ],
          [
            192.32945665265038,
            -204.04843142362188
          ],
          [
            192.8830854490883,
            -204.04845856136717
          ],
          [
            193.25217737959835,
            -203.86393218405087
          ],
          [
            194.3594592373466,
            -203.12580858295544
          ],
          [
            195.09763096593048,
            -203.1258447666158
          ],
          [
            195.83580269451437,
            -203.12588095027616
          ],
          [
            196.38943755717042,
            -202.94136361887493
          ],
          [
            196.75852948768048,
            -202.75683724155863
          ],
          [
            197.68125628084653,
            -202.3877935328411
          ]
        ]
      },
      "properties": {
        "type": "variant",
        "id": 2,
        "color": "#4444ff",
        "vzdal_m": 2304,
        "prevyseni_m": 17,
        "cas_s": 616,
        "tempo_str": "4:27"
      }
    },
    {
      "type": "Feature",
      "geometry": {
        "type": "LineString",
        "coordinates": [
          [
            123.4943424066101,
            -222.3149597427961
          ],
          [
            124.4170267362494,
            -223.2377273181039
          ],
          [
            125.89335806098094,
            -223.60688862371754
          ],
          [
            126.81607878792892,
            -223.4223893841465
          ],
          [
            127.92332424836852,
            -223.79153259792997
          ],
          [
            128.6614959769524,
            -223.79156878159034
          ],
          [
            129.39966770553627,
            -223.79160496525066
          ],
          [
            130.13783943412017,
            -223.79164114891103
          ],
          [
            130.32238236626614,
            -223.79165019482613
          ],
          [
            131.0605419624138,
            -224.1607753167794
          ],
          [
            131.42962176048763,
            -224.34533787775607
          ],
          [
            131.79870155856148,
            -224.5299004387327
          ],
          [
            132.16778135663532,
            -224.71446299970935
          ],
          [
            133.7276404339302,
            -225.4072645521266
          ],
          [
            134.75134600937022,
            -225.82185645739943
          ],
          [
            135.4895056055179,
            -226.19098157935275
          ],
          [
            136.41222633246585,
            -226.0064823397817
          ],
          [
            137.15039806104974,
            -226.00651852344203
          ],
          [
            137.8885697896336,
            -226.00655470710237
          ],
          [
            138.6267415182175,
            -226.00659089076274
          ],
          [
            139.3649132468014,
            -226.00662707442308
          ],
          [
            139.91854204323928,
            -226.00665421216834
          ],
          [
            140.84125670396915,
            -226.00669944174376
          ],
          [
            141.76397743091712,
            -225.8222002021727
          ],
          [
            142.50214309328288,
            -226.00678085497955
          ],
          [
            143.24032088808488,
            -225.8222725694934
          ],
          [
            143.97849261666877,
            -225.82230875315372
          ],
          [
            144.3475663485245,
            -226.19141578327688
          ],
          [
            145.82394013678282,
            -225.26876580486518
          ],
          [
            146.56212399780296,
            -224.89971305023255
          ],
          [
            146.93121592831298,
            -224.71518667291625
          ],
          [
            147.11575886045895,
            -224.71519571883135
          ],
          [
            147.30030179260493,
            -224.71520476474643
          ],
          [
            147.4848447247509,
            -224.71521381066154
          ],
          [
            147.66938765689687,
            -224.71522285657662
          ],
          [
            147.85393058904285,
            -224.71523190249167
          ],
          [
            148.03847352118882,
            -224.71524094840677
          ],
          [
            148.22301645333476,
            -224.71524999432185
          ],
          [
            148.40755938548074,
            -224.71525904023696
          ],
          [
            148.5921023176267,
            -224.71526808615204
          ],
          [
            148.96118211570055,
            -224.89983064712868
          ],
          [
            149.69936597672066,
            -224.53077789249608
          ],
          [
            150.0684579072307,
            -224.34625151517977
          ],
          [
            150.43754983774076,
            -224.1617251378635
          ],
          [
            150.8066296358146,
            -224.3462876988401
          ],
          [
            151.72933823032633,
            -224.53087739756205
          ],
          [
            152.46750995891023,
            -224.53091358122236
          ],
          [
            152.83660188942028,
            -224.34638720390606
          ],
          [
            153.20568775371223,
            -224.34640529573625
          ],
          [
            153.57477968422228,
            -224.16187891841994
          ],
          [
            154.68204940953433,
            -223.79284425561747
          ],
          [
            155.39346657787894,
            -223.6792849066983
          ],
          [
            156.52749692964838,
            -223.23930130732893
          ],
          [
            157.26566865823227,
            -223.23933749098924
          ],
          [
            158.18838938518024,
            -223.05483825141823
          ],
          [
            159.1111101121282,
            -222.8703390118472
          ],
          [
            159.84928184071208,
            -222.87037519550753
          ],
          [
            160.21836770500403,
            -222.87039328733766
          ],
          [
            160.58745963551408,
            -222.68586691002136
          ],
          [
            161.51018642868016,
            -222.31682320130383
          ],
          [
            162.4466394144024,
            -222.08111287306548
          ],
          [
            163.17108033613673,
            -222.0881901748088
          ],
          [
            164.15036835918352,
            -222.0595206976551
          ],
          [
            165.60112019073543,
            -221.22781324400674
          ],
          [
            166.53926247160928,
            -220.53916009141767
          ],
          [
            166.99435305559444,
            -220.03958201328987
          ],
          [
            167.30441513915085,
            -219.78320568040908
          ],
          [
            167.75960965112031,
            -219.6041087820711
          ],
          [
            168.4871848378622,
            -219.49544925435833
          ],
          [
            169.3668701255048,
            -219.23732464462853
          ],
          [
            169.60353067034734,
            -218.79665595009084
          ],
          [
            170.01389009626152,
            -218.56947261582445
          ],
          [
            170.7063912587151,
            -218.74733700224803
          ],
          [
            171.62560280930404,
            -218.9612154004198
          ],
          [
            172.57195957448437,
            -219.13372694960432
          ],
          [
            173.5054223851183,
            -219.1912254003528
          ],
          [
            174.44569645907737,
            -219.15323175691165
          ],
          [
            175.39760952255418,
            -218.91154712895124
          ],
          [
            176.089193326356,
            -218.81119291481255
          ],
          [
            176.82736505493986,
            -218.81122909847292
          ],
          [
            177.93464691268815,
            -218.07310549737755
          ],
          [
            178.11919591105223,
            -217.88857007414614
          ],
          [
            178.48828784156228,
            -217.70404369682984
          ],
          [
            179.7801065652384,
            -217.150473610796
          ],
          [
            181.07193135513268,
            -216.4123590556157
          ],
          [
            182.54829907717286,
            -215.67425354635049
          ],
          [
            182.73284807553696,
            -215.48971812311908
          ],
          [
            182.91740314011915,
            -215.12063823074118
          ],
          [
            183.10195820470133,
            -214.75155833836334
          ],
          [
            183.47105013521139,
            -214.56703196104704
          ],
          [
            184.57833199295968,
            -213.8289083599516
          ],
          [
            186.05469971499988,
            -213.09080285068643
          ],
          [
            187.5310674370401,
            -212.3526973414212
          ],
          [
            188.82288616071622,
            -211.79912725538736
          ],
          [
            189.56108215417257,
            -211.06098556246178
          ],
          [
            189.93017408468262,
            -210.87645918514548
          ],
          [
            190.29926601519267,
            -210.6919328078292
          ],
          [
            191.22200494079496,
            -209.9538001608187
          ],
          [
            191.77565800210536,
            -209.21564942197804
          ],
          [
            192.69839692770765,
            -208.47751677496754
          ],
          [
            193.25204392279988,
            -207.9239105052734
          ],
          [
            193.43659898738207,
            -207.5548306128955
          ],
          [
            193.80569698411023,
            -207.18575976643274
          ],
          [
            193.99024598247433,
            -207.00122434320133
          ],
          [
            194.54389297756657,
            -206.4476180735072
          ],
          [
            194.72844804214876,
            -206.0785381811293
          ],
          [
            194.9130213053853,
            -205.15582488131196
          ],
          [
            196.0203152955698,
            -204.04861234192362
          ],
          [
            196.75851128902613,
            -203.31047064899806
          ],
          [
            197.49670728248248,
            -202.5723289560725
          ],
          [
            197.68125628084653,
            -202.3877935328411
          ]
        ]
      },
      "properties": {
        "type": "variant",
        "id": 3,
        "color": "#44ff44",
        "vzdal_m": 2277,
        "prevyseni_m": 15,
        "cas_s": 645,
        "tempo_str": "4:43"
      }
    },
    {
      "type": "Feature",
      "geometry": {
        "type": "LineString",
        "coordinates": [
          [
            123.4943424066101,
            -222.3149597427961
          ],
          [
            123.67889140497418,
            -222.1304243195647
          ],
          [
            124.41709953086674,
            -221.02319368834617
          ],
          [
            124.78619146137679,
            -220.83866731102987
          ],
          [
            126.07801018505293,
            -220.28509722499604
          ],
          [
            126.8161819136368,
            -220.28513340865635
          ],
          [
            127.55435364222068,
            -220.28516959231672
          ],
          [
            128.47707436916863,
            -220.10067035274565
          ],
          [
            129.21524609775253,
            -220.10070653640602
          ],
          [
            130.1379668247005,
            -219.91620729683495
          ],
          [
            130.8761385532844,
            -219.91624348049533
          ],
          [
            131.61431028186828,
            -219.91627966415567
          ],
          [
            132.53703100881623,
            -219.73178042458463
          ],
          [
            133.27520273740012,
            -219.73181660824494
          ],
          [
            134.1979234643481,
            -219.54731736867393
          ],
          [
            135.30518105722393,
            -219.54737164416443
          ],
          [
            136.2279017841719,
            -219.36287240459336
          ],
          [
            137.15062251111985,
            -219.17837316502232
          ],
          [
            138.2578922364319,
            -218.8093385022199
          ],
          [
            138.9960639650158,
            -218.80937468588024
          ],
          [
            139.73423569359966,
            -218.8094108695406
          ],
          [
            140.65695642054763,
            -218.62491162996955
          ],
          [
            141.21058521698555,
            -218.6249387677148
          ],
          [
            141.39512814913152,
            -218.62494781362986
          ],
          [
            142.13329987771542,
            -218.62498399729023
          ],
          [
            142.87147160629928,
            -218.62502018095057
          ],
          [
            143.60964333488317,
            -218.62505636461094
          ],
          [
            144.34781506346707,
            -218.62509254827125
          ],
          [
            145.08598679205096,
            -218.6251287319316
          ],
          [
            145.82415852063482,
            -218.62516491559197
          ],
          [
            146.56233024921872,
            -218.62520109925228
          ],
          [
            147.3005019778026,
            -218.62523728291265
          ],
          [
            148.03867370638648,
            -218.625273466573
          ],
          [
            148.77684543497037,
            -218.62530965023336
          ],
          [
            149.69956616191834,
            -218.4408104106623
          ],
          [
            150.6222868888663,
            -218.25631117109126
          ],
          [
            151.3604586174502,
            -218.2563473547516
          ],
          [
            152.09863034603407,
            -218.2563835384119
          ],
          [
            153.02135107298204,
            -218.0718842988409
          ],
          [
            154.1286207982941,
            -217.70284963603845
          ],
          [
            155.23589052360614,
            -217.33381497323603
          ],
          [
            156.52770924728227,
            -216.78024488720217
          ],
          [
            157.63497897259433,
            -216.41121022439972
          ],
          [
            159.11134669463453,
            -215.6731047151345
          ],
          [
            159.4804386251446,
            -215.4885783378182
          ],
          [
            160.40314721965632,
            -215.67316803654012
          ],
          [
            161.32585581416808,
            -215.85775773526203
          ],
          [
            161.87950887547842,
            -215.11960699642137
          ],
          [
            162.2486068722066,
            -214.75053614995858
          ],
          [
            163.17132759915458,
            -214.56603691038754
          ],
          [
            164.09404832610252,
            -214.38153767081647
          ],
          [
            165.01675692061428,
            -214.5661273695384
          ],
          [
            165.93947764756223,
            -214.38162812996737
          ],
          [
            167.04675950531052,
            -213.64350452887194
          ],
          [
            167.78495549876683,
            -212.9053628359464
          ],
          [
            168.89222522407889,
            -212.53632817314397
          ],
          [
            169.63039695266278,
            -212.53636435680428
          ],
          [
            170.55311767961075,
            -212.35186511723327
          ],
          [
            171.660399537359,
            -211.61374151613785
          ],
          [
            172.7676753288892,
            -211.06016238418894
          ],
          [
            173.13676725939925,
            -210.87563600687264
          ],
          [
            174.42858598307535,
            -210.3220659208388
          ],
          [
            175.7204047067515,
            -209.76849583480498
          ],
          [
            176.45857643533537,
            -209.7685320184653
          ],
          [
            177.38129716228335,
            -209.58403277889428
          ],
          [
            178.85766488432355,
            -208.84592726962904
          ],
          [
            179.9649346096356,
            -208.47689260682662
          ],
          [
            181.07220433494768,
            -208.10785794402415
          ],
          [
            182.36402912484192,
            -207.36974338884386
          ],
          [
            183.2867498517899,
            -207.1852441492728
          ],
          [
            184.39401957710194,
            -206.81620948647037
          ],
          [
            185.87038729914215,
            -206.07810397720513
          ],
          [
            186.9776570244542,
            -205.7090693144027
          ],
          [
            188.08492674976623,
            -205.3400346516003
          ],
          [
            188.45401868027628,
            -205.15550827428393
          ],
          [
            189.00765354293236,
            -204.97099094288276
          ],
          [
            189.37674547344238,
            -204.78646456556646
          ],
          [
            190.11491720202625,
            -204.78650074922678
          ],
          [
            190.85308893061014,
            -204.78653693288712
          ],
          [
            192.32945665265038,
            -204.04843142362188
          ],
          [
            192.8830854490883,
            -204.04845856136717
          ],
          [
            193.25217737959835,
            -203.86393218405087
          ],
          [
            194.3594592373466,
            -203.12580858295544
          ],
          [
            195.09763096593048,
            -203.1258447666158
          ],
          [
            195.83580269451437,
            -203.12588095027616
          ],
          [
            196.38943755717042,
            -202.94136361887493
          ],
          [
            196.75852948768048,
            -202.75683724155863
          ],
          [
            197.68125628084653,
            -202.3877935328411
          ]
        ]
      },
      "properties": {
        "type": "variant",
        "id": 4,
        "color": "#ffaa00",
        "vzdal_m": 2146,
        "prevyseni_m": 28,
        "cas_s": 633,
        "tempo_str": "4:54"
      }
    }
  ]
}