{
  "type": "FeatureCollection",
  "features": [
    {
      "type": "Feature",
      "geometry": {
        "type": "Point",
        "coordinates": [
          159.80832853866227,
          -73.14545009692696
        ]
      },
      "properties": {
        "type": "start",
        "isom": "417"
      }
    },
    {
      "type": "Feature",
      "geometry": {
        "type": "Point",
        "coordinates": [
          215.89498066641536,
          -136.19941055435223
        ]
      },
      "properties": {
        "type": "end",
        "isom": "417"
      }
    },
    {
      "type": "Feature",
      "geometry": {
        "type": "LineString",
        "coordinates": [
          [
            159.90887772298944,
            -73.1880533964355
          ],
          [
            162.1229830340345,
            -78.35543916709696
          ],
          [
            165.0751936878777,
            -84.2610235273078
          ],
          [
            167.28945703693478,
            -87.21381679645931
          ],
          [
            168.02750970039557,
            -88.69021288651203
          ],
          [
            168.76556236385636,
            -90.16660897656473
          ],
          [
            171.7179310557116,
            -93.85760083526566
          ],
          [
            173.93224708410605,
            -96.07219660391387
          ],
          [
            176.14651043316314,
            -99.02498987306538
          ],
          [
            176.88456309662394,
            -100.50138596311808
          ],
          [
            177.62261576008476,
            -101.97778205317081
          ],
          [
            178.3606157442082,
            -104.19237564372682
          ],
          [
            179.09851036965694,
            -107.88336423528945
          ],
          [
            181.31261568070198,
            -113.0507500059509
          ],
          [
            182.78872100762356,
            -116.00354218605631
          ],
          [
            183.52677367108438,
            -117.47993827610904
          ],
          [
            185.00303703601801,
            -118.21813795470452
          ],
          [
            185.74108969947883,
            -119.69453404475725
          ],
          [
            186.47919504227696,
            -120.43273263430663
          ],
          [
            187.9554584072106,
            -121.17093231290214
          ],
          [
            190.90787977840318,
            -124.12372667109975
          ],
          [
            195.3366171938668,
            -127.07652320738956
          ],
          [
            200.5035653108032,
            -129.29112333222216
          ],
          [
            206.40861877053783,
            -132.24392204660418
          ],
          [
            210.0993035225406,
            -133.72032249284126
          ],
          [
            215.26625163947705,
            -135.93492261767386
          ],
          [
            216.00440966161253,
            -135.93492370671996
          ]
        ]
      },
      "properties": {
        "type": "variant",
        "id": 1,
        "color": "#ff4444",
        "vzdal_m": 601,
        "prevyseni_m": 8,
        "cas_s": 168,
        "tempo_str": "4:38"
      }
    },
    {
      "type": "Feature",
      "geometry": {
        "type": "LineString",
        "coordinates": [
          [
            159.90887772298944,
            -73.1880533964355
          ],
          [
            165.07577316058854,
            -76.14085102177143
          ],
          [
            166.5520365255222,
            -76.87905070036693
          ],
          [
            172.45708998525677,
            -79.83184941474893
          ],
          [
            176.14766937858485,
            -82.78464486199265
          ],
          [
            177.62388006418118,
            -84.26104204109144
          ],
          [
            178.36193272764194,
            -85.73743813114416
          ],
          [
            182.05251212097005,
            -88.69023357838788
          ],
          [
            185.0048808128253,
            -92.3812254370888
          ],
          [
            187.95724950468053,
            -96.07221729578973
          ],
          [
            190.9095128378611,
            -101.23960415549725
          ],
          [
            195.33825025332467,
            -104.19240069178706
          ],
          [
            198.29061894517992,
            -107.88339255048798
          ],
          [
            201.98125101784535,
            -110.09799049722838
          ],
          [
            203.4574090241043,
            -112.3125851768305
          ],
          [
            204.19551436690244,
            -113.05078376637991
          ],
          [
            204.93356703036324,
            -114.52717985643262
          ],
          [
            205.67146165581198,
            -118.21816844799524
          ],
          [
            205.67140897647462,
            -118.95636594849854
          ],
          [
            206.40946163993542,
            -120.43276203855127
          ],
          [
            207.88551428751967,
            -124.12375171915998
          ],
          [
            211.57609368084775,
            -127.0765471664037
          ],
          [
            213.7904097092422,
            -129.2911429350519
          ],
          [
            214.528462372703,
            -130.76753902510464
          ],
          [
            215.2665150361638,
            -132.24393511515734
          ],
          [
            216.00440966161253,
            -135.93492370671996
          ]
        ]
      },
      "properties": {
        "type": "variant",
        "id": 2,
        "color": "#4444ff",
        "vzdal_m": 593,
        "prevyseni_m": 3,
        "cas_s": 170,
        "tempo_str": "4:46"
      }
    },
    {
      "type": "Feature",
      "geometry": {
        "type": "LineString",
        "coordinates": [
          [
            159.90887772298944,
            -73.1880533964355
          ],
          [
            162.1229830340345,
            -78.35543916709696
          ],
          [
            165.0751936878777,
            -84.2610235273078
          ],
          [
            167.28945703693478,
            -87.21381679645931
          ],
          [
            168.02750970039557,
            -88.69021288651203
          ],
          [
            168.76556236385636,
            -90.16660897656473
          ],
          [
            171.7179310557116,
            -93.85760083526566
          ],
          [
            174.6703524269042,
            -96.81039519346326
          ],
          [
            177.6227737980968,
            -99.76318955166089
          ],
          [
            182.0515112135604,
            -102.7159860879507
          ],
          [
            185.003932584753,
            -105.6687804461483
          ],
          [
            188.69451197808107,
            -108.62157589339202
          ],
          [
            190.1707753430147,
            -109.35977557198753
          ],
          [
            192.38519673008386,
            -110.09797633962913
          ],
          [
            193.12324939354465,
            -111.57437242968183
          ],
          [
            193.12314403486997,
            -113.05076743068844
          ],
          [
            193.86119669833076,
            -114.52716352074117
          ],
          [
            193.86098598098135,
            -117.4799535227544
          ],
          [
            197.55172341232148,
            -118.21815646848817
          ],
          [
            200.50435550086348,
            -118.21816082467257
          ],
          [
            204.19509293220364,
            -118.95636377040637
          ],
          [
            204.93314559566443,
            -120.43275986045907
          ],
          [
            207.88551428751967,
            -124.12375171915998
          ],
          [
            211.57609368084775,
            -127.0765471664037
          ],
          [
            213.7904097092422,
            -129.2911429350519
          ],
          [
            214.528462372703,
            -130.76753902510464
          ],
          [
            215.2665150361638,
            -132.24393511515734
          ],
          [
            216.00440966161253,
            -135.93492370671996
          ]
        ]
      },
      "properties": {
        "type": "variant",
        "id": 3,
        "color": "#44ff44",
        "vzdal_m": 610,
        "prevyseni_m": 6,
        "cas_s": 167,
        "tempo_str": "4:34"
      }
    }
  ]
}