{
  "type": "FeatureCollection",
  "features": [
    {
      "type": "Feature",
      "geometry": {
        "type": "Point",
        "coordinates": [
          101.32778884428066,
          -154.494831870854
        ]
      },
      "properties": {
        "type": "start",
        "isom": "419"
      }
    },
    {
      "type": "Feature",
      "geometry": {
        "type": "Point",
        "coordinates": [
          130.0615039072748,
          -183.39530868673535
        ]
      },
      "properties": {
        "type": "end",
        "isom": "417"
      }
    },
    {
      "type": "Feature",
      "geometry": {
        "type": "LineString",
        "coordinates": [
          [
            101.45996437663081,
            -154.45418730469217
          ],
          [
            103.3053855405607,
            -155.93067198683272
          ],
          [
            105.15079230321052,
            -157.77626320565776
          ],
          [
            106.25800755824021,
            -159.62183101032176
          ],
          [
            108.10344312345019,
            -160.72920915577785
          ],
          [
            109.57975413228995,
            -162.57478866752234
          ],
          [
            111.05607954240979,
            -164.05126164258238
          ],
          [
            112.53240495252963,
            -165.5277346176424
          ],
          [
            114.00867275752908,
            -168.48063373944032
          ],
          [
            114.74677785746863,
            -170.69529637370826
          ],
          [
            115.11583040743838,
            -171.8026276908422
          ],
          [
            117.33036172645845,
            -172.9100175433788
          ],
          [
            117.69942867770831,
            -173.64824232382833
          ],
          [
            118.80661513017779,
            -176.23202320186124
          ],
          [
            120.6520218928276,
            -178.07761442068627
          ],
          [
            122.86655321184764,
            -179.18500427322292
          ],
          [
            123.23562016309752,
            -179.9232290536724
          ],
          [
            123.23560576181742,
            -180.29233559035686
          ],
          [
            123.23559136053733,
            -180.66144212704134
          ],
          [
            124.71194557321738,
            -181.3997020287324
          ],
          [
            125.4501226795574,
            -181.76883197957798
          ],
          [
            126.18831418717751,
            -181.76885539373902
          ],
          [
            128.77194126000762,
            -182.8762569533562
          ],
          [
            129.87921412015768,
            -183.24539861128227
          ]
        ]
      },
      "properties": {
        "type": "variant",
        "id": 1,
        "color": "#ff4444",
        "vzdal_m": 577,
        "prevyseni_m": 33,
        "cas_s": 236,
        "tempo_str": "6:49"
      }
    },
    {
      "type": "Feature",
      "geometry": {
        "type": "LineString",
        "coordinates": [
          [
            101.45996437663081,
            -154.45418730469217
          ],
          [
            102.93634739187105,
            -154.45423413301432
          ],
          [
            105.1508931121712,
            -155.19251744886645
          ],
          [
            107.36541002991116,
            -156.66901383808755
          ],
          [
            110.68722861036139,
            -157.7764388118658
          ],
          [
            113.63996583828165,
            -158.51474554187902
          ],
          [
            116.22357850983168,
            -159.99125363818067
          ],
          [
            119.17628693519174,
            -161.46777344156283
          ],
          [
            120.6526123453116,
            -162.94424641662286
          ],
          [
            122.12892335415135,
            -164.78982592836738
          ],
          [
            122.49799030540119,
            -165.52805070881683
          ],
          [
            122.86707165793116,
            -165.89716895258186
          ],
          [
            123.23613860918103,
            -166.63539373303135
          ],
          [
            124.71242081546059,
            -169.21918631814478
          ],
          [
            126.18873182430032,
            -171.0647658298893
          ],
          [
            129.1414402496604,
            -172.54128563327146
          ],
          [
            130.61778006106033,
            -173.64865207164704
          ],
          [
            132.0940910699001,
            -175.49423158339155
          ],
          [
            133.57037327617962,
            -178.07802416850498
          ],
          [
            133.9394546287096,
            -178.44714241227
          ],
          [
            134.30852157995946,
            -179.18536719271947
          ],
          [
            134.30850717867938,
            -179.55447372940395
          ],
          [
            133.93938262230913,
            -180.29267509569237
          ],
          [
            132.4629276006684,
            -182.1381609507926
          ],
          [
            130.6174056277778,
            -183.24542202544336
          ],
          [
            129.87921412015768,
            -183.24539861128227
          ]
        ]
      },
      "properties": {
        "type": "variant",
        "id": 2,
        "color": "#4444ff",
        "vzdal_m": 671,
        "prevyseni_m": 25,
        "cas_s": 230,
        "tempo_str": "5:42"
      }
    }
  ]
}