{
  "type": "FeatureCollection",
  "features": [
    {
      "type": "Feature",
      "geometry": {
        "type": "Point",
        "coordinates": [
          127.94364574293363,
          -223.33324313720357
        ]
      },
      "properties": {
        "type": "start",
        "isom": "115"
      }
    },
    {
      "type": "Feature",
      "geometry": {
        "type": "Point",
        "coordinates": [
          201.0209421846989,
          -230.2834481548221
        ]
      },
      "properties": {
        "type": "end",
        "isom": "526"
      }
    },
    {
      "type": "Feature",
      "geometry": {
        "type": "LineString",
        "coordinates": [
          [
            127.89208031458662,
            -223.3257381287835
          ],
          [
            128.81478890909838,
            -223.51032782750542
          ],
          [
            129.55296063768225,
            -223.51036401116576
          ],
          [
            130.29113236626614,
            -223.51040019482613
          ],
          [
            131.0292919624138,
            -223.8795253167794
          ],
          [
            131.39837176048763,
            -224.06408787775607
          ],
          [
            131.76745155856148,
            -224.2486504387327
          ],
          [
            132.13653135663532,
            -224.43321299970935
          ],
          [
            133.6963904339302,
            -225.1260145521266
          ],
          [
            134.72009600937022,
            -225.54060645739943
          ],
          [
            135.8273293373736,
            -226.27883860947586
          ],
          [
            137.488197528033,
            -226.83255343015108
          ],
          [
            138.5954308560364,
            -227.5707855822275
          ],
          [
            140.07175004833172,
            -228.3090358261341
          ],
          [
            141.54806924062706,
            -229.04728607004074
          ],
          [
            143.02438843292236,
            -229.78553631394732
          ],
          [
            143.94707882877978,
            -230.52375942010866
          ],
          [
            144.8697874232915,
            -230.7083491188306
          ],
          [
            146.16155761722277,
            -231.63113478596858
          ],
          [
            147.82242580788215,
            -232.18484960664378
          ],
          [
            149.2987450001775,
            -232.9230998505504
          ],
          [
            150.22145359468925,
            -233.1076895492723
          ],
          [
            151.14416218920098,
            -233.2922792479942
          ],
          [
            151.88233391778488,
            -233.29231543165454
          ],
          [
            152.62050564636877,
            -233.2923516153149
          ],
          [
            153.35867737495263,
            -233.29238779897523
          ],
          [
            154.09684910353653,
            -233.2924239826356
          ],
          [
            155.20409456397613,
            -233.66156719641907
          ],
          [
            155.75772336041405,
            -233.66159433416433
          ],
          [
            156.68043195492578,
            -233.8461840328862
          ],
          [
            157.6031405494375,
            -234.03077373160812
          ],
          [
            158.48656043093175,
            -234.36548949397505
          ],
          [
            159.61324103838712,
            -234.66036908612912
          ],
          [
            160.52201185603897,
            -234.8982164106481
          ],
          [
            161.63554826933913,
            -235.21390548158607
          ],
          [
            162.7321026947343,
            -235.6124645347617
          ],
          [
            164.0819244928366,
            -235.98691032162887
          ],
          [
            164.47242726655483,
            -236.0914184313763
          ],
          [
            164.81685113766468,
            -236.1835946978311
          ],
          [
            165.20735391138285,
            -236.28810280757853
          ],
          [
            165.55177778249268,
            -236.3802790740333
          ],
          [
            167.0147512280466,
            -236.43031317218174
          ],
          [
            168.49111895008681,
            -235.69220766291656
          ],
          [
            169.96748667212705,
            -234.95410215365132
          ],
          [
            171.44385439416726,
            -234.2159966443861
          ],
          [
            172.92022211620747,
            -233.47789113512087
          ],
          [
            174.2120469061017,
            -232.73977657994055
          ],
          [
            175.6884146281419,
            -232.00167107067534
          ],
          [
            177.16478235018215,
            -231.2635655614101
          ],
          [
            178.64115007222236,
            -230.52546005214492
          ],
          [
            180.11751779426257,
            -229.78735454287968
          ],
          [
            181.59388551630278,
            -229.04924903361442
          ],
          [
            182.88571030619704,
            -228.31113447843413
          ],
          [
            184.36207802823725,
            -227.57302896916892
          ],
          [
            185.83844575027746,
            -226.83492345990368
          ],
          [
            187.31481347231767,
            -226.09681795063847
          ],
          [
            188.79118119435788,
            -225.35871244137323
          ],
          [
            189.16027312486798,
            -225.17418606405693
          ],
          [
            189.34481605701393,
            -225.17419510997203
          ],
          [
            189.71390798752398,
            -224.9896687326557
          ],
          [
            190.08299385181593,
            -224.9896868244859
          ],
          [
            190.45208578232598,
            -224.80516044716958
          ],
          [
            191.19025751090987,
            -224.80519663082993
          ],
          [
            192.11296610542158,
            -224.98978632955183
          ],
          [
            193.03567469993334,
            -225.17437602827374
          ],
          [
            193.77384642851723,
            -225.17441221193408
          ],
          [
            194.696555023029,
            -225.359001910656
          ],
          [
            195.25017775324878,
            -225.5435735175477
          ],
          [
            196.72649694554408,
            -226.28182376145435
          ],
          [
            197.09557674361793,
            -226.46638632243102
          ],
          [
            197.6491873414015,
            -227.0200468676157
          ],
          [
            197.83371814111126,
            -227.38914485182372
          ],
          [
            198.5718595386046,
            -228.31190338121647
          ],
          [
            198.75639033831436,
            -228.68100136542452
          ],
          [
            199.49453780202577,
            -229.41921542567076
          ],
          [
            199.86361153388148,
            -229.7883224557939
          ],
          [
            200.23269133195532,
            -229.97288501677056
          ],
          [
            200.97085092810298,
            -230.34201013872388
          ]
        ]
      },
      "properties": {
        "type": "variant",
        "id": 1,
        "color": "#ff4444",
        "vzdal_m": 2189,
        "prevyseni_m": 6,
        "cas_s": 574,
        "tempo_str": "4:21"
      }
    },
    {
      "type": "Feature",
      "geometry": {
        "type": "LineString",
        "coordinates": [
          [
            127.89208031458662,
            -223.3257381287835
          ],
          [
            128.81478890909838,
            -223.51032782750542
          ],
          [
            129.55296063768225,
            -223.51036401116576
          ],
          [
            130.29113236626614,
            -223.51040019482613
          ],
          [
            131.0292919624138,
            -223.8795253167794
          ],
          [
            131.39837176048763,
            -224.06408787775607
          ],
          [
            131.76745155856148,
            -224.2486504387327
          ],
          [
            132.13653135663532,
            -224.43321299970935
          ],
          [
            133.6963904339302,
            -225.1260145521266
          ],
          [
            134.72009600937022,
            -225.54060645739943
          ],
          [
            135.4582556055179,
            -225.90973157935275
          ],
          [
            136.38097633246585,
            -225.7252323397817
          ],
          [
            137.11914806104974,
            -225.72526852344203
          ],
          [
            137.8573197896336,
            -225.72530470710237
          ],
          [
            138.5954915182175,
            -225.72534089076274
          ],
          [
            139.3336632468014,
            -225.72537707442308
          ],
          [
            139.88729204323928,
            -225.72540421216834
          ],
          [
            140.81000670396915,
            -225.72544944174376
          ],
          [
            141.73272743091712,
            -225.5409502021727
          ],
          [
            142.47089309328288,
            -225.72553085497955
          ],
          [
            143.20907088808488,
            -225.5410225694934
          ],
          [
            143.94724261666877,
            -225.54105875315372
          ],
          [
            144.3163163485245,
            -225.91016578327688
          ],
          [
            145.79269013678282,
            -224.98751580486518
          ],
          [
            146.53087399780296,
            -224.61846305023255
          ],
          [
            146.89996592831298,
            -224.43393667291625
          ],
          [
            147.08450886045895,
            -224.43394571883135
          ],
          [
            147.26905179260493,
            -224.43395476474643
          ],
          [
            147.4535947247509,
            -224.43396381066154
          ],
          [
            147.63813765689687,
            -224.43397285657662
          ],
          [
            147.82268058904285,
            -224.43398190249167
          ],
          [
            148.00722352118882,
            -224.43399094840677
          ],
          [
            148.19176645333476,
            -224.43399999432185
          ],
          [
            148.37630938548074,
            -224.43400904023696
          ],
          [
            148.5608523176267,
            -224.43401808615204
          ],
          [
            148.92993211570055,
            -224.61858064712868
          ],
          [
            149.66811597672066,
            -224.24952789249608
          ],
          [
            150.0372079072307,
            -224.06500151517977
          ],
          [
            150.40629983774076,
            -223.8804751378635
          ],
          [
            150.7753796358146,
            -224.0650376988401
          ],
          [
            151.69808823032633,
            -224.24962739756205
          ],
          [
            152.43625995891023,
            -224.24966358122236
          ],
          [
            153.17443775371223,
            -224.06515529573625
          ],
          [
            153.54352968422228,
            -223.88062891841994
          ],
          [
            154.65079940953433,
            -223.51159425561747
          ],
          [
            155.36221657787894,
            -223.3980349066983
          ],
          [
            156.68078986179435,
            -222.958060353244
          ],
          [
            157.41896159037825,
            -222.95809653690435
          ],
          [
            158.5262313156903,
            -222.58906187410193
          ],
          [
            159.26440304427416,
            -222.58909805776224
          ],
          [
            160.00257477285805,
            -222.5891342414226
          ],
          [
            161.1098444981701,
            -222.2200995786202
          ],
          [
            161.47893642868016,
            -222.03557320130383
          ],
          [
            162.4153894144024,
            -221.79986287306548
          ],
          [
            163.13983033613673,
            -221.8069401748088
          ],
          [
            164.11911835918352,
            -221.7782706976551
          ],
          [
            165.56987019073543,
            -220.94656324400674
          ],
          [
            166.50801247160928,
            -220.25791009141767
          ],
          [
            166.96310305559444,
            -219.75833201328987
          ],
          [
            167.27316513915085,
            -219.50195568040908
          ],
          [
            167.72835965112031,
            -219.3228587820711
          ],
          [
            168.4559348378622,
            -219.21419925435833
          ],
          [
            169.3356201255048,
            -218.95607464462853
          ],
          [
            169.57228067034734,
            -218.51540595009084
          ],
          [
            169.98264009626152,
            -218.28822261582445
          ],
          [
            170.6751412587151,
            -218.46608700224803
          ],
          [
            171.59435280930404,
            -218.6799654004198
          ],
          [
            172.54070957448437,
            -218.85247694960432
          ],
          [
            173.4741723851183,
            -218.9099754003528
          ],
          [
            174.41444645907737,
            -218.87198175691165
          ],
          [
            175.36635952255418,
            -218.63029712895124
          ],
          [
            176.057943326356,
            -218.52994291481255
          ],
          [
            176.79611505493986,
            -218.52997909847292
          ],
          [
            177.90339691268815,
            -217.79185549737755
          ],
          [
            178.08794591105223,
            -217.60732007414614
          ],
          [
            178.45703784156228,
            -217.42279369682984
          ],
          [
            179.0106727042183,
            -217.2382763654286
          ],
          [
            179.37975250229215,
            -217.42283892640526
          ],
          [
            179.74883230036596,
            -217.6074014873819
          ],
          [
            180.1179060322217,
            -217.97650851750504
          ],
          [
            180.4869858302955,
            -218.1610710784817
          ],
          [
            181.77876209044487,
            -218.8993122764732
          ],
          [
            182.88600755088447,
            -219.26845549025668
          ],
          [
            183.62417927946836,
            -219.26849167391703
          ],
          [
            184.73142473990796,
            -219.63763488770053
          ],
          [
            186.02320706627543,
            -220.19133161654557
          ],
          [
            187.3149893926429,
            -220.7450283453906
          ],
          [
            188.7913085849382,
            -221.48327858929719
          ],
          [
            190.0830909113057,
            -222.03697531814223
          ],
          [
            191.1903363717453,
            -222.40611853192573
          ],
          [
            192.11304496625706,
            -222.5907082306476
          ],
          [
            193.22029042669666,
            -222.9598514444311
          ],
          [
            194.14296869011787,
            -224.0671634888854
          ],
          [
            194.3275055560457,
            -224.25171700394696
          ],
          [
            194.51203635575547,
            -224.62081498815502
          ],
          [
            195.61925755132262,
            -225.7281360785244
          ],
          [
            196.72649694554408,
            -226.28182376145435
          ],
          [
            197.09557674361793,
            -226.46638632243102
          ],
          [
            197.6491873414015,
            -227.0200468676157
          ],
          [
            197.83371814111126,
            -227.38914485182372
          ],
          [
            198.5718595386046,
            -228.31190338121647
          ],
          [
            198.75639033831436,
            -228.68100136542452
          ],
          [
            199.49453780202577,
            -229.41921542567076
          ],
          [
            199.86361153388148,
            -229.7883224557939
          ],
          [
            200.23269133195532,
            -229.97288501677056
          ],
          [
            200.97085092810298,
            -230.34201013872388
          ]
        ]
      },
      "properties": {
        "type": "variant",
        "id": 2,
        "color": "#4444ff",
        "vzdal_m": 2190,
        "prevyseni_m": 13,
        "cas_s": 596,
        "tempo_str": "4:32"
      }
    },
    {
      "type": "Feature",
      "geometry": {
        "type": "LineString",
        "coordinates": [
          [
            127.89208031458662,
            -223.3257381287835
          ],
          [
            128.81478890909838,
            -223.51032782750542
          ],
          [
            129.55296063768225,
            -223.51036401116576
          ],
          [
            130.29113236626614,
            -223.51040019482613
          ],
          [
            131.0292919624138,
            -223.8795253167794
          ],
          [
            131.39837176048763,
            -224.06408787775607
          ],
          [
            131.76745155856148,
            -224.2486504387327
          ],
          [
            132.13653135663532,
            -224.43321299970935
          ],
          [
            132.32106822256316,
            -224.61776651477092
          ],
          [
            132.690148020637,
            -224.80232907574756
          ],
          [
            133.25781603483554,
            -225.199550622749
          ],
          [
            133.77385901032972,
            -225.26841003901632
          ],
          [
            134.25233284430203,
            -226.1478958604817
          ],
          [
            134.99068686308985,
            -227.4458815153803
          ],
          [
            135.67786790147306,
            -228.58328435703177
          ],
          [
            136.44460081917694,
            -229.8574546223845
          ],
          [
            137.20262150099035,
            -231.133814286598
          ],
          [
            137.90256213057066,
            -232.44143471715807
          ],
          [
            138.54277226339488,
            -233.569557242253
          ],
          [
            140.00623132462246,
            -234.34014910915744
          ],
          [
            141.37589464353158,
            -234.72534012412433
          ],
          [
            142.11127076321688,
            -234.84792732659255
          ],
          [
            142.676106997277,
            -234.87810405468448
          ],
          [
            143.06624347855765,
            -234.98771400243388
          ],
          [
            143.40833359514855,
            -235.08382518814514
          ],
          [
            143.79857700849243,
            -235.19587221329505
          ],
          [
            144.23697705653038,
            -235.3732608810586
          ],
          [
            144.55249934288884,
            -235.6579129554408
          ],
          [
            145.0981758503859,
            -236.51770664436393
          ],
          [
            145.91729772431384,
            -237.7922494626148
          ],
          [
            146.82220375362044,
            -238.55102294564134
          ],
          [
            148.1458281533056,
            -239.11184678332003
          ],
          [
            149.30058440638734,
            -239.4566207114747
          ],
          [
            150.52262457616777,
            -240.05463828638824
          ],
          [
            151.23861615818677,
            -240.46266453233815
          ],
          [
            152.4357443303708,
            -239.93594345867302
          ],
          [
            153.17391605895466,
            -239.9359796423334
          ],
          [
            153.91208778753855,
            -239.93601582599374
          ],
          [
            154.65025951612245,
            -239.93605200965405
          ],
          [
            155.94206610736234,
            -239.7515708619132
          ],
          [
            156.31114590543618,
            -239.93613342288984
          ],
          [
            157.41837923343954,
            -240.6743655749663
          ],
          [
            158.52562469387914,
            -241.0435087887498
          ],
          [
            158.89471662438922,
            -240.85898241143343
          ],
          [
            159.26380855489927,
            -240.67445603411713
          ],
          [
            159.63290048540932,
            -240.48992965680083
          ],
          [
            160.00199241591937,
            -240.30540327948452
          ],
          [
            160.37108434642943,
            -240.12087690216825
          ],
          [
            160.74017627693948,
            -239.93635052485195
          ],
          [
            161.6628788052331,
            -240.3054846927203
          ],
          [
            162.401050533817,
            -240.30552087638068
          ],
          [
            163.1392222624009,
            -240.305557060041
          ],
          [
            164.43101672120457,
            -240.49016485059306
          ],
          [
            165.16920058222468,
            -240.12111209596046
          ],
          [
            165.90737231080857,
            -240.12114827962083
          ],
          [
            166.8300930377565,
            -239.9366490400498
          ],
          [
            168.30646075979675,
            -239.19854353078452
          ],
          [
            169.59828554969098,
            -238.46042897560423
          ],
          [
            170.89011033958522,
            -237.7223144204239
          ],
          [
            172.18193512947946,
            -236.9841998652436
          ],
          [
            173.47375991937372,
            -236.24608531006328
          ],
          [
            174.58102964468574,
            -235.87705064726086
          ],
          [
            175.5037503716337,
            -235.69255140768982
          ],
          [
            176.05737916807163,
            -235.69257854543505
          ],
          [
            176.4264710985817,
            -235.50805216811875
          ],
          [
            177.9028388206219,
            -234.76994665885357
          ],
          [
            179.19466361051616,
            -234.03183210367325
          ],
          [
            179.93285960397247,
            -233.2936904107477
          ],
          [
            180.8555924633567,
            -232.7401022328837
          ],
          [
            181.9628379237963,
            -233.10924544666713
          ],
          [
            182.70100965238015,
            -233.1092816303275
          ],
          [
            183.80825511281975,
            -233.47842484411098
          ],
          [
            184.54642684140364,
            -233.4784610277713
          ],
          [
            185.46914756835162,
            -233.29396178820025
          ],
          [
            186.57641729366367,
            -232.92492712539783
          ],
          [
            187.31458902224756,
            -232.92496330905817
          ],
          [
            188.2372976167593,
            -233.10955300778008
          ],
          [
            188.9754693453432,
            -233.10958919144045
          ],
          [
            189.71364107392708,
            -233.10962537510076
          ],
          [
            190.45181280251097,
            -233.1096615587611
          ],
          [
            191.18998453109486,
            -233.10969774242147
          ],
          [
            191.92815625967873,
            -233.10973392608182
          ],
          [
            192.66632798826262,
            -233.10977010974213
          ],
          [
            193.40449971684652,
            -233.1098062934025
          ],
          [
            194.32721437757635,
            -233.10985152297792
          ],
          [
            195.61903916747062,
            -232.3717369677976
          ],
          [
            196.72631495900075,
            -231.8181578358487
          ],
          [
            198.38722561318696,
            -231.08006137249856
          ],
          [
            199.67903827064498,
            -230.71103575561122
          ],
          [
            200.60176506381103,
            -230.3419920468937
          ],
          [
            200.97085092810298,
            -230.34201013872388
          ]
        ]
      },
      "properties": {
        "type": "variant",
        "id": 3,
        "color": "#44ff44",
        "vzdal_m": 2274,
        "prevyseni_m": 5,
        "cas_s": 604,
        "tempo_str": "4:25"
      }
    }
  ]
}