{
  "type": "FeatureCollection",
  "features": [
    {
      "type": "Feature",
      "geometry": {
        "type": "Point",
        "coordinates": [
          80.47193631019037,
          -77.92624360466468
        ]
      },
      "properties": {
        "type": "start",
        "isom": "417"
      }
    },
    {
      "type": "Feature",
      "geometry": {
        "type": "Point",
        "coordinates": [
          58.16199716396397,
          -94.47694344294038
        ]
      },
      "properties": {
        "type": "end",
        "isom": "419"
      }
    },
    {
      "type": "Feature",
      "geometry": {
        "type": "LineString",
        "coordinates": [
          [
            80.47937073537999,
            -77.94039354225642
          ],
          [
            80.11029093730619,
            -77.75583098024354
          ],
          [
            79.46437854235913,
            -78.1248882566157
          ],
          [
            79.0030121126671,
            -78.40168234468905
          ],
          [
            78.81845098186682,
            -78.955306706251
          ],
          [
            78.72616435024857,
            -79.41666335633721
          ],
          [
            78.48985200167571,
            -80.02818020917293
          ],
          [
            78.51422379894834,
            -80.34799866675668
          ],
          [
            78.65478742380023,
            -80.7941448793626
          ],
          [
            78.85745765803053,
            -81.45893845742023
          ],
          [
            78.95852476935525,
            -81.810671779125
          ],
          [
            78.91061628912291,
            -82.18483944226979
          ],
          [
            78.84611867426166,
            -82.66269418283451
          ],
          [
            78.4617562488518,
            -83.02917971517823
          ],
          [
            78.0502976494492,
            -83.34417440629811
          ],
          [
            77.70546306607181,
            -83.74851258191724
          ],
          [
            77.36699312811479,
            -84.14225707357795
          ],
          [
            77.00005272440532,
            -84.519663592404
          ],
          [
            76.51691106757178,
            -84.81731866200684
          ],
          [
            75.93775312942637,
            -85.20056955107518
          ],
          [
            75.35432773757468,
            -85.65527220475022
          ],
          [
            74.87627867273994,
            -86.00775238449803
          ],
          [
            74.39413855310433,
            -86.34381381466824
          ],
          [
            73.85166403989396,
            -86.75730426709967
          ],
          [
            73.36586699962174,
            -87.06669516898776
          ],
          [
            72.99449776654478,
            -87.43453085450035
          ],
          [
            72.63021289838974,
            -87.81038937172832
          ],
          [
            72.18635003948401,
            -88.21801216646946
          ],
          [
            71.43641825268708,
            -88.55125725597159
          ],
          [
            71.06733238839517,
            -88.55123916326397
          ],
          [
            70.60597202492124,
            -88.64348878203207
          ],
          [
            70.23688616062934,
            -88.64347068932445
          ],
          [
            69.59097376568228,
            -89.0125279656966
          ],
          [
            69.2218727358451,
            -89.4738710462521
          ],
          [
            68.67048307512304,
            -89.63407392159735
          ],
          [
            68.4769287421862,
            -89.63431838997188
          ],
          [
            68.02076493364198,
            -90.02602684524497
          ],
          [
            67.7627307421073,
            -90.16526631000391
          ],
          [
            67.43587659216732,
            -90.15636148369722
          ],
          [
            67.12298640128343,
            -90.42119566778608
          ],
          [
            66.64607016824037,
            -90.77497387700438
          ],
          [
            66.07259232904914,
            -91.11262938322805
          ],
          [
            65.534659129585,
            -91.47838518808857
          ],
          [
            65.16490450366048,
            -91.87618652698997
          ],
          [
            64.76959171939751,
            -92.23385146572134
          ],
          [
            64.52361593423879,
            -92.61222717823738
          ],
          [
            64.18191667060835,
            -93.0224491486091
          ],
          [
            63.51672577599407,
            -93.37366602556983
          ],
          [
            62.855005924455796,
            -93.62581132050067
          ],
          [
            62.38628814953158,
            -93.55804015947106
          ],
          [
            61.95444037039559,
            -93.31140343676972
          ],
          [
            61.55351112939309,
            -93.31103437321295
          ],
          [
            61.12089767171079,
            -93.38894830724762
          ],
          [
            60.819950531069686,
            -93.41348651617982
          ],
          [
            60.43804500015012,
            -93.9779908977643
          ],
          [
            59.92255178395874,
            -94.41324667706711
          ],
          [
            59.41244210920706,
            -94.52984277850867
          ],
          [
            58.9800500476761,
            -94.55471743288365
          ],
          [
            58.622454748940115,
            -94.5139077338124
          ],
          [
            58.14913301919897,
            -94.45602893626521
          ]
        ]
      },
      "properties": {
        "type": "variant",
        "id": 1,
        "color": "#ff4444",
        "vzdal_m": 1685,
        "prevyseni_m": 60,
        "cas_s": 463,
        "tempo_str": "4:35"
      }
    },
    {
      "type": "Feature",
      "geometry": {
        "type": "LineString",
        "coordinates": [
          [
            80.47937073537999,
            -77.94039354225642
          ],
          [
            80.11029093730619,
            -77.75583098024354
          ],
          [
            79.46438157546818,
            -78.03261602196308
          ],
          [
            78.72619771444816,
            -78.40166877515834
          ],
          [
            78.08028835261015,
            -78.67845381687788
          ],
          [
            77.43437595766311,
            -79.04751109325004
          ],
          [
            77.06528706026214,
            -79.13976523519504
          ],
          [
            76.6039266967882,
            -79.23201485396314
          ],
          [
            75.95801733495021,
            -79.50879989568267
          ],
          [
            75.86574586887723,
            -79.50879537250576
          ],
          [
            75.1275620078572,
            -79.87784812570102
          ],
          [
            74.38937814683716,
            -80.24690087889628
          ],
          [
            73.8357432841812,
            -80.4314182091401
          ],
          [
            73.09755942316117,
            -80.80047096233535
          ],
          [
            72.35937556214114,
            -81.16952371553062
          ],
          [
            71.71346620030313,
            -81.44630875725015
          ],
          [
            71.2520997706111,
            -81.7231028453235
          ],
          [
            70.88299570766486,
            -82.27671816053162
          ],
          [
            70.51388861160959,
            -82.92260571039238
          ],
          [
            70.14479061488146,
            -83.29167655629526
          ],
          [
            69.77569261815334,
            -83.66074740219814
          ],
          [
            69.40313179893134,
            -84.02944968862333
          ],
          [
            69.03749055847899,
            -84.58343356330914
          ],
          [
            68.66839256175086,
            -84.95250440921203
          ],
          [
            68.29928849880464,
            -85.50611972442016
          ],
          [
            68.02245286882233,
            -86.15201179745782
          ],
          [
            67.65335183898516,
            -86.61335487801333
          ],
          [
            67.40088852051632,
            -87.06651533199512
          ],
          [
            66.91515584552891,
            -87.35149656981908
          ],
          [
            66.82288437945594,
            -87.35149204664218
          ],
          [
            66.39723594088673,
            -88.13206382902312
          ],
          [
            66.08467625356347,
            -88.45872267705843
          ],
          [
            65.71557825683534,
            -88.82779352296131
          ],
          [
            65.34648026010723,
            -89.1968643688642
          ],
          [
            64.9223889665736,
            -89.87386136131445
          ],
          [
            64.5160006681418,
            -90.30409047610355
          ],
          [
            63.96235973926772,
            -90.67315227565263
          ],
          [
            63.593261742539596,
            -91.0422231215555
          ],
          [
            63.22416374581147,
            -91.41129396745838
          ],
          [
            62.855065749083344,
            -91.78036481336125
          ],
          [
            62.485967752355236,
            -92.14943565926413
          ],
          [
            62.11686975562711,
            -92.51850650516701
          ],
          [
            61.747771758898985,
            -92.8875773510699
          ],
          [
            61.1941308300249,
            -93.25663915061897
          ],
          [
            60.584562131879686,
            -93.61002586642883
          ],
          [
            60.26528836829197,
            -94.17682113033031
          ],
          [
            59.540482394096344,
            -94.50178411955558
          ],
          [
            59.16356149303944,
            -94.54096294296173
          ],
          [
            58.79432292501985,
            -94.55960788568372
          ],
          [
            58.36089250575259,
            -94.41771746120774
          ],
          [
            58.14913301919897,
            -94.45602893626521
          ]
        ]
      },
      "properties": {
        "type": "variant",
        "id": 2,
        "color": "#4444ff",
        "vzdal_m": 1584,
        "prevyseni_m": 56,
        "cas_s": 475,
        "tempo_str": "4:59"
      }
    },
    {
      "type": "Feature",
      "geometry": {
        "type": "LineString",
        "coordinates": [
          [
            80.47937073537999,
            -77.94039354225642
          ],
          [
            79.74121113923238,
            -77.57126841823067
          ],
          [
            79.00305154308478,
            -77.20214329420492
          ],
          [
            78.4602779982925,
            -77.01965640168702
          ],
          [
            77.98473699192935,
            -76.83784552868728
          ],
          [
            77.34218638553457,
            -76.55615623445225
          ],
          [
            76.97310052124266,
            -76.55613814174463
          ],
          [
            76.60401465695075,
            -76.556120049037
          ],
          [
            76.23492879265885,
            -76.55610195632939
          ],
          [
            75.86584292836694,
            -76.55608386362175
          ],
          [
            75.49675706407503,
            -76.55606577091413
          ],
          [
            75.12767119978312,
            -76.55604767820651
          ],
          [
            74.75858533549122,
            -76.55602958549889
          ],
          [
            74.29721587269012,
            -76.92509590822486
          ],
          [
            73.83584640988902,
            -77.29416223095083
          ],
          [
            73.28220548101494,
            -77.6632240304999
          ],
          [
            72.72856455214087,
            -78.03228583004896
          ],
          [
            72.15485617615842,
            -78.38561140638576
          ],
          [
            71.71355416046569,
            -78.77041395232402
          ],
          [
            70.97537029944567,
            -79.13946670551927
          ],
          [
            70.23718643842562,
            -79.50851945871453
          ],
          [
            69.68354550955155,
            -79.87758125826359
          ],
          [
            69.0376331146045,
            -80.24663853463575
          ],
          [
            68.5762697180215,
            -80.43116038805648
          ],
          [
            68.0598559859054,
            -80.7181620745271
          ],
          [
            67.75613134554544,
            -81.17704513384417
          ],
          [
            67.35180249863801,
            -81.5073342242678
          ],
          [
            67.1921431309639,
            -82.09199276415015
          ],
          [
            67.06585487456732,
            -82.55734795647264
          ],
          [
            66.75242484204068,
            -83.14240316586155
          ],
          [
            66.03867307014566,
            -83.55591595397175
          ],
          [
            65.60269176215056,
            -83.80934542701051
          ],
          [
            65.2360618181765,
            -84.09846722071556
          ],
          [
            64.70816954896874,
            -84.50195431264268
          ],
          [
            64.1764341896122,
            -84.85988040464628
          ],
          [
            63.76792462271978,
            -85.21973111562755
          ],
          [
            63.41303032325183,
            -85.60198909833815
          ],
          [
            63.068841068328474,
            -85.98987948079474
          ],
          [
            62.668118809763556,
            -86.42598599688377
          ],
          [
            62.30711801040967,
            -86.7993245212568
          ],
          [
            61.98421410956138,
            -87.3921749637517
          ],
          [
            61.57015902135011,
            -87.7284415806169
          ],
          [
            61.10782080353223,
            -88.09728958160055
          ],
          [
            60.62153002282836,
            -88.42480205781175
          ],
          [
            60.27156175852971,
            -88.82752665552388
          ],
          [
            59.902463761801584,
            -89.19659750142677
          ],
          [
            59.34882283292751,
            -89.56565930097582
          ],
          [
            59.08059104384599,
            -90.11755805147439
          ],
          [
            59.19762849048626,
            -90.68641838486982
          ],
          [
            59.27280753216354,
            -91.03855856781908
          ],
          [
            59.25649070467346,
            -91.41109947085143
          ],
          [
            59.25647857223724,
            -91.78018840946193
          ],
          [
            59.25646643980104,
            -92.14927734807243
          ],
          [
            59.25645430736482,
            -92.51836628668293
          ],
          [
            59.07189317656455,
            -93.07199064824488
          ],
          [
            58.70278304740021,
            -93.81015043275825
          ],
          [
            58.33368505067209,
            -94.17922127866113
          ],
          [
            58.14913301919897,
            -94.45602893626521
          ]
        ]
      },
      "properties": {
        "type": "variant",
        "id": 3,
        "color": "#44ff44",
        "vzdal_m": 1730,
        "prevyseni_m": 59,
        "cas_s": 487,
        "tempo_str": "4:41"
      }
    }
  ]
}