{
  "type": "FeatureCollection",
  "features": [
    {
      "type": "Feature",
      "geometry": {
        "type": "Point",
        "coordinates": [
          54.06176372646937,
          -41.90279777962776
        ]
      },
      "properties": {
        "type": "start",
        "isom": "417"
      }
    },
    {
      "type": "Feature",
      "geometry": {
        "type": "Point",
        "coordinates": [
          28.429012999863893,
          -24.205582182007927
        ]
      },
      "properties": {
        "type": "end",
        "isom": "417"
      }
    },
    {
      "type": "Feature",
      "geometry": {
        "type": "LineString",
        "coordinates": [
          [
            54.00053611252661,
            -41.91935405709054
          ],
          [
            53.26243076972847,
            -41.18115546754113
          ],
          [
            52.02247972355703,
            -40.35554186599536
          ],
          [
            52.05144105800012,
            -40.3115503569274
          ],
          [
            51.601654238929626,
            -40.073856766432456
          ],
          [
            50.49446988506372,
            -39.33565763236
          ],
          [
            49.94089087796512,
            -38.78200869019795
          ],
          [
            49.5718250367317,
            -38.597458770549075
          ],
          [
            48.280088007497596,
            -38.043808739340925
          ],
          [
            47.54194315519643,
            -37.859258275169005
          ],
          [
            46.61932464653309,
            -36.751960663106416
          ],
          [
            45.881258813237956,
            -35.46011394817954
          ],
          [
            45.14319297994282,
            -34.16826723325265
          ],
          [
            44.7741271387094,
            -33.983717313603776
          ],
          [
            44.589613972844205,
            -33.6146182910906
          ],
          [
            43.48244278881265,
            -32.69186978189232
          ],
          [
            42.55977160081195,
            -32.322769670333045
          ],
          [
            42.37524526511241,
            -32.138220022945696
          ],
          [
            42.006179423879,
            -31.95367010329682
          ],
          [
            40.71444239464489,
            -31.40002007208867
          ],
          [
            39.607258040778994,
            -30.661820938016213
          ],
          [
            38.50006051707876,
            -30.10817117906959
          ],
          [
            37.208323487844645,
            -29.55452114786144
          ],
          [
            36.285678639512625,
            -28.81632228605051
          ],
          [
            35.17849428564673,
            -28.078123151978062
          ],
          [
            34.25584943731471,
            -27.33992429016713
          ],
          [
            32.779586072381065,
            -26.60172461157163
          ],
          [
            31.487862212981288,
            -25.863525205237654
          ],
          [
            31.30333587728175,
            -25.6789755578503
          ],
          [
            30.934270036048343,
            -25.494425638201427
          ],
          [
            30.56520419481493,
            -25.30987571855255
          ],
          [
            30.196138353581514,
            -25.125325798903674
          ],
          [
            29.08895399971562,
            -24.387126664831225
          ],
          [
            28.719888158482206,
            -24.20257674518235
          ],
          [
            28.35080914741446,
            -24.2025762006593
          ]
        ]
      },
      "properties": {
        "type": "variant",
        "id": 1,
        "color": "#ff4444",
        "vzdal_m": 865,
        "prevyseni_m": 22,
        "cas_s": 262,
        "tempo_str": "5:02"
      }
    },
    {
      "type": "Feature",
      "geometry": {
        "type": "LineString",
        "coordinates": [
          [
            54.00053611252661,
            -41.91935405709054
          ],
          [
            52.52416738891827,
            -42.657549379501646
          ],
          [
            51.416904016046345,
            -43.026646496184156
          ],
          [
            51.232351340678136,
            -43.21119559904846
          ],
          [
            50.86325915977604,
            -43.39574442965124
          ],
          [
            50.49416697887396,
            -43.58029326025401
          ],
          [
            50.11485914316352,
            -43.76138402780108
          ],
          [
            49.03531501819952,
            -44.130109473381076
          ],
          [
            48.10936463869308,
            -44.413966537959645
          ],
          [
            47.18018631368647,
            -44.55375140644311
          ],
          [
            46.45908160735076,
            -44.664672582042996
          ],
          [
            45.529970639668626,
            -44.80758321061137
          ],
          [
            44.59565076498821,
            -44.94468723952164
          ],
          [
            43.5540132113592,
            -44.450832521022384
          ],
          [
            42.780078009826376,
            -43.72652239054685
          ],
          [
            41.928811830518846,
            -42.91357009839111
          ],
          [
            41.030666276837415,
            -42.35297639190279
          ],
          [
            40.4226100725071,
            -41.469072522897044
          ],
          [
            39.669979499832024,
            -40.74599019984774
          ],
          [
            38.917351743006336,
            -40.02290787680259
          ],
          [
            38.07290830607885,
            -39.21080602670889
          ],
          [
            37.4163861413605,
            -38.32074631022709
          ],
          [
            37.02323084926859,
            -37.305594630884634
          ],
          [
            36.65423085720687,
            -36.19829783560663
          ],
          [
            36.285230865145145,
            -35.09100104032862
          ],
          [
            35.91623087308342,
            -33.98370424505061
          ],
          [
            35.91628355242077,
            -33.2455067445473
          ],
          [
            35.91633623175812,
            -32.507309244043995
          ],
          [
            35.9163625714268,
            -32.13821049379234
          ],
          [
            35.7318494055616,
            -31.769111471279167
          ],
          [
            35.5473362396964,
            -31.400012448765988
          ],
          [
            34.8092835762356,
            -29.923616358713275
          ],
          [
            34.07121774294047,
            -28.631769643786395
          ],
          [
            33.51769141517921,
            -27.339923201121035
          ],
          [
            33.517730924682226,
            -26.786275075743557
          ],
          [
            33.1487309326205,
            -25.678978280465547
          ],
          [
            32.9642177667553,
            -25.30987925795237
          ],
          [
            32.59515192552189,
            -25.125329338303494
          ],
          [
            32.226086084288475,
            -24.940779418654618
          ],
          [
            31.85700707322073,
            -24.94077887413157
          ],
          [
            31.487914892318642,
            -25.12532770473435
          ],
          [
            31.118822711416552,
            -25.309876535337125
          ],
          [
            30.56520419481493,
            -25.30987571855255
          ],
          [
            30.196138353581514,
            -25.125325798903674
          ],
          [
            29.08895399971562,
            -24.387126664831225
          ],
          [
            28.719888158482206,
            -24.20257674518235
          ],
          [
            28.35080914741446,
            -24.2025762006593
          ]
        ]
      },
      "properties": {
        "type": "variant",
        "id": 2,
        "color": "#4444ff",
        "vzdal_m": 1052,
        "prevyseni_m": 21,
        "cas_s": 281,
        "tempo_str": "4:27"
      }
    },
    {
      "type": "Feature",
      "geometry": {
        "type": "LineString",
        "coordinates": [
          [
            54.00053611252661,
            -41.91935405709054
          ],
          [
            53.262470279231486,
            -40.62750734216365
          ],
          [
            53.07795711336629,
            -40.25840831965047
          ],
          [
            52.89344394750108,
            -39.889309297137295
          ],
          [
            52.657417541570645,
            -39.442573078983315
          ],
          [
            52.33989128007115,
            -38.966561604723594
          ],
          [
            52.33993078957416,
            -38.41291347934611
          ],
          [
            51.60187812611336,
            -36.93651738929341
          ],
          [
            50.86379912298389,
            -35.82922004949234
          ],
          [
            50.49473328175048,
            -35.64467012984347
          ],
          [
            49.756680618289685,
            -34.16827403979076
          ],
          [
            49.01861478499455,
            -32.876427324863876
          ],
          [
            48.83410161912935,
            -32.50732830235069
          ],
          [
            48.465035777895935,
            -32.32277838270183
          ],
          [
            47.35785142403004,
            -31.584579248629367
          ],
          [
            46.43520657569802,
            -30.846380386818442
          ],
          [
            46.066140734464604,
            -30.661830467169565
          ],
          [
            45.69707489323119,
            -30.47728054752069
          ],
          [
            45.32804856150079,
            -29.739082502494337
          ],
          [
            45.143535395635595,
            -29.36998347998116
          ],
          [
            44.4053773735001,
            -29.369982390935064
          ],
          [
            43.6672193513646,
            -29.369981301888963
          ],
          [
            42.92907449906344,
            -29.185430837717043
          ],
          [
            41.637350639663666,
            -28.447231431383063
          ],
          [
            40.899232127031176,
            -27.893582216959487
          ],
          [
            40.53016628579777,
            -27.70903229731061
          ],
          [
            39.976574108864824,
            -27.339932730274384
          ],
          [
            38.50031074393117,
            -26.60173305167888
          ],
          [
            37.20857371469706,
            -26.048083020470735
          ],
          [
            36.28588935686203,
            -25.863532284037287
          ],
          [
            35.54773133472653,
            -25.86353119499119
          ],
          [
            34.994125987959244,
            -25.678981003080793
          ],
          [
            34.071481139627224,
            -24.94078214126986
          ],
          [
            33.148809951626525,
            -24.571682029710587
          ],
          [
            32.22609925412281,
            -24.75623004352879
          ],
          [
            31.487914892318642,
            -25.12532770473435
          ],
          [
            31.118822711416552,
            -25.309876535337125
          ],
          [
            30.56520419481493,
            -25.30987571855255
          ],
          [
            30.196138353581514,
            -25.125325798903674
          ],
          [
            29.08895399971562,
            -24.387126664831225
          ],
          [
            28.719888158482206,
            -24.20257674518235
          ],
          [
            28.35080914741446,
            -24.2025762006593
          ]
        ]
      },
      "properties": {
        "type": "variant",
        "id": 3,
        "color": "#44ff44",
        "vzdal_m": 931,
        "prevyseni_m": 22,
        "cas_s": 277,
        "tempo_str": "4:57"
      }
    }
  ]
}