{
  "type": "FeatureCollection",
  "features": [
    {
      "type": "Feature",
      "geometry": {
        "type": "Point",
        "coordinates": [
          57.435697144974355,
          -98.2364477742247
        ]
      },
      "properties": {
        "type": "start",
        "isom": "204"
      }
    },
    {
      "type": "Feature",
      "geometry": {
        "type": "Point",
        "coordinates": [
          82.4159688921774,
          -109.86674206717875
        ]
      },
      "properties": {
        "type": "end",
        "isom": "115"
      }
    },
    {
      "type": "Feature",
      "geometry": {
        "type": "LineString",
        "coordinates": [
          [
            57.41083693314396,
            -98.23915437160761
          ],
          [
            58.148996529291566,
            -98.60827949563335
          ],
          [
            58.702619259511316,
            -98.79285110400005
          ],
          [
            59.34851042269499,
            -99.06969947019626
          ],
          [
            59.994401585878684,
            -99.34654783639246
          ],
          [
            60.640292749062354,
            -99.6233962025887
          ],
          [
            61.009378613354265,
            -99.62341429529631
          ],
          [
            61.74753820950187,
            -99.99253941932206
          ],
          [
            62.48569780564947,
            -100.36166454334781
          ],
          [
            63.22385740179706,
            -100.73078966737356
          ],
          [
            63.86974856498075,
            -101.00763803356976
          ],
          [
            64.51563972816443,
            -101.28448639976598
          ],
          [
            65.16153089134811,
            -101.5613347659622
          ],
          [
            65.80742205453178,
            -101.83818313215842
          ],
          [
            66.45331321771546,
            -102.11503149835463
          ],
          [
            67.00693594793522,
            -102.2996031067213
          ],
          [
            67.46829024519106,
            -102.39189795725846
          ],
          [
            68.11417837526567,
            -102.7610185581073
          ],
          [
            68.5755266063034,
            -103.03785787794972
          ],
          [
            69.12914933652314,
            -103.22242948631639
          ],
          [
            69.59050363377898,
            -103.31472433685356
          ],
          [
            69.95958646496184,
            -103.40701466421379
          ],
          [
            70.42094076221767,
            -103.49930951475096
          ],
          [
            70.88229505947349,
            -103.5916043652881
          ],
          [
            71.25138092376541,
            -103.59162245799573
          ],
          [
            71.80500365398515,
            -103.77619406636241
          ],
          [
            72.45089481716883,
            -104.05304243255861
          ],
          [
            72.81998068146075,
            -104.05306052526625
          ],
          [
            73.18906654575265,
            -104.05307861797388
          ],
          [
            73.28133801182564,
            -104.0530831411508
          ],
          [
            73.74269230908146,
            -104.14537799168792
          ],
          [
            74.11177817337337,
            -104.14539608439556
          ],
          [
            74.48086403766528,
            -104.14541417710318
          ],
          [
            74.84994990195719,
            -104.1454322698108
          ],
          [
            75.21903576624909,
            -104.14545036251842
          ],
          [
            75.588121630541,
            -104.14546845522604
          ],
          [
            75.95720749483291,
            -104.14548654793367
          ],
          [
            76.32629335912482,
            -104.14550464064128
          ],
          [
            76.69537922341674,
            -104.14552273334891
          ],
          [
            77.2490019536365,
            -104.3300943417156
          ],
          [
            77.80262468385624,
            -104.51466595008229
          ],
          [
            78.26397594800302,
            -104.69923303527206
          ],
          [
            78.44851584703991,
            -104.7915143162785
          ],
          [
            78.90986407807765,
            -105.06835363612089
          ],
          [
            79.27894084304239,
            -105.3451884327864
          ],
          [
            79.64801457489808,
            -105.71429546410451
          ],
          [
            79.83255447393499,
            -105.80657674511096
          ],
          [
            80.20162820579068,
            -106.17568377642908
          ],
          [
            80.57070193764638,
            -106.54479080774719
          ],
          [
            81.03204713557504,
            -106.91390236224224
          ],
          [
            81.4011178343217,
            -107.37528162821299
          ],
          [
            81.77019156617737,
            -107.74438865953111
          ],
          [
            82.13925923181496,
            -108.29804016015449
          ],
          [
            82.13924709937875,
            -108.66712909876499
          ],
          [
            82.13923496694254,
            -109.03621803737549
          ],
          [
            82.32375970043417,
            -109.58986049164506
          ],
          [
            82.41602206717998,
            -109.86668171877983
          ]
        ]
      },
      "properties": {
        "type": "variant",
        "id": 1,
        "color": "#ff4444",
        "vzdal_m": 1578,
        "prevyseni_m": 0,
        "cas_s": 366,
        "tempo_str": "3:51"
      }
    },
    {
      "type": "Feature",
      "geometry": {
        "type": "LineString",
        "coordinates": [
          [
            57.41083693314396,
            -98.23915437160761
          ],
          [
            58.148996529291566,
            -98.60827949563335
          ],
          [
            58.702619259511316,
            -98.79285110400005
          ],
          [
            59.34851042269499,
            -99.06969947019626
          ],
          [
            59.994401585878684,
            -99.34654783639246
          ],
          [
            60.640292749062354,
            -99.6233962025887
          ],
          [
            61.37845234520996,
            -99.99252132661444
          ],
          [
            61.93206900921161,
            -100.36163740428637
          ],
          [
            62.67022860535921,
            -100.73076252831211
          ],
          [
            63.31611673543383,
            -101.09988312916097
          ],
          [
            63.96200486550846,
            -101.4690037300098
          ],
          [
            64.23881319750927,
            -101.65356176884578
          ],
          [
            64.79242986151093,
            -102.02267784651771
          ],
          [
            65.16150359336662,
            -102.39178487783583
          ],
          [
            65.6228487912953,
            -102.76089643233085
          ],
          [
            66.26873692136991,
            -103.13001703317968
          ],
          [
            66.63781065322561,
            -103.49912406449782
          ],
          [
            67.19142731722725,
            -103.86824014216975
          ],
          [
            67.74505004744702,
            -104.05281175053645
          ],
          [
            68.11413591173893,
            -104.05282984324406
          ],
          [
            68.7600270749226,
            -104.32967820944029
          ],
          [
            69.4981866710702,
            -104.69880333346603
          ],
          [
            69.95954096832604,
            -104.79109818400318
          ],
          [
            70.32862683261794,
            -104.79111627671081
          ],
          [
            70.78998112987378,
            -104.88341112724795
          ],
          [
            70.97452102891067,
            -104.97569240825439
          ],
          [
            71.52813769291232,
            -105.34480848592632
          ],
          [
            71.98948592395006,
            -105.62164780576873
          ],
          [
            72.45084022120588,
            -105.71394265630587
          ],
          [
            72.81992608549778,
            -105.71396074901351
          ],
          [
            73.18901194978969,
            -105.71397884172113
          ],
          [
            73.28128341586267,
            -105.71398336489804
          ],
          [
            73.65036321393647,
            -105.8985459269109
          ],
          [
            73.83490311297336,
            -105.99082720791735
          ],
          [
            74.01944301201027,
            -106.08310848892378
          ],
          [
            74.57305967601192,
            -106.45222456659572
          ],
          [
            74.94213947408572,
            -106.63678712860859
          ],
          [
            75.21894780608655,
            -106.82134516744455
          ],
          [
            75.58802153794224,
            -107.19045219876269
          ],
          [
            75.95709526979793,
            -107.55955923008081
          ],
          [
            76.32616900165364,
            -107.92866626139893
          ],
          [
            76.69523970040026,
            -108.39004552736968
          ],
          [
            77.15658489832893,
            -108.7591570818647
          ],
          [
            77.61793919558477,
            -108.85145193240187
          ],
          [
            78.0792934928406,
            -108.94374678293902
          ],
          [
            78.4483732909144,
            -109.12830934495189
          ],
          [
            78.90972152195214,
            -109.40514866479428
          ],
          [
            79.37107581920796,
            -109.49744351533145
          ],
          [
            79.74016168349986,
            -109.49746160803906
          ],
          [
            80.2015220469738,
            -109.40521198927097
          ],
          [
            80.75514477719355,
            -109.58978359763765
          ],
          [
            81.21649907444939,
            -109.68207844817482
          ],
          [
            81.77012180466915,
            -109.86665005654149
          ],
          [
            82.23147610192498,
            -109.95894490707866
          ],
          [
            82.41602206717998,
            -109.86668171877983
          ]
        ]
      },
      "properties": {
        "type": "variant",
        "id": 2,
        "color": "#4444ff",
        "vzdal_m": 1537,
        "prevyseni_m": 0,
        "cas_s": 372,
        "tempo_str": "4:02"
      }
    },
    {
      "type": "Feature",
      "geometry": {
        "type": "LineString",
        "coordinates": [
          [
            57.41083693314396,
            -98.23915437160761
          ],
          [
            57.8721972966179,
            -98.14690475283952
          ],
          [
            58.2412831609098,
            -98.14692284554714
          ],
          [
            58.61036902520171,
            -98.14694093825476
          ],
          [
            58.979454889493624,
            -98.14695903096238
          ],
          [
            59.533077619713374,
            -98.33153063932907
          ],
          [
            60.08670034993314,
            -98.51610224769574
          ],
          [
            60.45578621422504,
            -98.51612034040338
          ],
          [
            60.82487207851695,
            -98.51613843311098
          ],
          [
            61.19395794280885,
            -98.51615652581862
          ],
          [
            61.56304380710077,
            -98.51617461852625
          ],
          [
            62.0243981043566,
            -98.6084694690634
          ],
          [
            62.67028926754028,
            -98.8853178352596
          ],
          [
            63.40844886368788,
            -99.25444295928534
          ],
          [
            64.14660845983548,
            -99.62356808331111
          ],
          [
            64.88476805598307,
            -99.99269320733686
          ],
          [
            65.53065921916675,
            -100.26954157353306
          ],
          [
            65.99201351642259,
            -100.36183642407022
          ],
          [
            66.7301731125702,
            -100.73096154809596
          ],
          [
            67.0992589768621,
            -100.73097964080358
          ],
          [
            67.46834484115402,
            -100.7309977335112
          ],
          [
            67.83743070544593,
            -100.73101582621884
          ],
          [
            68.20651656973783,
            -100.73103391892646
          ],
          [
            68.76013929995759,
            -100.91560552729315
          ],
          [
            69.12922516424949,
            -100.91562362000076
          ],
          [
            69.59057642839626,
            -101.10019070519054
          ],
          [
            70.32873602454387,
            -101.46931582921628
          ],
          [
            71.06689562069147,
            -101.83844095324203
          ],
          [
            71.71278375076609,
            -102.20756155409087
          ],
          [
            72.4509433469137,
            -102.57668667811662
          ],
          [
            73.09683147698833,
            -102.94580727896546
          ],
          [
            73.46590520884402,
            -103.31491431028358
          ],
          [
            73.92725040677269,
            -103.68402586477862
          ],
          [
            74.48086707077434,
            -104.05314194245055
          ],
          [
            74.94222136803016,
            -104.14543679298771
          ],
          [
            75.31130723232206,
            -104.14545488569532
          ],
          [
            75.68039309661398,
            -104.14547297840295
          ],
          [
            76.04947896090589,
            -104.14549107111056
          ],
          [
            76.4185648251978,
            -104.14550916381819
          ],
          [
            76.78765068948971,
            -104.14552725652582
          ],
          [
            77.43354185267339,
            -104.42237562272203
          ],
          [
            77.80262468385624,
            -104.51466595008229
          ],
          [
            78.26397594800302,
            -104.69923303527206
          ],
          [
            78.44851584703991,
            -104.7915143162785
          ],
          [
            78.90986407807765,
            -105.06835363612089
          ],
          [
            79.27894084304239,
            -105.3451884327864
          ],
          [
            79.64801457489808,
            -105.71429546410451
          ],
          [
            79.83255447393499,
            -105.80657674511096
          ],
          [
            80.20162820579068,
            -106.17568377642908
          ],
          [
            80.57070193764638,
            -106.54479080774719
          ],
          [
            81.03204713557504,
            -106.91390236224224
          ],
          [
            81.4011178343217,
            -107.37528162821299
          ],
          [
            81.77019156617737,
            -107.74438865953111
          ],
          [
            82.13925923181496,
            -108.29804016015449
          ],
          [
            82.13924709937875,
            -108.66712909876499
          ],
          [
            82.13923496694254,
            -109.03621803737549
          ],
          [
            82.32375970043417,
            -109.58986049164506
          ],
          [
            82.41602206717998,
            -109.86668171877983
          ]
        ]
      },
      "properties": {
        "type": "variant",
        "id": 3,
        "color": "#44ff44",
        "vzdal_m": 1593,
        "prevyseni_m": 0,
        "cas_s": 381,
        "tempo_str": "3:59"
      }
    }
  ]
}