{
  "type": "FeatureCollection",
  "features": [
    {
      "type": "Feature",
      "geometry": {
        "type": "Point",
        "coordinates": [
          47.983341516079975,
          -96.3903993882272
        ]
      },
      "properties": {
        "type": "start",
        "isom": "418"
      }
    },
    {
      "type": "Feature",
      "geometry": {
        "type": "Point",
        "coordinates": [
          46.98105689239075,
          -72.87126815738435
        ]
      },
      "properties": {
        "type": "end",
        "isom": "204"
      }
    },
    {
      "type": "Feature",
      "geometry": {
        "type": "LineString",
        "coordinates": [
          [
            47.930578073316994,
            -96.4309759140193
          ],
          [
            47.19244417081727,
            -94.95452635312033
          ],
          [
            46.8233628182873,
            -94.58540810935533
          ],
          [
            46.08519291258733,
            -94.03172489016755
          ],
          [
            45.9006594369624,
            -93.66261249994281
          ],
          [
            45.531606886992634,
            -92.55528118280886
          ],
          [
            45.3470734113677,
            -92.18616879258411
          ],
          [
            45.16253993574277,
            -91.81705640235937
          ],
          [
            44.97800646011784,
            -91.44794401213463
          ],
          [
            44.79347298449291,
            -91.07883162190988
          ],
          [
            44.60893230822793,
            -90.89427250002738
          ],
          [
            44.424398832602996,
            -90.52516010980264
          ],
          [
            44.424413233883094,
            -90.15605357311817
          ],
          [
            44.23987975825816,
            -89.78694118289343
          ],
          [
            43.8707984057282,
            -89.41782293912841
          ],
          [
            44.05536068391333,
            -89.04872225598422
          ],
          [
            43.3172267814136,
            -87.57227269508525
          ],
          [
            43.13270770706877,
            -86.83405376817603
          ],
          [
            42.948174231443836,
            -86.4649413779513
          ],
          [
            42.94818143208388,
            -86.28038810960906
          ],
          [
            42.763647956458954,
            -85.91127571938432
          ],
          [
            42.76367675901914,
            -85.17306264601537
          ],
          [
            42.76370556157934,
            -84.43484957264643
          ],
          [
            42.76373436413954,
            -83.69663649927747
          ],
          [
            42.579222490434745,
            -82.77386430402602
          ],
          [
            42.57925129299495,
            -82.03565123065708
          ],
          [
            42.763813571180066,
            -81.66655054751287
          ],
          [
            42.76384237374027,
            -80.92833747414393
          ],
          [
            43.3175220076556,
            -80.00558869305354
          ],
          [
            44.05574231783591,
            -79.26739903384566
          ],
          [
            44.42485247292606,
            -78.89830420424173
          ],
          [
            44.60941475111119,
            -78.52920352109753
          ],
          [
            45.163108786306616,
            -77.23734820332267
          ],
          [
            45.163115986946664,
            -77.05279493498043
          ],
          [
            45.34767826513179,
            -76.68369425183623
          ],
          [
            45.532240543316924,
            -76.31459356869202
          ],
          [
            45.71680282150204,
            -75.94549288554781
          ],
          [
            46.27049685669747,
            -74.65363756777296
          ],
          [
            46.455059134882596,
            -74.28453688462875
          ],
          [
            46.63962141306772,
            -73.91543620148454
          ],
          [
            46.824183691252856,
            -73.54633551834033
          ],
          [
            47.008745969437975,
            -73.17723483519613
          ],
          [
            47.00876037071807,
            -72.80812829851166
          ]
        ]
      },
      "properties": {
        "type": "variant",
        "id": 1,
        "color": "#ff4444",
        "vzdal_m": 718,
        "prevyseni_m": 27,
        "cas_s": 270,
        "tempo_str": "6:16"
      }
    },
    {
      "type": "Feature",
      "geometry": {
        "type": "LineString",
        "coordinates": [
          [
            47.930578073316994,
            -96.4309759140193
          ],
          [
            48.11515475278222,
            -95.69276869419062
          ],
          [
            49.03792293986755,
            -94.954584888523
          ],
          [
            49.77612884876776,
            -94.58550176599961
          ],
          [
            51.067985589023124,
            -94.03188293575477
          ],
          [
            52.35984952991852,
            -93.2937108371677
          ],
          [
            53.09806984009883,
            -92.55552117795982
          ],
          [
            53.28263211828395,
            -92.18642049481561
          ],
          [
            53.467194396469075,
            -91.8173198116714
          ],
          [
            53.83630455155923,
            -91.44822498206746
          ],
          [
            54.020866829744364,
            -91.07912429892326
          ],
          [
            53.6518142797746,
            -89.97179298178929
          ],
          [
            53.651843082334786,
            -89.23357990842035
          ],
          [
            53.46733120863001,
            -88.3108077131689
          ],
          [
            52.913730781755206,
            -87.20347054249468
          ],
          [
            52.54467823178545,
            -86.09613922536072
          ],
          [
            52.36014475616051,
            -85.72702683513599
          ],
          [
            52.17561128053558,
            -85.35791444491124
          ],
          [
            51.9910706042706,
            -85.17335532302873
          ],
          [
            51.806537128645665,
            -84.80424293280399
          ],
          [
            50.88381934604067,
            -84.25055386007594
          ],
          [
            50.330226119805914,
            -82.95866342105948
          ],
          [
            49.592092217306195,
            -81.48221386016053
          ],
          [
            48.85395831480647,
            -80.00576429926157
          ],
          [
            48.66944644110168,
            -79.08299210401012
          ],
          [
            48.66947524366188,
            -78.34477903064116
          ],
          [
            48.66950404622207,
            -77.60656595727222
          ],
          [
            48.66953284878226,
            -76.86835288390327
          ],
          [
            48.48502097507748,
            -75.94558068865182
          ],
          [
            48.3005091013727,
            -75.02280849340036
          ],
          [
            47.93144215012283,
            -74.28458371295089
          ],
          [
            47.7469086744979,
            -73.91547132272615
          ],
          [
            47.00876037071807,
            -72.80812829851166
          ]
        ]
      },
      "properties": {
        "type": "variant",
        "id": 2,
        "color": "#4444ff",
        "vzdal_m": 775,
        "prevyseni_m": 48,
        "cas_s": 289,
        "tempo_str": "6:12"
      }
    }
  ]
}