{
  "type": "FeatureCollection",
  "features": [
    {
      "type": "Feature",
      "geometry": {
        "type": "Point",
        "coordinates": [
          155.27663760802122,
          -89.53615170809705
        ]
      },
      "properties": {
        "type": "start",
        "isom": "204"
      }
    },
    {
      "type": "Feature",
      "geometry": {
        "type": "Point",
        "coordinates": [
          171.36232754626988,
          -139.90392406297056
        ]
      },
      "properties": {
        "type": "end",
        "isom": "419"
      }
    },
    {
      "type": "Feature",
      "geometry": {
        "type": "LineString",
        "coordinates": [
          [
            155.20883228032102,
            -89.53233679301938
          ],
          [
            155.94696154537812,
            -90.82418426070508
          ],
          [
            156.68509687665335,
            -91.93148725924429
          ],
          [
            157.23867714334637,
            -93.40787015016139
          ],
          [
            158.16135540676757,
            -94.51518219461568
          ],
          [
            158.89947860560656,
            -95.99157413144786
          ],
          [
            159.63760180444555,
            -97.46796606828002
          ],
          [
            160.0066391389926,
            -98.94433991328204
          ],
          [
            160.92931133619567,
            -100.2361964268828
          ],
          [
            160.929274938887,
            -101.34346324176168
          ],
          [
            161.48286127179816,
            -102.63530166353229
          ],
          [
            162.03643547227307,
            -104.29622902359584
          ],
          [
            162.95910766947614,
            -105.58808553719663
          ],
          [
            163.69723086831513,
            -107.0644774740288
          ],
          [
            164.06628033529842,
            -108.17176238073785
          ],
          [
            164.06625607042596,
            -108.90994025732377
          ],
          [
            164.0662318055535,
            -109.64811813390968
          ],
          [
            164.06620754068106,
            -110.3862960104956
          ],
          [
            164.0661832758086,
            -111.1244738870815
          ],
          [
            164.25069587686406,
            -112.047205278729
          ],
          [
            164.25067161199158,
            -112.7853831553149
          ],
          [
            164.4351963454832,
            -113.33902560866943
          ],
          [
            164.619727145193,
            -113.70812359287746
          ],
          [
            164.61970288032052,
            -114.44630146946336
          ],
          [
            164.9887523473038,
            -115.55358637617242
          ],
          [
            164.9887462810857,
            -115.73813084531889
          ],
          [
            165.17327708079543,
            -116.10722882952695
          ],
          [
            165.3578078805052,
            -116.47632681373499
          ],
          [
            165.54233868021495,
            -116.84542479794302
          ],
          [
            165.54233261399682,
            -117.02996926708951
          ],
          [
            165.72686341370658,
            -117.39906725129755
          ],
          [
            165.72685128127037,
            -117.76815618959051
          ],
          [
            165.9113820809801,
            -118.13725417379855
          ],
          [
            165.91135781610765,
            -118.87543205038448
          ],
          [
            165.9113335512352,
            -119.61360992697038
          ],
          [
            165.91130928636278,
            -120.3517878035563
          ],
          [
            166.4648956192739,
            -121.6436262253269
          ],
          [
            166.64942641898367,
            -122.01272420953494
          ],
          [
            166.8339572186934,
            -122.38182219374299
          ],
          [
            167.01846981974882,
            -123.30455358539047
          ],
          [
            167.3875192867321,
            -124.41183849209949
          ],
          [
            167.75657481993346,
            -125.33457892966207
          ],
          [
            168.12562428691675,
            -126.44186383637111
          ],
          [
            168.49467375390003,
            -127.54914874308017
          ],
          [
            169.23279695273902,
            -129.02554067991233
          ],
          [
            169.23277268786657,
            -129.76371855649825
          ],
          [
            169.2327362905579,
            -130.87098537137712
          ],
          [
            169.9708594893969,
            -132.34737730820927
          ],
          [
            170.7089826882359,
            -133.82376924504146
          ],
          [
            171.44710588707488,
            -135.30016118187362
          ],
          [
            171.26253262383835,
            -136.22287448169095
          ],
          [
            171.8161189567495,
            -137.51471290346154
          ],
          [
            171.81608255944084,
            -138.6219797183404
          ],
          [
            171.44696029784023,
            -139.7292284413891
          ],
          [
            171.4469542316221,
            -139.91377291053558
          ]
        ]
      },
      "properties": {
        "type": "variant",
        "id": 1,
        "color": "#ff4444",
        "vzdal_m": 1474,
        "prevyseni_m": 25,
        "cas_s": 444,
        "tempo_str": "5:01"
      }
    },
    {
      "type": "Feature",
      "geometry": {
        "type": "LineString",
        "coordinates": [
          [
            155.20883228032102,
            -89.53233679301938
          ],
          [
            155.5778817473043,
            -90.63962169972842
          ],
          [
            156.3160049461433,
            -92.1160136365606
          ],
          [
            156.13143168290676,
            -93.03872693637791
          ],
          [
            156.3159564163984,
            -93.59236938973243
          ],
          [
            156.68500588338168,
            -94.69965429644147
          ],
          [
            156.8695184844371,
            -95.62238568808894
          ],
          [
            157.0540310854925,
            -96.54511707973643
          ],
          [
            157.4230805524758,
            -97.65240198644548
          ],
          [
            158.13585692492197,
            -98.60866082576368
          ],
          [
            158.96029581682652,
            -99.23290734278824
          ],
          [
            159.75547478754,
            -99.92777848643297
          ],
          [
            160.11068187136323,
            -100.29288587786668
          ],
          [
            160.19112140895746,
            -100.7897936506619
          ],
          [
            160.00654814572093,
            -101.71250695047921
          ],
          [
            160.0065238808485,
            -102.45068482706512
          ],
          [
            160.00649961597603,
            -103.18886270365104
          ],
          [
            160.0064753511036,
            -103.92704058023695
          ],
          [
            160.00645108623115,
            -104.66521845682286
          ],
          [
            160.0064268213587,
            -105.40339633340878
          ],
          [
            160.00640255648625,
            -106.14157420999469
          ],
          [
            160.37545202346953,
            -107.24885911670374
          ],
          [
            160.55998282317927,
            -107.61795710091177
          ],
          [
            161.11356915609042,
            -108.90979552268239
          ],
          [
            161.8516923549294,
            -110.38618745951456
          ],
          [
            162.40527868784054,
            -111.67802588128517
          ],
          [
            162.9588710869698,
            -112.7853198339093
          ],
          [
            164.06610441497318,
            -113.52355198598573
          ],
          [
            164.43518421304702,
            -113.70811454696238
          ],
          [
            164.4351781468289,
            -113.89265901610887
          ],
          [
            164.61970894653865,
            -114.26175700031689
          ],
          [
            164.61970288032052,
            -114.44630146946336
          ],
          [
            164.80423368003028,
            -114.81539945367142
          ],
          [
            164.80422761381217,
            -114.99994392281789
          ],
          [
            164.9887584135219,
            -115.36904190702593
          ],
          [
            164.9887462810857,
            -115.73813084531889
          ],
          [
            165.17327708079543,
            -116.10722882952695
          ],
          [
            165.3578078805052,
            -116.47632681373499
          ],
          [
            165.54233868021495,
            -116.84542479794302
          ],
          [
            165.54233261399682,
            -117.02996926708951
          ],
          [
            165.72686341370658,
            -117.39906725129755
          ],
          [
            165.72685128127037,
            -117.76815618959051
          ],
          [
            165.9113820809801,
            -118.13725417379855
          ],
          [
            165.91135781610765,
            -118.87543205038448
          ],
          [
            165.9113335512352,
            -119.61360992697038
          ],
          [
            165.91130928636278,
            -120.3517878035563
          ],
          [
            166.4648956192739,
            -121.6436262253269
          ],
          [
            166.64942641898367,
            -122.01272420953494
          ],
          [
            166.8339572186934,
            -122.38182219374299
          ],
          [
            167.01846981974882,
            -123.30455358539047
          ],
          [
            167.3875192867321,
            -124.41183849209949
          ],
          [
            167.94112381829757,
            -125.15004350643068
          ],
          [
            168.86381421415498,
            -125.88826661259202
          ],
          [
            169.6019616778664,
            -126.62648067283828
          ],
          [
            170.5246460075057,
            -127.5492482481461
          ],
          [
            170.893695474489,
            -128.65653315485514
          ],
          [
            170.89367120961654,
            -129.39471103144106
          ],
          [
            171.26273280903604,
            -130.13290699985717
          ],
          [
            171.44724541009145,
            -131.05563839150463
          ],
          [
            171.447221145219,
            -131.79381626809052
          ],
          [
            171.44719688034655,
            -132.53199414467645
          ],
          [
            171.44717261547413,
            -133.27017202126237
          ],
          [
            171.44714835060168,
            -134.00834989784826
          ],
          [
            171.44712408572923,
            -134.74652777443418
          ],
          [
            171.2625508224927,
            -135.66924107425152
          ],
          [
            171.44706342354812,
            -136.59197246589898
          ],
          [
            171.6315638921673,
            -137.8837927958394
          ],
          [
            171.81609469187705,
            -138.25289078004747
          ],
          [
            171.8160704270046,
            -138.99106865663336
          ],
          [
            171.4469542316221,
            -139.91377291053558
          ]
        ]
      },
      "properties": {
        "type": "variant",
        "id": 2,
        "color": "#4444ff",
        "vzdal_m": 1507,
        "prevyseni_m": 25,
        "cas_s": 449,
        "tempo_str": "4:57"
      }
    },
    {
      "type": "Feature",
      "geometry": {
        "type": "LineString",
        "coordinates": [
          [
            155.20883228032102,
            -89.53233679301938
          ],
          [
            154.47062415442846,
            -90.63956742423791
          ],
          [
            154.10150189282786,
            -91.74681614728661
          ],
          [
            153.54783063286317,
            -93.03860029356669
          ],
          [
            152.8096164407525,
            -94.3303753939317
          ],
          [
            152.07142044729616,
            -95.06851708685727
          ],
          [
            151.7023103181318,
            -95.806676871613
          ],
          [
            151.51775525354958,
            -96.17575676399088
          ],
          [
            150.96409005980303,
            -97.2829964411245
          ],
          [
            150.22589406634668,
            -98.02113813405006
          ],
          [
            149.9432887888414,
            -98.96900574537082
          ],
          [
            150.24388231130916,
            -99.85640655935468
          ],
          [
            150.33798675649362,
            -100.59384619975606
          ],
          [
            150.4068775338325,
            -101.32817799851857
          ],
          [
            150.44134180333927,
            -101.70877215948866
          ],
          [
            150.51813455522134,
            -102.43889160892785
          ],
          [
            150.37716790496424,
            -102.99203352746707
          ],
          [
            150.24172271134822,
            -103.88475984677474
          ],
          [
            149.45737675334308,
            -105.40115135571732
          ],
          [
            149.04114845930695,
            -106.51309906341069
          ],
          [
            149.09405551179657,
            -107.25102180505021
          ],
          [
            149.18305695566804,
            -107.97919124273514
          ],
          [
            149.26787179391653,
            -108.70893177044574
          ],
          [
            149.28706957683534,
            -108.89145667131505
          ],
          [
            149.3274867043383,
            -109.27571013240126
          ],
          [
            149.41700773874234,
            -110.00052135756404
          ],
          [
            149.54379025472434,
            -110.93822377241428
          ],
          [
            149.55780488157913,
            -111.67811185572124
          ],
          [
            149.52410872371095,
            -112.42701397529365
          ],
          [
            149.92686839798588,
            -113.75637724775446
          ],
          [
            150.43886019942943,
            -114.79976736542511
          ],
          [
            150.51398916252475,
            -114.94560623480112
          ],
          [
            150.70313051084798,
            -115.3122454093484
          ],
          [
            150.89839770456496,
            -115.67104667111683
          ],
          [
            151.08839609247246,
            -116.06120414816804
          ],
          [
            151.20349784908427,
            -116.46308296942517
          ],
          [
            151.32255767878564,
            -116.98983238200951
          ],
          [
            151.37612784539752,
            -117.40960056946636
          ],
          [
            151.99514012563222,
            -118.93995572337754
          ],
          [
            152.78215583709016,
            -119.64326397041563
          ],
          [
            153.60352806204318,
            -120.27492060854384
          ],
          [
            154.37241297494825,
            -121.03002145588769
          ],
          [
            154.64796518905996,
            -121.46244145796686
          ],
          [
            155.40427987099713,
            -122.55536511769012
          ],
          [
            156.0470269875295,
            -123.54194538017074
          ],
          [
            156.8006764267343,
            -124.31609444200284
          ],
          [
            157.68317641258008,
            -125.05957495946713
          ],
          [
            158.39898271670026,
            -125.84668095310857
          ],
          [
            158.71392868125412,
            -126.6259469638482
          ],
          [
            158.89845948096388,
            -126.99504494805623
          ],
          [
            159.2675332128196,
            -127.36415197817935
          ],
          [
            160.00566854409482,
            -128.47145497671858
          ],
          [
            160.74380387537,
            -129.5787579752578
          ],
          [
            161.48194527286333,
            -130.50151650465054
          ],
          [
            162.22008667035666,
            -131.42427503404326
          ],
          [
            162.5891604022124,
            -131.7933820641664
          ],
          [
            162.77369120192213,
            -132.16248004837445
          ],
          [
            162.9582220016319,
            -132.5315780325825
          ],
          [
            163.6963452004709,
            -134.00796996941466
          ],
          [
            164.43446839930988,
            -135.48436190624685
          ],
          [
            165.172597664367,
            -136.77620937393252
          ],
          [
            166.27983099237036,
            -137.51444152600894
          ],
          [
            167.38707038659186,
            -138.0681292089389
          ],
          [
            168.67885271295933,
            -138.62182593778394
          ],
          [
            169.97063503932677,
            -139.17552266662898
          ],
          [
            171.4469542316221,
            -139.91377291053558
          ]
        ]
      },
      "properties": {
        "type": "variant",
        "id": 3,
        "color": "#44ff44",
        "vzdal_m": 1658,
        "prevyseni_m": 27,
        "cas_s": 454,
        "tempo_str": "4:33"
      }
    }
  ]
}