{
  "type": "FeatureCollection",
  "features": [
    {
      "type": "Feature",
      "geometry": {
        "type": "Point",
        "coordinates": [
          196.60925657751685,
          -61.92921785247904
        ]
      },
      "properties": {
        "type": "start",
        "isom": "419"
      }
    },
    {
      "type": "Feature",
      "geometry": {
        "type": "Point",
        "coordinates": [
          198.45405191852174,
          -81.21605078212836
        ]
      },
      "properties": {
        "type": "end",
        "isom": "109"
      }
    },
    {
      "type": "Feature",
      "geometry": {
        "type": "LineString",
        "coordinates": [
          [
            196.5473590137353,
            -61.85269270602694
          ],
          [
            196.54733474886282,
            -62.59087058261286
          ],
          [
            196.54731048399037,
            -63.32904845919877
          ],
          [
            196.54728621911792,
            -64.06722633578468
          ],
          [
            196.91634175231934,
            -64.98996677334726
          ],
          [
            197.28541548417505,
            -65.35907380347038
          ],
          [
            197.46994628388478,
            -65.72817178767842
          ],
          [
            197.4699402176667,
            -65.91271625682491
          ],
          [
            197.65447101737644,
            -66.28181424103295
          ],
          [
            197.65444675250396,
            -67.01999211761887
          ],
          [
            198.02350228570538,
            -67.94273255518142
          ],
          [
            198.2080148867608,
            -68.86546394682891
          ],
          [
            198.39255175268863,
            -69.05001746189048
          ],
          [
            198.5770825523984,
            -69.41911544609852
          ],
          [
            198.76161335210813,
            -69.78821343030656
          ],
          [
            199.49974261716525,
            -71.08006089799225
          ],
          [
            200.05332895007638,
            -72.37189931976286
          ],
          [
            200.23784155113182,
            -73.29463071141033
          ],
          [
            200.23782335247748,
            -73.84826411884977
          ],
          [
            200.05325008924095,
            -74.77097741866707
          ],
          [
            200.05321369193226,
            -75.87824423354594
          ],
          [
            200.0531894270598,
            -76.61642211013186
          ],
          [
            200.05316516218738,
            -77.35459998671777
          ],
          [
            200.05314089731493,
            -78.0927778633037
          ],
          [
            199.86858583273275,
            -78.46185775568156
          ],
          [
            199.68403076815054,
            -78.83093764805943
          ],
          [
            199.13035950818585,
            -80.12272179433953
          ],
          [
            198.39215138229332,
            -81.22995242555805
          ]
        ]
      },
      "properties": {
        "type": "variant",
        "id": 1,
        "color": "#ff4444",
        "vzdal_m": 561,
        "prevyseni_m": 23,
        "cas_s": 196,
        "tempo_str": "5:49"
      }
    },
    {
      "type": "Feature",
      "geometry": {
        "type": "LineString",
        "coordinates": [
          [
            196.5473590137353,
            -61.85269270602694
          ],
          [
            196.54734688129906,
            -62.221781644319904
          ],
          [
            196.36279181671685,
            -62.59086153669778
          ],
          [
            196.17821855348032,
            -63.51357483651508
          ],
          [
            196.17819428860787,
            -64.251752713101
          ],
          [
            195.99363922402569,
            -64.62083260547887
          ],
          [
            195.43998616271534,
            -65.35898334431953
          ],
          [
            195.25543109813313,
            -65.7280632366974
          ],
          [
            194.3326861063127,
            -66.65074035285436
          ],
          [
            193.59447191420207,
            -67.94251545321936
          ],
          [
            193.04081885289173,
            -68.68066619206002
          ],
          [
            192.8562637883095,
            -69.04974608443788
          ],
          [
            192.48716579158133,
            -69.41881693090066
          ],
          [
            192.30261072699915,
            -69.78789682327854
          ],
          [
            191.93349453161665,
            -70.71060107718075
          ],
          [
            192.1180253313264,
            -71.0796990613888
          ],
          [
            192.30255613103617,
            -71.44879704559685
          ],
          [
            192.4870869307459,
            -71.81789502980489
          ],
          [
            192.67161773045567,
            -72.18699301401293
          ],
          [
            192.85614853016537,
            -72.55609099822097
          ],
          [
            192.85612426529298,
            -73.29426887480689
          ],
          [
            192.8561000004205,
            -74.0324467513928
          ],
          [
            192.85607573554805,
            -74.77062462797872
          ],
          [
            193.0406065352578,
            -75.13972261218676
          ],
          [
            193.04058227038536,
            -75.87790048877268
          ],
          [
            193.59418073573272,
            -76.80064997225033
          ],
          [
            194.33232213322603,
            -77.72340850164306
          ],
          [
            194.8859145323553,
            -78.83070245426718
          ],
          [
            196.17769079250465,
            -79.56894365225871
          ],
          [
            196.9158503886523,
            -79.93806877421201
          ],
          [
            197.28493018672614,
            -80.12263133518866
          ],
          [
            197.469467052654,
            -80.30718485025022
          ],
          [
            197.65399785236374,
            -80.67628283445826
          ],
          [
            198.39215138229332,
            -81.22995242555805
          ]
        ]
      },
      "properties": {
        "type": "variant",
        "id": 2,
        "color": "#4444ff",
        "vzdal_m": 637,
        "prevyseni_m": 20,
        "cas_s": 208,
        "tempo_str": "5:26"
      }
    },
    {
      "type": "Feature",
      "geometry": {
        "type": "LineString",
        "coordinates": [
          [
            196.5473590137353,
            -61.85269270602694
          ],
          [
            196.54734688129906,
            -62.221781644319904
          ],
          [
            196.36279181671685,
            -62.59086153669778
          ],
          [
            196.17821855348032,
            -63.51357483651508
          ],
          [
            196.17819428860787,
            -64.251752713101
          ],
          [
            195.99363922402569,
            -64.62083260547887
          ],
          [
            195.8090841594435,
            -64.98991249785674
          ],
          [
            195.6245290948613,
            -65.3589923902346
          ],
          [
            195.43995583162476,
            -66.28170569005191
          ],
          [
            195.4399315667523,
            -67.01988356663783
          ],
          [
            195.4399073018799,
            -67.75806144322374
          ],
          [
            195.62441990293533,
            -68.68079283487123
          ],
          [
            195.6244077704991,
            -69.04988177316417
          ],
          [
            195.80893857020882,
            -69.41897975737223
          ],
          [
            195.8089325039907,
            -69.6035242265187
          ],
          [
            195.99346330370045,
            -69.97262221072674
          ],
          [
            195.62434710831795,
            -70.89532646462897
          ],
          [
            195.8088718418096,
            -71.44896891798349
          ],
          [
            196.5470071730848,
            -72.55627191652269
          ],
          [
            196.54699504064862,
            -72.92536085481565
          ],
          [
            196.73152584035833,
            -73.29445883902369
          ],
          [
            196.9160566400681,
            -73.66355682323174
          ],
          [
            197.10058743977783,
            -74.03265480743978
          ],
          [
            197.2851182394876,
            -74.40175279164782
          ],
          [
            197.46964903919735,
            -74.77085077585588
          ],
          [
            197.46964297297924,
            -74.95539524500235
          ],
          [
            197.4696369067611,
            -75.13993971414882
          ],
          [
            197.469630840543,
            -75.32448418329531
          ],
          [
            197.4696247743249,
            -75.50902865244178
          ],
          [
            197.46960657567055,
            -76.06266205988122
          ],
          [
            197.46960050945245,
            -76.2472065290277
          ],
          [
            197.4695944432343,
            -76.43175099817418
          ],
          [
            197.4695883770162,
            -76.61629546732065
          ],
          [
            197.46958231079813,
            -76.80083993646713
          ],
          [
            197.65411311050786,
            -77.16993792067518
          ],
          [
            197.83862571156328,
            -78.09266931232266
          ],
          [
            198.0231261801825,
            -79.38448964226309
          ],
          [
            198.3921999120382,
            -79.75359667238622
          ],
          [
            198.57673071174796,
            -80.12269465659426
          ],
          [
            198.5767064468755,
            -80.86087253318017
          ],
          [
            198.39215138229332,
            -81.22995242555805
          ]
        ]
      },
      "properties": {
        "type": "variant",
        "id": 3,
        "color": "#44ff44",
        "vzdal_m": 557,
        "prevyseni_m": 23,
        "cas_s": 222,
        "tempo_str": "6:39"
      }
    }
  ]
}