{
  "type": "FeatureCollection",
  "features": [
    {
      "type": "Feature",
      "geometry": {
        "type": "Point",
        "coordinates": [
          140.27857115529673,
          -221.02704190183692
        ]
      },
      "properties": {
        "type": "start",
        "isom": "418"
      }
    },
    {
      "type": "Feature",
      "geometry": {
        "type": "Point",
        "coordinates": [
          78.45318984157014,
          -215.18871522495306
        ]
      },
      "properties": {
        "type": "end",
        "isom": "204"
      }
    },
    {
      "type": "Feature",
      "geometry": {
        "type": "LineString",
        "coordinates": [
          [
            140.256529562984,
            -221.11181057533656
          ],
          [
            139.70291896520047,
            -220.55815003015186
          ],
          [
            139.33383916712663,
            -220.37358746917522
          ],
          [
            139.14929623498065,
            -220.3735784232601
          ],
          [
            138.7802043044706,
            -220.55810480057642
          ],
          [
            138.59566137232463,
            -220.55809575466134
          ],
          [
            138.22656944181458,
            -220.74262213197764
          ],
          [
            137.67294064537666,
            -220.74259499423238
          ],
          [
            137.3038487148666,
            -220.92712137154868
          ],
          [
            137.11931184893874,
            -220.7425678564871
          ],
          [
            136.75023205086492,
            -220.5580052955105
          ],
          [
            135.82753558878937,
            -220.0043266584956
          ],
          [
            134.76313475206206,
            -219.25242968924775
          ],
          [
            133.61304466791017,
            -219.26604023092864
          ],
          [
            132.8748729393263,
            -219.26600404726832
          ],
          [
            131.95215827859644,
            -219.26595881769285
          ],
          [
            131.02943148543037,
            -219.6350025264104
          ],
          [
            130.29125975684647,
            -219.6349663427501
          ],
          [
            129.3685329636804,
            -220.00401005146756
          ],
          [
            128.26127537080455,
            -220.00395577597706
          ],
          [
            126.96949911065522,
            -219.26571457798556
          ],
          [
            126.0468026485797,
            -218.7120359409707
          ],
          [
            125.67772285050586,
            -218.52747337999403
          ],
          [
            125.12409405406794,
            -218.52744624224874
          ],
          [
            124.38592232548406,
            -218.52741005858843
          ],
          [
            123.46321373097231,
            -218.34282035986652
          ],
          [
            122.72504200238843,
            -218.34278417620618
          ],
          [
            121.61778440951261,
            -218.34272990071565
          ],
          [
            120.87961268092872,
            -218.34269371705534
          ],
          [
            120.14144095234484,
            -218.34265753339497
          ],
          [
            119.21872022539688,
            -218.527156772966
          ],
          [
            118.480548496813,
            -218.52712058930567
          ],
          [
            118.11145656630295,
            -218.71164696662197
          ],
          [
            117.74236463579288,
            -218.89617334393827
          ],
          [
            117.37327270528283,
            -219.08069972125458
          ],
          [
            116.63507671182651,
            -219.81884141418016
          ],
          [
            115.89688071837017,
            -220.55698310710574
          ],
          [
            114.97414179276788,
            -221.2951157541162
          ],
          [
            113.49777407072764,
            -222.03322126338142
          ],
          [
            113.12868214021759,
            -222.21774764069772
          ],
          [
            112.75959020970755,
            -222.40227401801405
          ],
          [
            112.3904982791975,
            -222.58680039533036
          ],
          [
            111.09867955552136,
            -223.1403704813642
          ],
          [
            110.17595882857339,
            -223.3248697209352
          ],
          [
            109.25325023406165,
            -223.1402800222133
          ],
          [
            108.51507850547776,
            -223.14024383855298
          ],
          [
            107.77690677689388,
            -223.14020765489263
          ],
          [
            106.66966131645428,
            -222.77106444110913
          ],
          [
            105.00879312579488,
            -222.2173496204339
          ],
          [
            103.71702293186364,
            -221.29456395329592
          ],
          [
            102.79431433735189,
            -221.109974254574
          ],
          [
            101.50253201098441,
            -220.55627752572897
          ],
          [
            100.0262128186891,
            -219.8180272818224
          ],
          [
            98.73443049232162,
            -219.26433055297736
          ],
          [
            97.99626482995585,
            -219.07974990017053
          ],
          [
            97.25808703515385,
            -219.26425818565664
          ],
          [
            96.51991530656998,
            -219.26422200199633
          ],
          [
            95.78173751176799,
            -219.44873028748245
          ],
          [
            95.04357184940221,
            -219.26414963467562
          ],
          [
            94.30540012081832,
            -219.26411345101525
          ],
          [
            93.56723445845255,
            -219.07953279820848
          ],
          [
            92.82905666365055,
            -219.2640410836946
          ],
          [
            92.09088493506667,
            -219.26400490003422
          ],
          [
            91.35270714026467,
            -219.44851318552034
          ],
          [
            90.6145414778989,
            -219.26393253271357
          ],
          [
            89.87636974931502,
            -219.2638963490532
          ],
          [
            89.13820408694924,
            -219.07931569624637
          ],
          [
            88.40002629214725,
            -219.26382398173251
          ],
          [
            87.66185456356337,
            -219.26378779807217
          ],
          [
            86.73914596905162,
            -219.07919809935026
          ],
          [
            86.00097424046773,
            -219.07916191568992
          ],
          [
            85.078265645956,
            -218.89457221696802
          ],
          [
            83.78648331958853,
            -218.34087548812298
          ],
          [
            82.49470705943916,
            -217.60263429013145
          ],
          [
            80.83383886877976,
            -217.04891946945622
          ],
          [
            80.28024040343242,
            -216.1261699859786
          ],
          [
            79.17300707542903,
            -215.38793783390216
          ],
          [
            78.43484141306325,
            -215.2033571810953
          ]
        ]
      },
      "properties": {
        "type": "variant",
        "id": 1,
        "color": "#ff4444",
        "vzdal_m": 1817,
        "prevyseni_m": 96,
        "cas_s": 680,
        "tempo_str": "6:14"
      }
    },
    {
      "type": "Feature",
      "geometry": {
        "type": "LineString",
        "coordinates": [
          [
            140.256529562984,
            -221.11181057533656
          ],
          [
            139.88743156625586,
            -221.48088142179932
          ],
          [
            139.70287650167367,
            -221.84996131417722
          ],
          [
            139.33378457116362,
            -222.03448769149352
          ],
          [
            138.41106384421565,
            -222.21898693106453
          ],
          [
            137.3037941189036,
            -222.58802159386698
          ],
          [
            136.19652439359155,
            -222.9570562566694
          ],
          [
            135.45834659878957,
            -223.14156454215558
          ],
          [
            134.97009061427877,
            -223.2650940676622
          ],
          [
            134.28058658115205,
            -224.35523734802763
          ],
          [
            133.6963904339302,
            -225.1260145521266
          ],
          [
            133.18399764873354,
            -225.23645589821226
          ],
          [
            132.8196445742794,
            -225.41656978740423
          ],
          [
            132.44288313620555,
            -225.58381935838133
          ],
          [
            132.0661216981317,
            -225.7510689293585
          ],
          [
            131.42336927604558,
            -225.98142339310598
          ],
          [
            130.33121042882075,
            -226.37599564706275
          ],
          [
            128.85589692180292,
            -227.07818602871467
          ],
          [
            127.70741605807844,
            -227.01661846579796
          ],
          [
            127.15379332785864,
            -226.83204685890624
          ],
          [
            126.60016453142073,
            -226.832019721161
          ],
          [
            125.1237968093805,
            -227.57012523042619
          ],
          [
            123.83197201948626,
            -228.3082397856065
          ],
          [
            122.72470836039233,
            -228.4927299792625
          ],
          [
            121.80199976588058,
            -228.30814028054058
          ],
          [
            120.5102053070769,
            -228.1235324899885
          ],
          [
            119.58746031525646,
            -229.04620960614542
          ],
          [
            118.84927038801827,
            -229.59980682992455
          ],
          [
            117.55746379677835,
            -229.78428797766543
          ],
          [
            116.45018800524818,
            -230.33786710961434
          ],
          [
            115.8192780301982,
            -230.57643822305474
          ],
          [
            114.42022788407873,
            -229.9686786662554
          ],
          [
            113.31298242363913,
            -229.59953545247197
          ],
          [
            112.57481069505525,
            -229.5994992688116
          ],
          [
            111.83663896647136,
            -229.59946308515126
          ],
          [
            110.7293692411593,
            -229.9684977479537
          ],
          [
            109.43757478235561,
            -229.78388995740164
          ],
          [
            108.14580458842437,
            -228.86110429026363
          ],
          [
            106.85402226205692,
            -228.3074075614186
          ],
          [
            105.93131366754517,
            -228.12281786269668
          ],
          [
            105.0085929405972,
            -228.3073171022677
          ],
          [
            103.71682274666595,
            -227.3845314351297
          ],
          [
            102.24050355437063,
            -226.64628119122312
          ],
          [
            101.8714237562968,
            -226.46171863024645
          ],
          [
            100.7641722296391,
            -226.27711988560947
          ],
          [
            99.28785303734377,
            -225.53886964170286
          ],
          [
            98.18060757690417,
            -225.1697264279194
          ],
          [
            96.70428838460883,
            -224.43147618401278
          ],
          [
            95.04342019394943,
            -223.87776136333758
          ],
          [
            93.75165000001819,
            -222.95497569619957
          ],
          [
            92.27533080772285,
            -222.216725452293
          ],
          [
            90.79901161542753,
            -221.47847520838636
          ],
          [
            89.50723535527818,
            -220.74023401039486
          ],
          [
            88.03091616298286,
            -220.00198376648825
          ],
          [
            86.55459090446944,
            -219.4482779917281
          ],
          [
            85.44736970890226,
            -218.34095690135874
          ],
          [
            83.97105051660694,
            -217.60270665745213
          ],
          [
            82.67926212402138,
            -217.23355439775355
          ],
          [
            81.20294293172604,
            -216.49530415384697
          ],
          [
            79.7266237394307,
            -215.75705390994034
          ],
          [
            78.61938434520923,
            -215.20336622701043
          ],
          [
            78.43484141306325,
            -215.2033571810953
          ]
        ]
      },
      "properties": {
        "type": "variant",
        "id": 2,
        "color": "#4444ff",
        "vzdal_m": 1868,
        "prevyseni_m": 94,
        "cas_s": 659,
        "tempo_str": "5:52"
      }
    },
    {
      "type": "Feature",
      "geometry": {
        "type": "LineString",
        "coordinates": [
          [
            140.256529562984,
            -221.11181057533656
          ],
          [
            139.70291896520047,
            -220.55815003015186
          ],
          [
            139.33383916712663,
            -220.37358746917522
          ],
          [
            138.9647654352709,
            -220.0044804390521
          ],
          [
            138.59568563719705,
            -219.81991787807542
          ],
          [
            138.22660583912324,
            -219.63535531709877
          ],
          [
            137.8575260410494,
            -219.4507927561221
          ],
          [
            137.11935431246553,
            -219.45075657246176
          ],
          [
            135.6430351201702,
            -218.71250632855518
          ],
          [
            134.32414208215664,
            -217.98378847389145
          ],
          [
            134.05282709050763,
            -217.21126414575693
          ],
          [
            133.91537556082005,
            -216.82493812686968
          ],
          [
            133.82246707262345,
            -216.130003130131
          ],
          [
            133.88360606243904,
            -215.40811622732065
          ],
          [
            133.61317812470864,
            -215.2060619097061
          ],
          [
            133.2440861941986,
            -215.3905882870224
          ],
          [
            133.05953719583448,
            -215.57512371025382
          ],
          [
            132.8749881974704,
            -215.75965913348523
          ],
          [
            132.50589020074224,
            -216.12872997994802
          ],
          [
            131.76776093568515,
            -214.83688251226232
          ],
          [
            131.58323013597538,
            -214.4677845280543
          ],
          [
            131.39869327004752,
            -214.2832310129927
          ],
          [
            130.98691437903804,
            -214.07379532676194
          ],
          [
            129.9223680115341,
            -213.72952523823258
          ],
          [
            128.63057355273043,
            -213.54491744768052
          ],
          [
            127.70787709065488,
            -212.9912388106656
          ],
          [
            126.78516849614314,
            -212.8066491119437
          ],
          [
            126.04699676755925,
            -212.80661292828339
          ],
          [
            125.30882503897537,
            -212.80657674462302
          ],
          [
            124.16095268748147,
            -212.50049148397892
          ],
          [
            123.41686014552468,
            -212.27526073442576
          ],
          [
            122.73526053152898,
            -212.47193279308556
          ],
          [
            121.47026193204707,
            -213.34017921198796
          ],
          [
            120.18658165040631,
            -213.7792554334661
          ],
          [
            119.40341735683961,
            -213.83616611518843
          ],
          [
            118.61109293335527,
            -213.90023918377747
          ],
          [
            117.93967929035959,
            -213.68866079596535
          ],
          [
            116.99404872563406,
            -213.39204616874804
          ],
          [
            115.65115011599771,
            -212.9553100589027
          ],
          [
            115.01673921436263,
            -212.699500570195
          ],
          [
            114.8573304004888,
            -212.63619672680545
          ],
          [
            114.43812637743386,
            -212.51562482571148
          ],
          [
            113.10377374747827,
            -212.15585788959547
          ],
          [
            112.42164795057715,
            -211.96030721893774
          ],
          [
            111.85130551457924,
            -211.88897441848576
          ],
          [
            111.4870478174153,
            -211.81813349505063
          ],
          [
            111.14673132357402,
            -211.71917318758796
          ],
          [
            110.75694390171425,
            -211.6058272763248
          ],
          [
            110.58678565479362,
            -211.5563471225935
          ],
          [
            110.21746239190364,
            -211.49063275122433
          ],
          [
            108.86741064977961,
            -210.99474677888955
          ],
          [
            107.4091865157549,
            -210.2204910165766
          ],
          [
            105.9859525772273,
            -209.38783050505603
          ],
          [
            105.62625947835386,
            -209.1856579543194
          ],
          [
            105.26631223949423,
            -208.9847341663915
          ],
          [
            104.90636500063457,
            -208.78381037846367
          ],
          [
            104.49711540957986,
            -208.63168124462186
          ],
          [
            103.34834957040326,
            -208.74552195950525
          ],
          [
            102.61017784181938,
            -208.74548577584488
          ],
          [
            102.24108591130931,
            -208.9300121531612
          ],
          [
            101.50291418272543,
            -208.92997596950084
          ],
          [
            100.02654039446712,
            -209.85262594791254
          ],
          [
            98.7347277370091,
            -210.2216515647999
          ],
          [
            97.25836608118698,
            -210.77521260491864
          ],
          [
            96.52018828638498,
            -210.95972089040478
          ],
          [
            95.782010491583,
            -211.14422917589093
          ],
          [
            94.49019783412497,
            -211.51325479277827
          ],
          [
            93.38293417503102,
            -211.6977449864342
          ],
          [
            92.82930537859312,
            -211.69771784868897
          ],
          [
            92.09113365000923,
            -211.69768166502863
          ],
          [
            91.35295585520723,
            -211.88218995051474
          ],
          [
            90.61479019284147,
            -211.69760929770794
          ],
          [
            89.6920694658935,
            -211.88210853727898
          ],
          [
            88.9538977373096,
            -211.88207235361864
          ],
          [
            87.84662801199757,
            -212.25110701642106
          ],
          [
            86.73935828668552,
            -212.62014167922354
          ],
          [
            85.44753956300937,
            -213.17371176525737
          ],
          [
            83.97117790718727,
            -213.7272728053761
          ],
          [
            83.41754911074936,
            -213.72724566763083
          ],
          [
            82.67937131594738,
            -213.91175395311694
          ],
          [
            81.75665665521751,
            -213.91170872354152
          ],
          [
            80.83393592826954,
            -214.0962079631126
          ],
          [
            79.17302527408336,
            -214.83430442646272
          ],
          [
            78.43484141306325,
            -215.2033571810953
          ]
        ]
      },
      "properties": {
        "type": "variant",
        "id": 3,
        "color": "#44ff44",
        "vzdal_m": 1881,
        "prevyseni_m": 102,
        "cas_s": 728,
        "tempo_str": "6:26"
      }
    }
  ]
}