{
  "type": "FeatureCollection",
  "features": [
    {
      "type": "Feature",
      "geometry": {
        "type": "Point",
        "coordinates": [
          170.66794870640615,
          -84.2275644693781
        ]
      },
      "properties": {
        "type": "start",
        "isom": "111"
      }
    },
    {
      "type": "Feature",
      "geometry": {
        "type": "Point",
        "coordinates": [
          160.061988690379,
          -160.0445562354517
        ]
      },
      "properties": {
        "type": "end",
        "isom": "419"
      }
    },
    {
      "type": "Feature",
      "geometry": {
        "type": "LineString",
        "coordinates": [
          [
            170.74187056712594,
            -84.27801257549228
          ],
          [
            170.5572973038894,
            -85.20072587530959
          ],
          [
            170.55727303901696,
            -85.9389037518955
          ],
          [
            170.55724877414454,
            -86.67708162848142
          ],
          [
            170.00357751417985,
            -87.96886577476151
          ],
          [
            169.44990625421514,
            -89.26064992104159
          ],
          [
            168.89623499425045,
            -90.55243406732168
          ],
          [
            168.34256373428573,
            -91.84421821360176
          ],
          [
            167.78889247432105,
            -93.13600235988186
          ],
          [
            167.23522121435636,
            -94.42778650616195
          ],
          [
            167.05066008355607,
            -94.98141086768631
          ],
          [
            166.3124398252273,
            -96.45773043719778
          ],
          [
            165.9433175636267,
            -97.5649791602465
          ],
          [
            165.57419530202606,
            -98.6722278832952
          ],
          [
            165.20507304042545,
            -99.77947660634388
          ],
          [
            164.83595077882484,
            -100.88672532939258
          ],
          [
            164.65137751558834,
            -101.80943862920988
          ],
          [
            164.65135325071586,
            -102.54761650579579
          ],
          [
            164.4667981861337,
            -102.91669639817368
          ],
          [
            164.466761788825,
            -104.02396321305255
          ],
          [
            164.46673752395256,
            -104.76214108963846
          ],
          [
            164.4667132590801,
            -105.50031896622437
          ],
          [
            164.4666889942077,
            -106.23849684281029
          ],
          [
            164.46666472933524,
            -106.9766747193962
          ],
          [
            164.2820975323168,
            -107.71484355006703
          ],
          [
            164.46661619959036,
            -108.45303047256803
          ],
          [
            164.46659193471788,
            -109.19120834915394
          ],
          [
            164.46656766984546,
            -109.92938622573986
          ],
          [
            164.466543404973,
            -110.66756410232577
          ],
          [
            164.46651914010056,
            -111.40574197891169
          ],
          [
            164.4664948752281,
            -112.1439198554976
          ],
          [
            164.46647061035569,
            -112.88209773208351
          ],
          [
            164.6509832114111,
            -113.80482912373097
          ],
          [
            164.65095894653865,
            -114.54300700031689
          ],
          [
            164.83547154759407,
            -115.46573839196436
          ],
          [
            165.0199962810857,
            -116.01938084531889
          ],
          [
            165.20452708079543,
            -116.38847882952695
          ],
          [
            165.3890578805052,
            -116.75757681373499
          ],
          [
            165.57358868021495,
            -117.12667479794302
          ],
          [
            165.57358261399682,
            -117.31121926708951
          ],
          [
            165.75811341370658,
            -117.68031725129755
          ],
          [
            165.75810128127037,
            -118.04940618959051
          ],
          [
            165.9426320809801,
            -118.41850417379855
          ],
          [
            165.94260781610765,
            -119.15668205038448
          ],
          [
            165.9425835512352,
            -119.89485992697038
          ],
          [
            166.12709615229065,
            -120.81759131861784
          ],
          [
            166.12705975498199,
            -121.92485813349671
          ],
          [
            166.1270354901095,
            -122.66303601008264
          ],
          [
            166.12701122523708,
            -123.40121388666854
          ],
          [
            166.12698696036463,
            -124.13939176325445
          ],
          [
            166.12696269549218,
            -124.87756963984037
          ],
          [
            166.12693843061973,
            -125.61574751642628
          ],
          [
            166.1269141657473,
            -126.3539253930122
          ],
          [
            166.12688383465672,
            -127.27664773874459
          ],
          [
            166.1268656360024,
            -127.83028114618402
          ],
          [
            165.7577433744018,
            -128.93752986923275
          ],
          [
            164.83498018392706,
            -130.41384039282912
          ],
          [
            165.0195170498549,
            -130.59839390789068
          ],
          [
            164.8349619852727,
            -130.96747380026855
          ],
          [
            164.6504069206905,
            -131.33655369264642
          ],
          [
            164.65038265581808,
            -132.07473156923234
          ],
          [
            164.28126039421747,
            -133.18198029228105
          ],
          [
            164.09668713098094,
            -134.10469359209836
          ],
          [
            164.0966628661085,
            -134.84287146868428
          ],
          [
            163.91208960287196,
            -135.76558476850158
          ],
          [
            163.35841834290727,
            -137.05736891478165
          ],
          [
            162.98929608130666,
            -138.16461763783036
          ],
          [
            162.2510758229779,
            -139.64093720734184
          ],
          [
            162.06650255974137,
            -140.56365050715914
          ],
          [
            161.69738636435886,
            -141.48635476106136
          ],
          [
            160.9591843046844,
            -142.4090409231334
          ],
          [
            160.77460497522978,
            -143.5162986920972
          ],
          [
            160.03639078311912,
            -144.8080737924622
          ],
          [
            159.29817052479035,
            -146.28439336197368
          ],
          [
            159.2981583923541,
            -146.65348230026663
          ],
          [
            159.48268919206387,
            -147.02258028447469
          ],
          [
            159.6672199917736,
            -147.39167826868274
          ],
          [
            159.85175079148337,
            -147.76077625289076
          ],
          [
            160.03628159119313,
            -148.12987423709882
          ],
          [
            160.03625732632065,
            -148.86805211368474
          ],
          [
            159.85168406308415,
            -149.79076541350204
          ],
          [
            159.48256180148354,
            -150.89801413655073
          ],
          [
            158.92889054151885,
            -152.18979828283082
          ],
          [
            158.92886627664637,
            -152.92797615941674
          ],
          [
            159.11337887770182,
            -153.85070755106423
          ],
          [
            159.29789147875724,
            -154.7734389427117
          ],
          [
            159.29786721388479,
            -155.5116168192976
          ],
          [
            159.8514535467959,
            -156.8034552410682
          ],
          [
            159.8514292819235,
            -157.54163311765413
          ],
          [
            159.85141714948725,
            -157.91072205594708
          ],
          [
            160.03594794919698,
            -158.27982004015513
          ],
          [
            160.03594188297888,
            -158.46436450930162
          ],
          [
            160.03593581676077,
            -158.64890897844808
          ],
          [
            160.22046661647053,
            -159.01800696265613
          ],
          [
            160.2204544840343,
            -159.38709590094908
          ],
          [
            160.0358994194521,
            -159.75617579332695
          ],
          [
            160.035893353234,
            -159.94072026247343
          ],
          [
            160.0358872870159,
            -160.12526473161992
          ]
        ]
      },
      "properties": {
        "type": "variant",
        "id": 1,
        "color": "#ff4444",
        "vzdal_m": 2160,
        "prevyseni_m": 23,
        "cas_s": 631,
        "tempo_str": "4:52"
      }
    },
    {
      "type": "Feature",
      "geometry": {
        "type": "LineString",
        "coordinates": [
          [
            170.74187056712594,
            -84.27801257549228
          ],
          [
            170.5572973038894,
            -85.20072587530959
          ],
          [
            170.55727303901696,
            -85.9389037518955
          ],
          [
            170.55724877414454,
            -86.67708162848142
          ],
          [
            170.00357751417985,
            -87.96886577476151
          ],
          [
            169.44990625421514,
            -89.26064992104159
          ],
          [
            168.89623499425045,
            -90.55243406732168
          ],
          [
            168.34256373428573,
            -91.84421821360176
          ],
          [
            167.78889247432105,
            -93.13600235988186
          ],
          [
            167.23522121435636,
            -94.42778650616195
          ],
          [
            167.05066008355607,
            -94.98141086768631
          ],
          [
            166.3124398252273,
            -96.45773043719778
          ],
          [
            165.9433175636267,
            -97.5649791602465
          ],
          [
            165.57419530202606,
            -98.6722278832952
          ],
          [
            165.20507304042545,
            -99.77947660634388
          ],
          [
            164.83595077882484,
            -100.88672532939258
          ],
          [
            164.65137751558834,
            -101.80943862920988
          ],
          [
            164.65135325071586,
            -102.54761650579579
          ],
          [
            164.4667981861337,
            -102.91669639817368
          ],
          [
            163.72858399402304,
            -104.20847149853867
          ],
          [
            163.3594617324224,
            -105.31572022158736
          ],
          [
            163.35943746754995,
            -106.05389809817328
          ],
          [
            163.3594132026775,
            -106.79207597475919
          ],
          [
            163.54392580373292,
            -107.71480736640667
          ],
          [
            163.17480960835044,
            -108.6375116203089
          ],
          [
            162.4366014824579,
            -109.74474225152741
          ],
          [
            162.43657721758544,
            -110.48292012811334
          ],
          [
            162.2520039543489,
            -111.40563342793064
          ],
          [
            162.25197968947646,
            -112.14381130451655
          ],
          [
            162.25195542460403,
            -112.88198918110247
          ],
          [
            162.06740036002182,
            -113.25106907348034
          ],
          [
            162.06739429380372,
            -113.43561354262681
          ],
          [
            161.69828416463932,
            -114.17377332738256
          ],
          [
            161.51372910005713,
            -114.54285321976043
          ],
          [
            161.14463716954708,
            -114.72737959707673
          ],
          [
            160.5909659095824,
            -116.01916374335681
          ],
          [
            160.59094164470994,
            -116.75734161994274
          ],
          [
            160.4063683814734,
            -117.68005491976005
          ],
          [
            160.59089918118318,
            -118.04915290396808
          ],
          [
            160.40632591794662,
            -118.9718662037854
          ],
          [
            160.22177085336446,
            -119.34094609616326
          ],
          [
            160.03721578878225,
            -119.71002598854113
          ],
          [
            159.66809352718164,
            -120.81727471158983
          ],
          [
            159.11442833343506,
            -121.92451438872345
          ],
          [
            159.29894700070858,
            -122.66270131122444
          ],
          [
            159.29892273583616,
            -123.40087918781035
          ],
          [
            159.29889847096368,
            -124.13905706439627
          ],
          [
            159.29887420609126,
            -124.87723494098218
          ],
          [
            158.92974587827254,
            -126.16902813317736
          ],
          [
            158.9297276796182,
            -126.7226615406168
          ],
          [
            158.74515441638167,
            -127.6453748404341
          ],
          [
            158.74514228394546,
            -128.01446377872708
          ],
          [
            158.9296730836552,
            -128.3835617629351
          ],
          [
            158.92964881878274,
            -129.12173963952102
          ],
          [
            158.9296245539103,
            -129.85991751610695
          ],
          [
            158.92960028903786,
            -130.59809539269284
          ],
          [
            158.9295760241654,
            -131.33627326927876
          ],
          [
            158.74500276092888,
            -132.25898656909607
          ],
          [
            158.56042949769235,
            -133.18169986891337
          ],
          [
            158.5604052328199,
            -133.9198777454993
          ],
          [
            158.00673397285522,
            -135.21166189177936
          ],
          [
            158.006721840419,
            -135.58075083007233
          ],
          [
            157.8221667758368,
            -135.9498307224502
          ],
          [
            157.82214251096437,
            -136.68800859903612
          ],
          [
            157.82211824609192,
            -137.42618647562205
          ],
          [
            157.82209398121947,
            -138.16436435220794
          ],
          [
            157.8220575839108,
            -139.27163116708684
          ],
          [
            157.82203331903835,
            -140.00980904367273
          ],
          [
            157.82200905416593,
            -140.74798692025865
          ],
          [
            157.82198478929345,
            -141.48616479684458
          ],
          [
            157.82196052442103,
            -142.22434267343047
          ],
          [
            158.37554685733215,
            -143.51618109520106
          ],
          [
            158.56007765704192,
            -143.88527907940912
          ],
          [
            158.74460845675165,
            -144.25437706361717
          ],
          [
            159.11365792373493,
            -145.36166197032622
          ],
          [
            159.48270739071822,
            -146.46894687703525
          ],
          [
            159.48268919206387,
            -147.02258028447469
          ],
          [
            159.6672199917736,
            -147.39167826868274
          ],
          [
            159.85175079148337,
            -147.76077625289076
          ],
          [
            160.03628159119313,
            -148.12987423709882
          ],
          [
            160.03625732632065,
            -148.86805211368474
          ],
          [
            159.85168406308415,
            -149.79076541350204
          ],
          [
            159.48256180148354,
            -150.89801413655073
          ],
          [
            158.92889054151885,
            -152.18979828283082
          ],
          [
            158.92886627664637,
            -152.92797615941674
          ],
          [
            159.11337887770182,
            -153.85070755106423
          ],
          [
            159.29789147875724,
            -154.7734389427117
          ],
          [
            159.29786721388479,
            -155.5116168192976
          ],
          [
            159.8514535467959,
            -156.8034552410682
          ],
          [
            159.8514292819235,
            -157.54163311765413
          ],
          [
            159.85141714948725,
            -157.91072205594708
          ],
          [
            160.03594794919698,
            -158.27982004015513
          ],
          [
            160.03594188297888,
            -158.46436450930162
          ],
          [
            160.03593581676077,
            -158.64890897844808
          ],
          [
            160.22046661647053,
            -159.01800696265613
          ],
          [
            160.2204544840343,
            -159.38709590094908
          ],
          [
            160.0358994194521,
            -159.75617579332695
          ],
          [
            160.035893353234,
            -159.94072026247343
          ],
          [
            160.0358872870159,
            -160.12526473161992
          ]
        ]
      },
      "properties": {
        "type": "variant",
        "id": 2,
        "color": "#4444ff",
        "vzdal_m": 2161,
        "prevyseni_m": 26,
        "cas_s": 631,
        "tempo_str": "4:52"
      }
    },
    {
      "type": "Feature",
      "geometry": {
        "type": "LineString",
        "coordinates": [
          [
            170.74187056712594,
            -84.27801257549228
          ],
          [
            170.74183416981728,
            -85.38527939037115
          ],
          [
            171.29543263516462,
            -86.3080288738488
          ],
          [
            171.2954083702922,
            -87.04620675043472
          ],
          [
            171.29538410541974,
            -87.78438462702063
          ],
          [
            171.2953598405473,
            -88.52256250360654
          ],
          [
            171.4798724416027,
            -89.44529389525403
          ],
          [
            171.84892190858596,
            -90.55257880196307
          ],
          [
            172.03342237720517,
            -91.8443991319035
          ],
          [
            172.2179349782606,
            -92.76713052355099
          ],
          [
            172.21791071338816,
            -93.5053084001369
          ],
          [
            172.21788644851569,
            -94.2434862767228
          ],
          [
            172.40241118200734,
            -94.79712873007733
          ],
          [
            172.5869480479352,
            -94.9816822451389
          ],
          [
            172.77147884764494,
            -95.35078022934692
          ],
          [
            173.14055257950065,
            -95.71988725947006
          ],
          [
            173.3250833792104,
            -96.08898524367811
          ],
          [
            173.3250773129923,
            -96.27352971282458
          ],
          [
            173.50960811270207,
            -96.64262769703264
          ],
          [
            173.5095838478296,
            -97.38080557361855
          ],
          [
            173.50955958295717,
            -98.11898345020445
          ],
          [
            173.69407218401258,
            -99.04171484185194
          ],
          [
            174.21717114836045,
            -100.33184148477665
          ],
          [
            174.17805297445622,
            -101.07334264521421
          ],
          [
            174.25709969979115,
            -101.81519742911604
          ],
          [
            174.17893701727183,
            -102.55479030671114
          ],
          [
            174.24756145743393,
            -103.2862647699662
          ],
          [
            174.43207405848935,
            -104.20899616161367
          ],
          [
            174.24751899390716,
            -104.57807605399154
          ],
          [
            174.2474947290347,
            -105.31625393057746
          ],
          [
            174.24747046416226,
            -106.05443180716337
          ],
          [
            174.24745833172605,
            -106.42352074545633
          ],
          [
            174.43198913143578,
            -106.79261872966437
          ],
          [
            174.43197093278147,
            -107.3462521371038
          ],
          [
            174.6165017324912,
            -107.71535012131186
          ],
          [
            174.61647746761875,
            -108.45352799789777
          ],
          [
            174.6164532027463,
            -109.19170587448367
          ],
          [
            174.61642893787388,
            -109.9298837510696
          ],
          [
            174.61640467300143,
            -110.6680616276555
          ],
          [
            175.22033826168223,
            -112.21631967960938
          ],
          [
            176.08404111486627,
            -113.45000314904097
          ],
          [
            176.73027049271482,
            -113.85637143522497
          ],
          [
            177.06065645826877,
            -114.11747256168981
          ],
          [
            177.26928405520783,
            -114.23541613132417
          ],
          [
            177.62872920138653,
            -114.43714643890999
          ],
          [
            177.98818868405874,
            -114.63879284436331
          ],
          [
            178.19841646352887,
            -114.74475575799097
          ],
          [
            178.57971252816108,
            -114.93707701729448
          ],
          [
            178.89949395685534,
            -115.10357701425951
          ],
          [
            179.2832960091077,
            -115.42692166826691
          ],
          [
            179.68920550801042,
            -115.91135102520299
          ],
          [
            179.7203880650059,
            -116.92083927829582
          ],
          [
            179.33280821289756,
            -118.0174428391696
          ],
          [
            178.9922749740801,
            -119.14361817276011
          ],
          [
            178.74385000753722,
            -120.01825778734379
          ],
          [
            178.50944964284182,
            -120.98307143732309
          ],
          [
            178.36436432540808,
            -121.92545798100507
          ],
          [
            178.42321904189603,
            -122.69220399287464
          ],
          [
            178.96849812903798,
            -123.7433713204347
          ],
          [
            179.12888296128887,
            -124.1172465895414
          ],
          [
            179.22363481276543,
            -124.50200232551114
          ],
          [
            179.23841295901948,
            -124.87786362320735
          ],
          [
            179.22578705595578,
            -125.61610274755027
          ],
          [
            179.18098277426208,
            -126.35162114253676
          ],
          [
            179.10459622922548,
            -127.06728583391967
          ],
          [
            178.93975352439608,
            -127.98606257693513
          ],
          [
            178.7781352286882,
            -128.4561406572464
          ],
          [
            178.57327499044487,
            -128.7821908745767
          ],
          [
            177.8115568708046,
            -129.71835969363627
          ],
          [
            177.00524403215968,
            -130.38564662102775
          ],
          [
            176.61658624324946,
            -130.96388770544752
          ],
          [
            176.41114410718535,
            -131.89231856908256
          ],
          [
            175.76508837729668,
            -133.16432691536411
          ],
          [
            175.75225338457497,
            -134.10862541701002
          ],
          [
            175.66891085383023,
            -134.8372713225411
          ],
          [
            175.59608318803504,
            -135.56461511288214
          ],
          [
            175.47131997416253,
            -136.49536353216365
          ],
          [
            175.26750367389076,
            -137.4581642095458
          ],
          [
            175.50327094266743,
            -138.1112252721328
          ],
          [
            175.35364827021428,
            -138.90340159072707
          ],
          [
            174.98451994239556,
            -140.19519478292224
          ],
          [
            174.2463057502849,
            -141.48696988328723
          ],
          [
            173.50808549195614,
            -142.96328945279873
          ],
          [
            172.683318624017,
            -144.19622004611034
          ],
          [
            172.05470072267715,
            -145.02758645589378
          ],
          [
            171.32079199613688,
            -145.7690178100401
          ],
          [
            170.4964928144788,
            -146.45447480566742
          ],
          [
            169.8754589340334,
            -147.97083942762458
          ],
          [
            169.49736272956952,
            -148.87653695036954
          ],
          [
            169.4341175159599,
            -149.26541055778867
          ],
          [
            169.43156434439015,
            -149.9757794689796
          ],
          [
            169.1413682316469,
            -150.65302492786893
          ],
          [
            168.92437841856142,
            -151.45617454973797
          ],
          [
            168.88115018689442,
            -151.82469664554662
          ],
          [
            168.1560310825993,
            -152.37479504773162
          ],
          [
            167.97147601801709,
            -152.7438749401095
          ],
          [
            167.0487310261967,
            -153.66655205626645
          ],
          [
            165.9414491684484,
            -154.40467565736185
          ],
          [
            164.83416124448203,
            -155.3273437276037
          ],
          [
            163.91142231887974,
            -156.0654763746142
          ],
          [
            163.1732263254234,
            -156.8036180675398
          ],
          [
            162.9886773270593,
            -156.98815349077117
          ],
          [
            162.61958539654924,
            -157.17267986808747
          ],
          [
            162.61957933033116,
            -157.35722433723396
          ],
          [
            162.43502426574895,
            -157.72630422961183
          ],
          [
            161.6968282722926,
            -158.46444592253738
          ],
          [
            161.51227320771045,
            -158.83352581491525
          ],
          [
            160.58953428210813,
            -159.57165846192572
          ],
          [
            160.22044235159808,
            -159.75618483924205
          ],
          [
            160.0358872870159,
            -160.12526473161992
          ]
        ]
      },
      "properties": {
        "type": "variant",
        "id": 3,
        "color": "#44ff44",
        "vzdal_m": 2337,
        "prevyseni_m": 24,
        "cas_s": 638,
        "tempo_str": "4:32"
      }
    }
  ]
}