{
  "type": "FeatureCollection",
  "features": [
    {
      "type": "Feature",
      "geometry": {
        "type": "Point",
        "coordinates": [
          86.14389332911627,
          -74.62871923870921
        ]
      },
      "properties": {
        "type": "start",
        "isom": "204"
      }
    },
    {
      "type": "Feature",
      "geometry": {
        "type": "Point",
        "coordinates": [
          55.11143168679026,
          -8.355394411925678
        ]
      },
      "properties": {
        "type": "end",
        "isom": "204"
      }
    },
    {
      "type": "Feature",
      "geometry": {
        "type": "LineString",
        "coordinates": [
          [
            86.13282700427526,
            -74.65490193211342
          ],
          [
            86.1328486061954,
            -74.1012421270867
          ],
          [
            86.31743968694072,
            -72.99392837057356
          ],
          [
            86.31746848950091,
            -72.25571529720462
          ],
          [
            86.13294221451602,
            -71.70204963863763
          ],
          [
            86.3175260946213,
            -70.77928915046672
          ],
          [
            85.76391846710645,
            -69.85650524813474
          ],
          [
            85.57940659340167,
            -68.93373305288328
          ],
          [
            85.57944979724196,
            -67.82641344282986
          ],
          [
            85.39492352225707,
            -67.27274778426289
          ],
          [
            85.21042604983239,
            -65.98086905232695
          ],
          [
            84.47228494669261,
            -64.68897275977024
          ],
          [
            83.91866291789768,
            -64.13529539412272
          ],
          [
            83.54958876600776,
            -63.58162388201548
          ],
          [
            83.180536216038,
            -62.47429256488152
          ],
          [
            82.6269357891632,
            -61.366955394207295
          ],
          [
            82.44240231353827,
            -60.99784300398255
          ],
          [
            82.25786163727328,
            -60.81328388210006
          ],
          [
            81.3351551185768,
            -60.25959480972928
          ],
          [
            80.7815402904219,
            -59.521364175739535
          ],
          [
            80.41245173725189,
            -59.336799200316754
          ],
          [
            79.48974115528694,
            -58.59855685924647
          ],
          [
            78.56705217524214,
            -57.30665471314948
          ],
          [
            78.38251869961721,
            -56.937542322924735
          ],
          [
            78.38252590025725,
            -56.7529890545825
          ],
          [
            78.19799242463232,
            -56.383876664357764
          ],
          [
            78.19801402655247,
            -55.83021685933105
          ],
          [
            78.01348055092754,
            -55.46110446910631
          ],
          [
            78.01348775156758,
            -55.276551200764075
          ],
          [
            78.01349495220764,
            -55.09199793242184
          ],
          [
            78.01350215284768,
            -54.907444664079605
          ],
          [
            77.82896867722275,
            -54.53833227385486
          ],
          [
            77.64443520159782,
            -54.16921988363011
          ],
          [
            77.27536825034795,
            -53.43099510318064
          ],
          [
            77.09083477472302,
            -53.0618827129559
          ],
          [
            76.721746221553,
            -52.87731773753312
          ],
          [
            76.53719834464798,
            -52.87731188399286
          ],
          [
            76.35266486902304,
            -52.50819949376812
          ],
          [
            76.16813139339811,
            -52.139087103543375
          ],
          [
            75.42999749089839,
            -50.66263754264441
          ],
          [
            75.24546401527346,
            -50.29352515241967
          ],
          [
            75.04504123928359,
            -49.819981511575655
          ],
          [
            74.87640426466365,
            -49.37074710362795
          ],
          [
            74.13827036216391,
            -47.894297542728985
          ],
          [
            73.4001364596642,
            -46.41784798183002
          ],
          [
            73.21560298403925,
            -46.048735591605286
          ],
          [
            73.03106950841433,
            -45.679623201380544
          ],
          [
            72.29291400399445,
            -44.75683344550829
          ],
          [
            71.92386145402469,
            -43.64950212837434
          ],
          [
            72.10844533412997,
            -42.726741640203414
          ],
          [
            72.10847413669015,
            -41.98852856683447
          ],
          [
            71.92396226298537,
            -41.06575637158302
          ],
          [
            71.37036903675062,
            -39.77386593256656
          ],
          [
            71.37037623739067,
            -39.58931266422432
          ],
          [
            71.0013236874209,
            -38.48198134709037
          ],
          [
            70.63227113745114,
            -37.37465002995641
          ],
          [
            70.44773766182621,
            -37.00553763973167
          ],
          [
            70.26320418620128,
            -36.636425249506935
          ],
          [
            70.07867071057635,
            -36.26731285928219
          ],
          [
            69.89413723495142,
            -35.89820046905746
          ],
          [
            69.15600333245169,
            -34.42175090815849
          ],
          [
            68.41786942995196,
            -32.94530134725952
          ],
          [
            67.67972832681218,
            -31.653405054702798
          ],
          [
            67.49519485118725,
            -31.284292664478055
          ],
          [
            67.67975712937238,
            -30.91519198133385
          ],
          [
            67.67976433001243,
            -30.730638712991617
          ],
          [
            67.4952308543875,
            -30.36152632276687
          ],
          [
            66.75707534996762,
            -29.438736566894622
          ],
          [
            66.75711135316787,
            -28.515970225183437
          ],
          [
            66.941673631353,
            -28.146869542039227
          ],
          [
            66.75714015572807,
            -27.77775715181449
          ],
          [
            65.83442237312306,
            -27.224068079086443
          ],
          [
            65.28083634752836,
            -25.747624371727746
          ],
          [
            64.9117693962785,
            -25.009399591278264
          ],
          [
            64.17362109249868,
            -23.902056567063774
          ],
          [
            63.98908761687374,
            -23.532944176839035
          ],
          [
            63.250932112453874,
            -22.61015442096678
          ],
          [
            61.95912577667886,
            -21.87190037281596
          ],
          [
            61.59005162478895,
            -21.318228860708718
          ],
          [
            61.40551814916401,
            -20.949116470483975
          ],
          [
            60.66737704602424,
            -19.65722017792725
          ],
          [
            59.92922154160437,
            -18.734430422054995
          ],
          [
            59.19108043846459,
            -17.44253412949827
          ],
          [
            58.45293933532482,
            -16.15063783694154
          ],
          [
            57.71477663026489,
            -15.412401349411526
          ],
          [
            57.34570247837498,
            -14.85872983730428
          ],
          [
            57.16116180211001,
            -14.674170715421777
          ],
          [
            56.97662832648508,
            -14.305058325197036
          ],
          [
            56.79209485086014,
            -13.935945934972295
          ],
          [
            56.79210205150019,
            -13.751392666630059
          ],
          [
            56.607568575875256,
            -13.382280276405318
          ],
          [
            56.2385160259055,
            -12.274948959271361
          ],
          [
            56.238544828465685,
            -11.536735885902415
          ],
          [
            56.23855202910573,
            -11.352182617560178
          ],
          [
            56.23855922974578,
            -11.167629349217941
          ],
          [
            56.23856643038583,
            -10.983076080875705
          ],
          [
            56.23857363102588,
            -10.798522812533468
          ],
          [
            56.23858083166592,
            -10.613969544191232
          ],
          [
            56.238588032305984,
            -10.429416275848995
          ],
          [
            56.05405455668105,
            -10.060303885624254
          ],
          [
            55.68498040479113,
            -9.506632373517009
          ],
          [
            55.50043972852615,
            -9.322073251634505
          ],
          [
            55.31589905226117,
            -9.137514129752
          ],
          [
            55.131365576636234,
            -8.76840173952726
          ],
          [
            55.13137997791633,
            -8.399295202842787
          ]
        ]
      },
      "properties": {
        "type": "variant",
        "id": 1,
        "color": "#ff4444",
        "vzdal_m": 2071,
        "prevyseni_m": 9,
        "cas_s": 626,
        "tempo_str": "5:02"
      }
    },
    {
      "type": "Feature",
      "geometry": {
        "type": "LineString",
        "coordinates": [
          [
            86.13282700427526,
            -74.65490193211342
          ],
          [
            86.68651383883062,
            -73.54759988268081
          ],
          [
            87.42477015221118,
            -71.88664388176174
          ],
          [
            87.60935403231645,
            -70.96388339359082
          ],
          [
            86.87121292917668,
            -69.6719871010341
          ],
          [
            86.50215317856687,
            -68.74920905224239
          ],
          [
            86.31764130486208,
            -67.82643685699094
          ],
          [
            85.94855275169206,
            -67.64187188156815
          ],
          [
            85.57951460300241,
            -66.16543402774974
          ],
          [
            85.21045485239259,
            -65.24265597895801
          ],
          [
            85.21047645431273,
            -64.6889961739313
          ],
          [
            85.21048365495278,
            -64.50444290558906
          ],
          [
            85.21049085559284,
            -64.31988963724683
          ],
          [
            85.0259573799679,
            -63.95077724702208
          ],
          [
            85.025971781248,
            -63.58167071033761
          ],
          [
            84.84143830562306,
            -63.212558320112876
          ],
          [
            84.65692643191828,
            -62.28978612486142
          ],
          [
            84.47242895949358,
            -60.9979073929255
          ],
          [
            83.73429505699386,
            -59.521457832026535
          ],
          [
            83.73432385955405,
            -58.78324475865759
          ],
          [
            83.73435266211425,
            -58.04503168528864
          ],
          [
            83.36528571086438,
            -57.306806904839156
          ],
          [
            83.18075223523945,
            -56.93769451461442
          ],
          [
            82.99621155897448,
            -56.75313539273191
          ],
          [
            82.81167808334955,
            -56.38402300250717
          ],
          [
            82.07352257892967,
            -55.46123324663492
          ],
          [
            81.51990775077478,
            -54.723002612645175
          ],
          [
            80.96632578844853,
            -53.43111217398598
          ],
          [
            80.22817028402866,
            -52.50832241811373
          ],
          [
            79.85908173085865,
            -52.32375744269096
          ],
          [
            79.67453385395362,
            -52.323751589150696
          ],
          [
            79.30544530078362,
            -52.139186613727915
          ],
          [
            78.93638555017381,
            -51.2164085649362
          ],
          [
            78.5672969970038,
            -51.03184358951343
          ],
          [
            78.19820844383378,
            -50.84727861409066
          ],
          [
            76.90639490741871,
            -50.293577834282075
          ],
          [
            75.98367712481372,
            -49.73988876155403
          ],
          [
            75.2455144197538,
            -49.00165227402401
          ],
          [
            74.32280383778885,
            -48.26340993295373
          ],
          [
            73.58466993528913,
            -46.786960372054764
          ],
          [
            73.4001364596642,
            -46.41784798183002
          ],
          [
            73.21560298403925,
            -46.048735591605286
          ],
          [
            73.03106950841433,
            -45.679623201380544
          ],
          [
            72.29291400399445,
            -44.75683344550829
          ],
          [
            71.92386145402469,
            -43.64950212837434
          ],
          [
            72.10844533412997,
            -42.726741640203414
          ],
          [
            72.10847413669015,
            -41.98852856683447
          ],
          [
            71.92396226298537,
            -41.06575637158302
          ],
          [
            71.37036903675062,
            -39.77386593256656
          ],
          [
            71.37037623739067,
            -39.58931266422432
          ],
          [
            71.1858499624058,
            -39.03564700565735
          ],
          [
            70.81678301115592,
            -38.29742222520786
          ],
          [
            70.44769445798592,
            -38.112857249785094
          ],
          [
            69.52498387602095,
            -37.37461490871481
          ],
          [
            69.34046480167613,
            -36.6363959818056
          ],
          [
            69.1559313260512,
            -36.267283591580856
          ],
          [
            67.86412499027618,
            -35.529029543430035
          ],
          [
            66.38777077759616,
            -34.790769641738954
          ],
          [
            65.64960807253622,
            -34.05253315420893
          ],
          [
            64.91144536747632,
            -33.31429666667892
          ],
          [
            64.17328266241638,
            -32.576060179148904
          ],
          [
            63.250564879811385,
            -32.022371106420856
          ],
          [
            63.06605300610661,
            -31.0995989111694
          ],
          [
            62.696993255496785,
            -30.176820862377685
          ],
          [
            62.512459779871854,
            -29.807708472152946
          ],
          [
            62.32792630424693,
            -29.438596081928203
          ],
          [
            62.14339282862199,
            -29.069483691703464
          ],
          [
            61.77432587737213,
            -28.33125891125398
          ],
          [
            61.5897924017472,
            -27.96214652102924
          ],
          [
            61.22070384857718,
            -27.77758154560647
          ],
          [
            60.11343818906716,
            -27.223886619338153
          ],
          [
            59.006179730197175,
            -26.485638424727604
          ],
          [
            58.63711277894732,
            -25.747413644278122
          ],
          [
            58.45257930332239,
            -25.37830125405338
          ],
          [
            58.26803862705741,
            -25.19374213217088
          ],
          [
            57.89895007388739,
            -25.009177156748102
          ],
          [
            57.52988312263753,
            -24.270952376298624
          ],
          [
            57.34534244637255,
            -24.086393254416123
          ],
          [
            56.976282695762734,
            -23.1636152056244
          ],
          [
            56.7917492201378,
            -22.79450281539966
          ],
          [
            55.68449796190788,
            -21.871701352446873
          ],
          [
            54.94634965812805,
            -20.76435832823238
          ],
          [
            54.76183778442327,
            -19.84158613298093
          ],
          [
            54.57732591071848,
            -18.918813937729478
          ],
          [
            54.577354713278666,
            -18.18060086436053
          ],
          [
            54.39284283957389,
            -17.25782866910908
          ],
          [
            54.39287164213408,
            -16.519615595740134
          ],
          [
            54.39287884277413,
            -16.3350623273979
          ],
          [
            54.20834536714919,
            -15.965949937173157
          ],
          [
            54.20835976842929,
            -15.596843400488684
          ],
          [
            54.39292204661442,
            -15.227742717344478
          ],
          [
            54.39294364853457,
            -14.674082912317767
          ],
          [
            54.20841017290964,
            -14.304970522093027
          ],
          [
            54.208438975469825,
            -13.56675744872408
          ],
          [
            54.20846777803003,
            -12.828544375355133
          ],
          [
            54.02395590432524,
            -11.905772180103682
          ],
          [
            54.57764993952067,
            -10.613916862328825
          ],
          [
            54.76223381962594,
            -9.69115637415791
          ],
          [
            54.76225542154608,
            -9.1374965691312
          ],
          [
            54.946817699731206,
            -8.768395885986992
          ],
          [
            55.13137997791633,
            -8.399295202842787
          ]
        ]
      },
      "properties": {
        "type": "variant",
        "id": 2,
        "color": "#4444ff",
        "vzdal_m": 2176,
        "prevyseni_m": 18,
        "cas_s": 616,
        "tempo_str": "4:43"
      }
    },
    {
      "type": "Feature",
      "geometry": {
        "type": "LineString",
        "coordinates": [
          [
            86.13282700427526,
            -74.65490193211342
          ],
          [
            86.68651383883062,
            -73.54759988268081
          ],
          [
            87.42477015221118,
            -71.88664388176174
          ],
          [
            87.42480615541142,
            -70.96387754005056
          ],
          [
            87.60938283487666,
            -70.22567032022188
          ],
          [
            87.60941163743685,
            -69.48745724685293
          ],
          [
            87.60944043999703,
            -68.74924417348399
          ],
          [
            87.79400271818217,
            -68.38014349033978
          ],
          [
            87.9785649963673,
            -68.01104280719558
          ],
          [
            88.16312727455242,
            -67.64194212405137
          ],
          [
            88.34771115465769,
            -66.71918163588046
          ],
          [
            88.90140518985312,
            -65.4273263181056
          ],
          [
            88.90141959113322,
            -65.05821978142113
          ],
          [
            89.08598186931835,
            -64.68911909827692
          ],
          [
            89.08601067187854,
            -63.95090602490797
          ],
          [
            89.08602507315864,
            -63.5817994882235
          ],
          [
            88.9014915975337,
            -63.21268709799876
          ],
          [
            88.9015204000939,
            -62.47447402462981
          ],
          [
            88.9015492026541,
            -61.73626095126086
          ],
          [
            88.90157800521429,
            -60.99804787789191
          ],
          [
            88.90160680777448,
            -60.25983480452297
          ],
          [
            88.90162840969462,
            -59.706174999496255
          ],
          [
            88.71709493406969,
            -59.33706260927151
          ],
          [
            88.71712373662989,
            -58.598849535902566
          ],
          [
            88.71713093726994,
            -58.41429626756033
          ],
          [
            88.53259746164501,
            -58.04518387733559
          ],
          [
            88.34806398602008,
            -57.67607148711085
          ],
          [
            87.79445635850523,
            -56.75328758477886
          ],
          [
            87.79448516106542,
            -56.015074511409914
          ],
          [
            87.79451396362562,
            -55.27686143804097
          ],
          [
            87.79454276618581,
            -54.53864836467202
          ],
          [
            87.79457156874601,
            -53.800435291303074
          ],
          [
            87.79457876938606,
            -53.61588202296084
          ],
          [
            87.61004529376113,
            -53.2467696327361
          ],
          [
            87.05645206752638,
            -51.95487919371964
          ],
          [
            86.50285884129163,
            -50.662988754703186
          ],
          [
            86.50288764385184,
            -49.92477568133424
          ],
          [
            86.50291644641203,
            -49.18656260796529
          ],
          [
            86.50293084769211,
            -48.817456071280816
          ],
          [
            85.7647969451924,
            -47.341006510381845
          ],
          [
            85.58027067020751,
            -46.787340851814875
          ],
          [
            85.39573719458258,
            -46.41822846159013
          ],
          [
            85.21123972215788,
            -45.12634972965421
          ],
          [
            84.28853634083299,
            -44.20355412024169
          ],
          [
            82.99673000505798,
            -43.46530007209087
          ],
          [
            82.6276774550882,
            -42.357968754956914
          ],
          [
            81.70495967248321,
            -41.80427968222887
          ],
          [
            80.96681543197184,
            -40.88148992671388
          ],
          [
            80.22865272691192,
            -40.14325343918387
          ],
          [
            80.0441336525671,
            -39.40503451227465
          ],
          [
            79.85960017694215,
            -39.03592212204991
          ],
          [
            79.49054762697239,
            -37.928590804915956
          ],
          [
            79.49055482761243,
            -37.74403753657372
          ],
          [
            79.30602135198751,
            -37.37492514634898
          ],
          [
            79.12150947828272,
            -36.452152951097524
          ],
          [
            78.75245692831295,
            -35.344821633963576
          ],
          [
            78.75248573087315,
            -34.60660856059462
          ],
          [
            78.75251453343334,
            -33.868395487225676
          ],
          [
            78.75254333599354,
            -33.13018241385673
          ],
          [
            78.38349078602377,
            -32.022851096722775
          ],
          [
            78.19895731039884,
            -31.653738706498036
          ],
          [
            78.01442383477391,
            -31.284626316273297
          ],
          [
            77.27626112971399,
            -30.546389828743276
          ],
          [
            77.27628273163414,
            -29.992730023716565
          ],
          [
            76.5381200265742,
            -29.25449353618655
          ],
          [
            75.2463136907992,
            -28.516239488035733
          ],
          [
            73.76995947811916,
            -27.77797958634465
          ],
          [
            72.84724889615421,
            -27.039737245274367
          ],
          [
            72.10908619109429,
            -26.301500757744346
          ],
          [
            71.55547856357946,
            -25.378716855412364
          ],
          [
            71.37094508795452,
            -25.00960446518762
          ],
          [
            70.63278958353465,
            -24.08681470931537
          ],
          [
            69.89463407911478,
            -23.164024953443114
          ],
          [
            68.97192349714982,
            -22.425782612372828
          ],
          [
            67.68011716137481,
            -21.68752856422201
          ],
          [
            66.75739937876982,
            -21.133839491493966
          ],
          [
            65.28104516608977,
            -20.39557958980288
          ],
          [
            64.54291126359004,
            -18.919130028903915
          ],
          [
            63.80475575917017,
            -17.996340273031663
          ],
          [
            63.06659305411026,
            -17.258103785501646
          ],
          [
            62.32843754969038,
            -16.335314029629394
          ],
          [
            61.95936339780047,
            -15.78164251752215
          ],
          [
            61.774829922175535,
            -15.412530127297408
          ],
          [
            61.036667217115614,
            -14.67429363976739
          ],
          [
            60.48303798768062,
            -14.305169542462115
          ],
          [
            60.11394943451062,
            -14.120604567039344
          ],
          [
            59.929408758245636,
            -13.93604544515684
          ],
          [
            59.56032020507563,
            -13.75148046973407
          ],
          [
            59.37577952881065,
            -13.566921347851565
          ],
          [
            59.00669097564064,
            -13.382356372428793
          ],
          [
            58.63760242247062,
            -13.197791397006021
          ],
          [
            58.26851386930061,
            -13.01322642158325
          ],
          [
            57.8994253161306,
            -12.82866144616048
          ],
          [
            57.714877439225575,
            -12.828655592620212
          ],
          [
            57.345788886055566,
            -12.644090617197438
          ],
          [
            56.792152455980535,
            -12.4595197882344
          ],
          [
            56.6076189803556,
            -12.090407398009662
          ],
          [
            56.238544828465685,
            -11.536735885902415
          ],
          [
            56.23855202910573,
            -11.352182617560178
          ],
          [
            56.23855922974578,
            -11.167629349217941
          ],
          [
            56.23856643038583,
            -10.983076080875705
          ],
          [
            56.23857363102588,
            -10.798522812533468
          ],
          [
            56.23858083166592,
            -10.613969544191232
          ],
          [
            56.238588032305984,
            -10.429416275848995
          ],
          [
            56.05405455668105,
            -10.060303885624254
          ],
          [
            55.68498040479113,
            -9.506632373517009
          ],
          [
            55.50043972852615,
            -9.322073251634505
          ],
          [
            55.31589905226117,
            -9.137514129752
          ],
          [
            55.131365576636234,
            -8.76840173952726
          ],
          [
            55.13137997791633,
            -8.399295202842787
          ]
        ]
      },
      "properties": {
        "type": "variant",
        "id": 3,
        "color": "#44ff44",
        "vzdal_m": 2204,
        "prevyseni_m": 22,
        "cas_s": 612,
        "tempo_str": "4:37"
      }
    },
    {
      "type": "Feature",
      "geometry": {
        "type": "LineString",
        "coordinates": [
          [
            86.13282700427526,
            -74.65490193211342
          ],
          [
            85.39467870049543,
            -73.54755890789893
          ],
          [
            84.65653759735565,
            -72.25566261534222
          ],
          [
            84.10294437112091,
            -70.96377217632576
          ],
          [
            84.1029731736811,
            -70.22555910295681
          ],
          [
            84.10298037432115,
            -70.04100583461457
          ],
          [
            83.91844689869622,
            -69.67189344438982
          ],
          [
            83.1802841936363,
            -68.9336569568598
          ],
          [
            82.81123164366653,
            -67.82632563972585
          ],
          [
            82.07308333988671,
            -66.71898261551136
          ],
          [
            81.33494630001537,
            -65.61163959165414
          ],
          [
            80.96587934876551,
            -64.87341481120465
          ],
          [
            80.41227172125068,
            -63.950630908872675
          ],
          [
            80.22773824562574,
            -63.58151851864793
          ],
          [
            79.48957554056581,
            -62.843282031117916
          ],
          [
            78.7514128355059,
            -62.105045543587906
          ],
          [
            78.01325013044597,
            -61.36680905605789
          ],
          [
            77.828709454181,
            -61.18224993417538
          ],
          [
            77.64417597855606,
            -60.81313754395064
          ],
          [
            77.45964250293113,
            -60.444025153725896
          ],
          [
            76.72149419915131,
            -59.33668212951141
          ],
          [
            75.79878361718636,
            -58.59843978844113
          ],
          [
            75.06062091212644,
            -57.86020330091111
          ],
          [
            74.13791033016147,
            -57.12196095984083
          ],
          [
            73.39974762510157,
            -56.38372447231081
          ],
          [
            72.29248916623158,
            -55.645476277700254
          ],
          [
            71.7388743380767,
            -54.90724564371051
          ],
          [
            71.00068283045658,
            -54.90722222954944
          ],
          [
            70.26249132283647,
            -54.90719881538838
          ],
          [
            69.70884049148133,
            -55.0917345231098
          ],
          [
            68.41703415570632,
            -54.35348047495899
          ],
          [
            66.94067994302628,
            -53.615220573267905
          ],
          [
            66.7561392667613,
            -53.4306614513854
          ],
          [
            66.57160579113636,
            -53.061549061160655
          ],
          [
            66.38706511487139,
            -52.876989939278154
          ],
          [
            66.01797656170137,
            -52.69242496385539
          ],
          [
            65.64888800853136,
            -52.50785998843261
          ],
          [
            64.17253379585134,
            -51.76960008674153
          ],
          [
            63.4343710907914,
            -51.03136359921151
          ],
          [
            63.24983041452642,
            -50.84680447732901
          ],
          [
            62.88074186135641,
            -50.66223950190623
          ],
          [
            62.69620118509143,
            -50.477680380023735
          ],
          [
            62.51166050882646,
            -50.29312125814123
          ],
          [
            62.32712703320153,
            -49.924008867916484
          ],
          [
            61.95803848003152,
            -49.73944389249371
          ],
          [
            61.5889499268615,
            -49.554878917070944
          ],
          [
            60.48167706671143,
            -49.185737259144865
          ],
          [
            59.3744114072014,
            -48.632042332876544
          ],
          [
            59.18987793157647,
            -48.262929942651816
          ],
          [
            58.45171522651654,
            -47.52469345512179
          ],
          [
            57.71355252145662,
            -46.786456967591775
          ],
          [
            56.97539701703675,
            -45.86366721171952
          ],
          [
            56.60630846386674,
            -45.67910223629675
          ],
          [
            55.868152959446874,
            -44.7563124804245
          ],
          [
            55.499078807556955,
            -44.202640968317255
          ],
          [
            55.314545331932024,
            -43.83352857809251
          ],
          [
            54.576389827512145,
            -42.91073882222026
          ],
          [
            54.02277499935726,
            -42.17250818823051
          ],
          [
            53.65370804810739,
            -41.43428340778103
          ],
          [
            53.65373685066759,
            -40.69607033441208
          ],
          [
            53.65376565322779,
            -39.95785726104313
          ],
          [
            53.653794455787974,
            -39.219644187674184
          ],
          [
            53.653823258348176,
            -38.48143111430524
          ],
          [
            53.46931138464339,
            -37.55865891905379
          ],
          [
            53.46934018720358,
            -36.820445845684844
          ],
          [
            53.46936898976378,
            -36.0822327723159
          ],
          [
            53.469397792323974,
            -35.34401969894695
          ],
          [
            53.65398167242924,
            -34.42125921077603
          ],
          [
            53.83856555253452,
            -33.49849872260511
          ],
          [
            53.83859435509471,
            -32.76028564923617
          ],
          [
            53.83860155573476,
            -32.57573238089393
          ],
          [
            54.02316383391988,
            -32.20663169774973
          ],
          [
            53.8386519602151,
            -31.283859502498274
          ],
          [
            53.8386807627753,
            -30.545646429129327
          ],
          [
            53.838709565335485,
            -29.80743335576038
          ],
          [
            53.83873836789569,
            -29.069220282391434
          ],
          [
            53.83876717045588,
            -28.331007209022488
          ],
          [
            53.83878877237602,
            -27.777347403995776
          ],
          [
            53.65425529675109,
            -27.408235013771034
          ],
          [
            53.65426249739114,
            -27.223681745428795
          ],
          [
            53.10066927115639,
            -25.93179130641234
          ],
          [
            53.285253151261664,
            -25.00903081824142
          ],
          [
            53.285281953821865,
            -24.270817744872474
          ],
          [
            53.46984423200699,
            -23.901717061728267
          ],
          [
            53.46985143264704,
            -23.71716379338603
          ],
          [
            53.65441371083216,
            -23.348063110241824
          ],
          [
            53.838975989017285,
            -22.97896242709762
          ],
          [
            54.02353826720241,
            -22.609861743953413
          ],
          [
            54.5772251017578,
            -21.502559694520794
          ],
          [
            54.57725390431799,
            -20.764346621151848
          ],
          [
            54.57728270687818,
            -20.0261335477829
          ],
          [
            54.57731150943838,
            -19.287920474413955
          ],
          [
            54.57733311135853,
            -18.734260669387243
          ],
          [
            54.39279963573359,
            -18.3651482791625
          ],
          [
            54.39282843829379,
            -17.626935205793554
          ],
          [
            54.392857240853985,
            -16.888722132424608
          ],
          [
            54.39287884277413,
            -16.3350623273979
          ],
          [
            54.20834536714919,
            -15.965949937173157
          ],
          [
            54.208366969069345,
            -15.412290132146447
          ],
          [
            54.39292924725447,
            -15.04318944900224
          ],
          [
            54.39294364853457,
            -14.674082912317767
          ],
          [
            54.20841017290964,
            -14.304970522093027
          ],
          [
            54.208438975469825,
            -13.56675744872408
          ],
          [
            54.20846777803003,
            -12.828544375355133
          ],
          [
            54.02395590432524,
            -11.905772180103682
          ],
          [
            54.57764993952067,
            -10.613916862328825
          ],
          [
            54.76223381962594,
            -9.69115637415791
          ],
          [
            54.76225542154608,
            -9.1374965691312
          ],
          [
            54.946817699731206,
            -8.768395885986992
          ],
          [
            55.13137997791633,
            -8.399295202842787
          ]
        ]
      },
      "properties": {
        "type": "variant",
        "id": 4,
        "color": "#ffaa00",
        "vzdal_m": 2244,
        "prevyseni_m": 29,
        "cas_s": 630,
        "tempo_str": "4:40"
      }
    }
  ]
}