{
  "type": "FeatureCollection",
  "features": [
    {
      "type": "Feature",
      "geometry": {
        "type": "Point",
        "coordinates": [
          133.1206225457177,
          -195.44772030218212
        ]
      },
      "properties": {
        "type": "start",
        "isom": "417"
      }
    },
    {
      "type": "Feature",
      "geometry": {
        "type": "Point",
        "coordinates": [
          78.91830233248997,
          -213.23256664770645
        ]
      },
      "properties": {
        "type": "end",
        "isom": "204"
      }
    },
    {
      "type": "Feature",
      "geometry": {
        "type": "LineString",
        "coordinates": [
          [
            133.06019841360862,
            -195.45977657328768
          ],
          [
            131.7683857561506,
            -195.82880219017503
          ],
          [
            131.2147569597127,
            -195.8287750524298
          ],
          [
            130.29203623276473,
            -196.01327429200083
          ],
          [
            129.55387663661708,
            -195.6441491700475
          ],
          [
            128.81570490803318,
            -195.64411298638717
          ],
          [
            127.89299024730333,
            -195.64406775681175
          ],
          [
            126.97026345413724,
            -196.01311146552928
          ],
          [
            126.04754272718927,
            -196.19761070510032
          ],
          [
            125.30937099860539,
            -196.19757452143998
          ],
          [
            124.01755227492924,
            -196.7511446074738
          ],
          [
            123.27938054634537,
            -196.75110842381343
          ],
          [
            122.54120881776147,
            -196.7510722401531
          ],
          [
            121.43392696001321,
            -197.48919584124852
          ],
          [
            120.88028603113906,
            -197.85825764179623
          ],
          [
            120.69573703277499,
            -198.04279306502758
          ],
          [
            120.32664510226495,
            -198.22731944234388
          ],
          [
            119.77299204095458,
            -198.96547018118454
          ],
          [
            119.58843697637238,
            -199.3345500735624
          ],
          [
            119.40388191179021,
            -199.70362996594028
          ],
          [
            118.66568591833386,
            -200.44177165886586
          ],
          [
            117.92748992487753,
            -201.17991335179144
          ],
          [
            116.63566513498328,
            -201.91802790697176
          ],
          [
            114.9747544807971,
            -202.6561243703219
          ],
          [
            114.79020548243302,
            -202.84065979355327
          ],
          [
            113.31383169417471,
            -203.76330977196497
          ],
          [
            111.83747003835259,
            -204.3168708120837
          ],
          [
            110.17655938416641,
            -205.05496727543382
          ],
          [
            108.88473459427216,
            -205.79308183061414
          ],
          [
            108.51564266376212,
            -205.97760820793047
          ],
          [
            107.7774527365239,
            -206.53120543170957
          ],
          [
            107.40837293845007,
            -206.3466428707329
          ],
          [
            107.2238300063041,
            -206.34663382481784
          ],
          [
            106.85473807579405,
            -206.53116020213415
          ],
          [
            106.4856522115021,
            -206.53114211030396
          ],
          [
            105.37836428753572,
            -207.45381018054582
          ],
          [
            104.1508460386468,
            -208.32258524123048
          ],
          [
            103.1638187706935,
            -208.37642397529717
          ],
          [
            102.79472684018346,
            -208.56095035261347
          ],
          [
            102.61017784181938,
            -208.74548577584488
          ],
          [
            102.24108591130931,
            -208.9300121531612
          ],
          [
            101.50291418272543,
            -208.92997596950084
          ],
          [
            100.02654646068521,
            -209.66808147876608
          ],
          [
            98.73472167079098,
            -210.4061960339464
          ],
          [
            97.44290901333295,
            -210.77522165083374
          ],
          [
            96.335645354239,
            -210.95971184448968
          ],
          [
            95.78201655780109,
            -210.95968470674444
          ],
          [
            94.49019783412497,
            -211.51325479277827
          ],
          [
            93.56747104095889,
            -211.8822985014958
          ],
          [
            92.82930537859312,
            -211.69771784868897
          ],
          [
            92.09113365000923,
            -211.69768166502863
          ],
          [
            91.16841898927937,
            -211.69763643545318
          ],
          [
            90.61479019284147,
            -211.69760929770794
          ],
          [
            89.6920694658935,
            -211.88210853727898
          ],
          [
            88.9538977373096,
            -211.88207235361864
          ],
          [
            87.84662801199757,
            -212.25110701642106
          ],
          [
            87.10845628341367,
            -212.25107083276075
          ],
          [
            86.3702845548298,
            -212.25103464910038
          ],
          [
            85.6321128262459,
            -212.25099846544003
          ],
          [
            84.8939350314439,
            -212.43550675092615
          ],
          [
            83.97122037071405,
            -212.43546152135073
          ],
          [
            82.86395064540201,
            -212.80449618415318
          ],
          [
            81.94122991845404,
            -212.9889954237242
          ],
          [
            81.57213798794399,
            -213.17352180104055
          ],
          [
            81.20305212365204,
            -213.17350370921037
          ],
          [
            80.28033139670409,
            -213.35800294878143
          ],
          [
            79.54215966812019,
            -213.35796676512106
          ],
          [
            78.98853693790039,
            -213.17339515822934
          ]
        ]
      },
      "properties": {
        "type": "variant",
        "id": 1,
        "color": "#ff4444",
        "vzdal_m": 1610,
        "prevyseni_m": 58,
        "cas_s": 526,
        "tempo_str": "5:26"
      }
    },
    {
      "type": "Feature",
      "geometry": {
        "type": "LineString",
        "coordinates": [
          [
            133.06019841360862,
            -195.45977657328768
          ],
          [
            131.7683857561506,
            -195.82880219017503
          ],
          [
            131.2147569597127,
            -195.8287750524298
          ],
          [
            130.29203623276473,
            -196.01327429200083
          ],
          [
            129.55387663661708,
            -195.6441491700475
          ],
          [
            128.81570490803318,
            -195.64411298638717
          ],
          [
            128.0775331794493,
            -195.6440768027268
          ],
          [
            127.15482458493753,
            -195.4594871040049
          ],
          [
            126.2321159904258,
            -195.274897405283
          ],
          [
            125.4939381956238,
            -195.45940569076913
          ],
          [
            124.75577253325802,
            -195.27482503796233
          ],
          [
            124.01760080467413,
            -195.274788854302
          ],
          [
            122.91033714558021,
            -195.45927904795792
          ],
          [
            122.35670834914231,
            -195.45925191021266
          ],
          [
            121.43398762219434,
            -195.64375114978372
          ],
          [
            119.957613833936,
            -196.5664011281954
          ],
          [
            119.21943603913401,
            -196.75090941368157
          ],
          [
            118.85034410862396,
            -196.93543579099787
          ],
          [
            118.66578904404176,
            -197.3045156833757
          ],
          [
            118.29670317974981,
            -197.30449759154553
          ],
          [
            117.55853145116593,
            -197.3044614078852
          ],
          [
            116.82035972258204,
            -197.30442522422487
          ],
          [
            115.71309606348811,
            -197.4889154178808
          ],
          [
            115.15946726705019,
            -197.48888828013557
          ],
          [
            114.42129553846631,
            -197.4888520964752
          ],
          [
            113.68312380988242,
            -197.48881591281489
          ],
          [
            113.31403794559048,
            -197.4887978209847
          ],
          [
            113.12948894722639,
            -197.67333324421608
          ],
          [
            111.65312122518618,
            -198.41143875348132
          ],
          [
            110.36129643529193,
            -199.14955330866164
          ],
          [
            108.88493477946984,
            -199.70311434878036
          ],
          [
            107.22402412528365,
            -200.44121081213052
          ],
          [
            105.93221146782564,
            -200.8102364290179
          ],
          [
            104.64038667793139,
            -201.54835098419818
          ],
          [
            103.90222101556562,
            -201.36377033139135
          ],
          [
            102.97950635483576,
            -201.36372510181593
          ],
          [
            102.42587755839784,
            -201.36369796407064
          ],
          [
            101.13405883472173,
            -201.91726805010447
          ],
          [
            100.39588103991973,
            -202.10177633559064
          ],
          [
            99.47316637918986,
            -202.10173110601517
          ],
          [
            98.55043958602378,
            -202.4707748147327
          ],
          [
            97.99680472336776,
            -202.65529214613395
          ],
          [
            97.81225572500367,
            -202.83982756936535
          ],
          [
            96.88951679940138,
            -203.5779602163758
          ],
          [
            95.59768594328904,
            -204.50061924070258
          ],
          [
            94.67495308390484,
            -205.0542074185666
          ],
          [
            93.75220809208443,
            -205.97688453472355
          ],
          [
            93.0140120986281,
            -206.7150262276491
          ],
          [
            91.53764437658788,
            -207.45313173691437
          ],
          [
            90.6149236496399,
            -207.6376309764854
          ],
          [
            89.32310492596378,
            -208.19120106251924
          ],
          [
            87.84673720392357,
            -208.92930657178445
          ],
          [
            86.55491848024744,
            -209.48287665781828
          ],
          [
            85.63219775329947,
            -209.66737589738932
          ],
          [
            84.89401995849748,
            -209.85188418287547
          ],
          [
            83.60220730103944,
            -210.2209097997628
          ],
          [
            81.94130877928949,
            -210.58991732482
          ],
          [
            81.38765571797913,
            -211.32806806366065
          ],
          [
            80.095836994303,
            -211.88163814969448
          ],
          [
            79.91128799593892,
            -212.0661735729259
          ],
          [
            79.17309200248258,
            -212.80431526585144
          ],
          [
            78.98853693790039,
            -213.17339515822934
          ]
        ]
      },
      "properties": {
        "type": "variant",
        "id": 2,
        "color": "#4444ff",
        "vzdal_m": 1610,
        "prevyseni_m": 56,
        "cas_s": 541,
        "tempo_str": "5:36"
      }
    },
    {
      "type": "Feature",
      "geometry": {
        "type": "LineString",
        "coordinates": [
          [
            133.06019841360862,
            -195.45977657328768
          ],
          [
            131.39928775942244,
            -196.19787303663782
          ],
          [
            130.47655490003822,
            -196.75146121450183
          ],
          [
            130.10746296952817,
            -196.9359875918181
          ],
          [
            129.18472404392588,
            -197.6741202388286
          ],
          [
            128.44652805046957,
            -198.41226193175416
          ],
          [
            127.70833205701322,
            -199.1504036246797
          ],
          [
            127.33922799406696,
            -199.70401894028902
          ],
          [
            126.41647086981033,
            -200.9957849947389
          ],
          [
            125.67829307500833,
            -201.18029328022507
          ],
          [
            124.94012741264255,
            -200.99571262741824
          ],
          [
            124.20195568405867,
            -200.99567644375787
          ],
          [
            123.2792349571107,
            -201.18017568332894
          ],
          [
            122.91014302660065,
            -201.36470206064521
          ],
          [
            121.80286116885236,
            -202.10282566174064
          ],
          [
            120.32649344681217,
            -202.84093117100585
          ],
          [
            119.77282825306558,
            -203.94817084813948
          ],
          [
            119.03462012717303,
            -205.05540147935798
          ],
          [
            118.11188120157072,
            -205.79353412636848
          ],
          [
            116.82005641167649,
            -206.53164868154877
          ],
          [
            116.45096448116644,
            -206.71617505886508
          ],
          [
            115.52822555556412,
            -207.45430770587558
          ],
          [
            115.15912755883596,
            -207.82337855233834
          ],
          [
            114.79003562832591,
            -208.00790492965464
          ],
          [
            114.60548662996183,
            -208.19244035288605
          ],
          [
            114.23639469945176,
            -208.37696673020235
          ],
          [
            113.49819870599545,
            -209.11510842312794
          ],
          [
            112.2063799823193,
            -209.66867850916177
          ],
          [
            111.46820825373543,
            -209.66864232550145
          ],
          [
            110.73003652515153,
            -209.66860614184108
          ],
          [
            109.99186479656765,
            -209.6685699581807
          ],
          [
            109.25369306798378,
            -209.66853377452037
          ],
          [
            108.51552133939988,
            -209.66849759086006
          ],
          [
            107.777349610816,
            -209.6684614071997
          ],
          [
            106.83888275451679,
            -209.8788569296056
          ],
          [
            105.9859525772273,
            -209.38783050505603
          ],
          [
            105.62625947835386,
            -209.1856579543194
          ],
          [
            105.26631223949423,
            -208.9847341663915
          ],
          [
            104.90636500063457,
            -208.78381037846367
          ],
          [
            104.49711540957986,
            -208.63168124462186
          ],
          [
            104.08651523276903,
            -208.93010261231206
          ],
          [
            104.08649096789658,
            -209.66828048889795
          ],
          [
            104.08646670302414,
            -210.40645836548387
          ],
          [
            103.53281970793188,
            -210.96006463517807
          ],
          [
            102.05644591967356,
            -211.88271461358977
          ],
          [
            100.76463326221554,
            -212.25174023047708
          ],
          [
            99.6573696031216,
            -212.43623042413307
          ],
          [
            98.73464280995553,
            -212.8052741328506
          ],
          [
            97.81191601678945,
            -213.17431784156815
          ],
          [
            96.88920135605959,
            -213.17427261199268
          ],
          [
            95.41283970023748,
            -213.72783365211143
          ],
          [
            94.6746619054355,
            -213.91234193759755
          ],
          [
            93.9364901768516,
            -213.91230575393723
          ],
          [
            93.75194724470563,
            -213.91229670802213
          ],
          [
            92.64468965182981,
            -213.91224243253163
          ],
          [
            91.90651792324593,
            -213.91220624887129
          ],
          [
            91.16834619466204,
            -213.91217006521092
          ],
          [
            90.43017446607816,
            -213.91213388155057
          ],
          [
            89.69200880371238,
            -213.72755322874377
          ],
          [
            88.95383100891038,
            -213.9120615142299
          ],
          [
            88.21565928032649,
            -213.91202533056955
          ],
          [
            87.4774814855245,
            -214.09653361605567
          ],
          [
            86.73931582315873,
            -213.91195296324886
          ],
          [
            86.00114409457485,
            -213.91191677958852
          ],
          [
            85.26297236599098,
            -213.91188059592815
          ],
          [
            84.52480063740708,
            -213.91184441226784
          ],
          [
            83.60209204289534,
            -213.7272547135459
          ],
          [
            82.86391424809334,
            -213.91176299903205
          ],
          [
            81.94119958736349,
            -213.9117177694566
          ],
          [
            81.2030278587796,
            -213.9116815857963
          ],
          [
            80.09578239833999,
            -213.54253837201279
          ],
          [
            78.98853693790039,
            -213.17339515822934
          ]
        ]
      },
      "properties": {
        "type": "variant",
        "id": 3,
        "color": "#44ff44",
        "vzdal_m": 1690,
        "prevyseni_m": 60,
        "cas_s": 553,
        "tempo_str": "5:27"
      }
    }
  ]
}