{
  "type": "FeatureCollection",
  "features": [
    {
      "type": "Feature",
      "geometry": {
        "type": "Point",
        "coordinates": [
          41.843509726850684,
          -104.67314682511693
        ]
      },
      "properties": {
        "type": "start",
        "isom": "204"
      }
    },
    {
      "type": "Feature",
      "geometry": {
        "type": "Point",
        "coordinates": [
          57.27595933615359,
          -86.40455447150342
        ]
      },
      "properties": {
        "type": "end",
        "isom": "204"
      }
    },
    {
      "type": "Feature",
      "geometry": {
        "type": "LineString",
        "coordinates": [
          [
            41.80111881606805,
            -104.64909361504695
          ],
          [
            41.80113094850426,
            -104.28000467643645
          ],
          [
            41.80114308094048,
            -103.91091573782595
          ],
          [
            41.80115521337669,
            -103.54182679921546
          ],
          [
            41.80116734581291,
            -103.17273786060495
          ],
          [
            41.985728476613176,
            -102.61911349904301
          ],
          [
            42.354838605777516,
            -101.88095371452964
          ],
          [
            42.72394873494185,
            -101.14279393001625
          ],
          [
            43.18532426396106,
            -100.58918313798503
          ],
          [
            43.92350812498109,
            -100.22013038478977
          ],
          [
            44.569417486819084,
            -99.94334534307023
          ],
          [
            44.84624705058329,
            -99.48199773933783
          ],
          [
            45.307613480275336,
            -99.20520365126448
          ],
          [
            45.67671147700345,
            -98.8361328053616
          ],
          [
            46.045815539949686,
            -98.28251749015348
          ],
          [
            46.13810217156793,
            -97.82116084006725
          ],
          [
            46.41493780155023,
            -97.17526876702958
          ],
          [
            46.78404489760552,
            -96.52938121716883
          ],
          [
            47.06088052758782,
            -95.88348914413118
          ],
          [
            47.15316715920606,
            -95.42213249404494
          ],
          [
            47.52227425526135,
            -94.7762449441842
          ],
          [
            47.891372251989466,
            -94.4071740982813
          ],
          [
            48.35274474789962,
            -93.9458355409027
          ],
          [
            48.72184274462774,
            -93.57676469499982
          ],
          [
            48.99867837461005,
            -92.93087262196217
          ],
          [
            49.27551400459235,
            -92.28498054892451
          ],
          [
            49.64462110064764,
            -91.63909299906375
          ],
          [
            50.013722130484815,
            -91.17774991850825
          ],
          [
            50.38282619343104,
            -90.62413460330012
          ],
          [
            50.93646105608701,
            -90.4396172730563
          ],
          [
            51.39783051888811,
            -90.07055095033033
          ],
          [
            51.76693458183435,
            -89.5169356351222
          ],
          [
            52.04377021181664,
            -88.87104356208454
          ],
          [
            52.228331342616926,
            -88.3174192005226
          ],
          [
            52.22834347505313,
            -87.94833026191209
          ],
          [
            52.505179105035445,
            -87.30243818887443
          ],
          [
            52.68974023583572,
            -86.74881382731249
          ],
          [
            53.15111576485492,
            -86.19520303528127
          ],
          [
            53.61247612832886,
            -86.10295341651317
          ],
          [
            53.981561992620776,
            -86.1029715092208
          ],
          [
            54.535181689731466,
            -86.3798153522401
          ],
          [
            54.9965299207692,
            -86.65665467208251
          ],
          [
            55.45789331735219,
            -86.47213281866179
          ],
          [
            55.8269791816441,
            -86.47215091136941
          ],
          [
            56.196065045936,
            -86.47216900407703
          ],
          [
            56.56515091022791,
            -86.47218709678465
          ],
          [
            56.934236774519825,
            -86.47220518949227
          ],
          [
            57.30332567192078,
            -86.37995104754727
          ]
        ]
      },
      "properties": {
        "type": "variant",
        "id": 1,
        "color": "#ff4444",
        "vzdal_m": 1464,
        "prevyseni_m": 19,
        "cas_s": 347,
        "tempo_str": "3:57"
      }
    },
    {
      "type": "Feature",
      "geometry": {
        "type": "LineString",
        "coordinates": [
          [
            41.80111881606805,
            -104.64909361504695
          ],
          [
            41.80113094850426,
            -104.28000467643645
          ],
          [
            41.80114308094048,
            -103.91091573782595
          ],
          [
            41.80115521337669,
            -103.54182679921546
          ],
          [
            41.80116734581291,
            -103.17273786060495
          ],
          [
            41.985728476613176,
            -102.61911349904301
          ],
          [
            42.354838605777516,
            -101.88095371452964
          ],
          [
            42.72394873494185,
            -101.14279393001625
          ],
          [
            43.18532426396106,
            -100.58918313798503
          ],
          [
            43.92350812498109,
            -100.22013038478977
          ],
          [
            44.569417486819084,
            -99.94334534307023
          ],
          [
            44.84624705058329,
            -99.48199773933783
          ],
          [
            45.307613480275336,
            -99.20520365126448
          ],
          [
            45.67671147700345,
            -98.8361328053616
          ],
          [
            46.045815539949686,
            -98.28251749015348
          ],
          [
            46.13810217156793,
            -97.82116084006725
          ],
          [
            46.41493780155023,
            -97.17526876702958
          ],
          [
            46.78404489760552,
            -96.52938121716883
          ],
          [
            47.06088052758782,
            -95.88348914413118
          ],
          [
            47.15316715920606,
            -95.42213249404494
          ],
          [
            47.52227425526135,
            -94.7762449441842
          ],
          [
            47.891372251989466,
            -94.4071740982813
          ],
          [
            48.35274474789962,
            -93.9458355409027
          ],
          [
            48.81411421070073,
            -93.57676921817674
          ],
          [
            49.46002660564777,
            -93.20771194180458
          ],
          [
            50.0136645014128,
            -92.93092237690813
          ],
          [
            50.475024864886734,
            -92.83867275814004
          ],
          [
            50.844122861614856,
            -92.46960191223715
          ],
          [
            51.2132329907792,
            -91.73144212772377
          ],
          [
            51.58234311994353,
            -90.9932823432104
          ],
          [
            51.95145324910787,
            -90.25512255869701
          ],
          [
            52.13601437990815,
            -89.70149819713507
          ],
          [
            52.41285000989045,
            -89.05560612409741
          ],
          [
            52.41286214232667,
            -88.6865171854869
          ],
          [
            52.781963172163834,
            -88.2251741049314
          ],
          [
            53.42787556711089,
            -87.85611682855924
          ],
          [
            53.889238963693884,
            -87.67159497513852
          ],
          [
            54.350593260949715,
            -87.76388982567568
          ],
          [
            54.99650565589677,
            -87.39483254930352
          ],
          [
            55.273326120333806,
            -87.21030164952897
          ],
          [
            55.36561275195206,
            -86.74894499944276
          ],
          [
            55.73470771557112,
            -86.4721463881925
          ],
          [
            56.10379357986303,
            -86.47216448090012
          ],
          [
            56.472879444154934,
            -86.47218257360774
          ],
          [
            56.841965308446845,
            -86.47220066631536
          ],
          [
            57.30332567192078,
            -86.37995104754727
          ]
        ]
      },
      "properties": {
        "type": "variant",
        "id": 2,
        "color": "#4444ff",
        "vzdal_m": 1420,
        "prevyseni_m": 20,
        "cas_s": 343,
        "tempo_str": "4:01"
      }
    },
    {
      "type": "Feature",
      "geometry": {
        "type": "LineString",
        "coordinates": [
          [
            41.80111881606805,
            -104.64909361504695
          ],
          [
            41.80113094850426,
            -104.28000467643645
          ],
          [
            41.80114308094048,
            -103.91091573782595
          ],
          [
            41.80115521337669,
            -103.54182679921546
          ],
          [
            41.80116734581291,
            -103.17273786060495
          ],
          [
            41.893447911213045,
            -102.89592567982397
          ],
          [
            41.893460043649256,
            -102.52683674121347
          ],
          [
            41.9857466752675,
            -102.06548009112726
          ],
          [
            42.35485680443183,
            -101.32732030661388
          ],
          [
            42.63169243441415,
            -100.68142823357621
          ],
          [
            42.90852806439645,
            -100.03553616053856
          ],
          [
            43.18536369437876,
            -99.3896440875009
          ],
          [
            43.55446775732498,
            -98.83602877229276
          ],
          [
            43.831291254871076,
            -98.55922563786561
          ],
          [
            43.92356575405311,
            -98.4669579263899
          ],
          [
            44.01584025323513,
            -98.37469021491417
          ],
          [
            44.108114752417166,
            -98.28242250343845
          ],
          [
            44.20039228470825,
            -98.09788255731011
          ],
          [
            44.569502413872584,
            -97.35972277279672
          ],
          [
            44.93861254303692,
            -96.62156298828334
          ],
          [
            45.30772267220126,
            -95.88340320376997
          ],
          [
            45.67682976825654,
            -95.23751565390921
          ],
          [
            46.045930798093714,
            -94.7761725733537
          ],
          [
            46.138217429711965,
            -94.31481592326747
          ],
          [
            46.5073275588763,
            -93.57665613875409
          ],
          [
            46.87642858871347,
            -93.1153130581986
          ],
          [
            47.245526585441596,
            -92.74624221229571
          ],
          [
            47.61462458216972,
            -92.37717136639283
          ],
          [
            47.983731678225,
            -91.73128381653207
          ],
          [
            48.352838774280286,
            -91.08539626667131
          ],
          [
            48.721942837226514,
            -90.53178095146319
          ],
          [
            49.09104083395464,
            -90.16271010556031
          ],
          [
            49.367873430827885,
            -89.60909026717528
          ],
          [
            49.3678855632641,
            -89.24000132856477
          ],
          [
            49.55244669406437,
            -88.68637696700283
          ],
          [
            49.27565352760882,
            -88.04045775490374
          ],
          [
            49.18339722708111,
            -87.5790920584637
          ],
          [
            49.18340935951733,
            -87.2100031198532
          ],
          [
            48.99888462602569,
            -86.65636066558363
          ],
          [
            48.99889675846191,
            -86.28727172697315
          ],
          [
            48.72210359200635,
            -85.64135251487404
          ],
          [
            48.90666168969757,
            -85.18000038796472
          ],
          [
            49.46029958546259,
            -84.90321082306829
          ],
          [
            50.01393444811856,
            -84.71869349282447
          ],
          [
            50.659843809956556,
            -84.44190845110492
          ],
          [
            51.30575620490361,
            -84.07285117473278
          ],
          [
            51.76712566770471,
            -83.70378485200679
          ],
          [
            52.228486031178655,
            -83.6115352332387
          ],
          [
            52.59757189547056,
            -83.61155332594632
          ],
          [
            52.96665775976247,
            -83.61157141865394
          ],
          [
            53.70481735591007,
            -83.98069654267968
          ],
          [
            54.44297695205768,
            -84.34982166670544
          ],
          [
            54.90433124931351,
            -84.4421165172426
          ],
          [
            55.642490845461104,
            -84.81124164126834
          ],
          [
            56.28837897553573,
            -85.18036224211718
          ],
          [
            56.657449674282375,
            -85.64174150808793
          ],
          [
            57.02652340613806,
            -86.01084853940606
          ],
          [
            57.30332567192078,
            -86.37995104754727
          ]
        ]
      },
      "properties": {
        "type": "variant",
        "id": 3,
        "color": "#44ff44",
        "vzdal_m": 1712,
        "prevyseni_m": 5,
        "cas_s": 444,
        "tempo_str": "4:19"
      }
    }
  ]
}