{
  "type": "FeatureCollection",
  "features": [
    {
      "type": "Feature",
      "geometry": {
        "type": "Point",
        "coordinates": [
          159.18823476992966,
          -141.47232708994272
        ]
      },
      "properties": {
        "type": "start",
        "isom": "204"
      }
    },
    {
      "type": "Feature",
      "geometry": {
        "type": "Point",
        "coordinates": [
          208.06066572284647,
          -166.1752617731982
        ]
      },
      "properties": {
        "type": "end",
        "isom": "109"
      }
    },
    {
      "type": "Feature",
      "geometry": {
        "type": "LineString",
        "coordinates": [
          [
            159.11378531431527,
            -141.48622811825018
          ],
          [
            160.40555550824652,
            -142.40901378538817
          ],
          [
            162.0664236989059,
            -142.96272860606337
          ],
          [
            163.1736570269093,
            -143.70096075813981
          ],
          [
            163.91180449062074,
            -144.43917481838605
          ],
          [
            165.0407038799507,
            -144.88690920093154
          ],
          [
            165.74731151467108,
            -144.74088501441247
          ],
          [
            166.27688119375566,
            -144.66170977570516
          ],
          [
            166.6796966596536,
            -144.6144358407268
          ],
          [
            167.41122174452292,
            -144.54087652147098
          ],
          [
            168.11048520061124,
            -144.46918975329987
          ],
          [
            168.51536775649623,
            -144.38174507089334
          ],
          [
            169.22584672168,
            -144.27331910231382
          ],
          [
            169.6166928365715,
            -144.184625632682
          ],
          [
            170.37015397975713,
            -144.06446345602487
          ],
          [
            171.10097312458413,
            -144.00593424734194
          ],
          [
            172.03330444395752,
            -143.8976824894267
          ],
          [
            172.9152014503387,
            -143.74806417692827
          ],
          [
            173.68479889955154,
            -143.6791376163819
          ],
          [
            174.11732009497146,
            -143.60000940382304
          ],
          [
            174.43076982159545,
            -143.88605702810653
          ],
          [
            175.1689415501793,
            -143.8860932117669
          ],
          [
            175.90711327876318,
            -143.88612939542722
          ],
          [
            176.64528500734707,
            -143.8861655790876
          ],
          [
            177.56799360185883,
            -144.0707552778095
          ],
          [
            178.30616533044272,
            -144.07079146146984
          ],
          [
            179.0443370590266,
            -144.07082764513018
          ],
          [
            180.1515825194662,
            -144.43997085891365
          ],
          [
            180.52066231754003,
            -144.6245334198903
          ],
          [
            180.7051991834679,
            -144.80908693495186
          ],
          [
            181.0742789815417,
            -144.9936494959285
          ],
          [
            181.6278956455434,
            -145.36276557196675
          ],
          [
            182.36604310925486,
            -146.10097963221298
          ],
          [
            183.28872137267604,
            -147.2082916766673
          ],
          [
            184.39596683311564,
            -147.57743489045077
          ],
          [
            184.94958956333545,
            -147.7620064973425
          ],
          [
            185.31866936140926,
            -147.94656905831917
          ],
          [
            185.87228602541097,
            -148.31568513435738
          ],
          [
            186.2413658234848,
            -148.50024769533402
          ],
          [
            186.97950722097812,
            -149.42300622472678
          ],
          [
            188.45582641327346,
            -150.16125646863338
          ],
          [
            189.74760267342285,
            -150.89949766662488
          ],
          [
            189.93213953935066,
            -151.08405118168645
          ],
          [
            191.22391579950005,
            -151.82229237967798
          ],
          [
            192.14660619535746,
            -152.56051548583932
          ],
          [
            193.43838245550683,
            -153.29875668383082
          ],
          [
            194.36107285136418,
            -154.03697978999216
          ],
          [
            195.09922031507566,
            -154.77519385023845
          ],
          [
            196.20645364307904,
            -155.51342600231487
          ],
          [
            197.3136869710824,
            -156.2516581543913
          ],
          [
            198.23637736693982,
            -156.98988126055264
          ],
          [
            199.15906776279726,
            -157.72810436671398
          ],
          [
            200.26630109080062,
            -158.46633651879043
          ],
          [
            200.4508318905104,
            -158.83543450299845
          ],
          [
            200.81991168858423,
            -159.01999706397513
          ],
          [
            201.00444248829393,
            -159.38909504818315
          ],
          [
            202.2962187484433,
            -160.12733624617468
          ],
          [
            203.03436621215474,
            -160.86555030642094
          ],
          [
            203.2188970118645,
            -161.23464829062897
          ],
          [
            204.14158740772191,
            -161.9728713967903
          ],
          [
            205.0642838697974,
            -162.5265500338052
          ],
          [
            205.43336366787122,
            -162.71111259478184
          ],
          [
            205.80242526729077,
            -163.44930856319792
          ],
          [
            205.98695606700048,
            -163.81840654740597
          ],
          [
            206.35603586507432,
            -164.00296910838262
          ],
          [
            206.5405727310022,
            -164.18752262344418
          ],
          [
            207.46324492820526,
            -165.479379137045
          ],
          [
            208.01684945977075,
            -166.21758415137614
          ]
        ]
      },
      "properties": {
        "type": "variant",
        "id": 1,
        "color": "#ff4444",
        "vzdal_m": 1582,
        "prevyseni_m": 28,
        "cas_s": 459,
        "tempo_str": "4:49"
      }
    },
    {
      "type": "Feature",
      "geometry": {
        "type": "LineString",
        "coordinates": [
          [
            159.11378531431527,
            -141.48622811825018
          ],
          [
            160.40555550824652,
            -142.40901378538817
          ],
          [
            162.0664236989059,
            -142.96272860606337
          ],
          [
            163.1736570269093,
            -143.70096075813981
          ],
          [
            163.91180449062074,
            -144.43917481838605
          ],
          [
            165.1648749069574,
            -144.85267033964212
          ],
          [
            165.57266661506205,
            -145.17743410820776
          ],
          [
            165.75720954720802,
            -145.17744315412284
          ],
          [
            165.94174641313586,
            -145.3619966691844
          ],
          [
            166.12627721284562,
            -145.73109465339243
          ],
          [
            167.23352267328522,
            -146.10023786717593
          ],
          [
            168.70984186558053,
            -146.8384881110825
          ],
          [
            169.07892166365437,
            -147.02305067205916
          ],
          [
            169.4480014617282,
            -147.20761323303583
          ],
          [
            169.63253832765605,
            -147.3921667480974
          ],
          [
            169.86745688471103,
            -147.7307256164445
          ],
          [
            170.00158172842123,
            -148.6839961239529
          ],
          [
            171.29336405478867,
            -149.23769285279795
          ],
          [
            172.03153578337256,
            -149.2377290364583
          ],
          [
            172.95423831166622,
            -149.6068632043267
          ],
          [
            173.87694690617795,
            -149.7914529030486
          ],
          [
            174.79965550068968,
            -149.9760426017705
          ],
          [
            175.90690096112928,
            -150.34518581555398
          ],
          [
            176.82960955564104,
            -150.52977551427588
          ],
          [
            177.93685501608064,
            -150.89891872805936
          ],
          [
            178.8595636105924,
            -151.08350842678126
          ],
          [
            179.966809071032,
            -151.45265164056474
          ],
          [
            180.88951766554374,
            -151.63724133928665
          ],
          [
            182.1812999919112,
            -152.1909380681317
          ],
          [
            182.55037978998504,
            -152.37550062910833
          ],
          [
            182.91945958805888,
            -152.560063190085
          ],
          [
            183.10399645398672,
            -152.74461670514657
          ],
          [
            183.47307625206057,
            -152.9291792661232
          ],
          [
            184.211223715772,
            -153.66739332636948
          ],
          [
            184.9493590470472,
            -154.7746963249087
          ],
          [
            185.68750044454055,
            -155.69745485430144
          ],
          [
            187.16381963683585,
            -156.43570509820805
          ],
          [
            188.45560196320332,
            -156.9894018270531
          ],
          [
            189.56284742364298,
            -157.35854504083653
          ],
          [
            190.67009288408258,
            -157.72768825462
          ],
          [
            191.96186307801383,
            -158.65047392175802
          ],
          [
            192.88458380496178,
            -158.46597468218695
          ],
          [
            194.17636613132925,
            -159.01967141103202
          ],
          [
            194.91454392613124,
            -158.83516312554588
          ],
          [
            195.46817272256914,
            -158.83519026329114
          ],
          [
            195.83725252064298,
            -159.01975282426778
          ],
          [
            197.12902878079234,
            -159.75799402225928
          ],
          [
            198.2362560425776,
            -160.6807706434822
          ],
          [
            198.974403506289,
            -161.41898470372848
          ],
          [
            199.71254490378237,
            -162.3417432331212
          ],
          [
            200.45069236749382,
            -163.07995729336747
          ],
          [
            201.55792569549718,
            -163.8181894454439
          ],
          [
            202.4806160913546,
            -164.55641255160523
          ],
          [
            203.5878615517942,
            -164.92555576538874
          ],
          [
            204.51057014630595,
            -165.11014546411064
          ],
          [
            205.24874187488984,
            -165.11018164777096
          ],
          [
            205.80237067132774,
            -165.11020878551622
          ],
          [
            207.2786898636231,
            -165.84845902942283
          ],
          [
            208.01684945977075,
            -166.21758415137614
          ]
        ]
      },
      "properties": {
        "type": "variant",
        "id": 2,
        "color": "#4444ff",
        "vzdal_m": 1547,
        "prevyseni_m": 27,
        "cas_s": 453,
        "tempo_str": "4:52"
      }
    }
  ]
}