{
  "type": "FeatureCollection",
  "features": [
    {
      "type": "Feature",
      "geometry": {
        "type": "Point",
        "coordinates": [
          44.061298086395,
          -118.99753701561372
        ]
      },
      "properties": {
        "type": "start",
        "isom": "204"
      }
    },
    {
      "type": "Feature",
      "geometry": {
        "type": "Point",
        "coordinates": [
          36.218930184601184,
          -97.49772190865782
        ]
      },
      "properties": {
        "type": "end",
        "isom": "204"
      }
    },
    {
      "type": "Feature",
      "geometry": {
        "type": "LineString",
        "coordinates": [
          [
            44.061298086395,
            -118.99753701561372
          ],
          [
            44.061310218831224,
            -118.62844807732075
          ],
          [
            44.06132235126744,
            -118.2593591390278
          ],
          [
            43.78452918481188,
            -117.6134399281425
          ],
          [
            43.32318398688317,
            -117.24432837506183
          ],
          [
            42.6772958568085,
            -116.87520777606608
          ],
          [
            42.49277112331686,
            -116.32156532271155
          ],
          [
            42.40051482278915,
            -115.86019962688782
          ],
          [
            42.30825852226144,
            -115.39883393106406
          ],
          [
            42.21600222173373,
            -114.93746823524033
          ],
          [
            42.21601435416996,
            -114.56837929694738
          ],
          [
            42.03148962067832,
            -114.01473684359286
          ],
          [
            41.66242195504071,
            -113.46108534432324
          ],
          [
            41.293354289403105,
            -112.90743384505363
          ],
          [
            40.92428359065644,
            -112.44605458035727
          ],
          [
            40.55520985880072,
            -112.07694755023414
          ],
          [
            40.186139160054054,
            -111.61556828553776
          ],
          [
            39.817071494416446,
            -111.06191678626817
          ],
          [
            39.4480068618879,
            -110.41599305242532
          ],
          [
            39.07893919625028,
            -109.8623415531557
          ],
          [
            38.709877596830786,
            -109.12414558473961
          ],
          [
            38.43308443037522,
            -108.47822637385431
          ],
          [
            38.340828129847516,
            -108.01686067803058
          ],
          [
            38.24857182931981,
            -107.55549498220684
          ],
          [
            38.24858396175603,
            -107.18640604391388
          ],
          [
            37.971790795300464,
            -106.54048683302858
          ],
          [
            37.60272919588097,
            -105.80229086461249
          ],
          [
            37.418204462389326,
            -105.24864841125796
          ],
          [
            37.41821659482555,
            -104.87955947296501
          ],
          [
            37.41822872726177,
            -104.51047053467205
          ],
          [
            37.418240859697995,
            -104.14138159637909
          ],
          [
            37.41825299213422,
            -103.77229265808613
          ],
          [
            37.41826512457044,
            -103.40320371979318
          ],
          [
            37.41827725700666,
            -103.03411478150022
          ],
          [
            37.41828938944288,
            -102.66502584320726
          ],
          [
            37.23376465595125,
            -102.11138338985276
          ],
          [
            36.86470305653175,
            -101.37318742143667
          ],
          [
            36.49564145711225,
            -100.63499145302058
          ],
          [
            36.21884829065669,
            -99.98907224213528
          ],
          [
            36.218860423092906,
            -99.61998330384232
          ],
          [
            36.21887255552913,
            -99.25089436554937
          ],
          [
            36.21888468796535,
            -98.88180542725641
          ],
          [
            36.218896820401575,
            -98.51271648896345
          ],
          [
            36.2189089528378,
            -98.1436275506705
          ],
          [
            36.21892108527402,
            -97.77453861237754
          ],
          [
            36.218930184601184,
            -97.49772190865782
          ]
        ]
      },
      "properties": {
        "type": "variant",
        "id": 1,
        "color": "#ff4444",
        "vzdal_m": 1289,
        "prevyseni_m": 5,
        "cas_s": 315,
        "tempo_str": "4:04"
      }
    },
    {
      "type": "Feature",
      "geometry": {
        "type": "LineString",
        "coordinates": [
          [
            44.061298086395,
            -118.99753701561372
          ],
          [
            44.061310218831224,
            -118.62844807732075
          ],
          [
            44.06132235126744,
            -118.2593591390278
          ],
          [
            43.78452918481188,
            -117.6134399281425
          ],
          [
            43.415461519174265,
            -117.05978842887289
          ],
          [
            43.23093678568263,
            -116.50614597551838
          ],
          [
            43.23094891811885,
            -116.13705703722543
          ],
          [
            43.230961050555074,
            -115.76796809893247
          ],
          [
            43.2309731829913,
            -115.39887916063951
          ],
          [
            43.23098531542752,
            -115.02979022234656
          ],
          [
            43.23099744786374,
            -114.6607012840536
          ],
          [
            43.23100958029997,
            -114.29161234576064
          ],
          [
            43.23102171273619,
            -113.92252340746768
          ],
          [
            43.23103384517241,
            -113.55343446917473
          ],
          [
            42.95424067871684,
            -112.90751525828941
          ],
          [
            42.95425281115307,
            -112.53842631999645
          ],
          [
            42.9542710098074,
            -111.98479291255701
          ],
          [
            42.58520031106074,
            -111.52341364786066
          ],
          [
            42.21613264542312,
            -110.96976214859104
          ],
          [
            41.84707104600363,
            -110.23156618017495
          ],
          [
            41.754814745475926,
            -109.77020048435122
          ],
          [
            41.754826877912144,
            -109.40111154605827
          ],
          [
            41.75483901034837,
            -109.03202260776531
          ],
          [
            41.754851142784595,
            -108.66293366947235
          ],
          [
            41.478057976329026,
            -108.01701445858704
          ],
          [
            41.20126480987346,
            -107.37109524770175
          ],
          [
            41.20127694230968,
            -107.00200630940878
          ],
          [
            40.83221230978113,
            -106.35608257556594
          ],
          [
            40.463138577925406,
            -105.98697554544282
          ],
          [
            40.09407394539685,
            -105.34105181159997
          ],
          [
            39.725012345977355,
            -104.60285584318387
          ],
          [
            39.35595074655786,
            -103.86465987476778
          ],
          [
            39.07915758010229,
            -103.21874066388249
          ],
          [
            38.80236441364672,
            -102.57282145299719
          ],
          [
            38.617839680155086,
            -102.01917899964266
          ],
          [
            38.52558337962738,
            -101.55781330381893
          ],
          [
            38.15652178020788,
            -100.81961733540284
          ],
          [
            37.787460180788386,
            -100.08142136698675
          ],
          [
            37.418386448932665,
            -99.71231433686361
          ],
          [
            37.04931878329506,
            -99.15866283759402
          ],
          [
            36.68025718387556,
            -98.42046686917793
          ],
          [
            36.311195584456065,
            -97.68227090076184
          ],
          [
            36.218930184601184,
            -97.49772190865782
          ]
        ]
      },
      "properties": {
        "type": "variant",
        "id": 2,
        "color": "#4444ff",
        "vzdal_m": 1274,
        "prevyseni_m": 10,
        "cas_s": 328,
        "tempo_str": "4:17"
      }
    },
    {
      "type": "Feature",
      "geometry": {
        "type": "LineString",
        "coordinates": [
          [
            44.061298086395,
            -118.99753701561372
          ],
          [
            44.061310218831224,
            -118.62844807732075
          ],
          [
            44.06132235126744,
            -118.2593591390278
          ],
          [
            43.78452918481188,
            -117.6134399281425
          ],
          [
            43.32318398688317,
            -117.24432837506183
          ],
          [
            42.6772958568085,
            -116.87520777606608
          ],
          [
            42.49277112331686,
            -116.32156532271155
          ],
          [
            42.49278325575308,
            -115.95247638441859
          ],
          [
            42.30825852226144,
            -115.39883393106406
          ],
          [
            42.21600222173373,
            -114.93746823524033
          ],
          [
            42.21601435416996,
            -114.56837929694738
          ],
          [
            42.03148962067832,
            -114.01473684359286
          ],
          [
            41.66242195504071,
            -113.46108534432324
          ],
          [
            41.293354289403105,
            -112.90743384505363
          ],
          [
            40.92428359065644,
            -112.44605458035727
          ],
          [
            40.55521592501883,
            -111.89240308108766
          ],
          [
            40.46295962449113,
            -111.43103738526393
          ],
          [
            40.462971756927345,
            -111.06194844697097
          ],
          [
            40.46298388936357,
            -110.69285950867801
          ],
          [
            40.462996021799796,
            -110.32377057038507
          ],
          [
            40.555282653418054,
            -109.8624139204764
          ],
          [
            40.55529478585428,
            -109.49332498218344
          ],
          [
            40.27850161939871,
            -108.84740577129814
          ],
          [
            40.00170845294314,
            -108.20148656041282
          ],
          [
            39.72491528648758,
            -107.55556734952752
          ],
          [
            39.44812212003201,
            -106.90964813864223
          ],
          [
            39.079060520612515,
            -106.17145217022613
          ],
          [
            38.70999892119301,
            -105.43325620181004
          ],
          [
            38.617742620665304,
            -104.97189050598631
          ],
          [
            38.61775475310153,
            -104.60280156769336
          ],
          [
            38.617766885537755,
            -104.2337126294004
          ],
          [
            38.61777901797397,
            -103.86462369110744
          ],
          [
            38.6177911504102,
            -103.49553475281449
          ],
          [
            38.617803282846424,
            -103.12644581452153
          ],
          [
            38.61781541528264,
            -102.75735687622857
          ],
          [
            38.525559114754934,
            -102.29599118040484
          ],
          [
            38.433302814227225,
            -101.8346254845811
          ],
          [
            38.43331494666345,
            -101.46553654628813
          ],
          [
            38.15652178020788,
            -100.81961733540284
          ],
          [
            37.787460180788386,
            -100.08142136698675
          ],
          [
            37.418386448932665,
            -99.71231433686361
          ],
          [
            37.04931878329506,
            -99.15866283759402
          ],
          [
            36.68025718387556,
            -98.42046686917793
          ],
          [
            36.311195584456065,
            -97.68227090076184
          ],
          [
            36.218930184601184,
            -97.49772190865782
          ]
        ]
      },
      "properties": {
        "type": "variant",
        "id": 3,
        "color": "#44ff44",
        "vzdal_m": 1288,
        "prevyseni_m": 9,
        "cas_s": 327,
        "tempo_str": "4:14"
      }
    }
  ]
}