{
  "type": "FeatureCollection",
  "features": [
    {
      "type": "Feature",
      "geometry": {
        "type": "Point",
        "coordinates": [
          30.03252574567383,
          -82.07177709181512
        ]
      },
      "properties": {
        "type": "start",
        "isom": "203"
      }
    },
    {
      "type": "Feature",
      "geometry": {
        "type": "Point",
        "coordinates": [
          72.21033266275504,
          -128.01655945796938
        ]
      },
      "properties": {
        "type": "end",
        "isom": "417"
      }
    },
    {
      "type": "Feature",
      "geometry": {
        "type": "LineString",
        "coordinates": [
          [
            30.00674230355416,
            -82.09016992385719
          ],
          [
            29.72991273978996,
            -82.5515175275896
          ],
          [
            30.00670893935457,
            -83.10516450503607
          ],
          [
            30.375779638101207,
            -83.56654377100682
          ],
          [
            30.74484123752069,
            -84.30473974093543
          ],
          [
            31.11390283694017,
            -85.04293571086407
          ],
          [
            31.482964436359648,
            -85.7811316807927
          ],
          [
            31.85202603577913,
            -86.51932765072132
          ],
          [
            32.22108763519861,
            -87.25752362064995
          ],
          [
            32.59014923461809,
            -87.99571959057856
          ],
          [
            32.70854169312425,
            -88.46283481612292
          ],
          [
            32.63917534585725,
            -88.8218212453283
          ],
          [
            32.548841505602454,
            -89.27630100717835
          ],
          [
            32.433548393893965,
            -89.74984366248596
          ],
          [
            32.4350102370885,
            -90.1179733860452
          ],
          [
            32.47394708900658,
            -90.48620370256606
          ],
          [
            32.460044247284515,
            -90.85457999742323
          ],
          [
            32.40553773886998,
            -91.22578777451211
          ],
          [
            32.40728026752174,
            -91.59432778353413
          ],
          [
            32.40726813508553,
            -91.96341672214463
          ],
          [
            32.244744745375705,
            -92.4206300980677
          ],
          [
            32.22605288942481,
            -92.79112193513494
          ],
          [
            32.211472852168,
            -93.25492266361162
          ],
          [
            32.40052947332479,
            -93.53915763583346
          ],
          [
            33.106892790521,
            -93.96163064794527
          ],
          [
            33.742106817172214,
            -94.34747230885522
          ],
          [
            34.307954536371554,
            -94.69539731983151
          ],
          [
            34.80475620128704,
            -95.00800701888213
          ],
          [
            35.368171288818886,
            -95.36398010536227
          ],
          [
            35.841138340150536,
            -95.71779458283729
          ],
          [
            36.423397634785026,
            -96.16660937858045
          ],
          [
            36.82356593588287,
            -96.49792234329574
          ],
          [
            37.276084025359374,
            -96.87359377164641
          ],
          [
            37.748801383435136,
            -97.24213140768211
          ],
          [
            38.23660061495109,
            -97.56431182142713
          ],
          [
            38.5184280665369,
            -97.75546273020511
          ],
          [
            38.640514691484604,
            -97.93986700470165
          ],
          [
            38.983428364687434,
            -98.29810092607931
          ],
          [
            39.59705446468431,
            -98.7098834395054
          ],
          [
            39.909148524204454,
            -99.09903255502213
          ],
          [
            40.27787291582481,
            -99.69477790765379
          ],
          [
            40.64216114131096,
            -100.25887480453869
          ],
          [
            40.977097974215354,
            -101.02255750318182
          ],
          [
            41.3708837709847,
            -101.25885561222815
          ],
          [
            41.48573969522441,
            -101.36237863599155
          ],
          [
            41.80889590626199,
            -102.02790219466083
          ],
          [
            42.1766249438277,
            -102.49037251629238
          ],
          [
            42.40751336115675,
            -102.82687156645012
          ],
          [
            42.527298447352486,
            -103.0287245911608
          ],
          [
            42.73949487410646,
            -103.6824970309845
          ],
          [
            43.115329480776275,
            -104.18405616852206
          ],
          [
            43.31339218448238,
            -104.41469037529156
          ],
          [
            43.630836527881414,
            -105.17399924106401
          ],
          [
            44.39317106134032,
            -105.54551508464802
          ],
          [
            44.85072048142311,
            -105.90649955493971
          ],
          [
            45.2044654462187,
            -106.3122178256808
          ],
          [
            45.96356879281007,
            -106.65183198069187
          ],
          [
            46.507270612517345,
            -106.86068389250545
          ],
          [
            47.2445717925392,
            -107.21307985684385
          ],
          [
            47.7307377217034,
            -107.5457316595973
          ],
          [
            48.11377076115992,
            -107.90412331721714
          ],
          [
            48.46206496179573,
            -108.29522570919907
          ],
          [
            48.83352970804957,
            -108.825097533781
          ],
          [
            49.22627277701455,
            -109.38262010474547
          ],
          [
            49.546919715079575,
            -109.7863303388068
          ],
          [
            50.101875124199815,
            -110.06677122236368
          ],
          [
            50.21327433950909,
            -110.0497079503505
          ],
          [
            50.44304985437131,
            -110.17173323070533
          ],
          [
            50.96322389892504,
            -110.57648359151425
          ],
          [
            51.295708752479015,
            -110.71554082639975
          ],
          [
            51.680897191216445,
            -111.17956356517925
          ],
          [
            52.169327717492585,
            -111.52615959353635
          ],
          [
            52.70454326328221,
            -111.89521441817398
          ],
          [
            53.442702859429815,
            -112.26433954219974
          ],
          [
            53.93214728369578,
            -112.64381364833137
          ],
          [
            54.36539325528715,
            -113.0025626511898
          ],
          [
            54.73446698714285,
            -113.37166968250791
          ],
          [
            55.103540718998545,
            -113.74077671382604
          ],
          [
            55.47261445085424,
            -114.10988374514416
          ],
          [
            55.84168818270994,
            -114.47899077646228
          ],
          [
            56.563584512589685,
            -114.92093613916003
          ],
          [
            57.228155338431215,
            -115.11818345465069
          ],
          [
            57.90686783121402,
            -115.46534599568605
          ],
          [
            58.51751520219047,
            -115.86320546838193
          ],
          [
            58.97886040011914,
            -116.23231702287696
          ],
          [
            59.61657206330715,
            -116.58907026801954
          ],
          [
            60.08609372812243,
            -116.97054917822082
          ],
          [
            60.5474389260511,
            -117.33966073271587
          ],
          [
            61.00878412397977,
            -117.70877228721089
          ],
          [
            61.67219834280426,
            -118.04991906566953
          ],
          [
            62.292713944459244,
            -118.45715012917928
          ],
          [
            62.77033410908815,
            -118.8039267514608
          ],
          [
            63.32052377496358,
            -119.177579771611
          ],
          [
            63.958274680757924,
            -119.56166337439345
          ],
          [
            64.3358838157745,
            -119.72675113059073
          ],
          [
            64.80550552193688,
            -120.08889902009463
          ],
          [
            65.18341886038893,
            -120.45943660852262
          ],
          [
            65.53657211231832,
            -121.02661011486911
          ],
          [
            65.9086465210052,
            -121.48331363796167
          ],
          [
            66.63233991284955,
            -121.86827011750987
          ],
          [
            67.06447698579278,
            -122.15281647958072
          ],
          [
            67.42710236866303,
            -122.53194646915914
          ],
          [
            67.83669972616401,
            -122.96862437750156
          ],
          [
            68.2057673918016,
            -123.52227587812493
          ],
          [
            68.57483809054824,
            -123.98365514409568
          ],
          [
            68.94391182240395,
            -124.35276217541379
          ],
          [
            69.31297948804152,
            -124.90641367603718
          ],
          [
            69.7743246859702,
            -125.2755252305322
          ],
          [
            70.14339841782589,
            -125.64463226185033
          ],
          [
            70.42020371671765,
            -125.92146253533893
          ],
          [
            70.7892744154643,
            -126.38284180130967
          ],
          [
            71.43516254553893,
            -126.75196240215853
          ],
          [
            71.81563810303957,
            -127.13804538597978
          ],
          [
            72.17329484370505,
            -127.95153763805789
          ],
          [
            72.173291810596,
            -128.0438098727105
          ]
        ]
      },
      "properties": {
        "type": "variant",
        "id": 1,
        "color": "#ff4444",
        "vzdal_m": 3589,
        "prevyseni_m": 85,
        "cas_s": 924,
        "tempo_str": "4:17"
      }
    },
    {
      "type": "Feature",
      "geometry": {
        "type": "LineString",
        "coordinates": [
          [
            30.00674230355416,
            -82.09016992385719
          ],
          [
            29.72991273978996,
            -82.5515175275896
          ],
          [
            30.00670893935457,
            -83.10516450503607
          ],
          [
            30.375779638101207,
            -83.56654377100682
          ],
          [
            30.74484123752069,
            -84.30473974093543
          ],
          [
            31.11390283694017,
            -85.04293571086407
          ],
          [
            31.482964436359648,
            -85.7811316807927
          ],
          [
            31.85202603577913,
            -86.51932765072132
          ],
          [
            32.22108763519861,
            -87.25752362064995
          ],
          [
            32.59014923461809,
            -87.99571959057856
          ],
          [
            32.70854169312425,
            -88.46283481612292
          ],
          [
            32.63917534585725,
            -88.8218212453283
          ],
          [
            32.548841505602454,
            -89.27630100717835
          ],
          [
            32.433548393893965,
            -89.74984366248596
          ],
          [
            32.4350102370885,
            -90.1179733860452
          ],
          [
            32.47394708900658,
            -90.48620370256606
          ],
          [
            32.460044247284515,
            -90.85457999742323
          ],
          [
            32.40553773886998,
            -91.22578777451211
          ],
          [
            32.40728026752174,
            -91.59432778353413
          ],
          [
            32.40726813508553,
            -91.96341672214463
          ],
          [
            32.244744745375705,
            -92.4206300980677
          ],
          [
            32.22605288942481,
            -92.79112193513494
          ],
          [
            32.20848404406251,
            -93.34999864676531
          ],
          [
            32.1968928149112,
            -93.7187233920883
          ],
          [
            32.185301585759895,
            -94.08744813741127
          ],
          [
            32.17371035660859,
            -94.45617288273426
          ],
          [
            32.19524164115053,
            -94.81469421343057
          ],
          [
            32.22180249683372,
            -95.00825829026752
          ],
          [
            32.286486465412366,
            -95.47350429844933
          ],
          [
            32.35931496952304,
            -95.93876328748496
          ],
          [
            32.436491101331654,
            -96.40267056322844
          ],
          [
            32.47079487361498,
            -96.76313808169373
          ],
          [
            32.49040284395206,
            -97.13101670917669
          ],
          [
            32.508391913229225,
            -97.49922646554386
          ],
          [
            32.58935470298585,
            -98.00766389050685
          ],
          [
            32.54908718550513,
            -98.33219875883668
          ],
          [
            32.5670762547823,
            -98.70040851520385
          ],
          [
            32.5855524577133,
            -99.06863155166141
          ],
          [
            32.60674660775944,
            -99.43649904212886
          ],
          [
            32.62794075780557,
            -99.80436653259633
          ],
          [
            32.64913490785171,
            -100.17223402306381
          ],
          [
            32.670329057897845,
            -100.54010151353128
          ],
          [
            32.72156806200485,
            -100.92141778573966
          ],
          [
            32.788427090231416,
            -101.38643470089153
          ],
          [
            32.85229860583175,
            -101.74896240113726
          ],
          [
            32.972625643540006,
            -102.1086655005334
          ],
          [
            33.236829790164514,
            -102.79734193658282
          ],
          [
            33.3493052037931,
            -103.21334873314467
          ],
          [
            33.61324107371718,
            -103.98739001585695
          ],
          [
            33.89860820766468,
            -104.64049471766991
          ],
          [
            34.28302856315154,
            -105.37560872685698
          ],
          [
            34.66910261890709,
            -106.09541143389637
          ],
          [
            35.0316796200622,
            -106.86273072376191
          ],
          [
            35.41986557519359,
            -107.30697993021813
          ],
          [
            35.86567816541808,
            -107.6942801574532
          ],
          [
            36.12271430494967,
            -108.16543668566172
          ],
          [
            36.529409033111996,
            -108.64096285980976
          ],
          [
            36.99617170495219,
            -109.00048747838648
          ],
          [
            37.74447426945047,
            -109.33787046538117
          ],
          [
            38.49625478506692,
            -109.67677982702365
          ],
          [
            39.03004372833684,
            -109.97972858492263
          ],
          [
            39.34481197165629,
            -110.37656799781753
          ],
          [
            39.770579737680556,
            -110.98417766646298
          ],
          [
            40.17573117040193,
            -111.51002748600148
          ],
          [
            40.54619096184599,
            -111.96937060139786
          ],
          [
            40.93409596408161,
            -112.4118759424239
          ],
          [
            41.267165161228284,
            -112.81471429063592
          ],
          [
            41.59734105716536,
            -113.30234468210377
          ],
          [
            41.96306221323483,
            -113.85698926990847
          ],
          [
            42.13129293998658,
            -114.13617631443844
          ],
          [
            42.6461993645348,
            -114.19735238218233
          ],
          [
            43.0109650384302,
            -114.09176548701186
          ],
          [
            43.57061281100165,
            -114.10437773959224
          ],
          [
            44.045035425994335,
            -114.20318959258252
          ],
          [
            44.39554898014756,
            -114.30545654247653
          ],
          [
            44.94761847574964,
            -114.50380764040065
          ],
          [
            45.59389404784646,
            -114.86032022508498
          ],
          [
            46.13987044689707,
            -115.23326129643849
          ],
          [
            46.58861508266786,
            -115.6135460269084
          ],
          [
            46.96824532352849,
            -115.97089721908229
          ],
          [
            47.319306053970365,
            -116.35667595260523
          ],
          [
            47.791266910051384,
            -116.73024568849632
          ],
          [
            48.55208931690095,
            -117.06239382654674
          ],
          [
            49.10428227512691,
            -117.27173096731613
          ],
          [
            49.25445174651853,
            -117.36263653037639
          ],
          [
            49.290310965820744,
            -117.61592560909125
          ],
          [
            49.67097853008416,
            -118.35554330406032
          ],
          [
            50.036623560755736,
            -118.81290345452007
          ],
          [
            50.48978239569743,
            -119.36915686879091
          ],
          [
            50.858868259989336,
            -119.36917496149852
          ],
          [
            51.22795412428125,
            -119.36919305420615
          ],
          [
            51.781576854501004,
            -119.55376466257283
          ],
          [
            51.966116753537904,
            -119.64604594357927
          ],
          [
            52.242931151756835,
            -119.64605951310999
          ],
          [
            52.79654781575848,
            -120.01517559078192
          ],
          [
            53.45661971625141,
            -120.37421654785898
          ],
          [
            53.711105241406806,
            -120.3327125402598
          ],
          [
            54.18059554198071,
            -120.75342131565651
          ],
          [
            54.82648367205533,
            -121.12254191650536
          ],
          [
            55.56464326820293,
            -121.4916670405311
          ],
          [
            56.30280286435053,
            -121.86079216455684
          ],
          [
            57.040962460498136,
            -122.2299172885826
          ],
          [
            57.77912205664574,
            -122.59904241260834
          ],
          [
            58.24047028768346,
            -122.87588173245074
          ],
          [
            58.791499942005615,
            -123.24504153126918
          ],
          [
            59.07089225057689,
            -123.52182808361127
          ],
          [
            59.29053624158882,
            -123.61380247554771
          ],
          [
            59.292159509931324,
            -123.7991438850353
          ],
          [
            59.92836789197025,
            -124.089479434287
          ],
          [
            60.36267457694424,
            -124.0755248160037
          ],
          [
            60.73176044123615,
            -124.07554290871131
          ],
          [
            61.19311473849198,
            -124.16783775924848
          ],
          [
            61.476673219973634,
            -124.28107777948583
          ],
          [
            62.13126918033274,
            -124.04004187680837
          ],
          [
            62.48648217272013,
            -123.97347332723497
          ],
          [
            63.130812492915446,
            -124.26020498061612
          ],
          [
            63.59216679017128,
            -124.35249983115327
          ],
          [
            64.18124212183416,
            -124.62844207718108
          ],
          [
            64.7084409374216,
            -124.98341898266196
          ],
          [
            65.41373705733335,
            -125.40723581470711
          ],
          [
            66.17572234357883,
            -125.73670999989601
          ],
          [
            66.52516724183918,
            -126.13541794243073
          ],
          [
            67.19068408220097,
            -126.47868887245454
          ],
          [
            67.65203850276497,
            -126.56723248260013
          ],
          [
            68.1133928000208,
            -126.65952733313728
          ],
          [
            68.48247866431272,
            -126.65954542584491
          ],
          [
            69.03610139453247,
            -126.84411703421159
          ],
          [
            69.58972412475224,
            -127.02868864257829
          ],
          [
            70.16443468952536,
            -127.251783122404
          ],
          [
            70.78923801815566,
            -127.49010861714117
          ],
          [
            71.2505923154115,
            -127.58240346767833
          ],
          [
            71.98875191155909,
            -127.95152859170408
          ],
          [
            72.173291810596,
            -128.0438098727105
          ]
        ]
      },
      "properties": {
        "type": "variant",
        "id": 2,
        "color": "#4444ff",
        "vzdal_m": 3848,
        "prevyseni_m": 61,
        "cas_s": 920,
        "tempo_str": "3:59"
      }
    },
    {
      "type": "Feature",
      "geometry": {
        "type": "LineString",
        "coordinates": [
          [
            30.00674230355416,
            -82.09016992385719
          ],
          [
            30.283553668664037,
            -82.18245572804052
          ],
          [
            30.83717639888379,
            -82.36702733640722
          ],
          [
            31.48306756206747,
            -82.64387570260344
          ],
          [
            32.22122715821507,
            -83.01300082662918
          ],
          [
            32.68257235614374,
            -83.3821123811242
          ],
          [
            33.05164608799944,
            -83.75121941244232
          ],
          [
            33.42071981985513,
            -84.12032644376045
          ],
          [
            33.8820650177838,
            -84.48943799825548
          ],
          [
            34.25277690111856,
            -84.9506475661245
          ],
          [
            34.37098240961085,
            -85.40290393368325
          ],
          [
            34.59507161206338,
            -86.06692990317761
          ],
          [
            34.84137878880263,
            -86.72466033266606
          ],
          [
            35.240939273461635,
            -87.20074679146005
          ],
          [
            35.66788040168575,
            -87.48135780437487
          ],
          [
            35.84159861123515,
            -87.5926341229445
          ],
          [
            35.96905575682631,
            -87.82372746094511
          ],
          [
            36.23466729513445,
            -88.47942927689485
          ],
          [
            36.62425954432062,
            -88.94833589729541
          ],
          [
            37.06986547672682,
            -89.33556010762916
          ],
          [
            37.525216532267734,
            -89.71043899779431
          ],
          [
            37.91495198239737,
            -90.05626008843893
          ],
          [
            38.349670040511064,
            -90.44411705321895
          ],
          [
            38.610695401257914,
            -90.89499847196215
          ],
          [
            38.97107670356296,
            -91.54520861407943
          ],
          [
            39.6026593318022,
            -91.68695273812841
          ],
          [
            40.06400452973087,
            -92.05606429262345
          ],
          [
            40.433078261586566,
            -92.42517132394157
          ],
          [
            40.89442345951524,
            -92.79428287843659
          ],
          [
            41.63258305566284,
            -93.16340800246233
          ],
          [
            42.186205626177106,
            -93.35283811803644
          ],
          [
            42.29124995879753,
            -93.53140282720075
          ],
          [
            42.345758906187775,
            -93.99561701702754
          ],
          [
            42.384218239216324,
            -94.35624136063265
          ],
          [
            42.73977695324844,
            -95.10117920829035
          ],
          [
            43.10884158577697,
            -95.74710294356636
          ],
          [
            43.66245824977862,
            -96.11621902123828
          ],
          [
            44.0315259154162,
            -96.66987052186167
          ],
          [
            44.40059054794474,
            -97.31579425713767
          ],
          [
            44.76965214736422,
            -98.0539902270663
          ],
          [
            45.138713746783694,
            -98.79218619699492
          ],
          [
            45.31747640839324,
            -99.33934505092193
          ],
          [
            45.40266072386587,
            -99.64983843188816
          ],
          [
            45.88000455275065,
            -99.98821243822113
          ],
          [
            46.26925826653506,
            -100.33464463291214
          ],
          [
            46.692985597288114,
            -100.74430691228069
          ],
          [
            47.074686712214024,
            -101.1010765022622
          ],
          [
            47.52915739937697,
            -101.4784668445174
          ],
          [
            47.929400188892345,
            -101.80986209244129
          ],
          [
            48.3301817049554,
            -102.14053821137732
          ],
          [
            48.799274271922975,
            -102.61684804808422
          ],
          [
            49.21577511138342,
            -102.92100941066212
          ],
          [
            49.82312913610349,
            -103.37009654307002
          ],
          [
            50.58991028275268,
            -103.66973027273028
          ],
          [
            51.02964132584963,
            -103.8258324838914
          ],
          [
            51.67769114697868,
            -104.07026573211846
          ],
          [
            52.315954256999525,
            -104.47533436053604
          ],
          [
            53.03924224586611,
            -104.85178542360818
          ],
          [
            53.611482691826,
            -105.18634385501481
          ],
          [
            53.93768938998619,
            -105.37992356501591
          ],
          [
            54.18107780632022,
            -106.08213600588908
          ],
          [
            54.27334017306603,
            -106.35895723302386
          ],
          [
            54.64241390492173,
            -106.72806426434198
          ],
          [
            54.91922223692255,
            -106.91262230317795
          ],
          [
            55.01149066988648,
            -107.00489906100748
          ],
          [
            55.103746970414186,
            -107.46626475744752
          ],
          [
            55.196003270941894,
            -107.92763045388755
          ],
          [
            55.56506790347042,
            -108.57355418916354
          ],
          [
            55.93414163532612,
            -108.94266122048167
          ],
          [
            56.30321233407276,
            -109.4040404864524
          ],
          [
            56.67228606592845,
            -109.77314751777054
          ],
          [
            57.041359797784146,
            -110.14225454908868
          ],
          [
            57.5949764617858,
            -110.5113706267606
          ],
          [
            58.240867624969475,
            -110.78821899295681
          ],
          [
            58.60994135682517,
            -111.15732602427494
          ],
          [
            58.97901508868087,
            -111.52643305559306
          ],
          [
            59.44036028660953,
            -111.8955446100881
          ],
          [
            60.08625144979322,
            -112.1723929762843
          ],
          [
            60.36306281490309,
            -112.26467878046765
          ],
          [
            60.91667947890474,
            -112.63379485813958
          ],
          [
            61.37801861061531,
            -113.18745088193987
          ],
          [
            61.74709234247099,
            -113.55655791325799
          ],
          [
            62.11616607432669,
            -113.92566494457611
          ],
          [
            62.48523070685522,
            -114.57158867985213
          ],
          [
            62.87364228564629,
            -115.1394392918513
          ],
          [
            63.05914801117302,
            -115.59925097310912
          ],
          [
            63.22335087258514,
            -116.140252854362
          ],
          [
            63.59241247200461,
            -116.87844882429061
          ],
          [
            63.961474071424085,
            -117.61664479421924
          ],
          [
            64.05373037195179,
            -118.07801049065928
          ],
          [
            64.33052960462545,
            -118.5393852334531
          ],
          [
            64.69959120404494,
            -119.27758120338174
          ],
          [
            64.79184750457266,
            -119.73894689982178
          ],
          [
            65.1381985290465,
            -120.40323338035407
          ],
          [
            65.53657211231832,
            -121.02661011486911
          ],
          [
            65.9086465210052,
            -121.48331363796167
          ],
          [
            66.63233991284955,
            -121.86827011750987
          ],
          [
            67.06447698579278,
            -122.15281647958072
          ],
          [
            67.42710236866303,
            -122.53194646915914
          ],
          [
            67.83669972616401,
            -122.96862437750156
          ],
          [
            68.2057673918016,
            -123.52227587812493
          ],
          [
            68.57483809054824,
            -123.98365514409568
          ],
          [
            68.94391182240395,
            -124.35276217541379
          ],
          [
            69.31297948804152,
            -124.90641367603718
          ],
          [
            69.7743246859702,
            -125.2755252305322
          ],
          [
            70.14339841782589,
            -125.64463226185033
          ],
          [
            70.42020371671765,
            -125.92146253533893
          ],
          [
            70.7892744154643,
            -126.38284180130967
          ],
          [
            71.43516254553893,
            -126.75196240215853
          ],
          [
            71.81563810303957,
            -127.13804538597978
          ],
          [
            72.17329484370505,
            -127.95153763805789
          ],
          [
            72.173291810596,
            -128.0438098727105
          ]
        ]
      },
      "properties": {
        "type": "variant",
        "id": 3,
        "color": "#44ff44",
        "vzdal_m": 3514,
        "prevyseni_m": 87,
        "cas_s": 949,
        "tempo_str": "4:29"
      }
    }
  ]
}