{
  "type": "FeatureCollection",
  "features": [
    {
      "type": "Feature",
      "geometry": {
        "type": "Point",
        "coordinates": [
          110.47748548460594,
          -198.13505421301875
        ]
      },
      "properties": {
        "type": "start",
        "isom": "204"
      }
    },
    {
      "type": "Feature",
      "geometry": {
        "type": "Point",
        "coordinates": [
          114.55191867230481,
          -172.80910912476224
        ]
      },
      "properties": {
        "type": "end",
        "isom": "204"
      }
    },
    {
      "type": "Feature",
      "geometry": {
        "type": "LineString",
        "coordinates": [
          [
            110.54586969852848,
            -198.2268400088443
          ],
          [
            110.73043689554689,
            -197.48867117817352
          ],
          [
            110.54591822827337,
            -196.7504842556725
          ],
          [
            110.5459424931458,
            -196.01230637908657
          ],
          [
            110.3614238258723,
            -195.2741194565856
          ],
          [
            110.54599102289069,
            -194.53595062591475
          ],
          [
            110.54601528776315,
            -193.79777274932883
          ],
          [
            110.54603348641747,
            -193.2441393418894
          ],
          [
            110.73060674965399,
            -192.32142604207212
          ],
          [
            110.91516181423619,
            -191.95234614969422
          ],
          [
            110.73064314696268,
            -191.21415922719325
          ],
          [
            110.91521034398109,
            -190.4759903965224
          ],
          [
            111.0997836072176,
            -189.5532770967051
          ],
          [
            111.09980180587195,
            -188.99964368926567
          ],
          [
            111.28438113532658,
            -187.89238592030185
          ],
          [
            111.83805239529127,
            -186.60060177402178
          ],
          [
            112.39172972147408,
            -185.1242731585952
          ],
          [
            112.94539491522066,
            -184.0170334814616
          ],
          [
            112.94540704765689,
            -183.64794454316862
          ],
          [
            113.86816417191352,
            -182.3561784887187
          ],
          [
            114.60636623158796,
            -181.43349232664667
          ],
          [
            114.60639656267853,
            -180.5107699809143
          ],
          [
            115.16005569020699,
            -179.58807477292714
          ],
          [
            115.16007995507942,
            -178.84989689634122
          ],
          [
            114.97556735402402,
            -177.92716550469373
          ],
          [
            114.79104868675049,
            -177.18897858219276
          ],
          [
            114.97561588376891,
            -176.45080975152192
          ],
          [
            114.97564014864135,
            -175.712631874936
          ],
          [
            114.97566441351381,
            -174.97445399835007
          ],
          [
            114.97568867838623,
            -174.23627612176418
          ],
          [
            114.60663921140296,
            -173.12899121505515
          ],
          [
            114.60665134383919,
            -172.75990227676218
          ]
        ]
      },
      "properties": {
        "type": "variant",
        "id": 1,
        "color": "#ff4444",
        "vzdal_m": 728,
        "prevyseni_m": 3,
        "cas_s": 205,
        "tempo_str": "4:41"
      }
    },
    {
      "type": "Feature",
      "geometry": {
        "type": "LineString",
        "coordinates": [
          [
            110.54586969852848,
            -198.2268400088443
          ],
          [
            111.28405962576669,
            -197.67324278506524
          ],
          [
            112.02226775165926,
            -196.5660121538467
          ],
          [
            112.39139607947797,
            -195.27421896165154
          ],
          [
            112.57596327649638,
            -194.5360501309807
          ],
          [
            112.94507947187887,
            -193.61334587707847
          ],
          [
            112.94510980296944,
            -192.6906235313461
          ],
          [
            113.12968913242408,
            -191.5833657623823
          ],
          [
            114.05245232289882,
            -190.10705523878593
          ],
          [
            114.6061175166454,
            -188.9998155616523
          ],
          [
            114.79067864744572,
            -188.44619120012794
          ],
          [
            114.97525191068223,
            -187.5234779003106
          ],
          [
            114.79073930962682,
            -186.60074650866315
          ],
          [
            114.60622670857141,
            -185.67801511701566
          ],
          [
            114.60625097344385,
            -184.93983724042977
          ],
          [
            114.60627523831629,
            -184.20165936384385
          ],
          [
            114.60628737075251,
            -183.8325704255509
          ],
          [
            114.42175657104276,
            -183.46347244134284
          ],
          [
            114.23724396998735,
            -182.54074104969536
          ],
          [
            113.86819450300406,
            -181.4334561429863
          ],
          [
            113.68366976951243,
            -180.8798136896318
          ],
          [
            113.4991389698027,
            -180.51071570542373
          ],
          [
            112.94554657067344,
            -179.40342175279963
          ],
          [
            112.2074051731801,
            -178.48066322340688
          ],
          [
            112.0228925721247,
            -177.55793183175942
          ],
          [
            112.02291683699714,
            -176.8197539551735
          ],
          [
            112.39203909859775,
            -175.71250523212478
          ],
          [
            112.94569215990812,
            -174.97435449328415
          ],
          [
            113.86843108551041,
            -174.23622184627365
          ],
          [
            114.60665134383919,
            -172.75990227676218
          ]
        ]
      },
      "properties": {
        "type": "variant",
        "id": 2,
        "color": "#4444ff",
        "vzdal_m": 763,
        "prevyseni_m": 7,
        "cas_s": 210,
        "tempo_str": "4:35"
      }
    },
    {
      "type": "Feature",
      "geometry": {
        "type": "LineString",
        "coordinates": [
          [
            110.54586969852848,
            -198.2268400088443
          ],
          [
            110.54589396340091,
            -197.48866213225838
          ],
          [
            110.54591822827337,
            -196.7504842556725
          ],
          [
            109.99233189536223,
            -195.4586458339019
          ],
          [
            109.99235616023466,
            -194.72046795731598
          ],
          [
            110.17691122481686,
            -194.35138806493808
          ],
          [
            110.17692335725309,
            -193.98229912664513
          ],
          [
            109.99239255754333,
            -193.6132011424371
          ],
          [
            109.80785569161547,
            -193.42864762737557
          ],
          [
            109.62332489190572,
            -193.0595496431675
          ],
          [
            109.43879409219599,
            -192.69045165895946
          ],
          [
            109.25426329248623,
            -192.3213536747514
          ],
          [
            108.51612796121103,
            -191.21405067621222
          ],
          [
            107.96253556208177,
            -190.10675672358806
          ],
          [
            107.77802296102635,
            -189.1840253319406
          ],
          [
            107.59351035997095,
            -188.2612939402931
          ],
          [
            107.40899775891553,
            -187.3385625486456
          ],
          [
            107.2244851578601,
            -186.41583115699814
          ],
          [
            107.03997255680471,
            -185.49309976535065
          ],
          [
            106.85545995574928,
            -184.57036837370316
          ],
          [
            107.04003321898581,
            -183.64765507388586
          ],
          [
            107.04005748385826,
            -182.90947719729994
          ],
          [
            107.77827167596892,
            -181.61770209693495
          ],
          [
            108.51648586807958,
            -180.32592699656993
          ],
          [
            109.07016319426239,
            -178.84959838114338
          ],
          [
            109.07016926048048,
            -178.6650539119969
          ],
          [
            110.36199405037475,
            -177.9269393568166
          ],
          [
            110.73109811332101,
            -177.37332404120733
          ],
          [
            110.91564711168509,
            -177.18878861797592
          ],
          [
            111.4693244378679,
            -175.71246000254936
          ],
          [
            112.20752043132424,
            -174.97431830962378
          ],
          [
            112.76117349263458,
            -174.23616757078315
          ],
          [
            113.6839124182369,
            -173.49803492377265
          ],
          [
            114.60665134383919,
            -172.75990227676218
          ]
        ]
      },
      "properties": {
        "type": "variant",
        "id": 3,
        "color": "#44ff44",
        "vzdal_m": 793,
        "prevyseni_m": 6,
        "cas_s": 216,
        "tempo_str": "4:32"
      }
    }
  ]
}