{
  "type": "FeatureCollection",
  "features": [
    {
      "type": "Feature",
      "geometry": {
        "type": "Point",
        "coordinates": [
          79.78305719764725,
          -232.65480987511538
        ]
      },
      "properties": {
        "type": "start",
        "isom": "204"
      }
    },
    {
      "type": "Feature",
      "geometry": {
        "type": "Point",
        "coordinates": [
          141.2928536328433,
          -182.852963545362
        ]
      },
      "properties": {
        "type": "end",
        "isom": "417"
      }
    },
    {
      "type": "Feature",
      "geometry": {
        "type": "LineString",
        "coordinates": [
          [
            79.7573277798007,
            -232.6473061331234
          ],
          [
            80.49551770703893,
            -232.09370890934434
          ],
          [
            81.23373189914959,
            -230.80193380897933
          ],
          [
            81.6028602269683,
            -229.51014061678416
          ],
          [
            81.78742742398673,
            -228.7719717861133
          ],
          [
            82.15654361936923,
            -227.84926753221112
          ],
          [
            82.52567194718794,
            -226.55747434001594
          ],
          [
            82.58931455889143,
            -225.717254743927
          ],
          [
            82.89481240744288,
            -224.89659220952782
          ],
          [
            83.63302053333544,
            -223.78936157830927
          ],
          [
            84.1866735946458,
            -223.05121083946864
          ],
          [
            85.29396151861218,
            -222.12854276922673
          ],
          [
            86.03218177694096,
            -220.65222319971525
          ],
          [
            86.9549389011976,
            -219.36045714526534
          ],
          [
            87.50857983007172,
            -218.99139534471763
          ],
          [
            88.24676369109183,
            -218.62234259008503
          ],
          [
            88.98495968454816,
            -217.88420089715947
          ],
          [
            89.72315567800449,
            -217.14605920423392
          ],
          [
            90.46135167146083,
            -216.4079175113083
          ],
          [
            91.01499866655307,
            -215.85431124161417
          ],
          [
            92.30682345644732,
            -215.11619668643385
          ],
          [
            93.04501944990365,
            -214.37805499350824
          ],
          [
            93.4141174466318,
            -214.00898414704548
          ],
          [
            94.70594223652606,
            -213.27086959186516
          ],
          [
            95.44413216376428,
            -212.7172723680861
          ],
          [
            96.36687715558469,
            -211.7945952519291
          ],
          [
            97.65870194547892,
            -211.05648069674882
          ],
          [
            99.31961259966512,
            -210.3183842333987
          ],
          [
            100.24234545904929,
            -209.76479605553467
          ],
          [
            100.98054751872375,
            -208.84210989346263
          ],
          [
            101.90328644432604,
            -208.10397724645213
          ],
          [
            103.19511730043838,
            -207.18131822212536
          ],
          [
            104.67148502247862,
            -206.44321271286015
          ],
          [
            106.14785274451881,
            -205.7051072035949
          ],
          [
            106.88604873797516,
            -204.96696551066935
          ],
          [
            107.62424473143147,
            -204.22882381774374
          ],
          [
            108.3624407248878,
            -203.4906821248182
          ],
          [
            109.46972258263608,
            -202.75255852372283
          ],
          [
            110.20791857609241,
            -202.01441683079722
          ],
          [
            110.94611456954874,
            -201.27627513787166
          ],
          [
            111.68431056300507,
            -200.5381334449461
          ],
          [
            112.60704948860737,
            -199.8000007979356
          ],
          [
            113.34525154828181,
            -198.87731463586357
          ],
          [
            114.08344754173814,
            -198.13917294293802
          ],
          [
            115.55980919756024,
            -197.58561190281927
          ],
          [
            116.48254812316254,
            -196.84747925580876
          ],
          [
            116.8516400536726,
            -196.66295287849246
          ],
          [
            118.32800777571282,
            -195.92484736922722
          ],
          [
            119.80437549775303,
            -195.18674185996204
          ],
          [
            121.28074321979325,
            -194.44863635069677
          ],
          [
            122.57256800968749,
            -193.71052179551648
          ],
          [
            124.23347866387367,
            -192.97242533216635
          ],
          [
            125.52528525511357,
            -192.78794418442547
          ],
          [
            126.63257317907997,
            -191.86527611418362
          ],
          [
            127.18622624039033,
            -191.12712537534296
          ],
          [
            128.2934959657024,
            -190.75809071254054
          ],
          [
            129.03168589294057,
            -190.20449348876141
          ],
          [
            130.13897381690697,
            -189.28182541851953
          ],
          [
            130.8771698103633,
            -188.54368372559398
          ],
          [
            132.35353753240352,
            -187.8055782163287
          ],
          [
            133.09172745964173,
            -187.25198099254965
          ],
          [
            133.82992951931618,
            -186.32929483047758
          ],
          [
            134.93721137706444,
            -185.5911712293822
          ],
          [
            135.50550177133516,
            -185.45401870255367
          ],
          [
            136.04448110237652,
            -185.22213656657976
          ],
          [
            136.96718969688825,
            -185.40672626530167
          ],
          [
            137.3362816273983,
            -185.22219988798537
          ],
          [
            137.70537355790833,
            -185.03767351066907
          ],
          [
            138.25900842056438,
            -184.85315617926784
          ],
          [
            138.62810035107444,
            -184.66862980195154
          ],
          [
            138.8126432832204,
            -184.66863884786662
          ],
          [
            139.18172308129422,
            -184.85320140884326
          ],
          [
            139.55081501180427,
            -184.66867503152696
          ],
          [
            140.10447413933275,
            -183.74597982353984
          ],
          [
            141.02721306493507,
            -183.00784717652934
          ],
          [
            141.21176206329915,
            -182.82331175329796
          ]
        ]
      },
      "properties": {
        "type": "variant",
        "id": 1,
        "color": "#ff4444",
        "vzdal_m": 2236,
        "prevyseni_m": 81,
        "cas_s": 740,
        "tempo_str": "5:31"
      }
    },
    {
      "type": "Feature",
      "geometry": {
        "type": "LineString",
        "coordinates": [
          [
            79.7573277798007,
            -232.6473061331234
          ],
          [
            80.68005457296678,
            -232.27826242440588
          ],
          [
            80.86461570376709,
            -231.72463806288155
          ],
          [
            81.60282989587776,
            -230.43286296251657
          ],
          [
            82.52556882148005,
            -229.69473031550606
          ],
          [
            84.00193654352026,
            -228.95662480624082
          ],
          [
            85.34197117393099,
            -228.3822214753535
          ],
          [
            85.47831639799671,
            -227.84943035868267
          ],
          [
            85.47832246421481,
            -227.6648858895362
          ],
          [
            85.47832853043292,
            -227.48034142038972
          ],
          [
            85.47833459665104,
            -227.29579695124323
          ],
          [
            86.03200585661573,
            -226.00401280496314
          ],
          [
            86.5856649841442,
            -225.081317596976
          ],
          [
            86.95475691465425,
            -224.8967912196597
          ],
          [
            87.69292864323813,
            -224.89682740332006
          ],
          [
            88.43110037182201,
            -224.8968635869804
          ],
          [
            88.98473523447805,
            -224.71234625557918
          ],
          [
            89.72293122793438,
            -223.97420456265363
          ],
          [
            90.27657822302662,
            -223.42059829295943
          ],
          [
            91.56839694670275,
            -222.8670282069256
          ],
          [
            93.04476466874297,
            -222.12892269766036
          ],
          [
            93.7829606621993,
            -221.3907810047348
          ],
          [
            94.33661372350966,
            -220.65263026589412
          ],
          [
            95.25935264911196,
            -219.91449761888367
          ],
          [
            95.99754257635017,
            -219.36090039510455
          ],
          [
            96.73574463602462,
            -218.4382142330325
          ],
          [
            97.65848356162691,
            -217.70008158602204
          ],
          [
            99.13485128366715,
            -216.96197607675683
          ],
          [
            100.24213314141541,
            -216.2238524756614
          ],
          [
            101.1648720670177,
            -215.48571982865093
          ],
          [
            102.08761099262001,
            -214.74758718164048
          ],
          [
            102.82580698607633,
            -214.00944548871487
          ],
          [
            103.56400297953267,
            -213.27130379578932
          ],
          [
            104.11764997462491,
            -212.71769752609512
          ],
          [
            104.30220503920711,
            -212.34861763371728
          ],
          [
            104.67129696971716,
            -212.16409125640098
          ],
          [
            105.04038890022721,
            -211.97956487908465
          ],
          [
            105.2249378985913,
            -211.79502945585327
          ],
          [
            105.40948689695539,
            -211.61049403262186
          ],
          [
            105.77857882746542,
            -211.42596765530556
          ],
          [
            106.14767075797548,
            -211.24144127798925
          ],
          [
            106.51676268848554,
            -211.05691490067298
          ],
          [
            107.25496474815998,
            -210.13422873860094
          ],
          [
            108.36224660590825,
            -209.39610513750551
          ],
          [
            109.65407139580249,
            -208.6579905823252
          ],
          [
            110.76135931976889,
            -207.73532251208334
          ],
          [
            111.4995553132252,
            -206.9971808191578
          ],
          [
            112.4222942388275,
            -206.2590481721473
          ],
          [
            113.52957609657578,
            -205.52092457105186
          ],
          [
            114.82140088647002,
            -204.78281001587158
          ],
          [
            115.55959687992636,
            -204.044668322946
          ],
          [
            116.29779287338268,
            -203.30652663002044
          ],
          [
            117.03598886683902,
            -202.56838493709486
          ],
          [
            117.77418486029534,
            -201.83024324416928
          ],
          [
            118.51238691996977,
            -200.90755708209727
          ],
          [
            119.25058291342611,
            -200.1694153891717
          ],
          [
            119.61968091015429,
            -199.80034454270887
          ],
          [
            120.35789510226495,
            -198.50856944234388
          ],
          [
            121.09609109572126,
            -197.77042774941833
          ],
          [
            122.3879158856155,
            -197.03231319423801
          ],
          [
            123.86428360765574,
            -196.29420768497278
          ],
          [
            125.34065132969593,
            -195.55610217570757
          ],
          [
            126.81701298551805,
            -195.0025411355888
          ],
          [
            127.92428877704819,
            -194.4489620036399
          ],
          [
            129.40065649908843,
            -193.71085649437467
          ],
          [
            130.5079383568367,
            -192.9727328932793
          ],
          [
            130.69248735520077,
            -192.7881974700479
          ],
          [
            131.98431214509503,
            -192.05008291486757
          ],
          [
            132.90705107069732,
            -191.31195026785713
          ],
          [
            133.4607041320077,
            -190.57379952901647
          ],
          [
            133.64525919658988,
            -190.20471963663857
          ],
          [
            133.82981426117206,
            -189.83563974426073
          ],
          [
            134.01436932575427,
            -189.46655985188283
          ],
          [
            134.19892439033643,
            -189.09747995950494
          ],
          [
            134.1989486552089,
            -188.35930208291904
          ],
          [
            134.19897292008133,
            -187.62112420633312
          ],
          [
            134.19899718495378,
            -186.8829463297472
          ],
          [
            134.75265631248226,
            -185.96025112176008
          ],
          [
            134.93720531084634,
            -185.7757156985287
          ],
          [
            135.3062972413564,
            -185.59118932121237
          ],
          [
            135.50550177133516,
            -185.45401870255367
          ],
          [
            136.04448110237652,
            -185.22213656657976
          ],
          [
            136.96718969688825,
            -185.40672626530167
          ],
          [
            137.3362816273983,
            -185.22219988798537
          ],
          [
            137.70536749169025,
            -185.22221797981555
          ],
          [
            138.25900842056438,
            -184.85315617926784
          ],
          [
            138.62810035107444,
            -184.66862980195154
          ],
          [
            138.8126432832204,
            -184.66863884786662
          ],
          [
            139.18172308129422,
            -184.85320140884326
          ],
          [
            139.55081501180427,
            -184.66867503152696
          ],
          [
            140.10447413933275,
            -183.74597982353984
          ],
          [
            141.02721306493507,
            -183.00784717652934
          ],
          [
            141.21176206329915,
            -182.82331175329796
          ]
        ]
      },
      "properties": {
        "type": "variant",
        "id": 2,
        "color": "#4444ff",
        "vzdal_m": 2248,
        "prevyseni_m": 90,
        "cas_s": 769,
        "tempo_str": "5:41"
      }
    },
    {
      "type": "Feature",
      "geometry": {
        "type": "LineString",
        "coordinates": [
          [
            79.7573277798007,
            -232.6473061331234
          ],
          [
            80.68004244053056,
            -232.64735136269883
          ],
          [
            81.60275710126042,
            -232.6473965922743
          ],
          [
            82.15638589769833,
            -232.64742373001954
          ],
          [
            83.07910055842818,
            -232.64746895959496
          ],
          [
            84.00182128537615,
            -232.46296972002392
          ],
          [
            85.47818900741636,
            -231.7248642107587
          ],
          [
            86.58547086516464,
            -230.9867406096633
          ],
          [
            87.50820979076694,
            -230.2486079626528
          ],
          [
            88.98457751280715,
            -229.5105024533876
          ],
          [
            89.76217699461867,
            -228.97592749682784
          ],
          [
            90.25258761347497,
            -229.1834114284803
          ],
          [
            91.6714983890611,
            -229.98186790483305
          ],
          [
            93.04452808623664,
            -229.326156994373
          ],
          [
            93.96726094562082,
            -228.77256881650905
          ],
          [
            94.70545087285905,
            -228.21897159272993
          ],
          [
            95.44366506496971,
            -226.92719649236494
          ],
          [
            96.55095298893607,
            -226.00452842212306
          ],
          [
            98.21186364312227,
            -225.2664319587729
          ],
          [
            99.68822529894437,
            -224.71287091865418
          ],
          [
            100.98005615505673,
            -223.7902118943274
          ],
          [
            101.9027829482228,
            -223.42116818560984
          ],
          [
            102.45641781087883,
            -223.23665085420862
          ],
          [
            103.19458953946271,
            -223.236687037869
          ],
          [
            104.11730420019256,
            -223.2367322674444
          ],
          [
            105.40913505630492,
            -222.3140732431176
          ],
          [
            106.5164169140532,
            -221.57594964202224
          ],
          [
            107.62369877180146,
            -220.8378260409268
          ],
          [
            108.17734576689372,
            -220.28421977123267
          ],
          [
            108.91554176035004,
            -219.54607807830706
          ],
          [
            109.10009075871413,
            -219.3615426550757
          ],
          [
            109.46918268922418,
            -219.1770162777594
          ],
          [
            109.65372562137016,
            -219.17702532367446
          ],
          [
            110.02281755188021,
            -218.99249894635818
          ],
          [
            110.39190948239026,
            -218.80797256904188
          ],
          [
            110.76100141290033,
            -218.62344619172558
          ],
          [
            111.13009334341035,
            -218.43891981440927
          ],
          [
            111.31464234177444,
            -218.25438439117787
          ],
          [
            111.6837342722845,
            -218.06985801386156
          ],
          [
            112.60647319788681,
            -217.33172536685106
          ],
          [
            113.34469345621557,
            -215.85540579733959
          ],
          [
            113.52924245457966,
            -215.67087037410818
          ],
          [
            113.89833438508971,
            -215.4863439967919
          ],
          [
            115.37470210712993,
            -214.7482384875267
          ],
          [
            116.48199003109632,
            -213.82557041728478
          ],
          [
            117.035661291061,
            -212.5337862710047
          ],
          [
            117.2202163556432,
            -212.16470637862685
          ],
          [
            117.95841234909952,
            -211.4265646857013
          ],
          [
            118.88115127470184,
            -210.6884320386908
          ],
          [
            119.9884331324501,
            -209.95030843759537
          ],
          [
            120.72662912590641,
            -209.21216674466982
          ],
          [
            121.46481905314465,
            -208.65856952089075
          ],
          [
            122.20302111281909,
            -207.7358833588187
          ],
          [
            122.94121710627542,
            -206.9977416658931
          ],
          [
            123.86395603187772,
            -206.2596090188826
          ],
          [
            124.60215809155217,
            -205.3369228568106
          ],
          [
            125.5249152158088,
            -204.04515680236065
          ],
          [
            126.26313547413756,
            -202.56883723284918
          ],
          [
            127.00135573246634,
            -201.0925176633377
          ],
          [
            127.73957599079512,
            -199.6161980938262
          ],
          [
            128.47777805046957,
            -198.69351193175416
          ],
          [
            129.21597404392588,
            -197.9553702388286
          ],
          [
            129.4005291085081,
            -197.5862903464507
          ],
          [
            130.13874936683686,
            -196.10997077693924
          ],
          [
            130.32330443141905,
            -195.7408908845614
          ],
          [
            130.50785949600123,
            -195.37181099218353
          ],
          [
            130.69241456058344,
            -195.00273109980563
          ],
          [
            130.69243275923776,
            -194.4490976923662
          ],
          [
            130.3233772260364,
            -193.52635725480366
          ],
          [
            130.69248735520077,
            -192.7881974700479
          ],
          [
            131.98431214509503,
            -192.05008291486757
          ],
          [
            132.90705107069732,
            -191.31195026785713
          ],
          [
            133.4607041320077,
            -190.57379952901647
          ],
          [
            133.64525919658988,
            -190.20471963663857
          ],
          [
            133.82981426117206,
            -189.83563974426073
          ],
          [
            134.01436932575427,
            -189.46655985188283
          ],
          [
            134.19892439033643,
            -189.09747995950494
          ],
          [
            134.1989486552089,
            -188.35930208291904
          ],
          [
            134.19897292008133,
            -187.62112420633312
          ],
          [
            134.19899718495378,
            -186.8829463297472
          ],
          [
            134.75265631248226,
            -185.96025112176008
          ],
          [
            134.93720531084634,
            -185.7757156985287
          ],
          [
            135.3062972413564,
            -185.59118932121237
          ],
          [
            135.50550177133516,
            -185.45401870255367
          ],
          [
            136.04448110237652,
            -185.22213656657976
          ],
          [
            136.96718969688825,
            -185.40672626530167
          ],
          [
            137.3362816273983,
            -185.22219988798537
          ],
          [
            137.70536749169025,
            -185.22221797981555
          ],
          [
            138.25900842056438,
            -184.85315617926784
          ],
          [
            138.62810035107444,
            -184.66862980195154
          ],
          [
            138.8126432832204,
            -184.66863884786662
          ],
          [
            139.18172308129422,
            -184.85320140884326
          ],
          [
            139.55081501180427,
            -184.66867503152696
          ],
          [
            140.10447413933275,
            -183.74597982353984
          ],
          [
            141.02721306493507,
            -183.00784717652934
          ],
          [
            141.21176206329915,
            -182.82331175329796
          ]
        ]
      },
      "properties": {
        "type": "variant",
        "id": 3,
        "color": "#44ff44",
        "vzdal_m": 2337,
        "prevyseni_m": 84,
        "cas_s": 776,
        "tempo_str": "5:31"
      }
    }
  ]
}