{
  "type": "FeatureCollection",
  "features": [
    {
      "type": "Feature",
      "geometry": {
        "type": "Point",
        "coordinates": [
          54.43955179019891,
          -183.34328535319838
        ]
      },
      "properties": {
        "type": "start",
        "isom": "109"
      }
    },
    {
      "type": "Feature",
      "geometry": {
        "type": "Point",
        "coordinates": [
          98.51329262802125,
          -191.8197277942129
        ]
      },
      "properties": {
        "type": "end",
        "isom": "204"
      }
    },
    {
      "type": "Feature",
      "geometry": {
        "type": "LineString",
        "coordinates": [
          [
            54.47656575603836,
            -183.37269358064682
          ],
          [
            55.39925615189577,
            -184.1109166868082
          ],
          [
            56.32197687884374,
            -183.92641744723713
          ],
          [
            57.06015467364574,
            -183.74190916175098
          ],
          [
            57.98286933437559,
            -183.74195439132643
          ],
          [
            58.72104106295948,
            -183.74199057498677
          ],
          [
            58.90558399510545,
            -183.74199962090185
          ],
          [
            59.274675925615504,
            -183.55747324358558
          ],
          [
            60.566458251982965,
            -184.1111699724306
          ],
          [
            61.85824057835043,
            -184.66486670127563
          ],
          [
            63.1500229047179,
            -185.21856343012067
          ],
          [
            63.70364563493769,
            -185.40313503701242
          ],
          [
            64.07272543301153,
            -185.58769759798906
          ],
          [
            64.44015054642028,
            -185.96254809277036
          ],
          [
            64.58964160199896,
            -186.93282380730935
          ],
          [
            65.85563304421729,
            -187.74568645230588
          ],
          [
            66.9988191362295,
            -188.39968064206457
          ],
          [
            67.64874089971549,
            -188.79591575320913
          ],
          [
            67.99912303894678,
            -189.01094627817352
          ],
          [
            68.21544592490697,
            -189.1437042544559
          ],
          [
            68.56657985535985,
            -189.3598399366077
          ],
          [
            69.04248613188658,
            -189.7999682290497
          ],
          [
            69.47749189803483,
            -189.93273758587577
          ],
          [
            69.6927802371251,
            -190.06853852140733
          ],
          [
            70.04008908074768,
            -190.2876161829362
          ],
          [
            71.06245866530551,
            -190.97008647710274
          ],
          [
            71.88888268529055,
            -191.59075708581153
          ],
          [
            72.09524919230857,
            -191.74459371580724
          ],
          [
            72.4218829262935,
            -191.98647619489753
          ],
          [
            73.22834326187957,
            -192.64817739429532
          ],
          [
            73.53822427223923,
            -192.90508003497473
          ],
          [
            74.55216805071217,
            -193.74718780244095
          ],
          [
            75.34248077335404,
            -194.41670081187794
          ],
          [
            75.56515589306963,
            -194.51368534603898
          ],
          [
            75.93182178256929,
            -194.73635567819917
          ],
          [
            76.14808324117921,
            -194.86930142755838
          ],
          [
            76.47320122989575,
            -195.1286238962469
          ],
          [
            76.8169255342399,
            -195.35217362004826
          ],
          [
            77.03685613306742,
            -195.51092571213394
          ],
          [
            77.28102938296284,
            -195.87973426022918
          ],
          [
            77.96685672936856,
            -196.59620210073757
          ],
          [
            79.33880454645353,
            -197.49570554215896
          ],
          [
            80.6432434417508,
            -198.10705657363135
          ],
          [
            81.78940408113142,
            -198.30414836066376
          ],
          [
            82.51064117501562,
            -198.36182232710755
          ],
          [
            83.26105825819464,
            -198.47796188053255
          ],
          [
            84.1875864931525,
            -198.50292871680952
          ],
          [
            84.90840870916038,
            -198.5959084040062
          ],
          [
            85.66761438118075,
            -198.594117700674
          ],
          [
            86.40406314651062,
            -198.5640220216163
          ],
          [
            87.33211358058624,
            -198.6233486290323
          ],
          [
            88.06089480023485,
            -198.7083656529817
          ],
          [
            88.77727255043646,
            -198.86178755450726
          ],
          [
            89.70949831596015,
            -198.98851382256686
          ],
          [
            90.64648302676358,
            -198.50711305001502
          ],
          [
            91.56922195236588,
            -197.76898040300452
          ],
          [
            92.49196087796818,
            -197.03084775599405
          ],
          [
            93.41469980357049,
            -196.29271510898354
          ],
          [
            94.15289579702682,
            -195.554573416058
          ],
          [
            95.07562865641101,
            -195.00098523819398
          ],
          [
            95.99837364823142,
            -194.07830812203701
          ],
          [
            96.55202670954178,
            -193.34015738319638
          ],
          [
            97.84385149943603,
            -192.60204282801607
          ],
          [
            98.58204749289234,
            -191.8639011350905
          ]
        ]
      },
      "properties": {
        "type": "variant",
        "id": 1,
        "color": "#ff4444",
        "vzdal_m": 1411,
        "prevyseni_m": 71,
        "cas_s": 448,
        "tempo_str": "5:17"
      }
    },
    {
      "type": "Feature",
      "geometry": {
        "type": "LineString",
        "coordinates": [
          [
            54.47656575603836,
            -183.37269358064682
          ],
          [
            55.583805150259856,
            -183.9263812635768
          ],
          [
            56.69108094179001,
            -183.37280213162788
          ],
          [
            58.16744866383023,
            -182.63469662236267
          ],
          [
            59.274730521578505,
            -181.89657302126724
          ],
          [
            59.643834584524775,
            -181.342957705658
          ],
          [
            60.19746944718081,
            -181.15844037425677
          ],
          [
            60.93566544063714,
            -180.42029868133122
          ],
          [
            61.30475737114719,
            -180.2357723040149
          ],
          [
            61.48930636951127,
            -180.0512368807835
          ],
          [
            62.41202103024112,
            -180.05128211035895
          ],
          [
            63.15019275882501,
            -180.0513182940193
          ],
          [
            63.888352354972675,
            -180.42044341597258
          ],
          [
            65.36468367970421,
            -180.78960472158622
          ],
          [
            66.28739227421596,
            -180.97419442030815
          ],
          [
            67.02556400279984,
            -180.9742306039685
          ],
          [
            67.76373573138373,
            -180.97426678762884
          ],
          [
            68.5019013937495,
            -181.15884744043566
          ],
          [
            69.2400791885515,
            -180.97433915494952
          ],
          [
            69.97825091713538,
            -180.97437533860986
          ],
          [
            70.71642871193738,
            -180.78986705312371
          ],
          [
            71.45459437430316,
            -180.97444770593057
          ],
          [
            72.19276610288703,
            -180.97448388959089
          ],
          [
            72.93093176525281,
            -181.15906454239774
          ],
          [
            73.6691095600548,
            -180.9745562569116
          ],
          [
            74.4072812886387,
            -180.97459244057194
          ],
          [
            75.14545301722258,
            -180.97462862423228
          ],
          [
            75.88362474580646,
            -180.97466480789262
          ],
          [
            77.17541920461015,
            -181.15927259844472
          ],
          [
            78.4671893985414,
            -182.0820582655827
          ],
          [
            79.75898385734509,
            -182.2666660561348
          ],
          [
            80.49716165214708,
            -182.08215777064865
          ],
          [
            81.23532731451284,
            -182.26673842345548
          ],
          [
            81.97349904309674,
            -182.26677460711582
          ],
          [
            82.71166470546251,
            -182.45135525992265
          ],
          [
            83.44984250026451,
            -182.2668469744365
          ],
          [
            84.18801422884839,
            -182.26688315809685
          ],
          [
            84.92618595743228,
            -182.26691934175722
          ],
          [
            85.66435768601616,
            -182.26695552541756
          ],
          [
            85.84890061816213,
            -182.26696457133264
          ],
          [
            86.25842577840352,
            -182.0892276226767
          ],
          [
            86.95616427725606,
            -182.08247437767668
          ],
          [
            88.06342187013189,
            -182.08252865316717
          ],
          [
            88.61702033547925,
            -183.00527813664485
          ],
          [
            88.6169960706068,
            -183.74345601323077
          ],
          [
            89.35514353431824,
            -184.481670073477
          ],
          [
            90.27785212882999,
            -184.66625977219894
          ],
          [
            91.75417132112531,
            -185.40451001610555
          ],
          [
            92.86140464912869,
            -186.14274216818197
          ],
          [
            93.59955211284013,
            -186.8809562284282
          ],
          [
            94.52224250869754,
            -187.61917933458957
          ],
          [
            95.44493290455496,
            -188.35740244075092
          ],
          [
            96.18306823583016,
            -189.46470543929016
          ],
          [
            96.92121569954162,
            -190.2029194995364
          ],
          [
            97.65936316325305,
            -190.94113355978266
          ],
          [
            98.39751062696449,
            -191.67934762002892
          ],
          [
            98.58204749289234,
            -191.8639011350905
          ]
        ]
      },
      "properties": {
        "type": "variant",
        "id": 2,
        "color": "#4444ff",
        "vzdal_m": 1372,
        "prevyseni_m": 69,
        "cas_s": 475,
        "tempo_str": "5:46"
      }
    },
    {
      "type": "Feature",
      "geometry": {
        "type": "LineString",
        "coordinates": [
          [
            54.47656575603836,
            -183.37269358064682
          ],
          [
            55.39925615189577,
            -184.1109166868082
          ],
          [
            56.32197687884374,
            -183.92641744723713
          ],
          [
            57.06014860742763,
            -183.92645363089747
          ],
          [
            57.98285720193937,
            -184.1110433296194
          ],
          [
            58.90556579645112,
            -184.29563302834129
          ],
          [
            59.64373752503501,
            -184.29566921200166
          ],
          [
            60.381909253618886,
            -184.295705395662
          ],
          [
            60.56645218576486,
            -184.29571444157708
          ],
          [
            61.30461178191252,
            -184.66483956353036
          ],
          [
            61.67369157998635,
            -184.84940212450704
          ],
          [
            62.04277137806018,
            -185.03396468548368
          ],
          [
            62.96547997257193,
            -185.2185543842056
          ],
          [
            63.70365170115581,
            -185.21859056786596
          ],
          [
            64.46656201201309,
            -185.22012426481834
          ],
          [
            65.17999515832358,
            -185.21866293518661
          ],
          [
            65.91816688690747,
            -185.21869911884698
          ],
          [
            66.8408754814192,
            -185.40328881756886
          ],
          [
            67.9481209418588,
            -185.77243203135234
          ],
          [
            69.23989113579006,
            -186.69521769849035
          ],
          [
            70.90075932644946,
            -187.24893251916555
          ],
          [
            72.3770785187448,
            -187.98718276307216
          ],
          [
            73.85339771104012,
            -188.72543300697876
          ],
          [
            75.32971690333544,
            -189.4636832508854
          ],
          [
            76.80603609563076,
            -190.20193349479197
          ],
          [
            77.17511589370459,
            -190.38649605576865
          ],
          [
            77.35965275963244,
            -190.57104957083024
          ],
          [
            77.72873255770628,
            -190.75561213180688
          ],
          [
            77.91326335741603,
            -191.1247101160149
          ],
          [
            77.9132451587617,
            -191.67834352345434
          ],
          [
            78.09777595847144,
            -192.04744150766237
          ],
          [
            78.28230675818119,
            -192.41653949187045
          ],
          [
            79.57407695211243,
            -193.33932515900844
          ],
          [
            80.68131028011581,
            -194.07755731108483
          ],
          [
            81.60403100706378,
            -193.89305807151382
          ],
          [
            82.34220880186578,
            -193.70854978602767
          ],
          [
            83.08037446423155,
            -193.8931304388345
          ],
          [
            83.81854619281543,
            -193.89316662249485
          ],
          [
            84.74124265489097,
            -194.44684525950973
          ],
          [
            85.66396338183893,
            -194.26234601993866
          ],
          [
            86.95578210551506,
            -193.70877593390483
          ],
          [
            88.43214982755526,
            -192.97067042463962
          ],
          [
            88.80124175806533,
            -192.7861440473233
          ],
          [
            89.17033368857538,
            -192.601617670007
          ],
          [
            89.90850541715926,
            -192.60165385366736
          ],
          [
            90.83122614410722,
            -192.4171546140963
          ],
          [
            91.56939787269111,
            -192.41719079775666
          ],
          [
            92.30756960127499,
            -192.417226981417
          ],
          [
            93.23029032822296,
            -192.23272774184596
          ],
          [
            94.33755398731691,
            -192.04823754818997
          ],
          [
            95.62936664477492,
            -191.6792119313026
          ],
          [
            96.18298937499472,
            -191.86378353819438
          ],
          [
            97.10571010194269,
            -191.67928429862332
          ],
          [
            98.02841869645444,
            -191.86387399734522
          ],
          [
            98.58204749289234,
            -191.8639011350905
          ]
        ]
      },
      "properties": {
        "type": "variant",
        "id": 3,
        "color": "#44ff44",
        "vzdal_m": 1313,
        "prevyseni_m": 71,
        "cas_s": 464,
        "tempo_str": "5:53"
      }
    }
  ]
}