{
  "type": "FeatureCollection",
  "features": [
    {
      "type": "Feature",
      "geometry": {
        "type": "Point",
        "coordinates": [
          104.38411921151116,
          -243.584836445621
        ]
      },
      "properties": {
        "type": "start",
        "isom": "109"
      }
    },
    {
      "type": "Feature",
      "geometry": {
        "type": "Point",
        "coordinates": [
          188.59538545193837,
          -88.64321089529118
        ]
      },
      "properties": {
        "type": "end",
        "isom": "417"
      }
    },
    {
      "type": "Feature",
      "geometry": {
        "type": "LineString",
        "coordinates": [
          [
            104.53485713589909,
            -243.71159433424205
          ],
          [
            104.53522589126054,
            -238.54421183071892
          ],
          [
            107.4881213764893,
            -234.85322868438675
          ],
          [
            108.2263847572995,
            -233.37683477242624
          ],
          [
            108.96464813810968,
            -231.90044086046572
          ],
          [
            108.9648588554591,
            -228.9476508584525
          ],
          [
            110.44154365509155,
            -223.78027053302154
          ],
          [
            113.39433378164559,
            -221.56568238769603
          ],
          [
            114.13264984179315,
            -219.3510909752322
          ],
          [
            116.3474926635611,
            -214.18371173884736
          ],
          [
            117.08575604437128,
            -212.70731782688682
          ],
          [
            117.08580872370864,
            -211.96912032638352
          ],
          [
            117.085861403046,
            -211.2309228258802
          ],
          [
            117.82412478385618,
            -209.7545289139197
          ],
          [
            118.56238816466639,
            -208.27813500195919
          ],
          [
            118.56259888201579,
            -205.32534499994597
          ],
          [
            118.5628095993652,
            -202.37255499793275
          ],
          [
            119.30117833885011,
            -199.41976608496557
          ],
          [
            120.03944171966029,
            -197.9433721730051
          ],
          [
            120.03959975767235,
            -195.72877967149518
          ],
          [
            117.0767046473887,
            -189.76002678381352
          ],
          [
            117.21824730851468,
            -189.03329624400524
          ],
          [
            116.34954715771777,
            -185.3940092192184
          ],
          [
            114.87354718947086,
            -180.96482203810635
          ],
          [
            113.39744186254927,
            -178.01202985800094
          ],
          [
            114.13570524335947,
            -176.5356359460404
          ],
          [
            117.08870608726292,
            -171.36825779870168
          ],
          [
            120.04165425182903,
            -166.9390771518662
          ],
          [
            122.99470777506983,
            -161.03350150402414
          ],
          [
            125.94770861897325,
            -155.8661233566854
          ],
          [
            128.90055142486466,
            -152.91333771085655
          ],
          [
            131.85339423075607,
            -149.9605520650277
          ],
          [
            133.47647351940702,
            -147.10308042488242
          ],
          [
            132.44140814453087,
            -146.84616958698206
          ],
          [
            133.3300790303885,
            -144.79317173959674
          ],
          [
            136.2829218362799,
            -141.84038609376793
          ],
          [
            139.23571196283393,
            -139.6257979484424
          ],
          [
            142.18876548607474,
            -133.72022230060034
          ],
          [
            145.14181900931555,
            -127.81464665275826
          ],
          [
            147.35660915174614,
            -123.38546491687671
          ],
          [
            149.57124125616468,
            -121.17087568250508
          ],
          [
            151.04760997977306,
            -120.43268036009397
          ],
          [
            154.00024206831503,
            -120.43268471627836
          ],
          [
            159.16750626127558,
            -118.21809983809112
          ],
          [
            162.12034906716696,
            -115.26531419226228
          ],
          [
            164.33498117158553,
            -113.05072495789065
          ],
          [
            165.0732445523957,
            -111.57433104593015
          ],
          [
            165.81150793320592,
            -110.09793713396962
          ],
          [
            167.28787665681426,
            -109.35974181155852
          ],
          [
            168.02603467894977,
            -109.3597429006046
          ],
          [
            169.50240340255812,
            -108.6215475781935
          ],
          [
            170.24061410403095,
            -107.88335116673629
          ],
          [
            171.71698282763933,
            -107.14515584432517
          ],
          [
            173.93161493205784,
            -104.93056660995354
          ],
          [
            174.66987831286806,
            -103.45417269799303
          ],
          [
            175.40814169367826,
            -101.97777878603252
          ],
          [
            176.14640507448846,
            -100.501384874072
          ],
          [
            179.09924788037983,
            -97.54859922824315
          ],
          [
            182.05209068627124,
            -94.59581358241432
          ],
          [
            186.481302215771,
            -90.90483261417438
          ],
          [
            187.2195655965812,
            -89.42843870221387
          ],
          [
            188.69593432018954,
            -88.69024337980275
          ]
        ]
      },
      "properties": {
        "type": "variant",
        "id": 1,
        "color": "#ff4444",
        "vzdal_m": 1311,
        "prevyseni_m": 12,
        "cas_s": 358,
        "tempo_str": "4:33"
      }
    },
    {
      "type": "Feature",
      "geometry": {
        "type": "LineString",
        "coordinates": [
          [
            104.53485713589909,
            -243.71159433424205
          ],
          [
            107.48780530046518,
            -239.28241368740657
          ],
          [
            108.96427938274823,
            -237.06782336398888
          ],
          [
            109.70254276355844,
            -235.59142945202834
          ],
          [
            109.70275348090783,
            -232.63863945001512
          ],
          [
            109.70291151891989,
            -230.42404694850518
          ],
          [
            111.17928024252824,
            -229.6858516260941
          ],
          [
            114.13207036908229,
            -227.47126348076858
          ],
          [
            115.68617266164978,
            -226.1914275715508
          ],
          [
            119.34103979931069,
            -226.24746009952258
          ],
          [
            123.0519826880374,
            -225.42242263430683
          ],
          [
            129.10426802564388,
            -222.7387948400135
          ],
          [
            133.63042946766674,
            -219.7550129875338
          ],
          [
            136.61539082017597,
            -216.70973868551962
          ],
          [
            139.66033420463938,
            -213.91791573482647
          ],
          [
            144.3556633580921,
            -210.42218533430054
          ],
          [
            149.4655775593096,
            -207.3731857833662
          ],
          [
            152.97361134861237,
            -205.1135199294317
          ],
          [
            153.82182588691285,
            -204.1404692813571
          ],
          [
            154.33896263087436,
            -202.39907818038333
          ],
          [
            154.4168571860368,
            -199.44369757299344
          ],
          [
            156.49561525594112,
            -195.38652049869316
          ],
          [
            156.94765890245932,
            -193.51424162229011
          ],
          [
            156.94786961980873,
            -190.56145162027687
          ],
          [
            156.20997499435998,
            -186.87046302871423
          ],
          [
            154.97523309286166,
            -183.1273889683661
          ],
          [
            153.99586968331494,
            -181.7030772580528
          ],
          [
            153.99608040066434,
            -178.75028725603957
          ],
          [
            153.99629111801374,
            -175.79749725402635
          ],
          [
            153.258396492565,
            -172.10650866246374
          ],
          [
            152.52050186711625,
            -168.4155200709011
          ],
          [
            151.04450189886936,
            -163.98633288978905
          ],
          [
            150.3066072734206,
            -160.29534429822644
          ],
          [
            150.30676531143266,
            -158.08075179671653
          ],
          [
            151.52464848999622,
            -156.10558867467617
          ],
          [
            150.78711551947146,
            -155.39627098183743
          ],
          [
            151.78339743172776,
            -153.65156897178886
          ],
          [
            154.73634559629386,
            -149.2223883249534
          ],
          [
            157.68924108152262,
            -145.53140517862127
          ],
          [
            160.64213656675136,
            -141.84042203228913
          ],
          [
            163.5950320519801,
            -138.14943888595698
          ],
          [
            167.2861382386817,
            -133.72025932816763
          ],
          [
            170.23898104457308,
            -130.7674736823388
          ],
          [
            169.50098106044965,
            -128.55288009178278
          ],
          [
            170.23924444125984,
            -127.07648617982225
          ],
          [
            170.97761318074475,
            -124.12369726685515
          ],
          [
            171.71587656155492,
            -122.64730335489462
          ],
          [
            171.71592924089228,
            -121.90910585439131
          ],
          [
            172.4541926217025,
            -120.43271194243079
          ],
          [
            172.45424530103983,
            -119.69451444192748
          ],
          [
            173.19250868185003,
            -118.21812052996698
          ],
          [
            173.93077206266025,
            -116.74172661800645
          ],
          [
            174.66903544347045,
            -115.26533270604592
          ],
          [
            177.62208896671123,
            -109.35975705820388
          ],
          [
            181.31319515341283,
            -104.93057750041453
          ],
          [
            184.26630135599098,
            -98.28680435206915
          ],
          [
            186.48103881908423,
            -94.5958201166909
          ],
          [
            187.9574602220299,
            -93.11942729377648
          ],
          [
            188.69572360284013,
            -91.64303338181597
          ],
          [
            188.69593432018954,
            -88.69024337980275
          ]
        ]
      },
      "properties": {
        "type": "variant",
        "id": 2,
        "color": "#4444ff",
        "vzdal_m": 1327,
        "prevyseni_m": 17,
        "cas_s": 372,
        "tempo_str": "4:40"
      }
    }
  ]
}