{
  "type": "FeatureCollection",
  "features": [
    {
      "type": "Feature",
      "geometry": {
        "type": "Point",
        "coordinates": [
          211.59533524755142,
          -62.04008330247322
        ]
      },
      "properties": {
        "type": "start",
        "isom": "109"
      }
    },
    {
      "type": "Feature",
      "geometry": {
        "type": "Point",
        "coordinates": [
          142.68948298544132,
          -272.8012736376771
        ]
      },
      "properties": {
        "type": "end",
        "isom": "112"
      }
    },
    {
      "type": "Feature",
      "geometry": {
        "type": "LineString",
        "coordinates": [
          [
            211.58072946253458,
            -62.11516712211272
          ],
          [
            208.6278866566432,
            -65.06795276794156
          ],
          [
            207.15130721568545,
            -68.7589380923659
          ],
          [
            207.1511491776734,
            -70.97353059387582
          ],
          [
            207.8892018411342,
            -72.44992668392854
          ],
          [
            207.8890964824595,
            -73.92632168493515
          ],
          [
            208.6271491459203,
            -75.40271777498785
          ],
          [
            208.62704378724558,
            -76.87911277599446
          ],
          [
            209.3650964507064,
            -78.35550886604717
          ],
          [
            209.3649910920317,
            -79.83190386705378
          ],
          [
            210.10304375549248,
            -81.3082999571065
          ],
          [
            208.62646431453476,
            -84.99928528153083
          ],
          [
            207.8880428957125,
            -88.69027169500127
          ],
          [
            206.4115161340921,
            -91.6430595189223
          ],
          [
            205.6732527532819,
            -93.11945343088283
          ],
          [
            205.6730420359325,
            -96.07224343289604
          ],
          [
            203.45825189350188,
            -100.50142516877759
          ],
          [
            200.50525104959846,
            -105.66880331611635
          ],
          [
            197.552250205695,
            -110.8361814634551
          ],
          [
            196.81398682488478,
            -112.31257537541563
          ],
          [
            196.07572344407458,
            -113.78896928737615
          ],
          [
            193.86103866031868,
            -116.74175602225108
          ],
          [
            190.9080904957526,
            -121.17093666908653
          ],
          [
            187.9550369725118,
            -127.0765123169286
          ],
          [
            187.2167735917016,
            -128.5529062288891
          ],
          [
            186.47851021089141,
            -130.0293001408496
          ],
          [
            185.00193076993367,
            -133.72028546527395
          ],
          [
            185.7398253953824,
            -137.4112740568366
          ],
          [
            185.739614678033,
            -140.36406405884983
          ],
          [
            185.00119325921074,
            -144.05505047232026
          ],
          [
            185.00098254186136,
            -147.00784047433348
          ],
          [
            183.5244031009036,
            -150.69882579875784
          ],
          [
            184.2623504056897,
            -153.65161688981715
          ],
          [
            184.26229772635233,
            -154.38981439032045
          ],
          [
            183.5239816662048,
            -156.60440580278427
          ],
          [
            182.04750758392174,
            -158.818996126202
          ],
          [
            179.0945067400183,
            -163.98637427354075
          ],
          [
            177.6179799783979,
            -166.9391620974618
          ],
          [
            176.8797165975877,
            -168.4155560094223
          ],
          [
            176.14129517876546,
            -172.10654242289274
          ],
          [
            176.14118982009074,
            -173.58293742389935
          ],
          [
            175.4028737599432,
            -175.79752883636317
          ],
          [
            174.2160528454368,
            -177.80333008408954
          ],
          [
            174.6919604466678,
            -180.39504200621926
          ],
          [
            175.23043564140622,
            -182.20570826427593
          ],
          [
            174.22609403269655,
            -183.4082964729444
          ],
          [
            173.64869780176343,
            -184.20702585737988
          ],
          [
            172.89578571800612,
            -185.61367306005138
          ],
          [
            172.16698325835907,
            -187.0947302819485
          ],
          [
            171.4828286156344,
            -188.57986513769822
          ],
          [
            170.65404005953744,
            -190.07376317202076
          ],
          [
            165.06713365437096,
            -192.78720746077576
          ],
          [
            161.36607820378805,
            -193.4799830531916
          ],
          [
            159.8098592739222,
            -193.95829525099887
          ],
          [
            158.2126910855656,
            -194.5320134679495
          ],
          [
            155.7837836919797,
            -196.1210674130859
          ],
          [
            154.38910773012284,
            -200.1830439606288
          ],
          [
            154.33896263087436,
            -202.39907818038333
          ],
          [
            153.82182588691285,
            -204.1404692813571
          ],
          [
            150.33476590622607,
            -206.85454745213082
          ],
          [
            147.7271783386816,
            -208.41046244580377
          ],
          [
            147.35039298993877,
            -210.49276997626689
          ],
          [
            146.61202425045389,
            -213.445558889234
          ],
          [
            146.61176085376712,
            -217.13654639175053
          ],
          [
            147.34965547921587,
            -220.82753498331317
          ],
          [
            147.34944476186647,
            -223.78032498532642
          ],
          [
            147.34928672385442,
            -225.99491748683633
          ],
          [
            146.61102334304422,
            -227.47131139879681
          ],
          [
            144.39618052127628,
            -232.6386906351817
          ],
          [
            141.44312699803547,
            -238.54426628302377
          ],
          [
            139.22828417626752,
            -243.71164551940862
          ],
          [
            140.70428414451442,
            -248.14083270052066
          ],
          [
            140.704073427165,
            -251.09362270253388
          ],
          [
            139.96565200834277,
            -254.7846091160043
          ],
          [
            140.70354663379152,
            -258.4755977075669
          ],
          [
            140.7033359164421,
            -261.4283877095802
          ],
          [
            141.44123054189086,
            -265.11937630114284
          ],
          [
            142.1791251673396,
            -268.8103648927054
          ],
          [
            143.65528317359852,
            -271.0249595723076
          ],
          [
            142.91701979278835,
            -272.50135348426807
          ]
        ]
      },
      "properties": {
        "type": "variant",
        "id": 1,
        "color": "#ff4444",
        "vzdal_m": 1611,
        "prevyseni_m": 22,
        "cas_s": 446,
        "tempo_str": "4:36"
      }
    },
    {
      "type": "Feature",
      "geometry": {
        "type": "LineString",
        "coordinates": [
          [
            211.58072946253458,
            -62.11516712211272
          ],
          [
            208.6278866566432,
            -65.06795276794156
          ],
          [
            207.15130721568545,
            -68.7589380923659
          ],
          [
            207.1511491776734,
            -70.97353059387582
          ],
          [
            207.8892018411342,
            -72.44992668392854
          ],
          [
            207.8890964824595,
            -73.92632168493515
          ],
          [
            208.6271491459203,
            -75.40271777498785
          ],
          [
            208.62704378724558,
            -76.87911277599446
          ],
          [
            209.3650964507064,
            -78.35550886604717
          ],
          [
            209.3649910920317,
            -79.83190386705378
          ],
          [
            210.10304375549248,
            -81.3082999571065
          ],
          [
            208.62646431453476,
            -84.99928528153083
          ],
          [
            207.8880428957125,
            -88.69027169500127
          ],
          [
            206.4115161340921,
            -91.6430595189223
          ],
          [
            205.6732527532819,
            -93.11945343088283
          ],
          [
            205.6730420359325,
            -96.07224343289604
          ],
          [
            204.1964099156374,
            -100.50142625782371
          ],
          [
            202.7197777953423,
            -104.93060908275135
          ],
          [
            205.67204112852284,
            -110.09799594245887
          ],
          [
            207.88630447757993,
            -113.05078921161038
          ],
          [
            207.14804109676973,
            -114.52718312357091
          ],
          [
            205.67140897647462,
            -118.95636594849854
          ],
          [
            206.40946163993542,
            -120.43276203855127
          ],
          [
            207.14735626538416,
            -124.12375063011389
          ],
          [
            207.14714554803476,
            -127.07654063212712
          ],
          [
            206.4087241292125,
            -130.76752704559757
          ],
          [
            204.9320920089174,
            -135.1967098705252
          ],
          [
            204.19372326943252,
            -138.14949878349233
          ],
          [
            204.93167057421863,
            -141.10228987455164
          ],
          [
            204.9315652155439,
            -142.57868487555828
          ],
          [
            206.4075651837908,
            -147.0078720566703
          ],
          [
            206.4073544664414,
            -149.96066205868354
          ],
          [
            205.66893304761913,
            -153.65164847215397
          ],
          [
            205.66872233026976,
            -156.60443847416718
          ],
          [
            206.40677499373055,
            -158.0808345642199
          ],
          [
            206.4066169557185,
            -160.29542706572983
          ],
          [
            207.64350206061027,
            -162.10023707421706
          ],
          [
            206.74219739723253,
            -163.46928482613077
          ],
          [
            203.20493856703663,
            -168.99476719782226
          ],
          [
            200.45943657265408,
            -175.0455361112043
          ],
          [
            199.9794932556872,
            -178.0259447333131
          ],
          [
            200.40938691869417,
            -180.97479296990178
          ],
          [
            200.50007251893595,
            -183.91778342606486
          ],
          [
            200.04844352659038,
            -186.92421192982687
          ],
          [
            199.725769228642,
            -188.50934911042572
          ],
          [
            199.0757166251714,
            -191.30660484241096
          ],
          [
            198.82831923557856,
            -194.26148958372605
          ],
          [
            199.210233172166,
            -197.1774468696799
          ],
          [
            199.31727401016764,
            -197.89976228825785
          ],
          [
            194.5931385586589,
            -201.6344696691774
          ],
          [
            190.16397970849653,
            -204.58725313691406
          ],
          [
            185.7348208583341,
            -207.5400366046507
          ],
          [
            182.78182001443065,
            -212.7074147519895
          ],
          [
            179.09081918640376,
            -215.6601993087722
          ],
          [
            175.39981835837685,
            -218.61298386555495
          ],
          [
            175.39955496169011,
            -222.3039713680715
          ],
          [
            173.1847648192595,
            -226.73315310395304
          ],
          [
            172.4465014384493,
            -228.20954701591356
          ],
          [
            169.49344791520852,
            -234.1151226637556
          ],
          [
            167.27876313145262,
            -237.06790939863055
          ],
          [
            168.01665775690137,
            -240.7588979901932
          ],
          [
            168.01649971888932,
            -242.9734904917031
          ],
          [
            167.2782363380791,
            -244.4498844036636
          ],
          [
            165.06370959233527,
            -245.1880786370286
          ],
          [
            163.58734086872693,
            -245.92627395943975
          ],
          [
            159.89628736136268,
            -249.6172560167258
          ],
          [
            156.9433391967966,
            -254.04643666356125
          ],
          [
            153.99054907024254,
            -256.26102480888676
          ],
          [
            150.29944288354093,
            -260.69020436667614
          ],
          [
            147.3464420396375,
            -265.8575825140149
          ],
          [
            144.3935992337461,
            -268.81036815984373
          ],
          [
            143.6553358529359,
            -270.2867620718043
          ],
          [
            143.65528317359852,
            -271.0249595723076
          ],
          [
            142.91701979278835,
            -272.50135348426807
          ]
        ]
      },
      "properties": {
        "type": "variant",
        "id": 2,
        "color": "#4444ff",
        "vzdal_m": 1644,
        "prevyseni_m": 20,
        "cas_s": 458,
        "tempo_str": "4:38"
      }
    },
    {
      "type": "Feature",
      "geometry": {
        "type": "LineString",
        "coordinates": [
          [
            211.58072946253458,
            -62.11516712211272
          ],
          [
            208.62783397730584,
            -65.80615026844487
          ],
          [
            206.4130965142126,
            -69.4971345038231
          ],
          [
            203.4600429909718,
            -75.40271015166516
          ],
          [
            200.50704214706835,
            -80.57008829900393
          ],
          [
            199.03056806478529,
            -82.78467862242165
          ],
          [
            198.29230468397512,
            -84.26107253438217
          ],
          [
            196.81588328102941,
            -85.73746535729659
          ],
          [
            196.0776199002192,
            -87.2138592692571
          ],
          [
            195.33935651940902,
            -88.69025318121763
          ],
          [
            192.3864610341803,
            -92.38123632754977
          ],
          [
            189.43340751093947,
            -98.28681197539181
          ],
          [
            186.4805647050481,
            -101.23959762122067
          ],
          [
            183.52766921981933,
            -104.93058076755283
          ],
          [
            180.5747737345906,
            -108.62156391388496
          ],
          [
            179.83635231576832,
            -112.3125503273554
          ],
          [
            179.83619427775628,
            -114.52714282886531
          ],
          [
            179.09793089694608,
            -116.00353674082582
          ],
          [
            175.40703542759388,
            -117.47992629660196
          ],
          [
            173.93066670398554,
            -118.21812161901306
          ],
          [
            173.19240332317534,
            -119.69451553097359
          ],
          [
            172.4539819043531,
            -123.38550194444402
          ],
          [
            169.5009283811123,
            -129.2910775922861
          ],
          [
            170.23898104457308,
            -130.7674736823388
          ],
          [
            167.2861382386817,
            -133.72025932816763
          ],
          [
            163.59508473131746,
            -137.41124138545368
          ],
          [
            160.64224192542605,
            -140.36402703128252
          ],
          [
            157.6893464401973,
            -144.05501017761466
          ],
          [
            154.73639827563122,
            -148.4841908244501
          ],
          [
            151.78339743172776,
            -153.65156897178886
          ],
          [
            151.04513405091757,
            -155.12796288374938
          ],
          [
            148.83044926716167,
            -158.0807496186243
          ],
          [
            149.56850193062246,
            -159.557145708677
          ],
          [
            149.56829121327306,
            -162.50993571069026
          ],
          [
            150.3062911973965,
            -164.7245293012463
          ],
          [
            151.0443438608573,
            -166.200925391299
          ],
          [
            151.78223848630603,
            -169.8919139828616
          ],
          [
            151.78213312763134,
            -171.36830898386822
          ],
          [
            152.52018579109216,
            -172.84470507392095
          ],
          [
            152.5200277530801,
            -175.05929757543086
          ],
          [
            153.2580804165409,
            -176.53569366548356
          ],
          [
            153.2579750578662,
            -178.01208866649017
          ],
          [
            153.99602772132698,
            -179.48848475654287
          ],
          [
            153.99586968331494,
            -181.7030772580528
          ],
          [
            154.73392234677573,
            -183.17947334810552
          ],
          [
            155.47186965156183,
            -186.13226443916483
          ],
          [
            155.47165893421243,
            -189.08505444117807
          ],
          [
            156.20971159767322,
            -190.56145053123078
          ],
          [
            156.94765890245932,
            -193.51424162229011
          ],
          [
            156.20939552164913,
            -194.9906355342506
          ],
          [
            154.73276340135402,
            -199.41981835917827
          ],
          [
            153.9943946618691,
            -202.3726072721454
          ],
          [
            153.2561312810589,
            -203.8490011841059
          ],
          [
            150.3032884751675,
            -206.80178682993474
          ],
          [
            148.088656370749,
            -209.01637606430637
          ],
          [
            147.35039298993877,
            -210.49276997626689
          ],
          [
            147.3501822725894,
            -213.4455599782801
          ],
          [
            147.34986619656527,
            -217.87474498129995
          ],
          [
            147.34965547921587,
            -220.82753498331317
          ],
          [
            147.34944476186647,
            -223.78032498532642
          ],
          [
            147.34928672385442,
            -225.99491748683633
          ],
          [
            146.61102334304422,
            -227.47131139879681
          ],
          [
            146.61081262569482,
            -230.42410140081006
          ],
          [
            146.61060190834542,
            -233.37689140282328
          ],
          [
            145.87218048952317,
            -237.06787781629373
          ],
          [
            144.39544301055335,
            -242.97345564222798
          ],
          [
            143.65717962974315,
            -244.44984955418852
          ],
          [
            142.18070554746012,
            -246.6644398776062
          ],
          [
            141.4424421666499,
            -248.14083378956676
          ],
          [
            140.70402074782766,
            -251.83182020303718
          ],
          [
            139.9655993290054,
            -255.5228066165076
          ],
          [
            140.70349395445416,
            -259.2137952080702
          ],
          [
            140.70328323710476,
            -262.1665852100835
          ],
          [
            141.44123054189086,
            -265.11937630114284
          ],
          [
            142.1791251673396,
            -268.8103648927054
          ],
          [
            143.65528317359852,
            -271.0249595723076
          ],
          [
            142.91701979278835,
            -272.50135348426807
          ]
        ]
      },
      "properties": {
        "type": "variant",
        "id": 3,
        "color": "#44ff44",
        "vzdal_m": 1621,
        "prevyseni_m": 19,
        "cas_s": 464,
        "tempo_str": "4:46"
      }
    }
  ]
}