{
  "type": "FeatureCollection",
  "features": [
    {
      "type": "Feature",
      "geometry": {
        "type": "Point",
        "coordinates": [
          199.16405053177613,
          -81.50619218752308
        ]
      },
      "properties": {
        "type": "start",
        "isom": "109"
      }
    },
    {
      "type": "Feature",
      "geometry": {
        "type": "Point",
        "coordinates": [
          166.23013932995923,
          -137.96337463868113
        ]
      },
      "properties": {
        "type": "end",
        "isom": "204"
      }
    },
    {
      "type": "Feature",
      "geometry": {
        "type": "LineString",
        "coordinates": [
          [
            199.1615731108772,
            -81.5112386092184
          ],
          [
            198.60790791713063,
            -82.618478286352
          ],
          [
            198.60788365225818,
            -83.35665616293791
          ],
          [
            198.42332858767594,
            -83.72573605531579
          ],
          [
            198.05420632607536,
            -84.83298477836449
          ],
          [
            198.0541820612029,
            -85.5711626549504
          ],
          [
            198.05415779633046,
            -86.30934053153631
          ],
          [
            198.05413353145804,
            -87.04751840812223
          ],
          [
            198.05412746523993,
            -87.2320628772687
          ],
          [
            197.8695724006577,
            -87.60114276964659
          ],
          [
            197.68502340229364,
            -87.78567819287797
          ],
          [
            197.31593147178359,
            -87.97020457019427
          ],
          [
            197.1313764072014,
            -88.33928446257215
          ],
          [
            196.9468213426192,
            -88.70836435495002
          ],
          [
            196.20860715050853,
            -90.00013945531502
          ],
          [
            195.83948488890792,
            -91.10738817836372
          ],
          [
            195.65493589054384,
            -91.29192360159512
          ],
          [
            195.2858439600338,
            -91.47644997891142
          ],
          [
            194.91675202952374,
            -91.66097635622772
          ],
          [
            194.36309290199526,
            -92.58367156421485
          ],
          [
            194.17853783741305,
            -92.95275145659272
          ],
          [
            193.62486657744836,
            -94.24453560287282
          ],
          [
            192.8866463191196,
            -95.72085517238429
          ],
          [
            192.88662205424714,
            -96.4590330489702
          ],
          [
            192.8865977893747,
            -97.19721092555612
          ],
          [
            192.88657352450227,
            -97.93538880214203
          ],
          [
            192.70201845992005,
            -98.30446869451993
          ],
          [
            192.51746339533787,
            -98.67354858689778
          ],
          [
            192.51743913046542,
            -99.4117264634837
          ],
          [
            192.14831686886484,
            -100.51897518653239
          ],
          [
            191.7791946072642,
            -101.62622390958109
          ],
          [
            191.04098648137165,
            -102.73345454079961
          ],
          [
            190.302772289261,
            -104.02522964116461
          ],
          [
            189.38002123122249,
            -105.13245122646806
          ],
          [
            188.6418009728937,
            -106.60877079597955
          ],
          [
            187.9035807145649,
            -108.08509036549103
          ],
          [
            187.16536045623613,
            -109.56140993500252
          ],
          [
            186.61168919627144,
            -110.8531940812826
          ],
          [
            186.24257300088894,
            -111.7758983351848
          ],
          [
            186.05801793630675,
            -112.1449782275627
          ],
          [
            185.87346287172454,
            -112.51405811994056
          ],
          [
            185.68890780714236,
            -112.88313801231843
          ],
          [
            185.50435274256017,
            -113.2522179046963
          ],
          [
            185.31979767797796,
            -113.62129779707416
          ],
          [
            184.58160168452164,
            -114.35943948999974
          ],
          [
            183.28977689462738,
            -115.09755404518006
          ],
          [
            182.3670379690251,
            -115.83568669219052
          ],
          [
            181.25975611127683,
            -116.57381029328592
          ],
          [
            180.33703538432886,
            -116.75830953285698
          ],
          [
            179.5283720724145,
            -117.47190657999083
          ],
          [
            179.13834287304007,
            -118.58001681971247
          ],
          [
            178.68093418818532,
            -119.87608779582524
          ],
          [
            177.7533008774868,
            -120.81816121126829
          ],
          [
            177.01508668537613,
            -122.10993631163329
          ],
          [
            176.83053162079395,
            -122.47901620401116
          ],
          [
            176.64597655621176,
            -122.84809609638904
          ],
          [
            176.46141542541145,
            -123.40172045791338
          ],
          [
            176.27686036082926,
            -123.77080035029125
          ],
          [
            176.09230529624708,
            -124.13988024266912
          ],
          [
            175.5386583011548,
            -124.6934865123633
          ],
          [
            175.1695663706448,
            -124.87801288967961
          ],
          [
            174.4313582447522,
            -125.98524352089812
          ],
          [
            173.69313798642344,
            -127.46156309040963
          ],
          [
            173.32400965860472,
            -128.75335628260478
          ],
          [
            172.4012646667843,
            -129.67603339876175
          ],
          [
            171.47850147630956,
            -131.15234392235814
          ],
          [
            170.92484841499922,
            -131.8904946611988
          ],
          [
            170.18665242154287,
            -132.62863635412435
          ],
          [
            169.44845642808656,
            -133.36677804704993
          ],
          [
            168.34117457033827,
            -134.10490164814533
          ],
          [
            167.7875154428098,
            -135.02759685613248
          ],
          [
            167.41839924742732,
            -135.95030111003467
          ],
          [
            167.2338502490632,
            -136.13483653326608
          ],
          [
            167.04929518448102,
            -136.50391642564395
          ],
          [
            166.31107492615226,
            -137.98023599515543
          ]
        ]
      },
      "properties": {
        "type": "variant",
        "id": 1,
        "color": "#ff4444",
        "vzdal_m": 1839,
        "prevyseni_m": 16,
        "cas_s": 530,
        "tempo_str": "4:48"
      }
    },
    {
      "type": "Feature",
      "geometry": {
        "type": "LineString",
        "coordinates": [
          [
            199.1615731108772,
            -81.5112386092184
          ],
          [
            197.68521145505508,
            -82.06479964933715
          ],
          [
            196.76247859567093,
            -82.61838782720115
          ],
          [
            196.02426440356024,
            -83.91016292756615
          ],
          [
            195.2860684101039,
            -84.64830462049171
          ],
          [
            195.1015133455217,
            -85.01738451286958
          ],
          [
            194.36331735206537,
            -85.75552620579515
          ],
          [
            193.62512135860902,
            -86.49366789872073
          ],
          [
            193.44056629402684,
            -86.86274779109858
          ],
          [
            193.25601122944468,
            -87.23182768347645
          ],
          [
            192.8869192989346,
            -87.41635406079277
          ],
          [
            192.7023642343524,
            -87.78543395317064
          ],
          [
            192.7023581681343,
            -87.96997842231711
          ],
          [
            192.5178031035521,
            -88.33905831469498
          ],
          [
            192.5177909711159,
            -88.70814725298794
          ],
          [
            192.3332359065337,
            -89.07722714536582
          ],
          [
            192.14868690816962,
            -89.2617625685972
          ],
          [
            191.9641318435874,
            -89.63084246097507
          ],
          [
            191.77958284522336,
            -89.81537788420647
          ],
          [
            191.59502778064112,
            -90.18445777658434
          ],
          [
            190.85684391962104,
            -90.55351053121696
          ],
          [
            190.67229492125693,
            -90.73804595444834
          ],
          [
            190.48773985667478,
            -91.10712584682622
          ],
          [
            190.11864792616473,
            -91.29165222414252
          ],
          [
            189.38045193270838,
            -92.02979391706809
          ],
          [
            188.6422498730339,
            -92.95248007914013
          ],
          [
            187.90403568092324,
            -94.24425517950513
          ],
          [
            187.350388685831,
            -94.79786144919933
          ],
          [
            187.1658336212488,
            -95.1669413415772
          ],
          [
            186.9812785566666,
            -95.53602123395507
          ],
          [
            186.42760729670192,
            -96.82780538023515
          ],
          [
            186.2430340334654,
            -97.75051868005245
          ],
          [
            186.05846077022886,
            -98.67323197986977
          ],
          [
            185.68933850862825,
            -99.78048070291847
          ],
          [
            185.6893203099739,
            -100.3341141103579
          ],
          [
            185.13564905000922,
            -101.62589825663798
          ],
          [
            184.39742879168045,
            -103.10221782614947
          ],
          [
            184.21287372709827,
            -103.47129771852734
          ],
          [
            183.4746534687695,
            -104.94761728803881
          ],
          [
            182.7364332104407,
            -106.4239368575503
          ],
          [
            182.73640894556826,
            -107.16211473413621
          ],
          [
            182.36728668396765,
            -108.26936345718491
          ],
          [
            182.18273161938546,
            -108.63844334956278
          ],
          [
            181.99817655480328,
            -109.00752324194066
          ],
          [
            181.62905429320267,
            -110.11477196498936
          ],
          [
            181.44449922862046,
            -110.48385185736723
          ],
          [
            181.44449316240235,
            -110.6683963265137
          ],
          [
            181.25991989916582,
            -111.591109626331
          ],
          [
            181.07535876836553,
            -112.14473398785535
          ],
          [
            180.89080370378332,
            -112.51381388023322
          ],
          [
            180.8907794389109,
            -113.25199175681914
          ],
          [
            180.70620617567437,
            -114.17470505663645
          ],
          [
            180.33708391407373,
            -115.28195377968515
          ],
          [
            179.96396132285105,
            -116.40056894292583
          ],
          [
            179.5283720724145,
            -117.47190657999083
          ],
          [
            179.13834287304007,
            -118.58001681971247
          ],
          [
            178.9026142525675,
            -119.48945351738656
          ],
          [
            178.5524517975201,
            -120.61906188084721
          ],
          [
            178.4337013522292,
            -121.53712307328392
          ],
          [
            178.36435219297186,
            -122.29454691929803
          ],
          [
            178.5232975274932,
            -123.01244076972236
          ],
          [
            178.96849812903798,
            -123.7433713204347
          ],
          [
            179.12888296128887,
            -124.1172465895414
          ],
          [
            179.22363481276543,
            -124.50200232551114
          ],
          [
            179.23841295901948,
            -124.87786362320735
          ],
          [
            179.22578705595578,
            -125.61610274755027
          ],
          [
            179.18098277426208,
            -126.35162114253676
          ],
          [
            179.10459622922548,
            -127.06728583391967
          ],
          [
            178.93975352439608,
            -127.98606257693513
          ],
          [
            178.7781352286882,
            -128.4561406572464
          ],
          [
            178.57327499044487,
            -128.7821908745767
          ],
          [
            177.8115568708046,
            -129.71835969363627
          ],
          [
            177.00524403215968,
            -130.38564662102775
          ],
          [
            176.61658624324946,
            -130.96388770544752
          ],
          [
            176.49799740289595,
            -131.533540681145
          ],
          [
            176.41096592828123,
            -131.88658400045588
          ],
          [
            176.24455050641225,
            -132.34733431437397
          ],
          [
            175.96872573952737,
            -132.73885388752902
          ],
          [
            174.61565852817375,
            -133.36703133267235
          ],
          [
            173.69291960257144,
            -134.10516397968286
          ],
          [
            172.4010948126772,
            -134.84327853486315
          ],
          [
            171.47835588707488,
            -135.58141118187362
          ],
          [
            170.18652503096254,
            -136.50407020620042
          ],
          [
            168.71015730892233,
            -137.24217571546563
          ],
          [
            167.78743658197436,
            -137.42667495503667
          ],
          [
            167.04925878717236,
            -137.61118324052282
          ],
          [
            166.31107492615226,
            -137.98023599515543
          ]
        ]
      },
      "properties": {
        "type": "variant",
        "id": 2,
        "color": "#4444ff",
        "vzdal_m": 1903,
        "prevyseni_m": 18,
        "cas_s": 541,
        "tempo_str": "4:44"
      }
    },
    {
      "type": "Feature",
      "geometry": {
        "type": "LineString",
        "coordinates": [
          [
            199.1615731108772,
            -81.5112386092184
          ],
          [
            197.68521145505508,
            -82.06479964933715
          ],
          [
            196.76247859567093,
            -82.61838782720115
          ],
          [
            196.02426440356024,
            -83.91016292756615
          ],
          [
            195.2860684101039,
            -84.64830462049171
          ],
          [
            195.1015133455217,
            -85.01738451286958
          ],
          [
            194.36331735206537,
            -85.75552620579515
          ],
          [
            193.62511529239094,
            -86.6782123678672
          ],
          [
            193.44056022780873,
            -87.04729226024507
          ],
          [
            192.5178395008608,
            -87.23179149981611
          ],
          [
            191.7796677722769,
            -87.23175531615578
          ],
          [
            191.41058190798495,
            -87.2317372243256
          ],
          [
            191.0414899774749,
            -87.41626360164192
          ],
          [
            190.67239804696484,
            -87.6007899789582
          ],
          [
            190.3033061164548,
            -87.78531635627452
          ],
          [
            188.82693839441455,
            -88.52342186553975
          ],
          [
            187.7196565366663,
            -89.26154546663514
          ],
          [
            186.61237467891803,
            -89.99966906773054
          ],
          [
            185.87416655302547,
            -91.10689969894905
          ],
          [
            185.68959328978892,
            -92.02961299876637
          ],
          [
            184.95137909767826,
            -93.32138809913137
          ],
          [
            185.1358977649518,
            -94.05957502163237
          ],
          [
            184.95132450171525,
            -94.98228832144967
          ],
          [
            184.58223257120522,
            -95.16681469876599
          ],
          [
            184.397677506623,
            -95.53589459114386
          ],
          [
            183.65945724829425,
            -97.01221416065533
          ],
          [
            182.92123698996548,
            -98.48853373016682
          ],
          [
            182.18301673163668,
            -99.96485329967828
          ],
          [
            181.44481467196226,
            -100.88753946175035
          ],
          [
            180.89114947821568,
            -101.99477913888394
          ],
          [
            180.70657014876102,
            -103.10203690784775
          ],
          [
            180.15290495501444,
            -104.20927658498135
          ],
          [
            179.59923369504975,
            -105.50106073126143
          ],
          [
            179.04556243508506,
            -106.79284487754154
          ],
          [
            178.67644017348445,
            -107.90009360059022
          ],
          [
            178.30731791188384,
            -109.00734232363892
          ],
          [
            177.75364665191915,
            -110.29912646991903
          ],
          [
            177.75364058570105,
            -110.4836709390655
          ],
          [
            177.56908552111884,
            -110.85275083144337
          ],
          [
            177.56907338868263,
            -111.22183976973633
          ],
          [
            177.38451832410044,
            -111.5909196621142
          ],
          [
            177.19996932573636,
            -111.77545508534558
          ],
          [
            177.01541426115415,
            -112.14453497772345
          ],
          [
            176.4617672660619,
            -112.69814124741764
          ],
          [
            176.27721220147973,
            -113.0672211397955
          ],
          [
            176.16719725657435,
            -113.50229420845409
          ],
          [
            175.90809600609722,
            -113.98992539369772
          ],
          [
            175.35444901100496,
            -114.54353166339192
          ],
          [
            175.16989394642277,
            -114.91261155576979
          ],
          [
            174.61624088511243,
            -115.65076229461043
          ],
          [
            174.43168582053022,
            -116.0198421869883
          ],
          [
            174.4316797543121,
            -116.20438665613477
          ],
          [
            174.2471246897299,
            -116.57346654851264
          ],
          [
            174.24710042485748,
            -117.31164442509855
          ],
          [
            174.06252716162095,
            -118.23435772491585
          ],
          [
            173.87795996460252,
            -118.9725265555867
          ],
          [
            173.6933806351479,
            -120.07978432455049
          ],
          [
            173.5088255705657,
            -120.44886421692836
          ],
          [
            173.32427050598352,
            -120.81794410930623
          ],
          [
            172.58605024765473,
            -122.29426367881771
          ],
          [
            171.84782998932596,
            -123.77058324832919
          ],
          [
            171.47870772772535,
            -124.87783197137787
          ],
          [
            170.74048140317845,
            -126.53869601003585
          ],
          [
            170.1868162094319,
            -127.64593568716944
          ],
          [
            169.81770001404936,
            -128.5686399410717
          ],
          [
            169.44857168623065,
            -129.86043313326687
          ],
          [
            169.4485413551401,
            -130.78315547899925
          ],
          [
            169.07942515975762,
            -131.70585973290144
          ],
          [
            168.34121096764696,
            -132.99763483326646
          ],
          [
            167.97208263982822,
            -134.28942802546163
          ],
          [
            167.6029664444457,
            -135.21213227936386
          ],
          [
            167.41839924742732,
            -135.95030111003467
          ],
          [
            167.2338502490632,
            -136.13483653326608
          ],
          [
            167.04928911826292,
            -136.68846089479044
          ],
          [
            166.31107492615226,
            -137.98023599515543
          ]
        ]
      },
      "properties": {
        "type": "variant",
        "id": 3,
        "color": "#44ff44",
        "vzdal_m": 1866,
        "prevyseni_m": 16,
        "cas_s": 550,
        "tempo_str": "4:54"
      }
    }
  ]
}