{
  "type": "FeatureCollection",
  "features": [
    {
      "type": "Feature",
      "geometry": {
        "type": "Point",
        "coordinates": [
          92.3565833746957,
          -217.3485670332095
        ]
      },
      "properties": {
        "type": "start",
        "isom": "204"
      }
    },
    {
      "type": "Feature",
      "geometry": {
        "type": "Point",
        "coordinates": [
          158.15689411878031,
          -226.9997772916705
        ]
      },
      "properties": {
        "type": "end",
        "isom": "419"
      }
    },
    {
      "type": "Feature",
      "geometry": {
        "type": "LineString",
        "coordinates": [
          [
            92.27548852939375,
            -217.41856925448457
          ],
          [
            93.01364812554142,
            -217.78769437643783
          ],
          [
            93.93636885248938,
            -217.60319513686682
          ],
          [
            94.67454058107326,
            -217.60323132052713
          ],
          [
            95.41271230965715,
            -217.60326750418747
          ],
          [
            96.88903150195249,
            -218.34151774809408
          ],
          [
            98.18081382831994,
            -218.89521447693912
          ],
          [
            99.65713302061528,
            -219.63346472084572
          ],
          [
            100.39529261676293,
            -220.00258984279904
          ],
          [
            100.76437241483676,
            -220.18715240377566
          ],
          [
            102.24069160713209,
            -220.9254026476823
          ],
          [
            103.16340020164384,
            -221.1099923464042
          ],
          [
            104.08610879615557,
            -221.2945820451261
          ],
          [
            105.37787899008683,
            -222.2173677122641
          ],
          [
            107.03874718074623,
            -222.77108253293932
          ],
          [
            107.96145577525796,
            -222.95567223166123
          ],
          [
            108.69962750384185,
            -222.95570841532157
          ],
          [
            109.62233609835359,
            -223.14029811404347
          ],
          [
            110.54504469286533,
            -223.32488781276538
          ],
          [
            111.65231441817738,
            -222.95585314996296
          ],
          [
            112.3904982791975,
            -222.58680039533036
          ],
          [
            112.75959020970755,
            -222.40227401801405
          ],
          [
            113.12868214021759,
            -222.21774764069772
          ],
          [
            113.86685386880148,
            -222.21778382435807
          ],
          [
            115.15863012895085,
            -222.9560250223496
          ],
          [
            116.08132659102635,
            -223.50970365936445
          ],
          [
            116.63494932124615,
            -223.69427526625623
          ],
          [
            117.55767004819413,
            -223.50977602668516
          ],
          [
            118.2958357105599,
            -223.69435667949196
          ],
          [
            118.66492157485185,
            -223.69437477132212
          ],
          [
            119.03400137292567,
            -223.8789373322988
          ],
          [
            119.77217310150955,
            -223.87897351595913
          ],
          [
            120.69488169602131,
            -224.06356321468104
          ],
          [
            121.4330534246052,
            -224.0635993983414
          ],
          [
            122.17122515318908,
            -224.06363558200175
          ],
          [
            122.90939688177296,
            -224.06367176566206
          ],
          [
            123.46302567821088,
            -224.06369890340736
          ],
          [
            124.38574640515883,
            -223.87919966383632
          ],
          [
            124.7548383356689,
            -223.69467328652001
          ],
          [
            125.49300399803467,
            -223.87925393932682
          ],
          [
            126.23118179283667,
            -223.69474565384067
          ],
          [
            127.33843938571249,
            -223.69479992933123
          ],
          [
            128.07661111429638,
            -223.69483611299154
          ],
          [
            128.81478284288025,
            -223.69487229665188
          ],
          [
            129.36841770553627,
            -223.51035496525066
          ],
          [
            130.10658943412017,
            -223.51039114891103
          ],
          [
            130.29113236626614,
            -223.51040019482613
          ],
          [
            131.0292919624138,
            -223.8795253167794
          ],
          [
            131.39837176048763,
            -224.06408787775607
          ],
          [
            131.76745155856148,
            -224.2486504387327
          ],
          [
            132.13653135663532,
            -224.43321299970935
          ],
          [
            133.6963904339302,
            -225.1260145521266
          ],
          [
            134.72009600937022,
            -225.54060645739943
          ],
          [
            135.64280460388198,
            -225.72519615612134
          ],
          [
            136.38098239868395,
            -225.54068787063522
          ],
          [
            137.11914806104974,
            -225.72526852344203
          ],
          [
            137.8573197896336,
            -225.72530470710237
          ],
          [
            139.33363898192894,
            -226.463554951009
          ],
          [
            140.80995817422428,
            -227.20180519491558
          ],
          [
            141.91720363466388,
            -227.57094840869908
          ],
          [
            143.20898596103135,
            -228.12464513754412
          ],
          [
            144.13169455554308,
            -228.30923483626603
          ],
          [
            145.42347688191055,
            -228.86293156511107
          ],
          [
            146.16165467671254,
            -228.67842327962492
          ],
          [
            146.53073447478639,
            -228.86298584060154
          ],
          [
            147.26890620337028,
            -228.8630220242619
          ],
          [
            147.45344913551625,
            -228.86303107017702
          ],
          [
            147.6379920676622,
            -228.8630401160921
          ],
          [
            148.00707793195414,
            -228.86305820792225
          ],
          [
            148.37615773002798,
            -229.04762076889892
          ],
          [
            148.74524966053804,
            -228.86309439158262
          ],
          [
            149.11434159104806,
            -228.67856801426632
          ],
          [
            149.48342138912193,
            -228.86313057524293
          ],
          [
            149.66797038748598,
            -228.67859515201158
          ],
          [
            150.03706231799603,
            -228.49406877469528
          ],
          [
            150.4061542485061,
            -228.30954239737898
          ],
          [
            150.959783044944,
            -228.3095695351242
          ],
          [
            151.32887497545406,
            -228.1250431578079
          ],
          [
            152.25159570240203,
            -227.94054391823687
          ],
          [
            152.80522449883995,
            -227.9405710559821
          ],
          [
            153.1743103631319,
            -227.9405891478123
          ],
          [
            153.9125002903701,
            -227.3869919240332
          ],
          [
            154.28159222088016,
            -227.2024655467169
          ],
          [
            155.57339274590197,
            -227.2025288681225
          ],
          [
            156.6806564049959,
            -227.01803867446654
          ],
          [
            157.7879018654355,
            -227.38718188825
          ],
          [
            158.15699379594557,
            -227.2026555109337
          ],
          [
            158.15699986216367,
            -227.01811104178725
          ]
        ]
      },
      "properties": {
        "type": "variant",
        "id": 1,
        "color": "#ff4444",
        "vzdal_m": 1903,
        "prevyseni_m": 17,
        "cas_s": 563,
        "tempo_str": "4:55"
      }
    },
    {
      "type": "Feature",
      "geometry": {
        "type": "LineString",
        "coordinates": [
          [
            92.27548852939375,
            -217.41856925448457
          ],
          [
            93.01364812554142,
            -217.78769437643783
          ],
          [
            93.93636885248938,
            -217.60319513686682
          ],
          [
            94.67454058107326,
            -217.60323132052713
          ],
          [
            95.41271230965715,
            -217.60326750418747
          ],
          [
            96.88903150195249,
            -218.34151774809408
          ],
          [
            98.18081382831994,
            -218.89521447693912
          ],
          [
            99.65713302061528,
            -219.63346472084572
          ],
          [
            100.39529261676293,
            -220.00258984279904
          ],
          [
            100.76437241483676,
            -220.18715240377566
          ],
          [
            101.31798301262035,
            -220.74081294896038
          ],
          [
            101.68706281069417,
            -220.92537550993706
          ],
          [
            102.056142608768,
            -221.1099380709137
          ],
          [
            102.42522240684184,
            -221.29450063189032
          ],
          [
            102.79430220491567,
            -221.47906319286696
          ],
          [
            103.71699260077308,
            -222.2172862990283
          ],
          [
            104.82422592877646,
            -222.95551845110475
          ],
          [
            105.74691632463387,
            -223.6937415572661
          ],
          [
            107.0386865185651,
            -224.61652722440408
          ],
          [
            108.33046884493258,
            -225.17022395324912
          ],
          [
            109.25317743944431,
            -225.35481365197103
          ],
          [
            110.17588603395606,
            -225.53940335069294
          ],
          [
            111.09858249603158,
            -226.09308198770785
          ],
          [
            112.759450686691,
            -226.64679680838304
          ],
          [
            114.05123301305845,
            -227.20049353722808
          ],
          [
            114.9739416075702,
            -227.38508323595
          ],
          [
            115.71211333615408,
            -227.3851194196103
          ],
          [
            116.45028506473797,
            -227.38515560327068
          ],
          [
            117.55753052517757,
            -227.75429881705418
          ],
          [
            118.4802391196893,
            -227.93888851577606
          ],
          [
            119.2184108482732,
            -227.93892469943643
          ],
          [
            119.95658257685707,
            -227.93896088309674
          ],
          [
            120.5102053070769,
            -228.1235324899885
          ],
          [
            121.61746289995273,
            -228.123586765479
          ],
          [
            122.72470836039233,
            -228.4927299792625
          ],
          [
            123.4628800889762,
            -228.49276616292283
          ],
          [
            124.38558868348795,
            -228.67735586164474
          ],
          [
            125.30829727799969,
            -228.86194556036665
          ],
          [
            126.41553060600309,
            -229.60017771244307
          ],
          [
            127.7073493296792,
            -229.04660762640924
          ],
          [
            128.4455210582631,
            -229.04664381006958
          ],
          [
            129.36824178521107,
            -228.86214457049854
          ],
          [
            130.2909503797228,
            -229.04673426922048
          ],
          [
            131.21365897423453,
            -229.2313239679424
          ],
          [
            131.95183070281843,
            -229.2313601516027
          ],
          [
            132.87453929733016,
            -229.41594985032464
          ],
          [
            133.61269889347784,
            -229.78507497227793
          ],
          [
            134.53541962042578,
            -229.60057573270686
          ],
          [
            135.45812821493755,
            -229.7851654314288
          ],
          [
            136.86699943314238,
            -230.56375263079423
          ],
          [
            137.8571560017446,
            -230.70800537405728
          ],
          [
            138.5953277303285,
            -230.70804155771765
          ],
          [
            139.33349945891237,
            -230.708077741378
          ],
          [
            140.07167118749626,
            -230.70811392503833
          ],
          [
            140.80984291608016,
            -230.70815010869867
          ],
          [
            141.54801464466405,
            -230.70818629235904
          ],
          [
            142.47072323917578,
            -230.89277599108092
          ],
          [
            143.20889496775968,
            -230.8928121747413
          ],
          [
            144.1316035622714,
            -231.0774018734632
          ],
          [
            144.8697752908553,
            -231.07743805712354
          ],
          [
            145.60794701943917,
            -231.07747424078386
          ],
          [
            146.89972934580666,
            -231.6311709696289
          ],
          [
            147.82245007275463,
            -231.44667173005786
          ],
          [
            148.19153593704658,
            -231.44668982188804
          ],
          [
            148.5606339337747,
            -231.07761897542525
          ],
          [
            148.74517686592068,
            -231.07762802134036
          ],
          [
            148.92971979806666,
            -231.07763706725544
          ],
          [
            149.66789152665055,
            -231.07767325091578
          ],
          [
            150.7751612519626,
            -230.70863858811333
          ],
          [
            151.51335724541892,
            -229.97049689518778
          ],
          [
            152.43609617102123,
            -229.23236424817728
          ],
          [
            153.17428609825944,
            -228.6787670243982
          ],
          [
            153.7279330933517,
            -228.125160754704
          ],
          [
            154.09702502386176,
            -227.9406343773877
          ],
          [
            155.01974575080973,
            -227.75613513781667
          ],
          [
            156.127027608558,
            -227.01801153672127
          ],
          [
            156.86519933714186,
            -227.01804772038165
          ],
          [
            157.7879018654355,
            -227.38718188825
          ],
          [
            158.15699379594557,
            -227.2026555109337
          ],
          [
            158.15699986216367,
            -227.01811104178725
          ]
        ]
      },
      "properties": {
        "type": "variant",
        "id": 2,
        "color": "#4444ff",
        "vzdal_m": 1935,
        "prevyseni_m": 20,
        "cas_s": 559,
        "tempo_str": "4:48"
      }
    },
    {
      "type": "Feature",
      "geometry": {
        "type": "LineString",
        "coordinates": [
          [
            92.27548852939375,
            -217.41856925448457
          ],
          [
            93.01364812554142,
            -217.78769437643783
          ],
          [
            93.93636885248938,
            -217.60319513686682
          ],
          [
            94.67454058107326,
            -217.60323132052713
          ],
          [
            95.41271230965715,
            -217.60326750418747
          ],
          [
            96.88903150195249,
            -218.34151774809408
          ],
          [
            98.18081382831994,
            -218.89521447693912
          ],
          [
            99.65713302061528,
            -219.63346472084572
          ],
          [
            100.39529261676293,
            -220.00258984279904
          ],
          [
            100.76437241483676,
            -220.18715240377566
          ],
          [
            102.24069160713209,
            -220.9254026476823
          ],
          [
            102.97885726949787,
            -221.10998330048912
          ],
          [
            104.27067599317398,
            -220.5564132144553
          ],
          [
            105.00884165553975,
            -220.7409938672621
          ],
          [
            106.30065431299778,
            -220.37196825037472
          ],
          [
            107.03882604158166,
            -220.3720044340351
          ],
          [
            107.77699777016555,
            -220.37204061769543
          ],
          [
            108.14607756823938,
            -220.5566031786721
          ],
          [
            108.8842614292595,
            -220.18755042403947
          ],
          [
            109.25335335976955,
            -220.00302404672317
          ],
          [
            109.80698215620745,
            -220.00305118446846
          ],
          [
            110.17607408671752,
            -219.8185248071521
          ],
          [
            110.72970288315543,
            -219.8185519448974
          ],
          [
            111.09879481366549,
            -219.6340255675811
          ],
          [
            111.46788067795742,
            -219.63404365941128
          ],
          [
            111.83697260846746,
            -219.44951728209494
          ],
          [
            112.20605847275941,
            -219.4495353739251
          ],
          [
            113.12877919970738,
            -219.26503613435406
          ],
          [
            113.86695092829126,
            -219.2650723180144
          ],
          [
            114.60512265687515,
            -219.26510850167477
          ],
          [
            115.34329438545903,
            -219.26514468533512
          ],
          [
            116.266015112407,
            -219.08064544576408
          ],
          [
            117.55783383608315,
            -218.52707535973025
          ],
          [
            118.29600556466703,
            -218.52711154339056
          ],
          [
            119.03417729325092,
            -218.5271477270509
          ],
          [
            119.7723490218348,
            -218.52718391071127
          ],
          [
            120.51052075041868,
            -218.52722009437161
          ],
          [
            121.24869247900257,
            -218.52725627803193
          ],
          [
            122.33526221385283,
            -217.944407312671
          ],
          [
            122.66824971982143,
            -217.7088441537935
          ],
          [
            123.00072884124128,
            -217.47297070847992
          ],
          [
            123.45166397888849,
            -217.2694907523392
          ],
          [
            123.63512182826204,
            -217.25538752093178
          ],
          [
            124.0009157315448,
            -217.16958918604797
          ],
          [
            125.13189136231755,
            -216.89907055226777
          ],
          [
            125.83046707072336,
            -216.7327771616083
          ],
          [
            126.6004981694492,
            -216.68219462011552
          ],
          [
            126.96958403374114,
            -216.6822127119457
          ],
          [
            127.31767242250646,
            -216.6003639415439
          ],
          [
            127.66391048147108,
            -216.51143229273956
          ],
          [
            128.0768355643665,
            -216.86669075457183
          ],
          [
            129.55315475666183,
            -217.60494099847847
          ],
          [
            129.73768555637156,
            -217.9740389826865
          ],
          [
            131.39855374703097,
            -218.5277538033617
          ],
          [
            132.3212623415427,
            -218.7123435020836
          ],
          [
            133.0594340701266,
            -218.71237968574397
          ],
          [
            133.98214266463836,
            -218.89696938446585
          ],
          [
            134.9048512591501,
            -219.08155908318776
          ],
          [
            135.64302298773399,
            -219.08159526684813
          ],
          [
            136.38119471631788,
            -219.08163145050847
          ],
          [
            137.30392150948393,
            -218.71258774179094
          ],
          [
            138.41118516857787,
            -218.52809754813495
          ],
          [
            139.14935689716177,
            -218.52813373179532
          ],
          [
            140.07207762410974,
            -218.34363449222425
          ],
          [
            140.8102493526936,
            -218.34367067588462
          ],
          [
            141.17933521698555,
            -218.3436887677148
          ],
          [
            141.36387814913152,
            -218.34369781362986
          ],
          [
            141.73296401342347,
            -218.34371590546004
          ],
          [
            142.10204381149728,
            -218.5282784664367
          ],
          [
            142.84021554008118,
            -218.52831465009706
          ],
          [
            143.94746100052078,
            -218.8974578638805
          ],
          [
            144.8701695950325,
            -219.08204756260247
          ],
          [
            145.6083413236164,
            -219.08208374626278
          ],
          [
            146.53104991812816,
            -219.26667344498466
          ],
          [
            148.0073691104235,
            -220.0049236888913
          ],
          [
            148.3764489084973,
            -220.18948624986797
          ],
          [
            149.4836822365007,
            -220.92771840194436
          ],
          [
            150.4063726323581,
            -221.66594150810573
          ],
          [
            151.32906302821553,
            -222.40416461426707
          ],
          [
            152.80538222051084,
            -223.14241485817368
          ],
          [
            154.0971584806602,
            -223.88065605616518
          ],
          [
            155.38893474080953,
            -224.6188972541567
          ],
          [
            155.9425332061569,
            -225.54164673763435
          ],
          [
            156.86522966823242,
            -226.09532537464924
          ],
          [
            157.23430946630626,
            -226.27988793562585
          ],
          [
            157.6033892643801,
            -226.46445049660252
          ],
          [
            157.97246906245394,
            -226.64901305757917
          ],
          [
            158.15699986216367,
            -227.01811104178725
          ]
        ]
      },
      "properties": {
        "type": "variant",
        "id": 3,
        "color": "#44ff44",
        "vzdal_m": 1930,
        "prevyseni_m": 20,
        "cas_s": 564,
        "tempo_str": "4:52"
      }
    }
  ]
}