{
  "type": "FeatureCollection",
  "features": [
    {
      "type": "Feature",
      "geometry": {
        "type": "Point",
        "coordinates": [
          97.74122612305895,
          -222.23388802051
        ]
      },
      "properties": {
        "type": "start",
        "isom": "204"
      }
    },
    {
      "type": "Feature",
      "geometry": {
        "type": "Point",
        "coordinates": [
          85.69953426884535,
          -192.38976612479985
        ]
      },
      "properties": {
        "type": "end",
        "isom": "204"
      }
    },
    {
      "type": "Feature",
      "geometry": {
        "type": "LineString",
        "coordinates": [
          [
            97.76635700299232,
            -222.36967298382993
          ],
          [
            97.39733325558275,
            -220.52412859332702
          ],
          [
            96.6592281556432,
            -218.30946595905914
          ],
          [
            97.02839591585376,
            -216.46394498271732
          ],
          [
            97.02845352097415,
            -214.98751883597944
          ],
          [
            97.39762128118468,
            -213.14199785963757
          ],
          [
            97.02858313249503,
            -211.66556000581917
          ],
          [
            95.55231532749556,
            -208.71266088402123
          ],
          [
            95.183291580086,
            -206.86711649351832
          ],
          [
            95.1833491852064,
            -205.39069034678042
          ],
          [
            93.70708138020694,
            -202.43779122498253
          ],
          [
            93.33801442895707,
            -201.69956644453302
          ],
          [
            91.49259326502717,
            -200.22308176239244
          ],
          [
            90.38539241127758,
            -198.00840742104398
          ],
          [
            90.01632546002772,
            -197.27018264059453
          ],
          [
            89.64724410749776,
            -196.90106439682953
          ],
          [
            89.2781627549678,
            -196.53194615306452
          ],
          [
            88.90908140243783,
            -196.1628279092995
          ],
          [
            88.54000004990787,
            -195.7937096655345
          ],
          [
            87.06368904106813,
            -193.94813015378998
          ],
          [
            85.58736363094829,
            -192.47165717872997
          ]
        ]
      },
      "properties": {
        "type": "variant",
        "id": 1,
        "color": "#ff4444",
        "vzdal_m": 460,
        "prevyseni_m": 0,
        "cas_s": 130,
        "tempo_str": "4:43"
      }
    },
    {
      "type": "Feature",
      "geometry": {
        "type": "LineString",
        "coordinates": [
          [
            97.76635700299232,
            -222.36967298382993
          ],
          [
            96.29004599415258,
            -220.52409347208547
          ],
          [
            94.44463923150276,
            -218.6785022532604
          ],
          [
            91.86101215867265,
            -217.57110069364325
          ],
          [
            90.01559099474275,
            -216.0946160115027
          ],
          [
            88.53926558462291,
            -214.61814303644263
          ],
          [
            87.06295457578317,
            -212.7725635246981
          ],
          [
            85.29298260880198,
            -211.78279767742814
          ],
          [
            84.1413112137264,
            -209.00689255218276
          ],
          [
            82.61020719103364,
            -206.14398168513043
          ],
          [
            81.08225964122228,
            -203.21498363629266
          ],
          [
            79.43394222375612,
            -200.38187422408006
          ],
          [
            80.05065369947556,
            -199.48450576952692
          ],
          [
            80.41976385456572,
            -199.11541093992298
          ],
          [
            82.63438158126637,
            -198.00816157235278
          ],
          [
            83.37258749016658,
            -197.63907844982938
          ],
          [
            83.74169764525674,
            -197.26998362022542
          ],
          [
            84.11082220162699,
            -196.531782253937
          ],
          [
            84.84910011692769,
            -194.31716644799124
          ],
          [
            85.58736363094829,
            -192.47165717872997
          ]
        ]
      },
      "properties": {
        "type": "variant",
        "id": 2,
        "color": "#4444ff",
        "vzdal_m": 537,
        "prevyseni_m": 1,
        "cas_s": 137,
        "tempo_str": "4:15"
      }
    },
    {
      "type": "Feature",
      "geometry": {
        "type": "LineString",
        "coordinates": [
          [
            97.76635700299232,
            -222.36967298382993
          ],
          [
            97.7664002068326,
            -221.2623533737765
          ],
          [
            98.50469252341341,
            -218.67863103114627
          ],
          [
            98.87386028362394,
            -216.83311005480445
          ],
          [
            98.50480773365419,
            -215.72577873767048
          ],
          [
            98.13574078240433,
            -214.987553957221
          ],
          [
            96.65941537228447,
            -213.511080982161
          ],
          [
            96.29034842103461,
            -212.7728562017115
          ],
          [
            96.65947297740487,
            -212.0346548354231
          ],
          [
            96.29040602615501,
            -211.29643005497363
          ],
          [
            95.55230092621547,
            -209.0817674207057
          ],
          [
            95.18327717880591,
            -207.23622303020278
          ],
          [
            95.1833203826462,
            -206.12890342014936
          ],
          [
            94.81425343139632,
            -205.39067863969987
          ],
          [
            93.70703817636664,
            -203.54511083503593
          ],
          [
            92.96886107002662,
            -203.17598088419038
          ],
          [
            91.12339670225643,
            -202.80681581210322
          ],
          [
            89.27797553832653,
            -201.33033112996267
          ],
          [
            87.80165012820669,
            -199.8538581549026
          ],
          [
            86.32532471808685,
            -198.3773851798426
          ],
          [
            85.21810946305716,
            -196.53181737517863
          ],
          [
            85.58723401942741,
            -195.7936160088902
          ],
          [
            85.5872916245478,
            -194.31718986215233
          ],
          [
            85.58734922966818,
            -192.84076371541443
          ],
          [
            85.58736363094829,
            -192.47165717872997
          ]
        ]
      },
      "properties": {
        "type": "variant",
        "id": 3,
        "color": "#44ff44",
        "vzdal_m": 489,
        "prevyseni_m": 0,
        "cas_s": 129,
        "tempo_str": "4:24"
      }
    }
  ]
}