{
  "type": "FeatureCollection",
  "features": [
    {
      "type": "Feature",
      "geometry": {
        "type": "Point",
        "coordinates": [
          77.64890849675001,
          -107.10826266766917
        ]
      },
      "properties": {
        "type": "start",
        "isom": "204"
      }
    },
    {
      "type": "Feature",
      "geometry": {
        "type": "Point",
        "coordinates": [
          46.98024398724866,
          -72.57958800019975
        ]
      },
      "properties": {
        "type": "end",
        "isom": "204"
      }
    },
    {
      "type": "Feature",
      "geometry": {
        "type": "LineString",
        "coordinates": [
          [
            77.64154851212172,
            -107.02888100900971
          ],
          [
            76.90340740898195,
            -105.73698471645298
          ],
          [
            76.16524470392201,
            -104.99874822892295
          ],
          [
            75.24252692131702,
            -104.44505915619492
          ],
          [
            74.68891929380217,
            -103.52227525386293
          ],
          [
            73.95075658874225,
            -102.78403876633293
          ],
          [
            73.21259388368233,
            -102.0458022788029
          ],
          [
            72.47444557990251,
            -100.93845925458842
          ],
          [
            71.73630447676274,
            -99.64656296203168
          ],
          [
            70.99814897234286,
            -98.72377320615942
          ],
          [
            69.60950338207859,
            -98.07350667831928
          ],
          [
            68.82874050485663,
            -96.75967756329803
          ],
          [
            68.57131992046673,
            -95.77105795471277
          ],
          [
            68.32549748745996,
            -94.87661337231904
          ],
          [
            68.2301180354087,
            -93.92530042615726
          ],
          [
            68.15462333679798,
            -93.16131801384054
          ],
          [
            68.22555745232656,
            -92.44850804521694
          ],
          [
            68.28344877486977,
            -91.71485882336867
          ],
          [
            67.8611518931195,
            -90.60332988891648
          ],
          [
            67.67662561813464,
            -90.04966423034949
          ],
          [
            67.49209214250969,
            -89.68055184012475
          ],
          [
            66.9384773143548,
            -88.942321206135
          ],
          [
            66.20032180993493,
            -88.01953145026275
          ],
          [
            65.46218070679515,
            -86.72763515770602
          ],
          [
            65.09309215362514,
            -86.54307018228324
          ],
          [
            64.90855147736016,
            -86.35851106040074
          ],
          [
            64.53946292419016,
            -86.17394608497797
          ],
          [
            63.24765658841515,
            -85.43569203682715
          ],
          [
            62.50949388335522,
            -84.69745554929713
          ],
          [
            61.771352780215445,
            -83.40555925674042
          ],
          [
            61.58681930459051,
            -83.03644686651567
          ],
          [
            61.40228582896558,
            -82.66733447629093
          ],
          [
            61.217745152700594,
            -82.48277535440842
          ],
          [
            61.03321167707568,
            -82.11366296418369
          ],
          [
            60.2950561726558,
            -81.19087320831143
          ],
          [
            59.18780491442587,
            -80.26807174535864
          ],
          [
            57.895998578650854,
            -79.52981769720782
          ],
          [
            56.23508928842574,
            -78.9761052103187
          ],
          [
            55.12782362891571,
            -78.42241028405039
          ],
          [
            54.38966092385579,
            -77.68417379652037
          ],
          [
            52.91330671117576,
            -76.94591389482929
          ],
          [
            51.436952498495714,
            -76.20765399313821
          ],
          [
            50.51424191653077,
            -75.46941165206792
          ],
          [
            49.591531334565815,
            -74.73116931099764
          ],
          [
            48.853375830145936,
            -73.80837955512538
          ],
          [
            47.37701441682586,
            -73.25467292177653
          ],
          [
            47.00794746557599,
            -72.51644814132706
          ]
        ]
      },
      "properties": {
        "type": "variant",
        "id": 1,
        "color": "#ff4444",
        "vzdal_m": 1316,
        "prevyseni_m": 28,
        "cas_s": 403,
        "tempo_str": "5:06"
      }
    },
    {
      "type": "Feature",
      "geometry": {
        "type": "LineString",
        "coordinates": [
          [
            77.64154851212172,
            -107.02888100900971
          ],
          [
            76.90340740898195,
            -105.73698471645298
          ],
          [
            76.16524470392201,
            -104.99874822892295
          ],
          [
            75.24252692131702,
            -104.44505915619492
          ],
          [
            74.68891929380217,
            -103.52227525386293
          ],
          [
            73.95075658874225,
            -102.78403876633293
          ],
          [
            73.21259388368233,
            -102.0458022788029
          ],
          [
            72.47444557990251,
            -100.93845925458842
          ],
          [
            71.73630447676274,
            -99.64656296203168
          ],
          [
            70.99814897234286,
            -98.72377320615942
          ],
          [
            69.60950338207859,
            -98.07350667831928
          ],
          [
            69.04701774355371,
            -97.203292691195
          ],
          [
            68.414557902713,
            -96.69360530483108
          ],
          [
            68.04546934954298,
            -96.50904032940831
          ],
          [
            67.67638079637297,
            -96.32447535398553
          ],
          [
            67.30729224320297,
            -96.13991037856277
          ],
          [
            66.93820369003295,
            -95.95534540314
          ],
          [
            65.64639015361789,
            -95.40164462333142
          ],
          [
            64.53913169474792,
            -94.66339642872086
          ],
          [
            63.43187323587793,
            -93.92514823411031
          ],
          [
            62.50916265391299,
            -93.18690589304003
          ],
          [
            62.14008130138303,
            -92.81778764927502
          ],
          [
            60.663727088702984,
            -92.07952774758394
          ],
          [
            59.92557158428311,
            -91.15673799171168
          ],
          [
            59.002861002318156,
            -90.4184956506414
          ],
          [
            58.44926777608342,
            -89.12660521162495
          ],
          [
            57.71113387358369,
            -87.65015565072596
          ],
          [
            57.52660039795876,
            -87.28104326050124
          ],
          [
            56.419341939088774,
            -86.54279506589069
          ],
          [
            55.68115043146866,
            -86.54277165172962
          ],
          [
            54.758418247583556,
            -86.35818911568605
          ],
          [
            53.46660471116851,
            -85.80448833587745
          ],
          [
            52.91296828109347,
            -85.61991750691442
          ],
          [
            52.54387972792346,
            -85.43535253149165
          ],
          [
            51.99025769912851,
            -84.88167516584413
          ],
          [
            51.80572422350358,
            -84.51256277561939
          ],
          [
            50.88300644089858,
            -83.95887370289134
          ],
          [
            50.32941321466383,
            -82.66698326387488
          ],
          [
            49.59127931216411,
            -81.19053370297593
          ],
          [
            48.853145409664386,
            -79.71408414207697
          ],
          [
            48.66863353595959,
            -78.79131194682552
          ],
          [
            48.668662338519795,
            -78.05309887345656
          ],
          [
            48.66869114107999,
            -77.31488580008762
          ],
          [
            48.66871994364018,
            -76.57667272671867
          ],
          [
            48.4842080699354,
            -75.65390053146722
          ],
          [
            48.29969619623061,
            -74.73112833621576
          ],
          [
            47.93062924498074,
            -73.99290355576629
          ],
          [
            47.74609576935582,
            -73.62379116554155
          ],
          [
            47.00794746557599,
            -72.51644814132706
          ]
        ]
      },
      "properties": {
        "type": "variant",
        "id": 2,
        "color": "#4444ff",
        "vzdal_m": 1327,
        "prevyseni_m": 30,
        "cas_s": 404,
        "tempo_str": "5:04"
      }
    },
    {
      "type": "Feature",
      "geometry": {
        "type": "LineString",
        "coordinates": [
          [
            77.64154851212172,
            -107.02888100900971
          ],
          [
            76.90340740898195,
            -105.73698471645298
          ],
          [
            76.16524470392201,
            -104.99874822892295
          ],
          [
            75.24252692131702,
            -104.44505915619492
          ],
          [
            74.68891929380217,
            -103.52227525386293
          ],
          [
            73.95075658874225,
            -102.78403876633293
          ],
          [
            73.21259388368233,
            -102.0458022788029
          ],
          [
            72.47444557990251,
            -100.93845925458842
          ],
          [
            71.73630447676274,
            -99.64656296203168
          ],
          [
            70.99814897234286,
            -98.72377320615942
          ],
          [
            69.60950338207859,
            -98.07350667831928
          ],
          [
            68.82874050485663,
            -96.75967756329803
          ],
          [
            68.57131992046673,
            -95.77105795471277
          ],
          [
            68.32549748745996,
            -94.87661337231904
          ],
          [
            68.2301180354087,
            -93.92530042615726
          ],
          [
            68.15462333679798,
            -93.16131801384054
          ],
          [
            68.22555745232656,
            -92.44850804521694
          ],
          [
            68.29904574435704,
            -91.51699172068314
          ],
          [
            68.86186909215726,
            -90.66036430423165
          ],
          [
            68.59935780201971,
            -90.23424676639307
          ],
          [
            68.59936500265977,
            -90.04969349805083
          ],
          [
            68.04577177642503,
            -88.75780305903436
          ],
          [
            67.49216414891019,
            -87.83501915670237
          ],
          [
            67.49220015211043,
            -86.91225281499119
          ],
          [
            67.12314760214065,
            -85.80492149785724
          ],
          [
            66.93862132715577,
            -85.25125583929027
          ],
          [
            66.75408785153084,
            -84.88214344906552
          ],
          [
            66.56955437590591,
            -84.51303105884078
          ],
          [
            65.83139167084599,
            -83.77479457131076
          ],
          [
            65.64685819522106,
            -83.40568218108602
          ],
          [
            65.46232471959613,
            -83.03656979086128
          ],
          [
            65.0932649689863,
            -82.11379174206957
          ],
          [
            65.46240392663667,
            -81.00648383909667
          ],
          [
            65.46241832791677,
            -80.6373773024122
          ],
          [
            65.27788485229182,
            -80.26826491218746
          ],
          [
            64.5397221472319,
            -79.53002842465744
          ],
          [
            64.35518147096693,
            -79.34546930277494
          ],
          [
            63.98609291779692,
            -79.16090432735217
          ],
          [
            63.2479014101768,
            -79.16088091319111
          ],
          [
            61.95608787376174,
            -78.60718013338251
          ],
          [
            60.47973366108171,
            -77.86892023169143
          ],
          [
            59.18792012466665,
            -77.31521945188285
          ],
          [
            58.080632863236474,
            -77.31518433064124
          ],
          [
            57.34245575689645,
            -76.94605437979571
          ],
          [
            56.60426424927633,
            -76.94603096563465
          ],
          [
            56.419716372371305,
            -76.94602511209438
          ],
          [
            56.0506134179212,
            -77.13056667335607
          ],
          [
            55.68152486475118,
            -76.9460016979333
          ],
          [
            54.94333335713107,
            -76.94597828377223
          ],
          [
            54.20514184951096,
            -76.94595486961116
          ],
          [
            53.28240966562586,
            -76.76137233356759
          ],
          [
            52.54421815800575,
            -76.76134891940652
          ],
          [
            51.252411822230734,
            -76.02309487125571
          ],
          [
            50.32970124026579,
            -75.28485253018542
          ],
          [
            49.406990658300835,
            -74.54661018911513
          ],
          [
            48.484287276975934,
            -73.62381457970261
          ],
          [
            47.377028818105956,
            -72.88556638509206
          ],
          [
            47.00794746557599,
            -72.51644814132706
          ]
        ]
      },
      "properties": {
        "type": "variant",
        "id": 3,
        "color": "#44ff44",
        "vzdal_m": 1414,
        "prevyseni_m": 22,
        "cas_s": 410,
        "tempo_str": "4:49"
      }
    }
  ]
}