{
  "type": "FeatureCollection",
  "features": [
    {
      "type": "Feature",
      "geometry": {
        "type": "Point",
        "coordinates": [
          43.78446548952171,
          -119.55115685418052
        ]
      },
      "properties": {
        "type": "start",
        "isom": "417"
      }
    },
    {
      "type": "Feature",
      "geometry": {
        "type": "Point",
        "coordinates": [
          44.154427922330726,
          -92.88449915434455
        ]
      },
      "properties": {
        "type": "end",
        "isom": "204"
      }
    },
    {
      "type": "Feature",
      "geometry": {
        "type": "LineString",
        "coordinates": [
          [
            43.78446548952171,
            -119.55115685418052
          ],
          [
            43.96902662032201,
            -118.99753249265618
          ],
          [
            43.96903875275824,
            -118.62844355436322
          ],
          [
            44.061325384376495,
            -118.16708690445456
          ],
          [
            43.969066050739734,
            -117.79799344320406
          ],
          [
            43.59999231888401,
            -117.42888641308093
          ],
          [
            43.046372621773266,
            -117.15204257161597
          ],
          [
            42.49276202398969,
            -116.59838202643127
          ],
          [
            42.49277415642592,
            -116.2292930881383
          ],
          [
            42.4005178558982,
            -115.76792739231458
          ],
          [
            42.3082615553705,
            -115.30656169649083
          ],
          [
            42.30827368780672,
            -114.93747275819787
          ],
          [
            42.12374895431508,
            -114.38383030484334
          ],
          [
            41.93922422082345,
            -113.83018785148884
          ],
          [
            41.57015655518584,
            -113.27653635221922
          ],
          [
            41.20108888954823,
            -112.72288485294962
          ],
          [
            40.83201819080156,
            -112.26150558825324
          ],
          [
            40.4629474920549,
            -111.80012632355688
          ],
          [
            40.55524018989127,
            -111.15422520450174
          ],
          [
            40.739801320691576,
            -110.6006008429774
          ],
          [
            41.10891144985597,
            -109.86244105822166
          ],
          [
            41.10892358229219,
            -109.49335211992872
          ],
          [
            41.47802461212941,
            -109.03200903889267
          ],
          [
            41.66258270982066,
            -108.57065691194157
          ],
          [
            41.478057976329026,
            -108.01701445858704
          ],
          [
            41.20126480987346,
            -107.37109524770175
          ],
          [
            41.20127694230968,
            -107.00200630940878
          ],
          [
            41.10902064178197,
            -106.54064061358505
          ],
          [
            41.016764341254266,
            -106.0792749177613
          ],
          [
            41.016776473690484,
            -105.71018597946835
          ],
          [
            40.92451410694466,
            -105.43336475279109
          ],
          [
            40.555443408198,
            -104.97198548809472
          ],
          [
            40.18636967634228,
            -104.60287845797158
          ],
          [
            39.81729897759562,
            -104.14149919327524
          ],
          [
            39.54050581114005,
            -103.49557998238991
          ],
          [
            39.355981077648416,
            -102.94193752903539
          ],
          [
            39.26372477712071,
            -102.48057183321166
          ],
          [
            39.26373690955693,
            -102.1114828949187
          ],
          [
            39.26374904199315,
            -101.74239395662575
          ],
          [
            39.448310172793455,
            -101.18876959510139
          ],
          [
            39.817420301957846,
            -100.45060981034567
          ],
          [
            40.27879279786805,
            -99.98927125226717
          ],
          [
            40.64789686081433,
            -99.4356559366579
          ],
          [
            40.92473249079667,
            -98.78976386351788
          ],
          [
            41.293842619961055,
            -98.05160407876211
          ],
          [
            41.66294364979828,
            -97.59026099772609
          ],
          [
            42.40112751081839,
            -97.2212082430935
          ],
          [
            42.86249697361954,
            -96.85214191958825
          ],
          [
            43.23159800345675,
            -96.39079883855223
          ],
          [
            43.323884635075025,
            -95.92944218864358
          ],
          [
            43.32389676751124,
            -95.56035325035062
          ],
          [
            43.50845789831155,
            -95.00672888882627
          ],
          [
            43.69301902911186,
            -94.4531045273019
          ],
          [
            43.69303116154808,
            -94.08401558900894
          ],
          [
            43.78531779316634,
            -93.62265893910029
          ],
          [
            44.154427922330726,
            -92.88449915434455
          ]
        ]
      },
      "properties": {
        "type": "variant",
        "id": 1,
        "color": "#ff4444",
        "vzdal_m": 1657,
        "prevyseni_m": 15,
        "cas_s": 383,
        "tempo_str": "3:50"
      }
    },
    {
      "type": "Feature",
      "geometry": {
        "type": "LineString",
        "coordinates": [
          [
            43.78446548952171,
            -119.55115685418052
          ],
          [
            43.96902662032201,
            -118.99753249265618
          ],
          [
            43.96903875275824,
            -118.62844355436322
          ],
          [
            44.061325384376495,
            -118.16708690445456
          ],
          [
            43.969066050739734,
            -117.79799344320406
          ],
          [
            43.59999231888401,
            -117.42888641308093
          ],
          [
            43.046372621773266,
            -117.15204257161597
          ],
          [
            42.49276202398969,
            -116.59838202643127
          ],
          [
            42.49277415642592,
            -116.2292930881383
          ],
          [
            42.4005178558982,
            -115.76792739231458
          ],
          [
            42.3082615553705,
            -115.30656169649083
          ],
          [
            42.30827368780672,
            -114.93747275819787
          ],
          [
            42.12374895431508,
            -114.38383030484334
          ],
          [
            41.93922422082345,
            -113.83018785148884
          ],
          [
            41.57015655518584,
            -113.27653635221922
          ],
          [
            41.20108888954823,
            -112.72288485294962
          ],
          [
            40.83201819080156,
            -112.26150558825324
          ],
          [
            40.4629474920549,
            -111.80012632355688
          ],
          [
            40.55524018989127,
            -111.15422520450174
          ],
          [
            40.739801320691576,
            -110.6006008429774
          ],
          [
            41.10891144985597,
            -109.86244105822166
          ],
          [
            41.10892358229219,
            -109.49335211992872
          ],
          [
            41.47802461212941,
            -109.03200903889267
          ],
          [
            41.66258270982066,
            -108.57065691194157
          ],
          [
            41.478057976329026,
            -108.01701445858704
          ],
          [
            41.20126480987346,
            -107.37109524770175
          ],
          [
            41.20127694230968,
            -107.00200630940878
          ],
          [
            41.10902064178197,
            -106.54064061358505
          ],
          [
            41.10903277421819,
            -106.1715516752921
          ],
          [
            41.10904490665441,
            -105.80246273699915
          ],
          [
            41.10905703909064,
            -105.43337379870619
          ],
          [
            41.2013436707089,
            -104.97201714879752
          ],
          [
            41.20135580314513,
            -104.60292821050456
          ],
          [
            41.20136793558135,
            -104.23383927221161
          ],
          [
            41.1091146681627,
            -103.68020134181464
          ],
          [
            40.832315435489015,
            -103.2188266000758
          ],
          [
            40.7400530687432,
            -102.94200537339854
          ],
          [
            41.10915713168947,
            -102.3883900577893
          ],
          [
            41.47826726085386,
            -101.65023027303353
          ],
          [
            41.47827939329009,
            -101.28114133474058
          ],
          [
            41.75511502327243,
            -100.63524926160055
          ],
          [
            42.031950653254775,
            -99.98935718846049
          ],
          [
            42.30878628323712,
            -99.34346511532044
          ],
          [
            42.308798415673344,
            -98.97437617702748
          ],
          [
            42.40108504729161,
            -98.51301952711884
          ],
          [
            42.9547290092748,
            -98.0516854919979
          ],
          [
            43.416104538294064,
            -97.49807469934618
          ],
          [
            43.785214667458455,
            -96.75991491459044
          ],
          [
            43.87750129907671,
            -96.2985582646818
          ],
          [
            43.87751343151294,
            -95.92946932638884
          ],
          [
            43.877525563949156,
            -95.56038038809588
          ],
          [
            43.87753769638538,
            -95.19129144980293
          ],
          [
            43.87754982882161,
            -94.82220251150997
          ],
          [
            43.877561961257825,
            -94.453113573217
          ],
          [
            43.87757409369405,
            -94.08402463492403
          ],
          [
            44.062135224494355,
            -93.53040027339969
          ],
          [
            44.15442185611262,
            -93.06904362349104
          ],
          [
            44.154427922330726,
            -92.88449915434455
          ]
        ]
      },
      "properties": {
        "type": "variant",
        "id": 2,
        "color": "#4444ff",
        "vzdal_m": 1595,
        "prevyseni_m": 25,
        "cas_s": 364,
        "tempo_str": "3:48"
      }
    },
    {
      "type": "Feature",
      "geometry": {
        "type": "LineString",
        "coordinates": [
          [
            43.78446548952171,
            -119.55115685418052
          ],
          [
            43.96902662032201,
            -118.99753249265618
          ],
          [
            43.96903875275824,
            -118.62844355436322
          ],
          [
            44.061325384376495,
            -118.16708690445456
          ],
          [
            43.969066050739734,
            -117.79799344320406
          ],
          [
            43.59999231888401,
            -117.42888641308093
          ],
          [
            43.046372621773266,
            -117.15204257161597
          ],
          [
            42.49276202398969,
            -116.59838202643127
          ],
          [
            42.49277415642592,
            -116.2292930881383
          ],
          [
            42.4005178558982,
            -115.76792739231458
          ],
          [
            42.3082615553705,
            -115.30656169649083
          ],
          [
            42.30827368780672,
            -114.93747275819787
          ],
          [
            42.12374895431508,
            -114.38383030484334
          ],
          [
            41.93922422082345,
            -113.83018785148884
          ],
          [
            41.57015655518584,
            -113.27653635221922
          ],
          [
            41.20108888954823,
            -112.72288485294962
          ],
          [
            40.83201819080156,
            -112.26150558825324
          ],
          [
            40.4629474920549,
            -111.80012632355688
          ],
          [
            40.18614825938123,
            -111.33875158181804
          ],
          [
            40.186160391817445,
            -110.96966264352508
          ],
          [
            40.186172524253664,
            -110.60057370523214
          ],
          [
            40.18618465668989,
            -110.23148476693918
          ],
          [
            40.18619678912611,
            -109.86239582864621
          ],
          [
            40.093940488598406,
            -109.40103013282248
          ],
          [
            40.09395262103463,
            -109.03194119452954
          ],
          [
            39.724887988506076,
            -108.38601746068667
          ],
          [
            39.724900120942294,
            -108.01692852239373
          ],
          [
            39.72491225337852,
            -107.64783958410077
          ],
          [
            39.540387519886885,
            -107.09419713074624
          ],
          [
            39.263594353431316,
            -106.44827791986094
          ],
          [
            38.89453275401182,
            -105.71008195144485
          ],
          [
            38.710008020520185,
            -105.15643949809032
          ],
          [
            38.7100201529564,
            -104.78735055979737
          ],
          [
            38.71003228539262,
            -104.41826162150441
          ],
          [
            38.71004441782885,
            -104.04917268321145
          ],
          [
            38.71005655026507,
            -103.6800837449185
          ],
          [
            38.80234318188334,
            -103.21872709500985
          ],
          [
            38.894629813501595,
            -102.7573704451012
          ],
          [
            38.89464194593782,
            -102.38828150680824
          ],
          [
            38.89465407837404,
            -102.01919256851528
          ],
          [
            38.894666210810264,
            -101.65010363022233
          ],
          [
            39.079227341610576,
            -101.09647926869798
          ],
          [
            39.54059983752077,
            -100.6351407106195
          ],
          [
            39.9097069335761,
            -99.989253160437
          ],
          [
            40.46334786245024,
            -99.6201913598893
          ],
          [
            40.83245799161463,
            -98.88203157513355
          ],
          [
            41.20156812077902,
            -98.14387179037782
          ],
          [
            41.57067218372529,
            -97.59025647476857
          ],
          [
            42.308856044745404,
            -97.22120372013595
          ],
          [
            42.86249697361954,
            -96.85214191958825
          ],
          [
            43.23159800345675,
            -96.39079883855223
          ],
          [
            43.323884635075025,
            -95.92944218864358
          ],
          [
            43.32389676751124,
            -95.56035325035062
          ],
          [
            43.50845789831155,
            -95.00672888882627
          ],
          [
            43.69301902911186,
            -94.4531045273019
          ],
          [
            43.69303116154808,
            -94.08401558900894
          ],
          [
            43.78531779316634,
            -93.62265893910029
          ],
          [
            44.154427922330726,
            -92.88449915434455
          ]
        ]
      },
      "properties": {
        "type": "variant",
        "id": 3,
        "color": "#44ff44",
        "vzdal_m": 1645,
        "prevyseni_m": 14,
        "cas_s": 391,
        "tempo_str": "3:57"
      }
    }
  ]
}