{
  "type": "FeatureCollection",
  "features": [
    {
      "type": "Feature",
      "geometry": {
        "type": "Point",
        "coordinates": [
          47.3454416536369,
          -109.51254296172742
        ]
      },
      "properties": {
        "type": "start",
        "isom": "204"
      }
    },
    {
      "type": "Feature",
      "geometry": {
        "type": "Point",
        "coordinates": [
          92.8366716742747,
          -72.62230349370626
        ]
      },
      "properties": {
        "type": "end",
        "isom": "111"
      }
    },
    {
      "type": "Feature",
      "geometry": {
        "type": "LineString",
        "coordinates": [
          [
            47.352877091884935,
            -109.49587397294519
          ],
          [
            47.81423745535887,
            -109.4036243541771
          ],
          [
            48.55242131637891,
            -109.03457160098185
          ],
          [
            49.29860583843784,
            -108.68495112993314
          ],
          [
            50.00592574549037,
            -108.26114421709188
          ],
          [
            50.49174838344049,
            -107.92922422174443
          ],
          [
            50.93659994548672,
            -107.54122104090189
          ],
          [
            51.30093879756979,
            -107.16557884436767
          ],
          [
            51.74600312682516,
            -106.79545687141885
          ],
          [
            51.91122435313637,
            -106.5597720826289
          ],
          [
            52.08922964849937,
            -105.9822406674574
          ],
          [
            52.12377252327575,
            -105.61774378363673
          ],
          [
            52.12485037512035,
            -105.25084473746993
          ],
          [
            52.13447108768096,
            -104.89361240746737
          ],
          [
            52.5202520791877,
            -104.23660989565228
          ],
          [
            52.905931610473935,
            -103.79676324693692
          ],
          [
            53.03360091044807,
            -103.61024917008878
          ],
          [
            53.06013477402348,
            -103.1284762237995
          ],
          [
            53.27763514816087,
            -102.5991866685931
          ],
          [
            53.67609068538738,
            -102.16879664524525
          ],
          [
            53.90504309593229,
            -102.02330672551128
          ],
          [
            54.449138114609596,
            -101.64139955841478
          ],
          [
            54.76633335521099,
            -101.26117556380115
          ],
          [
            55.180474605174616,
            -100.90251954671213
          ],
          [
            55.58141970840383,
            -100.46899860172135
          ],
          [
            56.04428499271069,
            -100.10389307817267
          ],
          [
            56.50503898265104,
            -99.74691303024015
          ],
          [
            56.85717477250652,
            -99.25412181372506
          ],
          [
            57.22627276923464,
            -98.88505096782217
          ],
          [
            57.77991369810871,
            -98.51598916827311
          ],
          [
            58.14901169483683,
            -98.14691832237023
          ],
          [
            58.702652623710904,
            -97.77785652282117
          ],
          [
            59.34856501865796,
            -97.40879924644901
          ],
          [
            59.71766301538608,
            -97.03972840054612
          ],
          [
            60.12311903376766,
            -96.66455699884771
          ],
          [
            60.455862041951384,
            -96.20931447408775
          ],
          [
            60.8249600386795,
            -95.84024362818485
          ],
          [
            61.19405803540762,
            -95.47117278228198
          ],
          [
            61.563156032135744,
            -95.10210193637911
          ],
          [
            61.932254028863866,
            -94.73303109047622
          ],
          [
            62.48589495773795,
            -94.36396929092714
          ],
          [
            63.04135937493103,
            -93.90165037468033
          ],
          [
            63.40942515545242,
            -93.44251590005665
          ],
          [
            64.13660932254938,
            -93.05987311875288
          ],
          [
            64.52361593423879,
            -92.61222717823738
          ],
          [
            64.87282500176686,
            -92.13582031535492
          ],
          [
            65.25058859405175,
            -91.77778645557927
          ],
          [
            65.72848625924232,
            -91.43219893377919
          ],
          [
            66.18249376973132,
            -91.05267111508802
          ],
          [
            66.80035077015826,
            -90.64639435901904
          ],
          [
            67.26635945994592,
            -90.28546374337405
          ],
          [
            67.43587659216732,
            -90.15636148369722
          ],
          [
            68.10813413614711,
            -89.92936751805496
          ],
          [
            68.4769287421862,
            -89.63431838997188
          ],
          [
            68.76343739675384,
            -89.6487314210401
          ],
          [
            69.2218627852636,
            -89.77658432691818
          ],
          [
            69.74603238018193,
            -89.66193060022655
          ],
          [
            70.42900691512543,
            -89.30374053051861
          ],
          [
            71.06731722284991,
            -89.01260033652709
          ],
          [
            71.71322961779697,
            -88.64354306015494
          ],
          [
            72.15901607695301,
            -88.22697976098833
          ],
          [
            72.57416783735128,
            -87.92195983646478
          ],
          [
            72.89841196184356,
            -87.52269099653857
          ],
          [
            73.27359250043972,
            -87.15896288046349
          ],
          [
            73.74407202585549,
            -86.78848775874347
          ],
          [
            74.28939551071684,
            -86.41862400564521
          ],
          [
            74.76905646864193,
            -86.07681228633234
          ],
          [
            75.12737092198682,
            -85.69099890881643
          ],
          [
            75.70701541464753,
            -85.35967427610572
          ],
          [
            76.35651532789083,
            -85.01794927320623
          ],
          [
            76.90630573819739,
            -84.61041010631854
          ],
          [
            77.27873131641783,
            -84.24381795510737
          ],
          [
            77.61950528818396,
            -83.84633044184622
          ],
          [
            77.95220833601836,
            -83.4509614483411
          ],
          [
            78.36119886585257,
            -83.11324792157981
          ],
          [
            78.80170508894413,
            -82.71873084914107
          ],
          [
            79.37196148705159,
            -82.55395099676483
          ],
          [
            79.7410473513435,
            -82.55396908947245
          ],
          [
            80.20241378103555,
            -82.2771750013991
          ],
          [
            80.57151177776366,
            -81.90810415549622
          ],
          [
            81.04325535047982,
            -81.69977813451298
          ],
          [
            81.61602378783915,
            -81.58149162943342
          ],
          [
            82.21825518523148,
            -81.15294766209082
          ],
          [
            82.9229398464285,
            -80.83736821715702
          ],
          [
            83.24743282362485,
            -80.43187957318447
          ],
          [
            83.61653385346203,
            -79.97053649262897
          ],
          [
            83.98563185019015,
            -79.60146564672608
          ],
          [
            84.26245231462718,
            -79.41693474695155
          ],
          [
            84.63153817891909,
            -79.41695283965917
          ],
          [
            85.09291067482924,
            -78.95561428228058
          ],
          [
            85.64655160370333,
            -78.58655248273152
          ],
          [
            86.1955492074201,
            -78.25865473232767
          ],
          [
            86.56929052930552,
            -77.84841983727956
          ],
          [
            87.03065089277946,
            -77.75617021851147
          ],
          [
            87.30746832410745,
            -77.66391155338955
          ],
          [
            87.76882868758139,
            -77.57166193462146
          ],
          [
            88.41474108252844,
            -77.2026046582493
          ],
          [
            89.15292494354847,
            -76.83355190505404
          ],
          [
            89.61429137324052,
            -76.55675781698069
          ],
          [
            89.98338936996865,
            -76.18768697107781
          ],
          [
            90.35249039980582,
            -75.7263438905223
          ],
          [
            90.72158839653393,
            -75.35727304461942
          ],
          [
            91.09068639326206,
            -74.98820219871655
          ],
          [
            91.45978742309923,
            -74.52685911816104
          ],
          [
            91.81333229610635,
            -73.95862705505503
          ],
          [
            92.19799858210075,
            -73.32735625309216
          ],
          [
            92.56709961193792,
            -72.86601317253665
          ],
          [
            92.84392310948401,
            -72.5892100381095
          ]
        ]
      },
      "properties": {
        "type": "variant",
        "id": 1,
        "color": "#ff4444",
        "vzdal_m": 3284,
        "prevyseni_m": 38,
        "cas_s": 836,
        "tempo_str": "4:14"
      }
    },
    {
      "type": "Feature",
      "geometry": {
        "type": "LineString",
        "coordinates": [
          [
            47.352877091884935,
            -109.49587397294519
          ],
          [
            47.72198115483116,
            -108.94225865773707
          ],
          [
            48.0910912839955,
            -108.20409887322367
          ],
          [
            48.46019838005079,
            -107.55821132336293
          ],
          [
            48.82929940988796,
            -107.09686824280743
          ],
          [
            49.1984095390523,
            -106.35870845829405
          ],
          [
            49.56751360199853,
            -105.80509314308591
          ],
          [
            49.93661463183571,
            -105.3437500625304
          ],
          [
            50.30571869478193,
            -104.79013474732228
          ],
          [
            50.67481669151006,
            -104.42106390141942
          ],
          [
            51.04391468823818,
            -104.05199305551652
          ],
          [
            51.50528415103928,
            -103.68292673279056
          ],
          [
            51.874385180876445,
            -103.22158365223504
          ],
          [
            52.24348317760457,
            -102.85251280633217
          ],
          [
            52.612581174332696,
            -102.48344196042927
          ],
          [
            52.98167917106082,
            -102.1143711145264
          ],
          [
            53.36641685264293,
            -101.47629981720952
          ],
          [
            53.4587519620669,
            -101.29179637646203
          ],
          [
            53.47960145470666,
            -100.9226741035362
          ],
          [
            53.61337909006816,
            -100.3576689545218
          ],
          [
            53.90590797370973,
            -99.80782229791403
          ],
          [
            54.05758973727327,
            -99.2373534871763
          ],
          [
            54.4425677086814,
            -98.50511263246699
          ],
          [
            54.829879415805536,
            -98.05668352616217
          ],
          [
            55.110037336165526,
            -97.4031746614926
          ],
          [
            55.56545310832023,
            -96.85498038828011
          ],
          [
            55.93455110504834,
            -96.48590954237724
          ],
          [
            56.303649101776465,
            -96.11683869647435
          ],
          [
            56.67274709850459,
            -95.74776785057148
          ],
          [
            57.04184509523271,
            -95.37869700466861
          ],
          [
            57.41094309196083,
            -95.00962615876571
          ],
          [
            57.780044121798014,
            -94.5482830782102
          ],
          [
            58.14914515163518,
            -94.08693999765471
          ],
          [
            58.51824314836331,
            -93.71786915175183
          ],
          [
            58.88734114509143,
            -93.34879830584894
          ],
          [
            59.256448241146714,
            -92.70291075598819
          ],
          [
            59.256460373582925,
            -92.33382181737768
          ],
          [
            59.25647250601914,
            -91.96473287876718
          ],
          [
            59.256484638455355,
            -91.59564394015668
          ],
          [
            59.30954636386475,
            -91.20752402437527
          ],
          [
            59.2541025554856,
            -90.95024824284323
          ],
          [
            59.155137074534174,
            -90.49019465668403
          ],
          [
            59.05494009651746,
            -90.03313337786555
          ],
          [
            59.44109429900049,
            -89.56566382415274
          ],
          [
            59.902463761801584,
            -89.19659750142677
          ],
          [
            60.27156175852971,
            -88.82752665552388
          ],
          [
            60.62153002282836,
            -88.42480205781175
          ],
          [
            61.10782080353223,
            -88.09728958160055
          ],
          [
            61.57015902135011,
            -87.7284415806169
          ],
          [
            61.98421410956138,
            -87.3921749637517
          ],
          [
            62.30711801040967,
            -86.7993245212568
          ],
          [
            62.668118809763556,
            -86.42598599688377
          ],
          [
            63.02409080710617,
            -86.04724242268684
          ],
          [
            63.41303032325183,
            -85.60198909833815
          ],
          [
            63.76792462271978,
            -85.21973111562755
          ],
          [
            64.23220898932466,
            -84.85081394490571
          ],
          [
            64.59390856295556,
            -84.50187416844798
          ],
          [
            65.1215500321243,
            -84.18801414034206
          ],
          [
            65.71174872378467,
            -83.74594624627477
          ],
          [
            66.28628070372132,
            -83.41303710094498
          ],
          [
            66.86065009174698,
            -83.07621791461727
          ],
          [
            67.06459554781448,
            -82.54664053643545
          ],
          [
            67.19214616407294,
            -81.99972052949752
          ],
          [
            67.55432790355582,
            -81.34515112933263
          ],
          [
            67.93917042163893,
            -80.8983934854765
          ],
          [
            68.29945228669352,
            -80.52341905317839
          ],
          [
            68.57627578423963,
            -80.24661591875123
          ],
          [
            68.94574211251226,
            -79.50867931904114
          ],
          [
            69.30291313180615,
            -78.94190084209983
          ],
          [
            69.69472530939358,
            -78.60039941576909
          ],
          [
            70.28464919193856,
            -78.23213666907104
          ],
          [
            70.88314129689944,
            -77.8476508972056
          ],
          [
            71.43678222577351,
            -77.47858909765654
          ],
          [
            71.8981516885746,
            -77.10952277493057
          ],
          [
            72.54406408352166,
            -76.74046549855841
          ],
          [
            72.88283866845836,
            -76.3604137777104
          ],
          [
            73.28436776293456,
            -75.91173893483223
          ],
          [
            73.6530166670966,
            -75.4500256066868
          ],
          [
            73.95132418988156,
            -74.93515885138761
          ],
          [
            74.40135330141375,
            -74.25271626820614
          ],
          [
            74.67354448223149,
            -73.92115983078833
          ],
          [
            74.85384434643312,
            -73.87798526325857
          ],
          [
            75.48509514142938,
            -73.54874962299314
          ],
          [
            75.75893071939451,
            -73.46690633573853
          ],
          [
            76.14085472658631,
            -73.40619578196274
          ],
          [
            76.70938600436892,
            -73.32050889641049
          ],
          [
            77.07017514127706,
            -73.2714258276556
          ],
          [
            77.53652932226954,
            -73.20138129633821
          ],
          [
            78.00058071430692,
            -73.12555332055753
          ],
          [
            78.3600545788961,
            -73.06678321935534
          ],
          [
            78.71950666863563,
            -72.99615508355349
          ],
          [
            79.18496965062883,
            -72.93637537480653
          ],
          [
            79.65041379681846,
            -72.87531342895481
          ],
          [
            80.11697229423237,
            -72.81370930603126
          ],
          [
            80.47677420864176,
            -72.75592465471748
          ],
          [
            81.045364471418,
            -72.6645210504018
          ],
          [
            81.40427810461136,
            -72.60879871792666
          ],
          [
            81.86743685917834,
            -72.54692123520864
          ],
          [
            82.23436693301728,
            -72.51185649530493
          ],
          [
            82.69184745780264,
            -72.39612631451347
          ],
          [
            83.05431057435325,
            -72.34392342074024
          ],
          [
            83.2476397101605,
            -72.30962217068056
          ],
          [
            83.61043188812444,
            -72.2903610761828
          ],
          [
            84.0803570296835,
            -72.22716148218602
          ],
          [
            84.54078794446744,
            -72.15047725614131
          ],
          [
            84.89526696880667,
            -72.07218050944738
          ],
          [
            85.18507698987683,
            -72.03223169095911
          ],
          [
            85.5504865622903,
            -72.00296708746116
          ],
          [
            85.91537513246057,
            -71.9614487683373
          ],
          [
            86.25684522346349,
            -72.04668262571593
          ],
          [
            86.84239944977388,
            -71.83956877491183
          ],
          [
            87.21538794390484,
            -71.85075624709725
          ],
          [
            87.58447380819675,
            -71.85077433980487
          ],
          [
            87.95355967248867,
            -71.8507924325125
          ],
          [
            88.50718240270841,
            -72.03536404087917
          ],
          [
            88.87626826700033,
            -72.03538213358681
          ],
          [
            89.24535413129223,
            -72.03540022629443
          ],
          [
            89.6525646702583,
            -71.95870844080176
          ],
          [
            89.80055572989056,
            -72.03226276229512
          ],
          [
            90.52757908740857,
            -72.4184439206144
          ],
          [
            91.18303368706137,
            -72.68140085557782
          ],
          [
            91.55211955135329,
            -72.68141894828545
          ],
          [
            91.92120541564519,
            -72.68143704099307
          ],
          [
            92.38256577911912,
            -72.58918742222497
          ],
          [
            92.75165164341104,
            -72.58920551493259
          ],
          [
            92.84392310948401,
            -72.5892100381095
          ]
        ]
      },
      "properties": {
        "type": "variant",
        "id": 2,
        "color": "#4444ff",
        "vzdal_m": 3524,
        "prevyseni_m": 35,
        "cas_s": 854,
        "tempo_str": "4:02"
      }
    },
    {
      "type": "Feature",
      "geometry": {
        "type": "LineString",
        "coordinates": [
          [
            47.352877091884935,
            -109.49587397294519
          ],
          [
            47.81423745535887,
            -109.4036243541771
          ],
          [
            48.55242131637891,
            -109.03457160098185
          ],
          [
            49.29860583843784,
            -108.68495112993314
          ],
          [
            50.00592574549037,
            -108.26114421709188
          ],
          [
            50.49174838344049,
            -107.92922422174443
          ],
          [
            50.93659994548672,
            -107.54122104090189
          ],
          [
            51.30093879756979,
            -107.16557884436767
          ],
          [
            51.78198025800512,
            -107.28155745377364
          ],
          [
            52.151066122297024,
            -107.28157554648128
          ],
          [
            52.24333758837,
            -107.28158006965819
          ],
          [
            52.84246016688424,
            -107.32580517803345
          ],
          [
            53.35542282020398,
            -106.91944391523052
          ],
          [
            53.714333451141584,
            -106.53919026417468
          ],
          [
            54.0888154395744,
            -105.8053147787543
          ],
          [
            54.55018793548455,
            -105.34397622137568
          ],
          [
            55.01845890508637,
            -104.94903256074583
          ],
          [
            55.380655395013775,
            -104.60583905274683
          ],
          [
            55.7497533917419,
            -104.23676820684396
          ],
          [
            56.11885138847002,
            -103.8676973609411
          ],
          [
            56.48794938519814,
            -103.4986265150382
          ],
          [
            56.85705041503531,
            -103.0372834344827
          ],
          [
            57.22614841176343,
            -102.6682125885798
          ],
          [
            57.56483555185181,
            -102.19942852661411
          ],
          [
            57.95444529465603,
            -101.73450035088321
          ],
          [
            58.342181277150196,
            -101.38617662166341
          ],
          [
            58.7204598261101,
            -101.02262860562634
          ],
          [
            59.06342310388827,
            -100.62695400161522
          ],
          [
            59.52676964691763,
            -100.26073703378877
          ],
          [
            59.842863687339545,
            -99.91146822879223
          ],
          [
            60.13795782061647,
            -99.21700531799787
          ],
          [
            60.56652218996459,
            -98.90986825346498
          ],
          [
            60.773261088547955,
            -98.7549052574987
          ],
          [
            61.10170164228116,
            -98.05479082937859
          ],
          [
            61.470799639009265,
            -97.6857199834757
          ],
          [
            61.82735044060096,
            -97.19648048329087
          ],
          [
            62.23174895839965,
            -96.86571856655262
          ],
          [
            62.67036812837567,
            -96.48623973429135
          ],
          [
            63.22400905724975,
            -96.11717793474229
          ],
          [
            63.59310705397786,
            -95.74810708883939
          ],
          [
            63.91451564629734,
            -95.1410472064314
          ],
          [
            64.33131214676126,
            -94.73314869307576
          ],
          [
            64.79268160956236,
            -94.36408237034978
          ],
          [
            65.1617796062905,
            -93.99501152444691
          ],
          [
            65.53087760301861,
            -93.62594067854403
          ],
          [
            65.89997559974674,
            -93.25686983264114
          ],
          [
            66.26907359647485,
            -92.88779898673828
          ],
          [
            66.63817159320298,
            -92.51872814083539
          ],
          [
            67.0072695899311,
            -92.14965729493251
          ],
          [
            67.4686390527322,
            -91.78059097220654
          ],
          [
            67.9300085155333,
            -91.41152464948055
          ],
          [
            68.5759178773713,
            -91.13473960776103
          ],
          [
            69.12955274002726,
            -90.9502222775172
          ],
          [
            69.64622753979255,
            -90.71409103499609
          ],
          [
            70.05227346697515,
            -90.76572303998101
          ],
          [
            70.51363383044908,
            -90.67347342121292
          ],
          [
            71.15954319228709,
            -90.39668837949338
          ],
          [
            71.80545255412508,
            -90.11990333777383
          ],
          [
            72.35908741678105,
            -89.93538600753003
          ],
          [
            73.09727127780108,
            -89.56633325433477
          ],
          [
            73.83407501665752,
            -89.1972528307941
          ],
          [
            74.29681550229505,
            -89.10503088237141
          ],
          [
            74.94272486413306,
            -88.82824584065187
          ],
          [
            75.40408522760698,
            -88.73599622188378
          ],
          [
            76.14226908862703,
            -88.36694346868853
          ],
          [
            76.69591001750109,
            -87.99788166913946
          ],
          [
            77.24955094637518,
            -87.62881986959039
          ],
          [
            77.6186489431033,
            -87.2597490236875
          ],
          [
            77.80320704079452,
            -86.79839689677819
          ],
          [
            78.17230807063169,
            -86.33705381622269
          ],
          [
            78.63367753343279,
            -85.96798749349671
          ],
          [
            79.00278462948808,
            -85.32209994363596
          ],
          [
            79.64869399132607,
            -85.04531490191643
          ],
          [
            80.01777985561797,
            -85.04533299462405
          ],
          [
            80.29460032005503,
            -84.86080209484952
          ],
          [
            80.65864356243418,
            -84.86708253449628
          ],
          [
            81.1248685115457,
            -84.76008206603716
          ],
          [
            81.61741875961283,
            -84.52278506029424
          ],
          [
            81.9904771030575,
            -84.15191305843143
          ],
          [
            82.29994104501519,
            -83.73814207939103
          ],
          [
            82.70342681366714,
            -83.37238764759758
          ],
          [
            82.95442942765027,
            -82.98591000726027
          ],
          [
            83.52772264230185,
            -82.65242820750461
          ],
          [
            83.98049918227122,
            -82.27458259730031
          ],
          [
            84.30313606661622,
            -81.76637705621371
          ],
          [
            84.69937343982616,
            -81.33378761383685
          ],
          [
            85.09284091332101,
            -81.07787567929097
          ],
          [
            85.64647577597698,
            -80.89335834904715
          ],
          [
            86.20011063863295,
            -80.70884101880333
          ],
          [
            86.75374550128893,
            -80.5243236885595
          ],
          [
            87.39965789623598,
            -80.15526641218734
          ],
          [
            88.137841757256,
            -79.7862136589921
          ],
          [
            88.41466828791116,
            -79.41713828991232
          ],
          [
            89.0605806828582,
            -79.04808101354014
          ],
          [
            89.42967867958633,
            -78.67901016763726
          ],
          [
            89.9833196084604,
            -78.3099483680882
          ],
          [
            90.35242063829759,
            -77.84860528753269
          ],
          [
            90.69073206985104,
            -77.4777470604614
          ],
          [
            91.10092181409512,
            -76.84197699236192
          ],
          [
            91.48614416293107,
            -76.25470936372226
          ],
          [
            91.78178073874572,
            -75.72892611074633
          ],
          [
            91.76976259962039,
            -75.3505470609616
          ],
          [
            91.69690089737975,
            -74.99642248952685
          ],
          [
            91.92114778657317,
            -74.43460949939295
          ],
          [
            92.2848160306931,
            -73.8343958081969
          ],
          [
            92.56709051261076,
            -73.14282987649453
          ],
          [
            92.84392310948401,
            -72.5892100381095
          ]
        ]
      },
      "properties": {
        "type": "variant",
        "id": 3,
        "color": "#44ff44",
        "vzdal_m": 3321,
        "prevyseni_m": 36,
        "cas_s": 853,
        "tempo_str": "4:16"
      }
    }
  ]
}