{
  "type": "FeatureCollection",
  "features": [
    {
      "type": "Feature",
      "geometry": {
        "type": "Point",
        "coordinates": [
          20.722730042268054,
          -79.88042630631581
        ]
      },
      "properties": {
        "type": "start",
        "isom": "204"
      }
    },
    {
      "type": "Feature",
      "geometry": {
        "type": "Point",
        "coordinates": [
          54.63232571107515,
          -21.693903845503783
        ]
      },
      "properties": {
        "type": "end",
        "isom": "111"
      }
    },
    {
      "type": "Feature",
      "geometry": {
        "type": "LineString",
        "coordinates": [
          [
            20.78071213055563,
            -79.93647632593645
          ],
          [
            21.518962341531495,
            -78.64463178910177
          ],
          [
            21.703567696237055,
            -77.72188518573415
          ],
          [
            22.25195929003392,
            -76.78477751914738
          ],
          [
            23.4064287779823,
            -76.35918306437239
          ],
          [
            23.54909444991918,
            -75.87639415709113
          ],
          [
            23.733673464956066,
            -75.32274630397518
          ],
          [
            23.91823931015862,
            -74.95364782598504
          ],
          [
            24.656450011631467,
            -74.21545141452783
          ],
          [
            25.02555536236789,
            -73.84635320879923
          ],
          [
            25.21012120757044,
            -73.4772547308091
          ],
          [
            25.39468705277299,
            -73.10815625281897
          ],
          [
            25.76377923367508,
            -72.9236074222162
          ],
          [
            26.317489939117067,
            -71.63176261311997
          ],
          [
            27.05571381042425,
            -70.70901682653694
          ],
          [
            27.424845500829353,
            -69.97081987055668
          ],
          [
            27.6094113460319,
            -69.60172139256656
          ],
          [
            27.609464025369252,
            -68.86352389206326
          ],
          [
            27.24046403330753,
            -67.75622709678525
          ],
          [
            26.871464041245805,
            -66.64893030150724
          ],
          [
            26.50246404918408,
            -65.54163350622923
          ],
          [
            26.317977222987558,
            -64.8034357334644
          ],
          [
            26.50254306819011,
            -64.43433725547426
          ],
          [
            26.687108913392656,
            -64.06523877748414
          ],
          [
            27.42534595453418,
            -62.95794361577527
          ],
          [
            28.163582995675704,
            -61.85064845406641
          ],
          [
            29.270846368547627,
            -61.481551337383905
          ],
          [
            30.009030730351803,
            -61.11245367617835
          ],
          [
            30.56274143579379,
            -59.820608867082136
          ],
          [
            30.931899465867566,
            -58.71331316085022
          ],
          [
            30.931925805536242,
            -58.34421441059857
          ],
          [
            31.11649165073879,
            -57.97511593260844
          ],
          [
            31.30109700544435,
            -57.05236932924083
          ],
          [
            31.485676020481243,
            -56.49872147612487
          ],
          [
            31.609482471779092,
            -55.99717516510643
          ],
          [
            32.27606700641097,
            -55.684698710003374
          ],
          [
            33.407607366916686,
            -54.93875324688345
          ],
          [
            34.153847705043994,
            -54.177434671379906
          ],
          [
            34.915083551159846,
            -53.479478933706616
          ],
          [
            36.088915839523025,
            -52.605546333575134
          ],
          [
            37.3663943898274,
            -51.84329644584155
          ],
          [
            38.24340283715309,
            -51.278379982357926
          ],
          [
            38.45545647172821,
            -51.035117320339275
          ],
          [
            38.58474065771859,
            -50.59976954509583
          ],
          [
            38.71041150216492,
            -49.423211143954354
          ],
          [
            39.175486534557606,
            -48.81872364090543
          ],
          [
            39.5531727713914,
            -48.633003366987374
          ],
          [
            39.95246481848055,
            -48.48957381274972
          ],
          [
            40.121081578261425,
            -48.43774839775955
          ],
          [
            40.51013631032598,
            -48.31817598030771
          ],
          [
            41.70963864678974,
            -48.14377723880879
          ],
          [
            42.66351001488436,
            -47.51844079300519
          ],
          [
            43.0042415046407,
            -46.85276705878863
          ],
          [
            43.7973161533004,
            -45.56302333882979
          ],
          [
            44.10857721415055,
            -45.17004536787085
          ],
          [
            44.578395123782215,
            -44.94631486205588
          ],
          [
            45.14168890519822,
            -44.86730999748083
          ],
          [
            45.862793611533924,
            -44.756388821880954
          ],
          [
            46.99990802551694,
            -44.581477476339984
          ],
          [
            47.74835200045576,
            -44.467937461087395
          ],
          [
            47.91058756173104,
            -43.949388198844325
          ],
          [
            48.09514023709926,
            -43.76483909598003
          ],
          [
            48.2797060823018,
            -43.395740617989894
          ],
          [
            48.46427192750435,
            -43.02664213999977
          ],
          [
            48.648837772706905,
            -42.65754366200964
          ],
          [
            48.833390448075114,
            -42.472994559145334
          ],
          [
            49.01795629327767,
            -42.103896081155206
          ],
          [
            49.202561647983224,
            -41.1811494777876
          ],
          [
            50.12529868515561,
            -40.62750271371774
          ],
          [
            50.30986453035816,
            -40.25840423572761
          ],
          [
            50.309917209695506,
            -39.520206735224306
          ],
          [
            50.49449622473241,
            -38.966558882108345
          ],
          [
            50.49454890406975,
            -38.22836138160504
          ],
          [
            51.23281228487995,
            -36.751967469644526
          ],
          [
            51.23289130388598,
            -35.64467121888957
          ],
          [
            51.4174834887572,
            -34.90647399064778
          ],
          [
            51.786654688665315,
            -33.61462890929005
          ],
          [
            51.6021678624688,
            -32.87643113652522
          ],
          [
            52.52495757897852,
            -31.584586871952048
          ],
          [
            53.078615605083165,
            -31.03093956335914
          ],
          [
            54.001392151758566,
            -29.923644673911802
          ],
          [
            54.18594482712677,
            -29.739095571047503
          ],
          [
            54.370510672329324,
            -29.369997093057375
          ],
          [
            54.370563351666675,
            -28.631799592554067
          ],
          [
            54.370616031004026,
            -27.89360209205076
          ],
          [
            54.18614237464184,
            -26.970854944160106
          ],
          [
            54.00166871827965,
            -26.048107796269445
          ],
          [
            53.81719506191746,
            -25.125360648378788
          ],
          [
            54.18635309199124,
            -24.01806494214688
          ],
          [
            54.186405771328594,
            -23.27986744164357
          ],
          [
            54.371011126034155,
            -22.35712083827596
          ],
          [
            54.55560331090538,
            -21.61892361003418
          ]
        ]
      },
      "properties": {
        "type": "variant",
        "id": 1,
        "color": "#ff4444",
        "vzdal_m": 2018,
        "prevyseni_m": 22,
        "cas_s": 554,
        "tempo_str": "4:34"
      }
    },
    {
      "type": "Feature",
      "geometry": {
        "type": "LineString",
        "coordinates": [
          [
            20.78071213055563,
            -79.93647632593645
          ],
          [
            21.518962341531495,
            -78.64463178910177
          ],
          [
            21.703567696237055,
            -77.72188518573415
          ],
          [
            22.25195929003392,
            -76.78477751914738
          ],
          [
            23.4064287779823,
            -76.35918306437239
          ],
          [
            23.54909444991918,
            -75.87639415709113
          ],
          [
            23.733673464956066,
            -75.32274630397518
          ],
          [
            23.91823931015862,
            -74.95364782598504
          ],
          [
            24.656450011631467,
            -74.21545141452783
          ],
          [
            25.02555536236789,
            -73.84635320879923
          ],
          [
            25.21012120757044,
            -73.4772547308091
          ],
          [
            25.39468705277299,
            -73.10815625281897
          ],
          [
            25.76377923367508,
            -72.9236074222162
          ],
          [
            26.317489939117067,
            -71.63176261311997
          ],
          [
            27.05571381042425,
            -70.70901682653694
          ],
          [
            27.978464017430973,
            -69.97082068734126
          ],
          [
            28.53212204353561,
            -69.41717337874836
          ],
          [
            28.901214224437698,
            -69.23262454814558
          ],
          [
            29.270306405339788,
            -69.0480757175428
          ],
          [
            29.639398586241875,
            -68.86352688694002
          ],
          [
            30.746661959113794,
            -68.49442977025751
          ],
          [
            30.931227804316343,
            -68.12533129226738
          ],
          [
            30.931280483653698,
            -67.38713379176407
          ],
          [
            30.931306823322373,
            -67.01803504151242
          ],
          [
            31.30039900422446,
            -66.83348621090965
          ],
          [
            31.484951679592672,
            -66.64893710804535
          ],
          [
            31.669504354960882,
            -66.46438800518104
          ],
          [
            31.854083369997767,
            -65.91074015206509
          ],
          [
            32.40772822626807,
            -65.541642218598
          ],
          [
            33.145938927740914,
            -64.8034458071408
          ],
          [
            33.884149629213766,
            -64.0652493956836
          ],
          [
            34.80692617588917,
            -62.95795450623625
          ],
          [
            34.99147885125738,
            -62.77340540337194
          ],
          [
            35.17604469645993,
            -62.40430692538182
          ],
          [
            35.17608420596294,
            -61.85065880000434
          ],
          [
            34.80707104406688,
            -60.927911379852155
          ],
          [
            35.36078174950887,
            -59.63606657075594
          ],
          [
            35.91449245495085,
            -58.34422176165973
          ],
          [
            36.652755835761056,
            -56.867827849699204
          ],
          [
            36.837321680963605,
            -56.49872937170908
          ],
          [
            36.65283485476708,
            -55.76053159894425
          ],
          [
            36.8374270396383,
            -55.02233437070247
          ],
          [
            36.83747971897566,
            -54.28413687019916
          ],
          [
            36.83755873798168,
            -53.1768406194442
          ],
          [
            36.83759824748469,
            -52.62319249406672
          ],
          [
            36.9317945846704,
            -52.10261561145094
          ],
          [
            37.80099137913502,
            -51.583977280228005
          ],
          [
            38.45545647172821,
            -51.035117320339275
          ],
          [
            38.58474065771859,
            -50.59976954509583
          ],
          [
            38.71041150216492,
            -49.423211143954354
          ],
          [
            39.175486534557606,
            -48.81872364090543
          ],
          [
            39.5531727713914,
            -48.633003366987374
          ],
          [
            39.95246481848055,
            -48.48957381274972
          ],
          [
            40.121081578261425,
            -48.43774839775955
          ],
          [
            40.51013631032598,
            -48.31817598030771
          ],
          [
            41.70963864678974,
            -48.14377723880879
          ],
          [
            42.66351001488436,
            -47.51844079300519
          ],
          [
            42.79330801734278,
            -47.30118095350974
          ],
          [
            43.55652350817414,
            -45.8520741182361
          ],
          [
            43.807608910351554,
            -45.55142706606898
          ],
          [
            43.736035604592175,
            -44.605065108855946
          ],
          [
            43.5540132113592,
            -44.450832521022384
          ],
          [
            43.8507184399858,
            -43.94938220909079
          ],
          [
            44.035310624857026,
            -43.21118498084901
          ],
          [
            44.219915979562586,
            -42.2884383774814
          ],
          [
            44.219929149396926,
            -42.10388900235557
          ],
          [
            44.404494994599474,
            -41.73479052436545
          ],
          [
            45.14275837540968,
            -40.25839661240493
          ],
          [
            46.06552175225074,
            -39.33565109808342
          ],
          [
            46.43469295215885,
            -38.04380601672568
          ],
          [
            46.803850982232625,
            -36.936510310493766
          ],
          [
            46.803890491735636,
            -36.38286218511629
          ],
          [
            46.61941683537345,
            -35.460115037225634
          ],
          [
            46.434930009176924,
            -34.72191726446081
          ],
          [
            46.25045635281474,
            -33.799170116570146
          ],
          [
            46.4350617075203,
            -32.87642351320254
          ],
          [
            46.80416705825672,
            -32.50732530747393
          ],
          [
            46.98873290345928,
            -32.1382268294838
          ],
          [
            47.726996284269475,
            -30.661832917523284
          ],
          [
            48.46525966507967,
            -29.18543900556277
          ],
          [
            49.018930861018646,
            -28.447242321844037
          ],
          [
            49.203496706221195,
            -28.07814384385391
          ],
          [
            49.94174691719706,
            -26.786299307019217
          ],
          [
            50.67999712817292,
            -25.49445477018453
          ],
          [
            50.86456297337547,
            -25.125356292194397
          ],
          [
            51.60282635418567,
            -23.648962380233883
          ],
          [
            52.525576561192395,
            -22.9107662410382
          ],
          [
            53.63286627373299,
            -22.172570374104037
          ],
          [
            54.55560331090538,
            -21.61892361003418
          ]
        ]
      },
      "properties": {
        "type": "variant",
        "id": 2,
        "color": "#4444ff",
        "vzdal_m": 1958,
        "prevyseni_m": 25,
        "cas_s": 554,
        "tempo_str": "4:42"
      }
    },
    {
      "type": "Feature",
      "geometry": {
        "type": "LineString",
        "coordinates": [
          [
            20.78071213055563,
            -79.93647632593645
          ],
          [
            21.518962341531495,
            -78.64463178910177
          ],
          [
            21.703567696237055,
            -77.72188518573415
          ],
          [
            22.25195929003392,
            -76.78477751914738
          ],
          [
            23.4064287779823,
            -76.35918306437239
          ],
          [
            23.54909444991918,
            -75.87639415709113
          ],
          [
            23.733673464956066,
            -75.32274630397518
          ],
          [
            23.91823931015862,
            -74.95364782598504
          ],
          [
            24.656450011631467,
            -74.21545141452783
          ],
          [
            25.02555536236789,
            -73.84635320879923
          ],
          [
            25.21012120757044,
            -73.4772547308091
          ],
          [
            25.39468705277299,
            -73.10815625281897
          ],
          [
            25.76377923367508,
            -72.9236074222162
          ],
          [
            26.317489939117067,
            -71.63176261311997
          ],
          [
            27.05571381042425,
            -70.70901682653694
          ],
          [
            27.424845500829353,
            -69.97081987055668
          ],
          [
            27.6094113460319,
            -69.60172139256656
          ],
          [
            27.609464025369252,
            -68.86352389206326
          ],
          [
            27.24046403330753,
            -67.75622709678525
          ],
          [
            26.871464041245805,
            -66.64893030150724
          ],
          [
            26.50246404918408,
            -65.54163350622923
          ],
          [
            26.133464057122357,
            -64.43433671095121
          ],
          [
            25.948990400760174,
            -63.51158956306056
          ],
          [
            25.395464072998912,
            -62.2197431203952
          ],
          [
            25.02646408093719,
            -61.1124463251172
          ],
          [
            24.65745091904113,
            -60.189698904965006
          ],
          [
            24.472977262678942,
            -59.26695175707436
          ],
          [
            24.288503606316752,
            -58.3442046091837
          ],
          [
            24.47310896102232,
            -57.42145800581609
          ],
          [
            24.473148470525327,
            -56.867809880438614
          ],
          [
            24.842319670433444,
            -55.57596479908087
          ],
          [
            24.657832844236918,
            -54.83776702631604
          ],
          [
            25.39608305521278,
            -53.54592248948135
          ],
          [
            25.949806930489107,
            -52.06952830525931
          ],
          [
            26.68803080179629,
            -51.146782518676275
          ],
          [
            26.688057141464967,
            -50.77768376842462
          ],
          [
            27.610833688140367,
            -49.67038887897728
          ],
          [
            27.795399533342913,
            -49.301290400987156
          ],
          [
            28.164491714245003,
            -49.11674157038437
          ],
          [
            28.34905755944755,
            -48.74764309239425
          ],
          [
            28.349110238784903,
            -48.00944559189094
          ],
          [
            28.533715593490466,
            -47.08669898852333
          ],
          [
            28.533728763324806,
            -46.902149613397505
          ],
          [
            28.90282094422689,
            -46.717600782794726
          ],
          [
            28.902873623564243,
            -45.97940328229142
          ],
          [
            28.53387363150252,
            -44.87210648701341
          ],
          [
            28.349360465637318,
            -44.503007464500236
          ],
          [
            28.533926310839867,
            -44.1339089865101
          ],
          [
            29.27217652181573,
            -42.84206444967542
          ],
          [
            30.010413562957257,
            -41.73476928796655
          ],
          [
            30.748676943767457,
            -40.258375376006036
          ],
          [
            31.486927154743313,
            -38.96653083917135
          ],
          [
            32.225137856216165,
            -38.22833442771414
          ],
          [
            32.96334855768902,
            -37.49013801625693
          ],
          [
            33.369118379851756,
            -36.775770106220605
          ],
          [
            33.11035203613272,
            -36.711542396745514
          ],
          [
            33.332519757597126,
            -36.198292934899186
          ],
          [
            33.70161193849921,
            -36.013744104296414
          ],
          [
            34.0707041194013,
            -35.829195273693635
          ],
          [
            34.439796300303385,
            -35.644646443090856
          ],
          [
            35.3625069978071,
            -35.46009842927265
          ],
          [
            36.46977037067902,
            -35.09100131259014
          ],
          [
            37.023388887280646,
            -35.091002129374715
          ],
          [
            37.39248106818273,
            -34.906453298771936
          ],
          [
            37.57702057371661,
            -34.90645357103347
          ],
          [
            37.946112754618696,
            -34.72190474043068
          ],
          [
            39.053376127490615,
            -34.35280762374818
          ],
          [
            39.976086824994326,
            -34.16825960992997
          ],
          [
            40.71424484712983,
            -34.16826069897607
          ],
          [
            41.63696871446787,
            -33.799163310032036
          ],
          [
            41.821534559670425,
            -33.43006483204191
          ],
          [
            42.55974526114327,
            -32.6918684205847
          ],
          [
            42.37524526511241,
            -32.138220022945696
          ],
          [
            42.55981111031496,
            -31.769121544955564
          ],
          [
            42.74440329518619,
            -31.030924316713786
          ],
          [
            42.92896914038873,
            -30.661825838723654
          ],
          [
            43.298100830793835,
            -29.923628882743397
          ],
          [
            43.482666675996384,
            -29.554530404753265
          ],
          [
            43.66720618153026,
            -29.55453067701479
          ],
          [
            44.03629836243235,
            -29.369981846412013
          ],
          [
            45.32812758050682,
            -28.631786251739378
          ],
          [
            46.61995679858129,
            -27.89359065706674
          ],
          [
            47.91178601665577,
            -27.1553950623941
          ],
          [
            49.019075729196366,
            -26.417199195459943
          ],
          [
            49.94182593620309,
            -25.679003056264257
          ],
          [
            51.049128818578026,
            -24.75625781420427
          ],
          [
            51.60282635418567,
            -23.648962380233883
          ],
          [
            52.525576561192395,
            -22.9107662410382
          ],
          [
            53.63286627373299,
            -22.172570374104037
          ],
          [
            54.55560331090538,
            -21.61892361003418
          ]
        ]
      },
      "properties": {
        "type": "variant",
        "id": 3,
        "color": "#44ff44",
        "vzdal_m": 2099,
        "prevyseni_m": 16,
        "cas_s": 568,
        "tempo_str": "4:30"
      }
    }
  ]
}