{
  "type": "FeatureCollection",
  "features": [
    {
      "type": "Feature",
      "geometry": {
        "type": "Point",
        "coordinates": [
          97.92764995985526,
          -68.95879035185602
        ]
      },
      "properties": {
        "type": "start",
        "isom": "109"
      }
    },
    {
      "type": "Feature",
      "geometry": {
        "type": "Point",
        "coordinates": [
          76.52214569870566,
          -63.35810820600917
        ]
      },
      "properties": {
        "type": "end",
        "isom": "418"
      }
    },
    {
      "type": "Feature",
      "geometry": {
        "type": "LineString",
        "coordinates": [
          [
            97.90334400164178,
            -68.94248889603954
          ],
          [
            97.25744677224,
            -68.85018499914858
          ],
          [
            96.70382404202026,
            -68.66561339078189
          ],
          [
            96.33473817772834,
            -68.66559529807427
          ],
          [
            95.96565534654549,
            -68.57330497071402
          ],
          [
            95.59656948225359,
            -68.5732868780064
          ],
          [
            95.13521518499776,
            -68.48099202746926
          ],
          [
            94.76612932070584,
            -68.48097393476162
          ],
          [
            94.30477502344999,
            -68.38867908422446
          ],
          [
            93.84342072619417,
            -68.2963842336873
          ],
          [
            93.38206642893833,
            -68.20408938315016
          ],
          [
            92.92071213168249,
            -68.11179453261302
          ],
          [
            92.18255253553491,
            -67.74266940858726
          ],
          [
            91.8134788036792,
            -67.37356237726914
          ],
          [
            91.4443929393873,
            -67.37354428456152
          ],
          [
            91.0753070750954,
            -67.3735261918539
          ],
          [
            90.70622121080348,
            -67.37350809914626
          ],
          [
            90.33713534651157,
            -67.37349000643864
          ],
          [
            89.96804948221967,
            -67.37347191373102
          ],
          [
            89.5989666510368,
            -67.28118158637078
          ],
          [
            89.13761235378098,
            -67.18888673583362
          ],
          [
            88.39945275763338,
            -66.81976161180788
          ],
          [
            87.84583609363173,
            -66.45064553413594
          ],
          [
            87.38449089570307,
            -66.08153397964091
          ],
          [
            87.01541716384737,
            -65.7124269483228
          ],
          [
            86.3695260006637,
            -65.43557858212657
          ],
          [
            85.90818080273502,
            -65.06646702763155
          ],
          [
            85.72364393680718,
            -64.88191351197247
          ],
          [
            85.17002423969647,
            -64.60506966895318
          ],
          [
            84.70866994244064,
            -64.51277481841602
          ],
          [
            84.33958407814873,
            -64.5127567257084
          ],
          [
            83.8782297808929,
            -64.42046187517124
          ],
          [
            83.23233861770923,
            -64.14361350897502
          ],
          [
            82.67871588748946,
            -63.95904190060834
          ],
          [
            82.1250931572697,
            -63.77447029224165
          ],
          [
            81.66373886001388,
            -63.6821754417045
          ],
          [
            81.0178476968302,
            -63.40532707550829
          ],
          [
            80.64876183253828,
            -63.40530898280067
          ],
          [
            80.27967596824638,
            -63.40529089009305
          ],
          [
            79.91059010395448,
            -63.405272797385415
          ],
          [
            79.35696130751661,
            -63.40524565832399
          ],
          [
            78.89560094404268,
            -63.49749527709209
          ],
          [
            78.3419660813867,
            -63.682012607335906
          ],
          [
            77.9728802170948,
            -63.681994514628286
          ],
          [
            77.69606581887587,
            -63.681980945097564
          ],
          [
            77.51152591983896,
            -63.58969966409113
          ],
          [
            76.95790622272825,
            -63.31285582107182
          ],
          [
            76.58882035843635,
            -63.312837728364194
          ],
          [
            76.49654889236338,
            -63.31283320518729
          ]
        ]
      },
      "properties": {
        "type": "variant",
        "id": 1,
        "color": "#ff4444",
        "vzdal_m": 1241,
        "prevyseni_m": 0,
        "cas_s": 295,
        "tempo_str": "3:57"
      }
    },
    {
      "type": "Feature",
      "geometry": {
        "type": "LineString",
        "coordinates": [
          [
            97.90334400164178,
            -68.94248889603954
          ],
          [
            97.25744677224,
            -68.85018499914858
          ],
          [
            96.70382404202026,
            -68.66561339078189
          ],
          [
            96.33473817772834,
            -68.66559529807427
          ],
          [
            95.96565534654549,
            -68.57330497071402
          ],
          [
            95.59656948225359,
            -68.5732868780064
          ],
          [
            95.13521518499776,
            -68.48099202746926
          ],
          [
            94.67386088774192,
            -68.3886971769321
          ],
          [
            94.30477502344999,
            -68.38867908422446
          ],
          [
            93.84342072619417,
            -68.2963842336873
          ],
          [
            93.38206642893833,
            -68.20408938315016
          ],
          [
            93.01298056464643,
            -68.20407129044254
          ],
          [
            92.55162626739059,
            -68.11177643990538
          ],
          [
            92.18254040309868,
            -68.11175834719776
          ],
          [
            91.81345453880678,
            -68.11174025449014
          ],
          [
            91.16754517696879,
            -68.38852529620968
          ],
          [
            90.79845931267687,
            -68.38850720350206
          ],
          [
            90.42937344838496,
            -68.38848911079444
          ],
          [
            90.06028758409306,
            -68.38847101808682
          ],
          [
            89.69120171980116,
            -68.3884529253792
          ],
          [
            89.04531055661747,
            -68.11160455918298
          ],
          [
            88.58395625936164,
            -68.01930970864582
          ],
          [
            88.03033352914188,
            -67.83473810027913
          ],
          [
            87.47670473270402,
            -67.83471096121771
          ],
          [
            86.73854513655641,
            -67.46558583719195
          ],
          [
            86.00038554040883,
            -67.09646071316621
          ],
          [
            85.35449741033419,
            -66.72734011231736
          ],
          [
            84.80088074633255,
            -66.35822403464543
          ],
          [
            84.43180701447685,
            -65.98911700332731
          ],
          [
            83.78591888440222,
            -65.61999640247846
          ],
          [
            83.23229615418246,
            -65.43542479411178
          ],
          [
            82.67867342396272,
            -65.2508531857451
          ],
          [
            82.21731912670688,
            -65.15855833520794
          ],
          [
            81.84823326241498,
            -65.15854024250032
          ],
          [
            81.20234209923129,
            -64.8816918763041
          ],
          [
            80.74098780197546,
            -64.78939702576696
          ],
          [
            80.00282820582787,
            -64.4202719017412
          ],
          [
            79.63374234153595,
            -64.42025380903358
          ],
          [
            79.26465647724405,
            -64.42023571632596
          ],
          [
            78.80330521309727,
            -64.23566863113618
          ],
          [
            78.24968854909562,
            -63.866552553464246
          ],
          [
            77.69606581887587,
            -63.681980945097564
          ],
          [
            77.51152591983896,
            -63.58969966409113
          ],
          [
            76.95790622272825,
            -63.31285582107182
          ],
          [
            76.58882035843635,
            -63.312837728364194
          ],
          [
            76.49654889236338,
            -63.31283320518729
          ]
        ]
      },
      "properties": {
        "type": "variant",
        "id": 2,
        "color": "#4444ff",
        "vzdal_m": 1234,
        "prevyseni_m": 0,
        "cas_s": 304,
        "tempo_str": "4:06"
      }
    },
    {
      "type": "Feature",
      "geometry": {
        "type": "LineString",
        "coordinates": [
          [
            97.90334400164178,
            -68.94248889603954
          ],
          [
            97.25745283845812,
            -68.66564052984333
          ],
          [
            96.8883669741662,
            -68.66562243713571
          ],
          [
            96.51928110987429,
            -68.66560434442809
          ],
          [
            95.87336871492725,
            -69.03466162080025
          ],
          [
            95.22745935308923,
            -69.31144666251977
          ],
          [
            94.76609898961532,
            -69.40369628128788
          ],
          [
            94.39701312532338,
            -69.40367818858026
          ],
          [
            93.93565276184945,
            -69.49592780734835
          ],
          [
            93.65883533052146,
            -69.58818647247026
          ],
          [
            93.28974946622955,
            -69.58816837976264
          ],
          [
            92.73611460357358,
            -69.77268571000646
          ],
          [
            92.36702873928168,
            -69.77266761729884
          ],
          [
            92.27475727320869,
            -69.77266309412192
          ],
          [
            91.81339690973476,
            -69.86491271289003
          ],
          [
            91.44431104544286,
            -69.8648946201824
          ],
          [
            90.98295068196892,
            -69.9571442389505
          ],
          [
            90.42932188553105,
            -69.95711709988906
          ],
          [
            89.78343072234738,
            -69.68026873369284
          ],
          [
            89.22980799212762,
            -69.49569712532617
          ],
          [
            88.95299359390869,
            -69.49568355579545
          ],
          [
            88.86071606161761,
            -69.6802235019238
          ],
          [
            88.30709333139785,
            -69.49565189355711
          ],
          [
            88.21482186532488,
            -69.4956473703802
          ],
          [
            87.84574813346917,
            -69.12654033906209
          ],
          [
            87.38439383621335,
            -69.03424548852493
          ],
          [
            87.01530797192144,
            -69.03422739581731
          ],
          [
            86.64622210762954,
            -69.03420930310968
          ],
          [
            86.27713624333762,
            -69.03419121040206
          ],
          [
            85.63124508015395,
            -68.75734284420585
          ],
          [
            85.2621622489711,
            -68.66505251684559
          ],
          [
            84.70853951875134,
            -68.48048090847891
          ],
          [
            84.33945365445943,
            -68.48046281577129
          ],
          [
            83.78583092423968,
            -68.29589120740461
          ],
          [
            83.41674505994776,
            -68.29587311469699
          ],
          [
            82.86312839594612,
            -67.92675703702504
          ],
          [
            82.30950566572636,
            -67.74218542865836
          ],
          [
            81.94044406630688,
            -67.00398945872973
          ],
          [
            81.5713764006693,
            -66.45033795810636
          ],
          [
            81.20231176814076,
            -65.80441422283036
          ],
          [
            80.74096960332115,
            -65.34303043368271
          ],
          [
            80.37189890457451,
            -64.88165116771195
          ],
          [
            79.81828224057286,
            -64.51253509004003
          ],
          [
            79.17239107738918,
            -64.2356867238438
          ],
          [
            78.61876834716942,
            -64.05111511547712
          ],
          [
            77.88060875102182,
            -63.681989991451374
          ],
          [
            77.69606581887587,
            -63.681980945097564
          ],
          [
            77.51152591983896,
            -63.58969966409113
          ],
          [
            76.95790622272825,
            -63.31285582107182
          ],
          [
            76.58882035843635,
            -63.312837728364194
          ],
          [
            76.49654889236338,
            -63.31283320518729
          ]
        ]
      },
      "properties": {
        "type": "variant",
        "id": 3,
        "color": "#44ff44",
        "vzdal_m": 1315,
        "prevyseni_m": 0,
        "cas_s": 35126,
        "tempo_str": "445:02"
      }
    }
  ]
}