{
  "type": "FeatureCollection",
  "features": [
    {
      "type": "Feature",
      "geometry": {
        "type": "Point",
        "coordinates": [
          121.62990270522653,
          -205.75138204658796
        ]
      },
      "properties": {
        "type": "start",
        "isom": "204"
      }
    },
    {
      "type": "Feature",
      "geometry": {
        "type": "Point",
        "coordinates": [
          93.35989442878699,
          -235.6775729186158
        ]
      },
      "properties": {
        "type": "end",
        "isom": "204"
      }
    },
    {
      "type": "Feature",
      "geometry": {
        "type": "LineString",
        "coordinates": [
          [
            121.61819691234417,
            -205.79370599875512
          ],
          [
            121.06453171859759,
            -206.90094567588872
          ],
          [
            121.24905038587113,
            -207.63913259838972
          ],
          [
            121.80263671878225,
            -208.93097102016034
          ],
          [
            121.80261245390982,
            -209.66914889674626
          ],
          [
            120.87986746208941,
            -210.59182601290323
          ],
          [
            120.32621440077904,
            -211.32997675174386
          ],
          [
            119.5880123411046,
            -212.2526629138159
          ],
          [
            118.84982241386638,
            -212.80626013759502
          ],
          [
            117.8870926761466,
            -213.67220623385097
          ],
          [
            117.37340616208128,
            -215.02072140003204
          ],
          [
            117.0042960329169,
            -215.75888118478778
          ],
          [
            116.8197409683347,
            -216.12796107716568
          ],
          [
            116.26608184080624,
            -217.0506562851528
          ],
          [
            115.52787978113179,
            -217.97334244722484
          ],
          [
            114.789659522803,
            -219.4496620167363
          ],
          [
            114.23599432905642,
            -220.55690169386995
          ],
          [
            114.05143926447423,
            -220.92598158624784
          ],
          [
            113.31323113858168,
            -222.03321221746634
          ],
          [
            113.12868214021759,
            -222.21774764069772
          ],
          [
            112.75959020970755,
            -222.40227401801405
          ],
          [
            112.3904982791975,
            -222.58680039533036
          ],
          [
            111.65231441817738,
            -222.95585314996296
          ],
          [
            111.28322248766733,
            -223.14037952727926
          ],
          [
            111.09866742308513,
            -223.50945941965713
          ],
          [
            110.36047142962882,
            -224.24760111258271
          ],
          [
            109.62227543617247,
            -224.98574280550827
          ],
          [
            108.14590164791416,
            -225.90839278391996
          ],
          [
            107.22316878852997,
            -226.46198096178398
          ],
          [
            105.56225813434378,
            -227.2000774251341
          ],
          [
            104.45498234281362,
            -227.75365655708302
          ],
          [
            103.16315755291937,
            -228.49177111226334
          ],
          [
            102.4249858243355,
            -228.49173492860297
          ],
          [
            102.05589389382543,
            -228.67626130591933
          ],
          [
            101.5022590311694,
            -228.8607786373205
          ],
          [
            101.31771003280534,
            -229.04531406055193
          ],
          [
            100.57952010556711,
            -229.598911284331
          ],
          [
            100.02588524291109,
            -229.78342861573222
          ],
          [
            99.47220791672828,
            -231.25975723115877
          ],
          [
            98.73401192327196,
            -231.99789892408435
          ],
          [
            97.62673006552367,
            -232.73602252517975
          ],
          [
            97.25763813501364,
            -232.92054890249605
          ],
          [
            96.88854620450358,
            -233.10507527981235
          ],
          [
            95.96581334511939,
            -233.65866345767637
          ],
          [
            95.22761128544495,
            -234.58134961974844
          ],
          [
            94.30487842606075,
            -235.1349377976124
          ],
          [
            93.38214556667657,
            -235.6885259754764
          ]
        ]
      },
      "properties": {
        "type": "variant",
        "id": 1,
        "color": "#ff4444",
        "vzdal_m": 1198,
        "prevyseni_m": 20,
        "cas_s": 355,
        "tempo_str": "4:55"
      }
    },
    {
      "type": "Feature",
      "geometry": {
        "type": "LineString",
        "coordinates": [
          [
            121.61819691234417,
            -205.79370599875512
          ],
          [
            120.6954761853962,
            -205.97820523832615
          ],
          [
            119.95730445681232,
            -205.9781690546658
          ],
          [
            119.21913272822843,
            -205.9781328710055
          ],
          [
            118.29641200128046,
            -206.1626321105765
          ],
          [
            117.37369127433251,
            -206.34713135014755
          ],
          [
            116.82005641167649,
            -206.53164868154877
          ],
          [
            116.45096448116644,
            -206.71617505886508
          ],
          [
            115.52822555556412,
            -207.45430770587558
          ],
          [
            115.15912755883596,
            -207.82337855233834
          ],
          [
            114.79003562832591,
            -208.00790492965464
          ],
          [
            114.60548662996183,
            -208.19244035288605
          ],
          [
            114.23639469945176,
            -208.37696673020235
          ],
          [
            113.49819870599545,
            -209.11510842312794
          ],
          [
            112.2063799823193,
            -209.66867850916177
          ],
          [
            111.09911025700725,
            -210.0377131719642
          ],
          [
            109.62274253496705,
            -210.77581868122942
          ],
          [
            108.51545461100068,
            -211.6984867514713
          ],
          [
            107.77726468376244,
            -212.2520839752504
          ],
          [
            107.03906869030612,
            -212.99022566817595
          ],
          [
            106.85451362572392,
            -213.35930556055385
          ],
          [
            106.11631763226761,
            -214.0974472534794
          ],
          [
            105.37812163881127,
            -214.83558894640495
          ],
          [
            104.6399074467006,
            -216.12736404677
          ],
          [
            104.2707912513181,
            -217.0500683006722
          ],
          [
            104.08621798808157,
            -217.9727816004895
          ],
          [
            103.90164472484504,
            -218.8954949003068
          ],
          [
            103.90162652619073,
            -219.44912830774624
          ],
          [
            103.16340626786194,
            -220.9254478772577
          ],
          [
            102.79429613869755,
            -221.66360766201345
          ],
          [
            102.60974107411535,
            -222.03268755439134
          ],
          [
            102.42518600953316,
            -222.40176744676918
          ],
          [
            101.68698394985871,
            -223.32445360884125
          ],
          [
            100.94876369152993,
            -224.80077317835273
          ],
          [
            100.2105616318555,
            -225.72345934042477
          ],
          [
            99.28782270625321,
            -226.46159198743527
          ],
          [
            98.73416964494284,
            -227.19974272627593
          ],
          [
            97.9959675852684,
            -228.12242888834797
          ],
          [
            97.25777765803018,
            -228.67602611212703
          ],
          [
            96.51957559835574,
            -229.59871227419913
          ],
          [
            96.33502053377354,
            -229.96779216657697
          ],
          [
            96.15046546919137,
            -230.33687205895487
          ],
          [
            96.15045940297325,
            -230.52141652810133
          ],
          [
            95.96590433839106,
            -230.89049642047917
          ],
          [
            95.59680027544476,
            -231.44411173608844
          ],
          [
            95.22770834493474,
            -231.62863811340478
          ],
          [
            94.8794925986632,
            -232.71594081982798
          ],
          [
            94.12036582500534,
            -234.21220640596493
          ],
          [
            93.38214556667657,
            -235.6885259754764
          ]
        ]
      },
      "properties": {
        "type": "variant",
        "id": 2,
        "color": "#4444ff",
        "vzdal_m": 1188,
        "prevyseni_m": 28,
        "cas_s": 349,
        "tempo_str": "4:53"
      }
    },
    {
      "type": "Feature",
      "geometry": {
        "type": "LineString",
        "coordinates": [
          [
            121.61819691234417,
            -205.79370599875512
          ],
          [
            120.69543372186942,
            -207.2700165223515
          ],
          [
            120.14175639568663,
            -208.7463451377781
          ],
          [
            119.40354826979407,
            -209.8535757689966
          ],
          [
            118.48080934419178,
            -210.5917084160071
          ],
          [
            117.74261335073544,
            -211.32985010893265
          ],
          [
            117.1889602894251,
            -212.0680008477733
          ],
          [
            116.81986229269693,
            -212.4370716942361
          ],
          [
            116.63530722811473,
            -212.806151586614
          ],
          [
            116.43851710278867,
            -213.21515186476893
          ],
          [
            116.5192748223333,
            -213.40309072206165
          ],
          [
            116.26619103273222,
            -213.7288558405162
          ],
          [
            115.34345210712993,
            -214.4669884875267
          ],
          [
            113.86708438508971,
            -215.2050939967919
          ],
          [
            113.49799245457966,
            -215.38962037410818
          ],
          [
            112.75979646112333,
            -216.12776206703379
          ],
          [
            111.83705753552103,
            -216.86589471404423
          ],
          [
            110.91432467613684,
            -217.41948289190825
          ],
          [
            110.54523274562679,
            -217.60400926922455
          ],
          [
            110.17613474889862,
            -217.9730801156873
          ],
          [
            109.80704281838855,
            -218.15760649300367
          ],
          [
            109.43793268922418,
            -218.8957662777594
          ],
          [
            109.06884075871413,
            -219.0802926550757
          ],
          [
            108.33063263282158,
            -220.1875232862942
          ],
          [
            108.14607756823938,
            -220.5566031786721
          ],
          [
            107.40788157478306,
            -221.29474487159766
          ],
          [
            106.30059971703477,
            -222.03286847269305
          ],
          [
            105.56239765736034,
            -222.95555463476512
          ],
          [
            104.8241895314678,
            -224.06278526598362
          ],
          [
            104.27053647015742,
            -224.8009360048243
          ],
          [
            103.16325461240916,
            -225.53905960591968
          ],
          [
            101.87142982251493,
            -226.2771741611
          ],
          [
            101.50233789200486,
            -226.4617005384163
          ],
          [
            100.76412976611232,
            -227.5689311696348
          ],
          [
            100.57957470153012,
            -227.9380110620127
          ],
          [
            99.84137870807378,
            -228.67615275493824
          ],
          [
            99.103158449745,
            -230.15247232444975
          ],
          [
            98.91860338516283,
            -230.52155221682762
          ],
          [
            99.10313418487256,
            -230.89065020103567
          ],
          [
            98.91857912029036,
            -231.2597300934135
          ],
          [
            98.5494750573441,
            -231.8133454090228
          ],
          [
            98.3649199927619,
            -232.18242530140066
          ],
          [
            97.25763813501364,
            -232.92054890249605
          ],
          [
            96.88854620450358,
            -233.10507527981235
          ],
          [
            95.96581334511939,
            -233.65866345767637
          ],
          [
            95.22761735166307,
            -234.39680515060195
          ],
          [
            94.30487235984265,
            -235.31948226675888
          ],
          [
            93.38214556667657,
            -235.6885259754764
          ]
        ]
      },
      "properties": {
        "type": "variant",
        "id": 3,
        "color": "#44ff44",
        "vzdal_m": 1153,
        "prevyseni_m": 25,
        "cas_s": 363,
        "tempo_str": "5:14"
      }
    }
  ]
}