{
  "type": "FeatureCollection",
  "features": [
    {
      "type": "Feature",
      "geometry": {
        "type": "Point",
        "coordinates": [
          192.03771404185946,
          -96.98321573571961
        ]
      },
      "properties": {
        "type": "start",
        "isom": "109"
      }
    },
    {
      "type": "Feature",
      "geometry": {
        "type": "Point",
        "coordinates": [
          152.14448548065718,
          -159.62746402696288
        ]
      },
      "properties": {
        "type": "end",
        "isom": "109"
      }
    },
    {
      "type": "Feature",
      "geometry": {
        "type": "LineString",
        "coordinates": [
          [
            192.1171760607908,
            -96.91592474189578
          ],
          [
            191.9326027975543,
            -97.83863804171308
          ],
          [
            192.1171153986097,
            -98.76136943336057
          ],
          [
            192.11709113373726,
            -99.49954730994648
          ],
          [
            192.11706686886484,
            -100.23772518653239
          ],
          [
            192.30157946992023,
            -101.16045657817988
          ],
          [
            192.3015552050478,
            -101.89863445476578
          ],
          [
            192.30153094017535,
            -102.6368123313517
          ],
          [
            192.3015066753029,
            -103.37499020793761
          ],
          [
            192.30148241043048,
            -104.11316808452352
          ],
          [
            192.30145814555803,
            -104.85134596110944
          ],
          [
            192.30143388068555,
            -105.58952383769535
          ],
          [
            192.3014096158131,
            -106.32770171428128
          ],
          [
            192.1168363525766,
            -107.25041501409858
          ],
          [
            192.11681208770418,
            -107.98859289068449
          ],
          [
            192.11678782283172,
            -108.7267707672704
          ],
          [
            192.11676355795925,
            -109.46494864385632
          ],
          [
            192.1167392930868,
            -110.20312652044223
          ],
          [
            191.9321720960684,
            -110.94129535111306
          ],
          [
            192.11669076334192,
            -111.67948227361406
          ],
          [
            191.93211750010542,
            -112.60219557343136
          ],
          [
            191.93210536766918,
            -112.97128451172432
          ],
          [
            191.56299523850478,
            -113.70944429648006
          ],
          [
            191.9320689703605,
            -114.07855132660319
          ],
          [
            191.9320447054881,
            -114.8167292031891
          ],
          [
            192.1165633727616,
            -115.5549161256901
          ],
          [
            191.93199617574317,
            -116.29308495636093
          ],
          [
            191.93197191087071,
            -117.03126283294684
          ],
          [
            191.74740471385232,
            -117.76943166361767
          ],
          [
            191.93192338112584,
            -118.50761858611867
          ],
          [
            191.9318991162534,
            -119.24579646270458
          ],
          [
            192.1164177835269,
            -119.98398338520559
          ],
          [
            191.93185058650852,
            -120.7221522158764
          ],
          [
            191.93182632163607,
            -121.46033009246233
          ],
          [
            191.93180205676362,
            -122.19850796904824
          ],
          [
            191.45205812377142,
            -123.21787009187575
          ],
          [
            190.65911191071228,
            -123.91088328211987
          ],
          [
            189.79722996472586,
            -124.87903889340537
          ],
          [
            189.05941033530203,
            -126.20971275583011
          ],
          [
            188.3103214890371,
            -127.64390509029816
          ],
          [
            188.08084737729334,
            -128.65881650400325
          ],
          [
            187.91814388149922,
            -129.40674058093916
          ],
          [
            187.79892857281382,
            -129.8126688932183
          ],
          [
            187.61834945972583,
            -130.19358937847238
          ],
          [
            187.42888769845524,
            -130.56010464930407
          ],
          [
            187.27730183039444,
            -130.91335562565058
          ],
          [
            187.04071872304303,
            -131.29954428270557
          ],
          [
            186.91440587670743,
            -131.49757854388977
          ],
          [
            186.6846378281068,
            -131.87581283164604
          ],
          [
            186.52602469683123,
            -132.08050812789494
          ],
          [
            186.26363825408626,
            -132.41955972481713
          ],
          [
            185.17714698056642,
            -133.23241810795494
          ],
          [
            184.02952103599463,
            -133.8681631246758
          ],
          [
            183.1481637008766,
            -134.6340425255586
          ],
          [
            182.38769314008312,
            -135.3544496283252
          ],
          [
            181.5561283352501,
            -135.98356815967412
          ],
          [
            181.14095703316843,
            -136.29041655935205
          ],
          [
            180.7868269747514,
            -136.4836960406198
          ],
          [
            180.5735365426547,
            -136.62478014118741
          ],
          [
            180.23188560092873,
            -136.85086087474653
          ],
          [
            179.45929632018448,
            -137.57780868367803
          ],
          [
            178.7166804897226,
            -138.3264638004636
          ],
          [
            177.99775773326368,
            -139.08813654602903
          ],
          [
            177.18465766209707,
            -139.88575501467687
          ],
          [
            177.04212039522463,
            -139.96521633978682
          ],
          [
            176.74082768410264,
            -140.2590058512546
          ],
          [
            176.18160908087034,
            -141.11165522834264
          ],
          [
            175.9267621410202,
            -141.43402145385863
          ],
          [
            175.4625006380037,
            -142.05310164460312
          ],
          [
            175.21609761135818,
            -142.37311056402413
          ],
          [
            174.2626548930099,
            -143.1842132474055
          ],
          [
            173.07724140051056,
            -143.46223963795524
          ],
          [
            172.32600958624892,
            -144.31420676543058
          ],
          [
            171.65471454064212,
            -145.10196529695853
          ],
          [
            170.77583841942612,
            -145.89915014815548
          ],
          [
            169.78585552467447,
            -146.37274791742658
          ],
          [
            169.41676359416442,
            -146.55727429474288
          ],
          [
            168.30948173641613,
            -147.29539789583828
          ],
          [
            167.38675494325008,
            -147.66444160455578
          ],
          [
            167.202205944886,
            -147.84897702778719
          ],
          [
            166.64855894979374,
            -148.40258329748136
          ],
          [
            166.2794670192837,
            -148.58710967479766
          ],
          [
            166.0949119547015,
            -148.95618956717553
          ],
          [
            165.72581395797334,
            -149.32526041363832
          ],
          [
            165.54125889339113,
            -149.6943403060162
          ],
          [
            164.80308109858913,
            -149.8788485915023
          ],
          [
            164.61852603400695,
            -150.24792848388017
          ],
          [
            164.2494280372788,
            -150.616999330343
          ],
          [
            163.88033610676874,
            -150.8015257076593
          ],
          [
            163.14214011331242,
            -151.53966740058485
          ],
          [
            162.77304818280234,
            -151.72419377790115
          ],
          [
            161.29668046076213,
            -152.4622992871664
          ],
          [
            160.37394153515984,
            -153.20043193417686
          ],
          [
            159.63573947548537,
            -154.1231180962489
          ],
          [
            158.5284576177371,
            -154.8612416973443
          ],
          [
            157.7902616242808,
            -155.59938339026988
          ],
          [
            156.86752269867847,
            -156.33751603728035
          ],
          [
            156.12932670522216,
            -157.07565773020593
          ],
          [
            155.02203878125576,
            -157.99832580044782
          ],
          [
            154.2838670526719,
            -157.99828961678745
          ],
          [
            153.91476905594374,
            -158.36736046325024
          ],
          [
            153.73021399136152,
            -158.7364403556281
          ],
          [
            153.73020792514342,
            -158.9209848247746
          ],
          [
            152.80748113197734,
            -159.29002853349212
          ],
          [
            152.06929727095724,
            -159.65908128812472
          ]
        ]
      },
      "properties": {
        "type": "variant",
        "id": 1,
        "color": "#ff4444",
        "vzdal_m": 2227,
        "prevyseni_m": 3,
        "cas_s": 581,
        "tempo_str": "4:20"
      }
    },
    {
      "type": "Feature",
      "geometry": {
        "type": "LineString",
        "coordinates": [
          [
            192.1171760607908,
            -96.91592474189578
          ],
          [
            191.5635048008261,
            -98.20770888817586
          ],
          [
            191.37894973624392,
            -98.57678878055376
          ],
          [
            190.82529667493358,
            -99.3149395193944
          ],
          [
            190.45617441333297,
            -100.42218824244308
          ],
          [
            190.2716193487508,
            -100.79126813482095
          ],
          [
            190.0870642841686,
            -101.16034802719885
          ],
          [
            189.9025092195864,
            -101.52942791957672
          ],
          [
            189.7179541550042,
            -101.89850781195459
          ],
          [
            188.97973996289352,
            -103.19028291231957
          ],
          [
            188.61061770129288,
            -104.29753163536829
          ],
          [
            188.0569464413282,
            -105.58931578164837
          ],
          [
            187.8723731780917,
            -106.51202908146567
          ],
          [
            187.87234891321924,
            -107.25020695805159
          ],
          [
            187.6877756499827,
            -108.17292025786888
          ],
          [
            186.94955539165392,
            -109.64923982738038
          ],
          [
            186.58043313005334,
            -110.75648855042907
          ],
          [
            185.84221287172454,
            -112.23280811994056
          ],
          [
            185.10399867961388,
            -113.52458322030556
          ],
          [
            184.1812597540116,
            -114.26271586731605
          ],
          [
            182.88943496411733,
            -115.00083042249635
          ],
          [
            182.151238970661,
            -115.73897211542192
          ],
          [
            180.85941418076675,
            -116.47708667060222
          ],
          [
            180.30578538432886,
            -116.47705953285698
          ],
          [
            179.4971220724145,
            -117.19065657999083
          ],
          [
            179.10709287304007,
            -118.29876681971247
          ],
          [
            178.8713642525675,
            -119.20820351738656
          ],
          [
            178.5212017975201,
            -120.33781188084721
          ],
          [
            178.4024513522292,
            -121.25587307328392
          ],
          [
            178.33310219297186,
            -122.01329691929803
          ],
          [
            178.4920475274932,
            -122.73119076972236
          ],
          [
            178.93724812903798,
            -123.4621213204347
          ],
          [
            179.09763296128887,
            -123.8359965895414
          ],
          [
            179.19238481276543,
            -124.22075232551114
          ],
          [
            179.20716295901948,
            -124.59661362320735
          ],
          [
            179.19453705595578,
            -125.33485274755027
          ],
          [
            179.14973277426208,
            -126.07037114253676
          ],
          [
            179.07334622922548,
            -126.78603583391967
          ],
          [
            178.90850352439608,
            -127.70481257693513
          ],
          [
            178.7468852286882,
            -128.1748906572464
          ],
          [
            178.54202499044487,
            -128.5009408745767
          ],
          [
            177.7803068708046,
            -129.43710969363627
          ],
          [
            176.97399403215968,
            -130.10439662102775
          ],
          [
            176.58533624324946,
            -130.68263770544752
          ],
          [
            176.46674740289595,
            -131.252290681145
          ],
          [
            176.37971592828123,
            -131.60533400045588
          ],
          [
            175.32259238919383,
            -132.71672857803975
          ],
          [
            174.39985346359154,
            -133.45486122505022
          ],
          [
            173.66165747013522,
            -134.1930029179758
          ],
          [
            172.92346147667888,
            -134.93114461090136
          ],
          [
            172.18526548322257,
            -135.66928630382694
          ],
          [
            171.44706342354812,
            -136.59197246589898
          ],
          [
            170.15523863365388,
            -137.3300870210793
          ],
          [
            169.97068356907167,
            -137.69916691345716
          ],
          [
            169.6015855723435,
            -138.06823775991995
          ],
          [
            169.23249364183346,
            -138.25276413723626
          ],
          [
            168.86337138023285,
            -139.36001286028494
          ],
          [
            168.12515112190408,
            -140.83633242979644
          ],
          [
            167.38694906222963,
            -141.75901859186848
          ],
          [
            166.4642040704092,
            -142.68169570802544
          ],
          [
            166.09510000746295,
            -143.2353110236347
          ],
          [
            165.91054494288076,
            -143.6043909160126
          ],
          [
            165.72598987829855,
            -143.97347080839046
          ],
          [
            165.55657413243802,
            -144.48263390137708
          ],
          [
            164.23543456925793,
            -144.76417674108185
          ],
          [
            163.5003018653172,
            -144.83025887909048
          ],
          [
            163.3209005035302,
            -144.86062431905486
          ],
          [
            162.94172400189484,
            -144.91989314619877
          ],
          [
            162.21047884374156,
            -145.02354141441157
          ],
          [
            162.03057788653686,
            -145.0524337404713
          ],
          [
            161.28204560150192,
            -145.1726929828169
          ],
          [
            160.92782511275843,
            -145.44959136777
          ],
          [
            160.37415991901184,
            -146.55683104490365
          ],
          [
            160.18960485442963,
            -146.92591093728151
          ],
          [
            160.00503159119313,
            -147.84862423709882
          ],
          [
            160.00500732632065,
            -148.58680211368474
          ],
          [
            159.82043406308415,
            -149.50951541350204
          ],
          [
            159.45131180148354,
            -150.61676413655073
          ],
          [
            158.89764054151885,
            -151.90854828283082
          ],
          [
            158.89761627664637,
            -152.64672615941674
          ],
          [
            158.71306121206422,
            -153.0158060517946
          ],
          [
            157.7903222864619,
            -153.7539386988051
          ],
          [
            157.23666315893342,
            -154.67663390679223
          ],
          [
            156.6830222300593,
            -155.04569570733992
          ],
          [
            155.94481410416674,
            -156.15292633855844
          ],
          [
            155.48569585779813,
            -157.03448555956152
          ],
          [
            155.20659991205608,
            -157.44470143892343
          ],
          [
            154.46840998481784,
            -157.99829866270255
          ],
          [
            154.2838670526719,
            -157.99828961678745
          ],
          [
            153.91476905594374,
            -158.36736046325024
          ],
          [
            153.73021399136152,
            -158.7364403556281
          ],
          [
            153.73020792514342,
            -158.9209848247746
          ],
          [
            152.80748113197734,
            -159.29002853349212
          ],
          [
            152.06929727095724,
            -159.65908128812472
          ]
        ]
      },
      "properties": {
        "type": "variant",
        "id": 2,
        "color": "#4444ff",
        "vzdal_m": 2174,
        "prevyseni_m": 0,
        "cas_s": 576,
        "tempo_str": "4:24"
      }
    },
    {
      "type": "Feature",
      "geometry": {
        "type": "LineString",
        "coordinates": [
          [
            192.1171760607908,
            -96.91592474189578
          ],
          [
            191.5635048008261,
            -98.20770888817586
          ],
          [
            191.37894973624392,
            -98.57678878055376
          ],
          [
            190.82529667493358,
            -99.3149395193944
          ],
          [
            190.45618047955108,
            -100.23764377329661
          ],
          [
            190.2716254149689,
            -100.60672366567448
          ],
          [
            189.5334415539488,
            -100.9757764203071
          ],
          [
            189.3488864893666,
            -101.34485631268497
          ],
          [
            188.61067836347402,
            -102.45208694390351
          ],
          [
            187.87247023758147,
            -103.55931757512202
          ],
          [
            187.1342621116889,
            -104.66654820634055
          ],
          [
            186.39604791957825,
            -105.95832330670554
          ],
          [
            185.6578519261219,
            -106.69646499963112
          ],
          [
            184.9196559326656,
            -107.43460669255668
          ],
          [
            183.99691700706327,
            -108.17273933956717
          ],
          [
            183.44326394575293,
            -108.91089007840782
          ],
          [
            182.7050618860785,
            -109.83357624047987
          ],
          [
            181.96687195884027,
            -110.38717346425896
          ],
          [
            181.22866383294772,
            -111.49440409547748
          ],
          [
            180.49044357461895,
            -112.97072366498898
          ],
          [
            180.12134557789076,
            -113.33979451145176
          ],
          [
            179.7522536473807,
            -113.52432088876806
          ],
          [
            179.38316171687066,
            -113.70884726608435
          ],
          [
            179.01406978636064,
            -113.89337364340068
          ],
          [
            178.64497785585056,
            -114.07790002071698
          ],
          [
            178.39269679664847,
            -114.57023155643192
          ],
          [
            178.16716646352887,
            -114.46350575799097
          ],
          [
            177.72223893024827,
            -114.81603266772747
          ],
          [
            177.53768993188416,
            -115.00056809095885
          ],
          [
            177.16859800137414,
            -115.18509446827515
          ],
          [
            176.4303959416997,
            -116.10778063034721
          ],
          [
            176.2458408771175,
            -116.47686052272508
          ],
          [
            175.87674894660745,
            -116.66138690004138
          ],
          [
            175.8767368141712,
            -117.03047583833434
          ],
          [
            175.6921756833709,
            -117.58410019985868
          ],
          [
            175.6921635509347,
            -117.95318913815164
          ],
          [
            175.5076084863525,
            -118.32226903052951
          ],
          [
            174.95396149126023,
            -118.8758753002237
          ],
          [
            174.5848634945321,
            -119.24494614668647
          ],
          [
            174.03121043322173,
            -119.98309688552712
          ],
          [
            173.2930144397654,
            -120.7212385784527
          ],
          [
            172.73937351089126,
            -121.09030037900038
          ],
          [
            172.3702755141631,
            -121.45937122546319
          ],
          [
            172.18573258201712,
            -121.4593621795481
          ],
          [
            171.81664065150707,
            -121.6438885568644
          ],
          [
            170.89390172590475,
            -122.38202120387488
          ],
          [
            170.15570573244844,
            -123.12016289680044
          ],
          [
            169.4175097389921,
            -123.85830458972602
          ],
          [
            168.67931374553578,
            -124.59644628265158
          ],
          [
            167.94111168586133,
            -125.51913244472364
          ],
          [
            167.2029096261869,
            -126.44181860679569
          ],
          [
            166.46470150029435,
            -127.5490492380142
          ],
          [
            165.7264933744018,
            -128.65627986923275
          ],
          [
            164.98827311607303,
            -130.13259943874422
          ],
          [
            164.9882670498549,
            -130.31714390789068
          ],
          [
            164.8037119852727,
            -130.68622380026855
          ],
          [
            164.6191569206905,
            -131.05530369264642
          ],
          [
            164.06549779316205,
            -131.97799890063357
          ],
          [
            163.88094272857984,
            -132.34707879301143
          ],
          [
            162.95820380297755,
            -133.08521144002194
          ],
          [
            162.77363053974102,
            -134.00792473983924
          ],
          [
            162.7736184073048,
            -134.3770136781322
          ],
          [
            162.40452647679476,
            -134.5615400554485
          ],
          [
            161.8508855479206,
            -134.9306018559962
          ],
          [
            161.48179361741057,
            -135.1151282333125
          ],
          [
            160.74359762395423,
            -135.85326992623806
          ],
          [
            160.0053955642798,
            -136.77595608831012
          ],
          [
            159.26718743838725,
            -137.88318671952862
          ],
          [
            158.71352831085878,
            -138.80588192751577
          ],
          [
            157.97530805252998,
            -140.28220149702724
          ],
          [
            157.79073478929345,
            -141.20491479684458
          ],
          [
            157.0525145309647,
            -142.68123436635602
          ],
          [
            156.31430033885403,
            -143.97300946672104
          ],
          [
            155.76062907888934,
            -145.26479361300113
          ],
          [
            155.57607401430712,
            -145.633873505379
          ],
          [
            154.8378780208508,
            -146.37201519830458
          ],
          [
            154.65332295626862,
            -146.74109509068245
          ],
          [
            154.6533168900505,
            -146.9256395598289
          ],
          [
            154.46876182546833,
            -147.29471945220678
          ],
          [
            154.28420676088612,
            -147.66379934458465
          ],
          [
            154.46873756059586,
            -148.0328973287927
          ],
          [
            154.28416429735935,
            -148.95561062861
          ],
          [
            154.2841400324869,
            -149.69378850519593
          ],
          [
            154.28411576761445,
            -150.43196638178185
          ],
          [
            154.58591092686402,
            -151.58203642050967
          ],
          [
            155.11013204215496,
            -152.40606526415087
          ],
          [
            155.29928495656776,
            -152.8559439069745
          ],
          [
            155.31792139458278,
            -153.5817597371316
          ],
          [
            155.3409466961077,
            -154.3026562906173
          ],
          [
            155.37407243494323,
            -155.23078844274906
          ],
          [
            155.40038502786066,
            -155.96802674598794
          ],
          [
            155.20663630936474,
            -156.33743462404456
          ],
          [
            154.83753831263658,
            -156.70650547050738
          ],
          [
            154.6529832480544,
            -157.07558536288525
          ],
          [
            153.91476905594374,
            -158.36736046325024
          ],
          [
            153.73021399136152,
            -158.7364403556281
          ],
          [
            153.73020792514342,
            -158.9209848247746
          ],
          [
            152.80748113197734,
            -159.29002853349212
          ],
          [
            152.06929727095724,
            -159.65908128812472
          ]
        ]
      },
      "properties": {
        "type": "variant",
        "id": 3,
        "color": "#44ff44",
        "vzdal_m": 2139,
        "prevyseni_m": 2,
        "cas_s": 607,
        "tempo_str": "4:43"
      }
    }
  ]
}