{
  "type": "FeatureCollection",
  "features": [
    {
      "type": "Feature",
      "geometry": {
        "type": "Point",
        "coordinates": [
          11.057969280140457,
          -107.36414151953775
        ]
      },
      "properties": {
        "type": "start",
        "isom": "419"
      }
    },
    {
      "type": "Feature",
      "geometry": {
        "type": "Point",
        "coordinates": [
          33.563855695909844,
          -80.72071424409292
        ]
      },
      "properties": {
        "type": "end",
        "isom": "109"
      }
    },
    {
      "type": "Feature",
      "geometry": {
        "type": "LineString",
        "coordinates": [
          [
            11.074632653604153,
            -107.32348220206352
          ],
          [
            11.351468283586458,
            -106.67759012902586
          ],
          [
            11.720578412750795,
            -105.93943034451249
          ],
          [
            12.089685508806078,
            -105.29354279465173
          ],
          [
            12.458783505534198,
            -104.92447194874886
          ],
          [
            12.827881502262322,
            -104.55540110284599
          ],
          [
            13.196988598317606,
            -103.90951355298522
          ],
          [
            13.563009159834433,
            -103.25947094593562
          ],
          [
            13.548817115168976,
            -102.89340386572701
          ],
          [
            13.54325666486875,
            -102.52439881048457
          ],
          [
            13.56987489473357,
            -102.15675698667839
          ],
          [
            13.577332895641138,
            -101.78679854475281
          ],
          [
            13.561754971409835,
            -101.41837891073307
          ],
          [
            13.545212390250624,
            -101.05003319777634
          ],
          [
            13.49956302206381,
            -100.69087972318286
          ],
          [
            13.449382428971026,
            -100.2206374952792
          ],
          [
            13.431855689457759,
            -99.8504295549621
          ],
          [
            13.419304706345928,
            -99.4728323546719
          ],
          [
            13.472899399290625,
            -99.11119949177318
          ],
          [
            13.530994227038297,
            -98.75149232047417
          ],
          [
            13.573909892764094,
            -98.16877012918988
          ],
          [
            13.681480337411834,
            -97.7110053251386
          ],
          [
            13.788589897170779,
            -97.25320199488218
          ],
          [
            13.87618849972594,
            -96.90577711679228
          ],
          [
            14.109508487912583,
            -96.24713471317384
          ],
          [
            14.355504833513606,
            -95.5887023670578
          ],
          [
            14.57024863544538,
            -95.04704473816822
          ],
          [
            14.779375976551238,
            -94.50299057161716
          ],
          [
            14.958383537854347,
            -94.039539483972
          ],
          [
            15.16672227256548,
            -93.49475751893185
          ],
          [
            15.370616407678186,
            -92.91588613172648
          ],
          [
            15.5174867441569,
            -92.35752806359369
          ],
          [
            15.622445113799213,
            -91.89907271243344
          ],
          [
            15.730880041020866,
            -91.52126728448397
          ],
          [
            15.891341844435386,
            -91.18468771256879
          ],
          [
            15.984623224073687,
            -90.90431412016864
          ],
          [
            16.08203038850169,
            -90.53658698458833
          ],
          [
            16.231204203052968,
            -89.97357585579105
          ],
          [
            16.49110425883,
            -89.47967164187024
          ],
          [
            16.5882752251294,
            -89.39621881004629
          ],
          [
            16.796630701494305,
            -89.29448277131222
          ],
          [
            17.169382635304178,
            -89.2940718525406
          ],
          [
            17.524884798883434,
            -89.3056037286421
          ],
          [
            18.236089273428103,
            -89.00805786484754
          ],
          [
            18.613587338447815,
            -88.58300300317862
          ],
          [
            19.034421314311324,
            -88.26056712013606
          ],
          [
            19.785546796863322,
            -87.8721111424354
          ],
          [
            20.249193652830645,
            -87.51320719801122
          ],
          [
            20.588740300802986,
            -87.12486364049613
          ],
          [
            21.043181065619144,
            -86.70642455590718
          ],
          [
            21.40377692131443,
            -86.63637791075679
          ],
          [
            21.981880160021973,
            -86.52773220868694
          ],
          [
            22.31694393375454,
            -86.42144135497382
          ],
          [
            23.104765861970883,
            -86.18133964639179
          ],
          [
            23.71278934079939,
            -85.72876824667098
          ],
          [
            24.073513209531807,
            -85.3432660004194
          ],
          [
            24.751252262163657,
            -85.05685372540094
          ],
          [
            25.222037633852793,
            -84.7452291908722
          ],
          [
            25.402011294407938,
            -84.55633443411133
          ],
          [
            25.768758223604955,
            -83.99553356920967
          ],
          [
            26.07528629639223,
            -83.57965230188161
          ],
          [
            26.44882213627718,
            -83.2034471071905
          ],
          [
            26.853857125982405,
            -82.87211348236865
          ],
          [
            27.315226588783503,
            -82.50304715964268
          ],
          [
            27.868867517657577,
            -82.13398536009362
          ],
          [
            28.514779912604634,
            -81.76492808372144
          ],
          [
            29.252963773624664,
            -81.3958753305262
          ],
          [
            29.99114763464469,
            -81.02682257733093
          ],
          [
            30.544782497300663,
            -80.84230524708711
          ],
          [
            30.91386836159257,
            -80.84232333979475
          ],
          [
            31.28295422588448,
            -80.84234143250237
          ],
          [
            31.92886358772248,
            -80.56555639078283
          ],
          [
            32.297949452014386,
            -80.56557448349045
          ],
          [
            32.6670353163063,
            -80.56559257619807
          ],
          [
            33.0361211805982,
            -80.56561066890569
          ],
          [
            33.58974391081795,
            -80.75018227727237
          ]
        ]
      },
      "properties": {
        "type": "variant",
        "id": 1,
        "color": "#ff4444",
        "vzdal_m": 2119,
        "prevyseni_m": 31,
        "cas_s": 519,
        "tempo_str": "4:04"
      }
    },
    {
      "type": "Feature",
      "geometry": {
        "type": "LineString",
        "coordinates": [
          [
            11.074632653604153,
            -107.32348220206352
          ],
          [
            11.812816514624181,
            -106.95442944886828
          ],
          [
            12.181914511352305,
            -106.58535860296539
          ],
          [
            12.827826906299357,
            -106.21630132659324
          ],
          [
            13.566010767319389,
            -105.84724857339798
          ],
          [
            14.119651696193465,
            -105.4781867738489
          ],
          [
            14.733982863156674,
            -105.22297831240067
          ],
          [
            15.503744919051494,
            -104.83234897893412
          ],
          [
            16.24192878007152,
            -104.46329622573886
          ],
          [
            16.703298242872624,
            -104.09422990301287
          ],
          [
            17.072396239600746,
            -103.72515905711
          ],
          [
            17.45224599688745,
            -103.36466484358218
          ],
          [
            17.876976272830206,
            -102.93356307429198
          ],
          [
            18.27196169585809,
            -102.61795104257826
          ],
          [
            18.64105969258621,
            -102.24888019667539
          ],
          [
            19.010157689314333,
            -101.87980935077252
          ],
          [
            19.379264785369614,
            -101.23392180091176
          ],
          [
            19.656094349133813,
            -100.77257419717935
          ],
          [
            20.117463811934915,
            -100.40350787445337
          ],
          [
            20.486561808663037,
            -100.0344370285505
          ],
          [
            20.947931271464135,
            -99.66537070582453
          ],
          [
            21.514436363301858,
            -99.31666977954269
          ],
          [
            22.09278812087531,
            -98.98592217272646
          ],
          [
            22.45436362468621,
            -98.60011372603505
          ],
          [
            22.793528528942666,
            -98.18914330209569
          ],
          [
            23.122418200318037,
            -97.6978933192155
          ],
          [
            23.58786821045605,
            -97.03914253328293
          ],
          [
            23.857623440631336,
            -96.5556548039567
          ],
          [
            23.940277650888838,
            -96.34957631583514
          ],
          [
            24.122795936843744,
            -95.67983071428559
          ],
          [
            24.242921417019186,
            -95.23535830684956
          ],
          [
            24.2574081992349,
            -94.86689773962367
          ],
          [
            24.454422902562364,
            -94.31375297669464
          ],
          [
            24.8235330317267,
            -93.57559319218127
          ],
          [
            25.192643160891034,
            -92.8374334076679
          ],
          [
            25.469478790873346,
            -92.19154133463023
          ],
          [
            25.838582853819574,
            -91.6379260194221
          ],
          [
            26.207689949874858,
            -90.99203846956134
          ],
          [
            26.57680007903919,
            -90.25387868504797
          ],
          [
            26.761361209839468,
            -89.70025432348602
          ],
          [
            27.130465272785695,
            -89.14663900827789
          ],
          [
            27.591834735586797,
            -88.77757268555192
          ],
          [
            28.14547566446087,
            -88.40851088600284
          ],
          [
            28.514576694298047,
            -87.94716780544735
          ],
          [
            28.883680757244274,
            -87.39355249023922
          ],
          [
            29.345050220045376,
            -87.02448616751325
          ],
          [
            29.89869114891945,
            -86.65542436796417
          ],
          [
            30.45233207779353,
            -86.28636256841511
          ],
          [
            30.821439173848812,
            -85.64047501855435
          ],
          [
            31.19054323679504,
            -85.08685970334622
          ],
          [
            31.559650332850325,
            -84.44097215348548
          ],
          [
            31.928760462014658,
            -83.70281236897209
          ],
          [
            32.297867558069946,
            -83.05692481911133
          ],
          [
            32.66697162101617,
            -82.5033095039032
          ],
          [
            33.03608175018051,
            -81.76514971938983
          ],
          [
            33.40518884623579,
            -81.11926216952907
          ],
          [
            33.58974391081795,
            -80.75018227727237
          ]
        ]
      },
      "properties": {
        "type": "variant",
        "id": 2,
        "color": "#4444ff",
        "vzdal_m": 1952,
        "prevyseni_m": 42,
        "cas_s": 528,
        "tempo_str": "4:30"
      }
    },
    {
      "type": "Feature",
      "geometry": {
        "type": "LineString",
        "coordinates": [
          [
            11.074632653604153,
            -107.32348220206352
          ],
          [
            11.351468283586458,
            -106.67759012902586
          ],
          [
            11.720578412750795,
            -105.93943034451249
          ],
          [
            12.089685508806078,
            -105.29354279465173
          ],
          [
            12.458783505534198,
            -104.92447194874886
          ],
          [
            12.920152968335298,
            -104.55540562602287
          ],
          [
            13.381522431136398,
            -104.1863393032969
          ],
          [
            13.727292610839681,
            -103.59525488288735
          ],
          [
            14.119730557028857,
            -103.07910867288065
          ],
          [
            14.488840686193193,
            -102.34094888836728
          ],
          [
            14.857950815357528,
            -101.60278910385388
          ],
          [
            15.227060944521863,
            -100.86462931934051
          ],
          [
            15.503896574504171,
            -100.21873724630285
          ],
          [
            15.873006703668507,
            -99.48057746178947
          ],
          [
            16.242107733505684,
            -99.01923438123396
          ],
          [
            16.611205730233806,
            -98.65016353533107
          ],
          [
            17.16484665910788,
            -98.28110173578202
          ],
          [
            17.62621612190898,
            -97.91203541305603
          ],
          [
            17.9953141186371,
            -97.54296456715316
          ],
          [
            18.342600183244322,
            -97.18962216893496
          ],
          [
            18.733519211420507,
            -96.52800617138952
          ],
          [
            19.10261720814863,
            -96.15893532548665
          ],
          [
            19.47171520487675,
            -95.78986447958377
          ],
          [
            19.84081926782298,
            -95.23624916437564
          ],
          [
            20.209926363878264,
            -94.59036161451488
          ],
          [
            20.5790364930426,
            -93.85220183000149
          ],
          [
            21.014525627019122,
            -93.21375966399924
          ],
          [
            21.04369181024072,
            -93.02214661313492
          ],
          [
            21.095527663360045,
            -92.55641795480666
          ],
          [
            21.40954338298952,
            -91.9145256108885
          ],
          [
            21.778653512153852,
            -91.17636582637512
          ],
          [
            22.147751508881974,
            -90.80729498047225
          ],
          [
            22.516852538719153,
            -90.34595189991674
          ],
          [
            22.885953568556324,
            -89.88460881936125
          ],
          [
            23.16278009921147,
            -89.51553345028145
          ],
          [
            23.62414956201257,
            -89.14646712755548
          ],
          [
            23.993247558740695,
            -88.7773962816526
          ],
          [
            24.276432765389163,
            -88.1328499897848
          ],
          [
            24.485282300644425,
            -87.5943271630461
          ],
          [
            24.715828348746772,
            -87.0241087732724
          ],
          [
            24.9160380471968,
            -86.47063564710602
          ],
          [
            25.377407509997898,
            -86.10156932438005
          ],
          [
            25.74650550672602,
            -85.73249847847717
          ],
          [
            26.115603503454142,
            -85.3634276325743
          ],
          [
            26.484701500182265,
            -84.99435678667142
          ],
          [
            26.853445464902236,
            -84.5329506762307
          ],
          [
            27.315178059038647,
            -83.97940291408469
          ],
          [
            27.68427605576677,
            -83.6103320681818
          ],
          [
            28.053374052494895,
            -83.24126122227892
          ],
          [
            28.42247204922301,
            -82.87219037637604
          ],
          [
            28.791573079060186,
            -82.41084729582055
          ],
          [
            29.16067107578831,
            -82.04177644991766
          ],
          [
            29.898854936808338,
            -81.6727236967224
          ],
          [
            30.544767331755395,
            -81.30366642035024
          ],
          [
            31.282951192775425,
            -80.93461366715499
          ],
          [
            31.928860554613426,
            -80.65782862543546
          ],
          [
            32.29794641890533,
            -80.65784671814308
          ],
          [
            32.667032283197244,
            -80.6578648108507
          ],
          [
            33.03611814748915,
            -80.65788290355832
          ],
          [
            33.49747244474498,
            -80.75017775409546
          ],
          [
            33.58974391081795,
            -80.75018227727237
          ]
        ]
      },
      "properties": {
        "type": "variant",
        "id": 3,
        "color": "#44ff44",
        "vzdal_m": 1971,
        "prevyseni_m": 34,
        "cas_s": 520,
        "tempo_str": "4:23"
      }
    }
  ]
}