{
  "type": "FeatureCollection",
  "features": [
    {
      "type": "Feature",
      "geometry": {
        "type": "Point",
        "coordinates": [
          121.85235878486849,
          -112.89880589963688
        ]
      },
      "properties": {
        "type": "start",
        "isom": "417"
      }
    },
    {
      "type": "Feature",
      "geometry": {
        "type": "Point",
        "coordinates": [
          242.62161082884933,
          -61.79357111209067
        ]
      },
      "properties": {
        "type": "end",
        "isom": "109"
      }
    },
    {
      "type": "Feature",
      "geometry": {
        "type": "LineString",
        "coordinates": [
          [
            121.5218158877266,
            -113.05066179321703
          ],
          [
            126.68908008068713,
            -110.83607691502978
          ],
          [
            131.85634427364766,
            -108.62149203684255
          ],
          [
            136.28539776513537,
            -107.14510357011251
          ],
          [
            139.9763985931623,
            -104.19231901332978
          ],
          [
            145.14371546546016,
            -101.23953663463922
          ],
          [
            151.04919035989354,
            -98.28675534499477
          ],
          [
            156.9546125749896,
            -96.07217155585364
          ],
          [
            160.64540268566708,
            -96.07217700108413
          ],
          [
            163.59803477420908,
            -96.0721813572685
          ],
          [
            167.28887756422392,
            -95.33398930199569
          ],
          [
            173.1943524586573,
            -92.38120801235124
          ],
          [
            176.8852479280095,
            -90.90481845657511
          ],
          [
            180.576038038687,
            -90.9048239018056
          ],
          [
            185.74330223164753,
            -88.69023902361836
          ],
          [
            187.21967095525588,
            -87.95204370120724
          ],
          [
            187.9579343360661,
            -86.47564978924673
          ],
          [
            191.64877712608092,
            -85.73745773397391
          ],
          [
            193.86325119248744,
            -85.7374610011122
          ],
          [
            195.33961991609576,
            -84.9992656787011
          ],
          [
            199.7686734075835,
            -83.52287721197106
          ],
          [
            203.45962155627302,
            -81.30829015569162
          ],
          [
            204.93599027988134,
            -80.57009483328052
          ],
          [
            207.15046434628786,
            -80.5700981004188
          ],
          [
            207.88862236842337,
            -80.57009918946491
          ],
          [
            209.3649910920317,
            -79.83190386705378
          ],
          [
            211.57951783777554,
            -79.09370963368877
          ],
          [
            215.27051866580243,
            -76.14092507690603
          ],
          [
            216.7468873894108,
            -75.40272975449491
          ],
          [
            218.22325611301912,
            -74.66453443208381
          ],
          [
            222.65236228384418,
            -72.44994846485048
          ],
          [
            224.12888904546455,
            -69.49716064092944
          ],
          [
            225.60525776907292,
            -68.75896531851834
          ],
          [
            229.2961005590878,
            -68.0207732632455
          ],
          [
            233.72515405057544,
            -66.54438479651549
          ],
          [
            239.6305762656715,
            -64.32980100737433
          ],
          [
            242.58336639222554,
            -62.11521286204881
          ]
        ]
      },
      "properties": {
        "type": "variant",
        "id": 1,
        "color": "#ff4444",
        "vzdal_m": 912,
        "prevyseni_m": 6,
        "cas_s": 261,
        "tempo_str": "4:46"
      }
    },
    {
      "type": "Feature",
      "geometry": {
        "type": "LineString",
        "coordinates": [
          [
            121.5218158877266,
            -113.05066179321703
          ],
          [
            125.2123952810547,
            -116.00345724046072
          ],
          [
            129.64123805519299,
            -117.47985877574393
          ],
          [
            131.85565944226212,
            -118.21805954338554
          ],
          [
            138.49892360346956,
            -120.43266184631032
          ],
          [
            142.1897663934844,
            -119.6944697910375
          ],
          [
            145.1423984820264,
            -119.69447414722188
          ],
          [
            148.0950305705684,
            -119.69447850340627
          ],
          [
            151.0476626591104,
            -119.69448285959066
          ],
          [
            154.0002947476524,
            -119.69448721577504
          ],
          [
            156.95292683619437,
            -119.69449157195945
          ],
          [
            159.90555892473637,
            -119.69449592814382
          ],
          [
            162.85819101327837,
            -119.69450028432823
          ],
          [
            164.33455973688672,
            -118.9563049619171
          ],
          [
            167.28719182542872,
            -118.9563093181015
          ],
          [
            168.0253498475642,
            -118.9563104071476
          ],
          [
            169.50171857117255,
            -118.21811508473648
          ],
          [
            172.45435065971455,
            -118.21811944092087
          ],
          [
            174.66882472612104,
            -118.21812270805916
          ],
          [
            176.1451934497294,
            -117.47992738564805
          ],
          [
            181.3125103220273,
            -114.52714500695751
          ],
          [
            186.47982719432517,
            -111.57436262826695
          ],
          [
            191.64714406662307,
            -108.6215802495764
          ],
          [
            196.07630291678547,
            -105.66879678183977
          ],
          [
            199.76730374481235,
            -102.71601222505703
          ],
          [
            203.45830457283924,
            -99.76322766827428
          ],
          [
            204.19656795364946,
            -98.28683375631378
          ],
          [
            204.19662063298676,
            -97.54863625581048
          ],
          [
            204.934884013797,
            -96.07224234384995
          ],
          [
            207.14972683556496,
            -90.9048631074651
          ],
          [
            208.62635895586004,
            -86.47568028253745
          ],
          [
            211.57941247910085,
            -80.57010463469538
          ],
          [
            214.5323079643296,
            -76.87912148836324
          ],
          [
            216.7468873894108,
            -75.40272975449491
          ],
          [
            218.22325611301912,
            -74.66453443208381
          ],
          [
            222.65236228384418,
            -72.44994846485048
          ],
          [
            224.12888904546455,
            -69.49716064092944
          ],
          [
            225.60525776907292,
            -68.75896531851834
          ],
          [
            229.2961005590878,
            -68.0207732632455
          ],
          [
            232.98699602843993,
            -66.54438370746938
          ],
          [
            239.63062894500885,
            -63.591603506871024
          ],
          [
            242.58336639222554,
            -62.11521286204881
          ]
        ]
      },
      "properties": {
        "type": "variant",
        "id": 2,
        "color": "#4444ff",
        "vzdal_m": 1001,
        "prevyseni_m": 5,
        "cas_s": 266,
        "tempo_str": "4:25"
      }
    },
    {
      "type": "Feature",
      "geometry": {
        "type": "LineString",
        "coordinates": [
          [
            121.5218158877266,
            -113.05066179321703
          ],
          [
            127.42729078216,
            -110.09788050357258
          ],
          [
            131.1182916101869,
            -107.14509594678982
          ],
          [
            135.54739778101194,
            -104.93050997955649
          ],
          [
            139.23845128837618,
            -101.23952792227044
          ],
          [
            142.92950479574043,
            -97.5485458649844
          ],
          [
            145.88245296030652,
            -93.11936521814896
          ],
          [
            148.83540112487262,
            -88.6901845713135
          ],
          [
            154.0027179971705,
            -85.73740219262295
          ],
          [
            154.0028233558452,
            -84.26100719161634
          ],
          [
            157.6938241838721,
            -81.3082226348336
          ],
          [
            159.1702455868178,
            -79.83182981191918
          ],
          [
            159.908508967628,
            -78.35543589995866
          ],
          [
            163.5995097956549,
            -75.40265134317592
          ],
          [
            166.5523526015463,
            -72.4498656973471
          ],
          [
            168.02872132515463,
            -71.71167037493598
          ],
          [
            169.50509004876298,
            -70.97347505252486
          ],
          [
            172.45777481664234,
            -70.23528190820593
          ],
          [
            176.14851224798247,
            -70.97348485393974
          ],
          [
            179.10114433652447,
            -70.97348921012413
          ],
          [
            182.05377642506647,
            -70.97349356630852
          ],
          [
            185.7446192150813,
            -70.23530151103569
          ],
          [
            191.6500941095147,
            -67.28252022139124
          ],
          [
            195.34109493754158,
            -64.3297356646085
          ],
          [
            197.55567436262277,
            -62.85334393074019
          ],
          [
            199.03204308623114,
            -62.11514860832907
          ],
          [
            201.98467517477314,
            -62.11515296451346
          ],
          [
            204.19909656184225,
            -62.85335373215506
          ],
          [
            205.67546528545063,
            -62.11515840974395
          ],
          [
            209.36630807546547,
            -61.37696635447112
          ],
          [
            212.31894016400744,
            -61.37697071065551
          ],
          [
            216.0097829540223,
            -60.63877865538269
          ],
          [
            217.48615167763063,
            -59.90058333297158
          ],
          [
            220.43878376617266,
            -59.90058768915597
          ],
          [
            223.39141585471464,
            -59.90059204534036
          ],
          [
            226.3440479432566,
            -59.900596401524744
          ],
          [
            227.82031130819027,
            -60.63879608012025
          ],
          [
            230.77294339673224,
            -60.63880043630464
          ],
          [
            233.72557548527425,
            -60.63880479248903
          ],
          [
            236.67820757381625,
            -60.63880914867341
          ],
          [
            239.63083966235826,
            -60.6388135048578
          ],
          [
            242.58336639222554,
            -62.11521286204881
          ]
        ]
      },
      "properties": {
        "type": "variant",
        "id": 3,
        "color": "#44ff44",
        "vzdal_m": 964,
        "prevyseni_m": 8,
        "cas_s": 266,
        "tempo_str": "4:36"
      }
    }
  ]
}