{
  "type": "FeatureCollection",
  "features": [
    {
      "type": "Feature",
      "geometry": {
        "type": "Point",
        "coordinates": [
          55.46090933047418,
          -7.584994186680733
        ]
      },
      "properties": {
        "type": "start",
        "isom": "417"
      }
    },
    {
      "type": "Feature",
      "geometry": {
        "type": "Point",
        "coordinates": [
          81.72372790534199,
          -50.28997711907135
        ]
      },
      "properties": {
        "type": "end",
        "isom": "204"
      }
    },
    {
      "type": "Feature",
      "geometry": {
        "type": "LineString",
        "coordinates": [
          [
            55.49968442850446,
            -7.55396694771201
          ],
          [
            55.86875858039436,
            -8.107638459819254
          ],
          [
            56.0532920560193,
            -8.476750850043997
          ],
          [
            56.23782553164423,
            -8.845863240268736
          ],
          [
            56.422351806629116,
            -9.399528898835714
          ],
          [
            56.422344605989075,
            -9.58408216717795
          ],
          [
            56.606878081614006,
            -9.953194557402693
          ],
          [
            56.79141155723893,
            -10.322306947627434
          ],
          [
            56.79140435659888,
            -10.50686021596967
          ],
          [
            56.79139715595883,
            -10.691413484311907
          ],
          [
            56.975930631583765,
            -11.060525874536648
          ],
          [
            57.160464107208696,
            -11.429638264761387
          ],
          [
            57.344997582833635,
            -11.79875065498613
          ],
          [
            57.52953105845856,
            -12.167863045210868
          ],
          [
            58.821337394233566,
            -12.906117093361686
          ],
          [
            59.37496662366856,
            -13.275241190666964
          ],
          [
            59.55950729993354,
            -13.459800312549469
          ],
          [
            59.92859585310355,
            -13.644365287972239
          ],
          [
            60.29768440627357,
            -13.828930263395012
          ],
          [
            61.03584711133348,
            -14.567166750925027
          ],
          [
            61.22038778759846,
            -14.75172587280753
          ],
          [
            61.58947634076847,
            -14.936290848230303
          ],
          [
            61.77401701703345,
            -15.120849970112808
          ],
          [
            61.95855049265839,
            -15.489962360337548
          ],
          [
            62.327624644548294,
            -16.043633872444794
          ],
          [
            63.25035682843339,
            -16.228216408488365
          ],
          [
            63.98854113541346,
            -16.412793090991673
          ],
          [
            64.35762968858347,
            -16.597358066414444
          ],
          [
            64.5421631642084,
            -16.966470456639186
          ],
          [
            64.72669663983334,
            -17.335582846863925
          ],
          [
            64.72666783727314,
            -18.07379592023287
          ],
          [
            64.91117971097792,
            -18.996568115484322
          ],
          [
            64.91115090841772,
            -19.73478118885327
          ],
          [
            64.91114370777768,
            -19.919334457195507
          ],
          [
            65.09567718340261,
            -20.288446847420246
          ],
          [
            65.28021065902755,
            -20.65755923764499
          ],
          [
            65.46474413465248,
            -21.02667162786973
          ],
          [
            65.64927761027741,
            -21.39578401809447
          ],
          [
            65.83378948398219,
            -22.31855621334592
          ],
          [
            66.01829415704694,
            -23.42588167693961
          ],
          [
            66.01826535448673,
            -24.16409475030856
          ],
          [
            66.20277722819152,
            -25.086866945560008
          ],
          [
            66.75637045442626,
            -26.378757384576467
          ],
          [
            66.75634165186607,
            -27.116970457945417
          ],
          [
            66.57177937368095,
            -27.48607114108962
          ],
          [
            66.94086072621091,
            -27.855189384854626
          ],
          [
            66.75629844802579,
            -28.224290067998837
          ],
          [
            66.94080312109051,
            -29.331615531592522
          ],
          [
            67.49441794924542,
            -30.06984616558227
          ],
          [
            67.67895142487035,
            -30.438958555807016
          ],
          [
            67.86349210113532,
            -30.623517677689517
          ],
          [
            68.23258065430532,
            -30.808082653112287
          ],
          [
            68.6016332042751,
            -31.915413970246245
          ],
          [
            69.33976710677483,
            -33.391863531145205
          ],
          [
            69.7088196567446,
            -34.49919484827916
          ],
          [
            69.89333153044937,
            -35.421967043530614
          ],
          [
            70.0778650060743,
            -35.79107943375536
          ],
          [
            70.26239848169925,
            -36.1601918239801
          ],
          [
            70.2623912810592,
            -36.344745092322334
          ],
          [
            70.44692475668413,
            -36.71385748254707
          ],
          [
            70.63145823230906,
            -37.08296987277181
          ],
          [
            70.63144383102896,
            -37.45207640945629
          ],
          [
            70.81597730665389,
            -37.821188799681025
          ],
          [
            70.8159629053738,
            -38.1902953363655
          ],
          [
            71.00049638099873,
            -38.559407726590244
          ],
          [
            71.18502985662366,
            -38.92852011681499
          ],
          [
            71.55409680787352,
            -39.666744897264465
          ],
          [
            71.92314935784329,
            -40.77407621439842
          ],
          [
            72.10766123154806,
            -41.69684840964987
          ],
          [
            72.10763242898788,
            -42.43506148301881
          ],
          [
            71.9230485488826,
            -43.357821971189736
          ],
          [
            72.29210109885237,
            -44.46515328832369
          ],
          [
            73.03025660327225,
            -45.38794304419594
          ],
          [
            73.21479007889717,
            -45.757055434420685
          ],
          [
            73.39932355452211,
            -46.12616782464542
          ],
          [
            74.1374646576619,
            -47.41806411720215
          ],
          [
            75.06016083834673,
            -48.52541299495691
          ],
          [
            75.79832354340667,
            -49.26364948248692
          ],
          [
            76.53649344910663,
            -49.81733270167471
          ],
          [
            78.01284766178667,
            -50.555592603365795
          ],
          [
            78.75103916940678,
            -50.55561601752686
          ],
          [
            79.1201421238569,
            -50.37107445626516
          ],
          [
            79.30469000076192,
            -50.37108030980542
          ],
          [
            79.48923787766695,
            -50.371086163345694
          ],
          [
            79.85834083211705,
            -50.18654460208399
          ],
          [
            80.04288870902208,
            -50.18655045562425
          ],
          [
            80.4119916634722,
            -50.002008894362554
          ],
          [
            80.78108741728225,
            -50.00202060144309
          ],
          [
            81.15017597045227,
            -50.18658557686586
          ],
          [
            81.3347238473573,
            -50.18659143040613
          ],
          [
            81.7038011366188,
            -50.37115640547162
          ]
        ]
      },
      "properties": {
        "type": "variant",
        "id": 1,
        "color": "#ff4444",
        "vzdal_m": 1516,
        "prevyseni_m": 83,
        "cas_s": 562,
        "tempo_str": "6:10"
      }
    },
    {
      "type": "Feature",
      "geometry": {
        "type": "LineString",
        "coordinates": [
          [
            55.49968442850446,
            -7.55396694771201
          ],
          [
            55.86875858039436,
            -8.107638459819254
          ],
          [
            56.0532920560193,
            -8.476750850043997
          ],
          [
            56.23782553164423,
            -8.845863240268736
          ],
          [
            56.422351806629116,
            -9.399528898835714
          ],
          [
            56.422344605989075,
            -9.58408216717795
          ],
          [
            56.606878081614006,
            -9.953194557402693
          ],
          [
            56.79141155723893,
            -10.322306947627434
          ],
          [
            56.79140435659888,
            -10.50686021596967
          ],
          [
            56.79139715595883,
            -10.691413484311907
          ],
          [
            56.975930631583765,
            -11.060525874536648
          ],
          [
            57.160464107208696,
            -11.429638264761387
          ],
          [
            57.344997582833635,
            -11.79875065498613
          ],
          [
            57.52953105845856,
            -12.167863045210868
          ],
          [
            58.821337394233566,
            -12.906117093361686
          ],
          [
            59.37496662366856,
            -13.275241190666964
          ],
          [
            59.55950729993354,
            -13.459800312549469
          ],
          [
            59.92859585310355,
            -13.644365287972239
          ],
          [
            60.29768440627357,
            -13.828930263395012
          ],
          [
            61.03584711133348,
            -14.567166750925027
          ],
          [
            61.22038778759846,
            -14.75172587280753
          ],
          [
            61.58947634076847,
            -14.936290848230303
          ],
          [
            61.77401701703345,
            -15.120849970112808
          ],
          [
            61.95855049265839,
            -15.489962360337548
          ],
          [
            62.327624644548294,
            -16.043633872444794
          ],
          [
            63.25035682843339,
            -16.228216408488365
          ],
          [
            63.98854113541346,
            -16.412793090991673
          ],
          [
            64.35762968858347,
            -16.597358066414444
          ],
          [
            64.5421631642084,
            -16.966470456639186
          ],
          [
            64.72669663983334,
            -17.335582846863925
          ],
          [
            64.72666783727314,
            -18.07379592023287
          ],
          [
            64.91117971097792,
            -18.996568115484322
          ],
          [
            65.09569878532275,
            -19.73478704239354
          ],
          [
            66.38749792045772,
            -20.65759435888659
          ],
          [
            66.5720385967227,
            -20.8421534807691
          ],
          [
            66.94112714989271,
            -21.02671845619187
          ],
          [
            68.41748136257274,
            -21.764978357882953
          ],
          [
            69.52473982144272,
            -22.503226552493505
          ],
          [
            70.2628953258626,
            -23.426016308365757
          ],
          [
            71.00105803092252,
            -24.164252795895774
          ],
          [
            71.37013218281244,
            -24.71792430800302
          ],
          [
            71.55466565843737,
            -25.087036698227763
          ],
          [
            71.55465845779732,
            -25.271589966569998
          ],
          [
            71.73919193342225,
            -25.640702356794737
          ],
          [
            72.47732583592197,
            -27.117151917693704
          ],
          [
            73.2154885409819,
            -27.855388405223717
          ],
          [
            73.95365124604182,
            -28.593624892753734
          ],
          [
            74.69182835238185,
            -28.962754843599274
          ],
          [
            74.8763690286468,
            -29.147313965481782
          ],
          [
            75.61453173370674,
            -29.885550453011795
          ],
          [
            76.16812495994148,
            -31.177440892028258
          ],
          [
            76.5371847105513,
            -32.10021894081998
          ],
          [
            76.7216965842561,
            -33.022991136071425
          ],
          [
            77.09074913422585,
            -34.13032245320538
          ],
          [
            76.90616525412058,
            -35.053082941376296
          ],
          [
            77.09069152910546,
            -35.60674859994328
          ],
          [
            77.27520340281025,
            -36.52952079519473
          ],
          [
            77.27517460025005,
            -37.267733868563674
          ],
          [
            77.64423435085986,
            -38.190511917355394
          ],
          [
            77.82877502712485,
            -38.375071039237895
          ],
          [
            78.01330850274978,
            -38.74418342946264
          ],
          [
            78.01329410146968,
            -39.113289966147114
          ],
          [
            77.45960006627425,
            -40.40514528392197
          ],
          [
            77.27503058744908,
            -40.95879923540841
          ],
          [
            78.0131644899488,
            -42.43524879630738
          ],
          [
            78.75131279372863,
            -43.542591820521864
          ],
          [
            80.22766700640867,
            -44.28085172221295
          ],
          [
            80.96582251082854,
            -45.2036414780852
          ],
          [
            81.70397395197996,
            -45.94187796525795
          ],
          [
            81.88848582568474,
            -46.8646501605094
          ],
          [
            82.07299769938953,
            -47.78742235576085
          ],
          [
            82.07295449554924,
            -48.89474196581427
          ],
          [
            81.88837061544397,
            -49.817502453985185
          ],
          [
            81.7038011366188,
            -50.37115640547162
          ]
        ]
      },
      "properties": {
        "type": "variant",
        "id": 2,
        "color": "#4444ff",
        "vzdal_m": 1487,
        "prevyseni_m": 84,
        "cas_s": 553,
        "tempo_str": "6:11"
      }
    },
    {
      "type": "Feature",
      "geometry": {
        "type": "LineString",
        "coordinates": [
          [
            55.49968442850446,
            -7.55396694771201
          ],
          [
            55.86875858039436,
            -8.107638459819254
          ],
          [
            56.0532920560193,
            -8.476750850043997
          ],
          [
            56.23782553164423,
            -8.845863240268736
          ],
          [
            56.422351806629116,
            -9.399528898835714
          ],
          [
            56.422337405349026,
            -9.768635435520187
          ],
          [
            56.42233020470898,
            -9.953188703862423
          ],
          [
            56.422323004068915,
            -10.137741972204662
          ],
          [
            56.42231580342887,
            -10.322295240546898
          ],
          [
            56.422308602788824,
            -10.506848508889135
          ],
          [
            56.422301402148776,
            -10.691401777231372
          ],
          [
            56.42229420150873,
            -10.875955045573608
          ],
          [
            56.2377319233236,
            -11.245055728717814
          ],
          [
            56.053148043218336,
            -12.16781621688873
          ],
          [
            56.60675567073317,
            -13.090600119220717
          ],
          [
            56.60674847009312,
            -13.275153387562954
          ],
          [
            56.791281945718055,
            -13.644265777787695
          ],
          [
            56.97581542134299,
            -14.013378168012435
          ],
          [
            57.160348896967925,
            -14.382490558237176
          ],
          [
            57.89851160202784,
            -15.120727045767193
          ],
          [
            58.45210482826259,
            -16.412617484783652
          ],
          [
            58.63663110324747,
            -16.96628314335063
          ],
          [
            58.82115017759231,
            -17.704502070259842
          ],
          [
            58.636573498127085,
            -18.442709290088523
          ],
          [
            58.63654469556688,
            -19.18092236345747
          ],
          [
            58.08285066037146,
            -20.472777681232326
          ],
          [
            59.00554684105631,
            -21.580126558987086
          ],
          [
            59.37459939102608,
            -22.68745787612104
          ],
          [
            59.37457058846588,
            -23.425670949489987
          ],
          [
            59.37454178590569,
            -24.163884022858934
          ],
          [
            59.55905365961048,
            -25.086656218110388
          ],
          [
            59.559024857050275,
            -25.824869291479335
          ],
          [
            60.29716596019006,
            -27.11676558403606
          ],
          [
            61.21988374279505,
            -27.670454656764107
          ],
          [
            61.404431619700084,
            -27.67046051030437
          ],
          [
            61.77352017287009,
            -27.855025485727143
          ],
          [
            61.95806084913507,
            -28.039584607609648
          ],
          [
            62.32714940230508,
            -28.224149583032418
          ],
          [
            63.06531210736501,
            -28.962386070562435
          ],
          [
            63.80347481242492,
            -29.700622558092455
          ],
          [
            64.54162311620476,
            -30.80796558230694
          ],
          [
            65.27977141998457,
            -31.91530860652143
          ],
          [
            66.0179341250445,
            -32.65354509405145
          ],
          [
            66.38698667501426,
            -33.76087641118541
          ],
          [
            67.12514938007419,
            -34.49911289871542
          ],
          [
            67.8633120851341,
            -35.237349386245434
          ],
          [
            69.15511842090912,
            -35.975603434396255
          ],
          [
            69.33965189653405,
            -36.344715824621
          ],
          [
            69.52417097087887,
            -37.08293475153021
          ],
          [
            70.44688155284383,
            -37.82117709260049
          ],
          [
            70.63142942974886,
            -37.82118294614076
          ],
          [
            70.8159629053738,
            -38.1902953363655
          ],
          [
            71.00049638099873,
            -38.559407726590244
          ],
          [
            71.18502985662366,
            -38.92852011681499
          ],
          [
            71.55409680787352,
            -39.666744897264465
          ],
          [
            71.92314935784329,
            -40.77407621439842
          ],
          [
            72.10766123154806,
            -41.69684840964987
          ],
          [
            72.10763242898788,
            -42.43506148301881
          ],
          [
            71.9230485488826,
            -43.357821971189736
          ],
          [
            72.29210109885237,
            -44.46515328832369
          ],
          [
            73.03025660327225,
            -45.38794304419594
          ],
          [
            73.21479007889717,
            -45.757055434420685
          ],
          [
            73.39932355452211,
            -46.12616782464542
          ],
          [
            74.1374646576619,
            -47.41806411720215
          ],
          [
            75.06016083834673,
            -48.52541299495691
          ],
          [
            75.79832354340667,
            -49.26364948248692
          ],
          [
            76.53649344910663,
            -49.81733270167471
          ],
          [
            78.01284766178667,
            -50.555592603365795
          ],
          [
            78.75103916940678,
            -50.55561601752686
          ],
          [
            79.1201421238569,
            -50.37107445626516
          ],
          [
            79.30469000076192,
            -50.37108030980542
          ],
          [
            79.48923787766695,
            -50.371086163345694
          ],
          [
            79.85834083211705,
            -50.18654460208399
          ],
          [
            80.04288870902208,
            -50.18655045562425
          ],
          [
            80.4119916634722,
            -50.002008894362554
          ],
          [
            80.78108741728225,
            -50.00202060144309
          ],
          [
            81.15017597045227,
            -50.18658557686586
          ],
          [
            81.3347238473573,
            -50.18659143040613
          ],
          [
            81.7038011366188,
            -50.37115640547162
          ]
        ]
      },
      "properties": {
        "type": "variant",
        "id": 3,
        "color": "#44ff44",
        "vzdal_m": 1524,
        "prevyseni_m": 83,
        "cas_s": 573,
        "tempo_str": "6:16"
      }
    }
  ]
}