{
  "type": "FeatureCollection",
  "features": [
    {
      "type": "Feature",
      "geometry": {
        "type": "Point",
        "coordinates": [
          198.1483833776436,
          -216.1771779797476
        ]
      },
      "properties": {
        "type": "start",
        "isom": "313"
      }
    },
    {
      "type": "Feature",
      "geometry": {
        "type": "Point",
        "coordinates": [
          113.22437411260019,
          -201.16654470975985
        ]
      },
      "properties": {
        "type": "end",
        "isom": "109"
      }
    },
    {
      "type": "Feature",
      "geometry": {
        "type": "LineString",
        "coordinates": [
          [
            198.28287508258938,
            -216.39842512447404
          ],
          [
            193.85403230845108,
            -214.92202358919087
          ],
          [
            190.90140021990908,
            -214.92201923300647
          ],
          [
            187.94876813136707,
            -214.92201487682206
          ],
          [
            183.5199253572288,
            -213.44561334153886
          ],
          [
            179.0909772244158,
            -213.4456068072623
          ],
          [
            174.6621344502775,
            -211.9692052719791
          ],
          [
            170.97134433960002,
            -211.96919982674862
          ],
          [
            168.0186595717207,
            -212.70739297106752
          ],
          [
            164.32781678170585,
            -213.44558502634035
          ],
          [
            160.63697399169098,
            -214.18377708161316
          ],
          [
            159.8988159695555,
            -214.1837759925671
          ],
          [
            159.16065794742,
            -214.18377490352097
          ],
          [
            158.42249992528448,
            -214.18377381447488
          ],
          [
            157.684341903149,
            -214.1837727254288
          ],
          [
            156.20807853821535,
            -213.44557304683326
          ],
          [
            151.04113042127892,
            -211.23097292200066
          ],
          [
            148.08849833273692,
            -211.2309685658163
          ],
          [
            144.3556633580921,
            -210.42218533430054
          ],
          [
            139.9689181272585,
            -209.0163640847993
          ],
          [
            133.32565396605108,
            -206.8017617818745
          ],
          [
            132.58760130259026,
            -205.32536569182182
          ],
          [
            131.11133793765663,
            -204.5871660132263
          ],
          [
            130.37317991552112,
            -204.58716492418017
          ],
          [
            128.89691655058746,
            -203.8489652455847
          ],
          [
            125.94412642403343,
            -206.06355339091022
          ],
          [
            120.03907296429884,
            -203.11075467652822
          ],
          [
            115.6102828694979,
            -200.89615564074174
          ],
          [
            113.3958088030914,
            -200.89615237360343
          ]
        ]
      },
      "properties": {
        "type": "variant",
        "id": 1,
        "color": "#ff4444",
        "vzdal_m": 612,
        "prevyseni_m": 9,
        "cas_s": 184,
        "tempo_str": "5:00"
      }
    },
    {
      "type": "Feature",
      "geometry": {
        "type": "LineString",
        "coordinates": [
          [
            198.28287508258938,
            -216.39842512447404
          ],
          [
            194.59224300992392,
            -214.18382717773363
          ],
          [
            192.37808501954152,
            -209.7546389075755
          ],
          [
            188.68750562621344,
            -206.8018434603318
          ],
          [
            184.25876821074988,
            -203.849046924042
          ],
          [
            179.09182009381342,
            -201.63444679920937
          ],
          [
            175.40129337982268,
            -197.94345385146238
          ],
          [
            170.2343979422236,
            -194.99065622612648
          ],
          [
            168.75818725662728,
            -193.51425904702768
          ],
          [
            167.09460416725597,
            -192.4346021976503
          ],
          [
            164.33432304844425,
            -192.8250083634439
          ],
          [
            160.69161116466455,
            -193.68728471315225
          ],
          [
            159.1350653149316,
            -194.16953931045896
          ],
          [
            154.73334287406487,
            -191.2996458536419
          ],
          [
            151.78092150287227,
            -188.34685149544427
          ],
          [
            149.56660547447785,
            -186.13225572679605
          ],
          [
            147.98631460990833,
            -184.74533960972747
          ],
          [
            145.1077401905262,
            -185.20720441666538
          ],
          [
            142.22917703454158,
            -185.6690692236199
          ],
          [
            138.5155134963974,
            -186.2649068138833
          ],
          [
            134.80183869324804,
            -186.86076693213
          ],
          [
            131.08817515510387,
            -187.4566045223934
          ],
          [
            130.36852591775573,
            -187.5720819881195
          ],
          [
            126.65486237800393,
            -188.1679421063828
          ],
          [
            123.77629922362696,
            -188.62978438533744
          ],
          [
            119.2297966273767,
            -189.396292874076
          ],
          [
            118.56359978942544,
            -191.29959249038313
          ],
          [
            116.34886232633221,
            -194.99057672576137
          ],
          [
            114.87249360272386,
            -195.72877204817246
          ],
          [
            114.1341775425763,
            -197.94336346063633
          ],
          [
            113.39591416176611,
            -199.41975737259682
          ],
          [
            113.3958088030914,
            -200.89615237360343
          ]
        ]
      },
      "properties": {
        "type": "variant",
        "id": 2,
        "color": "#4444ff",
        "vzdal_m": 710,
        "prevyseni_m": 10,
        "cas_s": 195,
        "tempo_str": "4:34"
      }
    },
    {
      "type": "Feature",
      "geometry": {
        "type": "LineString",
        "coordinates": [
          [
            198.28287508258938,
            -216.39842512447404
          ],
          [
            195.33019031471002,
            -217.13661826879297
          ],
          [
            194.59197961323716,
            -217.87481468025015
          ],
          [
            193.853716232427,
            -219.3512085922107
          ],
          [
            190.1627680837374,
            -221.5657956484901
          ],
          [
            186.47197797305995,
            -221.56579020325964
          ],
          [
            184.25750390665345,
            -221.56578693612136
          ],
          [
            180.5666611166386,
            -222.3039789913942
          ],
          [
            176.8757656472864,
            -223.7803685471703
          ],
          [
            171.7085541336632,
            -225.25675592485422
          ],
          [
            170.97039611152772,
            -225.25675483580815
          ],
          [
            169.49402738791937,
            -225.99495015821924
          ],
          [
            166.54139529937737,
            -225.99494580203486
          ],
          [
            165.06502657576902,
            -226.73314112444595
          ],
          [
            163.5887632108354,
            -225.99494144585046
          ],
          [
            162.11239448722705,
            -226.7331367682616
          ],
          [
            161.37423646509154,
            -226.73313567921548
          ],
          [
            158.42160437654954,
            -226.73313132303107
          ],
          [
            153.99281428174862,
            -224.5185322872446
          ],
          [
            151.040392910556,
            -221.56573792904695
          ],
          [
            147.34955012054118,
            -222.30392998431978
          ],
          [
            144.39691803199918,
            -222.3039256281354
          ],
          [
            141.4442859434572,
            -222.30392127195103
          ],
          [
            137.75354851211705,
            -221.56571832621722
          ],
          [
            134.80091642357505,
            -221.56571397003285
          ],
          [
            131.57736699494623,
            -221.39160156695525
          ],
          [
            129.63391562730126,
            -220.08931134570355
          ],
          [
            127.4198103162562,
            -214.9219255750421
          ],
          [
            125.94370498933463,
            -211.96913339493668
          ],
          [
            125.20565232587383,
            -210.49273730488397
          ],
          [
            124.46759966241304,
            -209.01634121483127
          ],
          [
            122.99133629747938,
            -208.27814153623578
          ],
          [
            117.8244408598803,
            -205.32534391089985
          ],
          [
            114.87201948868771,
            -202.37254955270222
          ],
          [
            113.3958088030914,
            -200.89615237360343
          ]
        ]
      },
      "properties": {
        "type": "variant",
        "id": 3,
        "color": "#44ff44",
        "vzdal_m": 678,
        "prevyseni_m": 7,
        "cas_s": 204,
        "tempo_str": "5:00"
      }
    }
  ]
}