{
  "type": "FeatureCollection",
  "features": [
    {
      "type": "Feature",
      "geometry": {
        "type": "Point",
        "coordinates": [
          76.93868337460792,
          -51.39134249343804
        ]
      },
      "properties": {
        "type": "start",
        "isom": "109"
      }
    },
    {
      "type": "Feature",
      "geometry": {
        "type": "Point",
        "coordinates": [
          87.81820305365123,
          -40.9042136034705
        ]
      },
      "properties": {
        "type": "end",
        "isom": "111"
      }
    },
    {
      "type": "Feature",
      "geometry": {
        "type": "LineString",
        "coordinates": [
          [
            76.95829749379617,
            -51.40973755088314
          ],
          [
            77.3273954905243,
            -51.04066670498026
          ],
          [
            77.78876495332538,
            -50.67160038225429
          ],
          [
            78.34240588219947,
            -50.302538582705225
          ],
          [
            78.98831827714652,
            -49.93348130633306
          ],
          [
            79.27403818543542,
            -49.460391971768985
          ],
          [
            79.63424583763884,
            -49.10306285669777
          ],
          [
            80.00334383436696,
            -48.733992010794886
          ],
          [
            80.37244486420414,
            -48.272648930239384
          ],
          [
            80.74154286093226,
            -47.90357808433651
          ],
          [
            81.11064995698754,
            -47.257690534475756
          ],
          [
            81.47974795371567,
            -46.888619688572874
          ],
          [
            81.76634486332148,
            -46.11157320172013
          ],
          [
            82.1576449133941,
            -45.819255437590336
          ],
          [
            82.66968725392212,
            -45.462791115273376
          ],
          [
            83.32523187113817,
            -45.227809928363726
          ],
          [
            83.87887280001225,
            -44.85874812881466
          ],
          [
            84.43251372888632,
            -44.489686329265595
          ],
          [
            84.80161172561445,
            -44.12061548336271
          ],
          [
            85.4475241205615,
            -43.75155820699055
          ],
          [
            85.81662818350773,
            -43.197942891782425
          ],
          [
            86.18573527956302,
            -42.552055341921665
          ],
          [
            86.27800977874504,
            -42.459787630445945
          ],
          [
            86.83165070761912,
            -42.09072583089688
          ],
          [
            87.20075780367439,
            -41.44483828103612
          ],
          [
            87.66213029958455,
            -40.98349972365752
          ],
          [
            87.84667626483956,
            -40.89123653535871
          ]
        ]
      },
      "properties": {
        "type": "variant",
        "id": 1,
        "color": "#ff4444",
        "vzdal_m": 839,
        "prevyseni_m": 5,
        "cas_s": 215,
        "tempo_str": "4:16"
      }
    },
    {
      "type": "Feature",
      "geometry": {
        "type": "LineString",
        "coordinates": [
          [
            76.95829749379617,
            -51.40973755088314
          ],
          [
            77.32740762296051,
            -50.67157776636976
          ],
          [
            77.69651775212485,
            -49.93341798185638
          ],
          [
            77.97335338210715,
            -49.28752590881872
          ],
          [
            78.0684331089043,
            -48.82964011272675
          ],
          [
            78.43474407667162,
            -48.27255394352437
          ],
          [
            78.8038511727269,
            -47.62666639366361
          ],
          [
            79.17296130189123,
            -46.888506609150234
          ],
          [
            79.54207143105558,
            -46.15034682463685
          ],
          [
            79.91118156021992,
            -45.41218704012347
          ],
          [
            80.09574269102019,
            -44.858562678561526
          ],
          [
            80.46484675396641,
            -44.3049473633534
          ],
          [
            80.83081132905633,
            -43.74900024660849
          ],
          [
            81.2869377490196,
            -43.38912362139427
          ],
          [
            82.06510305564738,
            -42.946962746246626
          ],
          [
            82.67644638956699,
            -42.73148228457114
          ],
          [
            83.37280309914412,
            -42.4184697269846
          ],
          [
            83.88571126732728,
            -42.00825516599473
          ],
          [
            84.52145200870528,
            -41.62133778690569
          ],
          [
            84.88479687373857,
            -41.42820328767608
          ],
          [
            85.54876383956959,
            -41.18045782848193
          ],
          [
            85.89504407049216,
            -40.950924577235526
          ],
          [
            86.4489664039371,
            -40.86411439393521
          ],
          [
            86.83902950317643,
            -40.86010506077158
          ],
          [
            87.29269005470029,
            -40.70569389319157
          ],
          [
            87.84667626483956,
            -40.89123653535871
          ]
        ]
      },
      "properties": {
        "type": "variant",
        "id": 2,
        "color": "#4444ff",
        "vzdal_m": 890,
        "prevyseni_m": 9,
        "cas_s": 217,
        "tempo_str": "4:04"
      }
    },
    {
      "type": "Feature",
      "geometry": {
        "type": "LineString",
        "coordinates": [
          [
            76.95829749379617,
            -51.40973755088314
          ],
          [
            77.60420988874323,
            -51.040680274510976
          ],
          [
            78.25011925058122,
            -50.76389523279144
          ],
          [
            78.89602861241922,
            -50.487110191071906
          ],
          [
            79.44966347507518,
            -50.302592860828085
          ],
          [
            79.81875540558521,
            -50.11806648423046
          ],
          [
            80.28011576905914,
            -50.02581686546237
          ],
          [
            81.01829963007917,
            -49.656764112267105
          ],
          [
            81.57193752584419,
            -49.379974547370665
          ],
          [
            81.94102642324516,
            -49.28772040542566
          ],
          [
            82.21784385457315,
            -49.19546174030375
          ],
          [
            82.31012138686422,
            -49.0109217941754
          ],
          [
            82.6792224167014,
            -48.5495787136199
          ],
          [
            83.04832647964763,
            -47.99596339841177
          ],
          [
            83.41743357570292,
            -47.35007584855102
          ],
          [
            83.78653157243104,
            -46.98100500264814
          ],
          [
            84.15563563537727,
            -46.427389687440005
          ],
          [
            84.50965616617373,
            -45.629017136545464
          ],
          [
            84.90328270882365,
            -44.90841853573386
          ],
          [
            85.26296602287027,
            -44.21291033389986
          ],
          [
            85.63207008581651,
            -43.659295018691736
          ],
          [
            86.00118021498083,
            -42.92113523417836
          ],
          [
            86.27800977874504,
            -42.459787630445945
          ],
          [
            86.83165070761912,
            -42.09072583089688
          ],
          [
            87.20075780367439,
            -41.44483828103612
          ],
          [
            87.66213029958455,
            -40.98349972365752
          ],
          [
            87.84667626483956,
            -40.89123653535871
          ]
        ]
      },
      "properties": {
        "type": "variant",
        "id": 3,
        "color": "#44ff44",
        "vzdal_m": 862,
        "prevyseni_m": 5,
        "cas_s": 220,
        "tempo_str": "4:15"
      }
    }
  ]
}