{
  "type": "FeatureCollection",
  "features": [
    {
      "type": "Feature",
      "geometry": {
        "type": "Point",
        "coordinates": [
          175.63756094271938,
          -99.3781708330125
        ]
      },
      "properties": {
        "type": "start",
        "isom": "204"
      }
    },
    {
      "type": "Feature",
      "geometry": {
        "type": "Point",
        "coordinates": [
          202.7439082283346,
          -146.01905420402258
        ]
      },
      "properties": {
        "type": "end",
        "isom": "111"
      }
    },
    {
      "type": "Feature",
      "geometry": {
        "type": "LineString",
        "coordinates": [
          [
            175.72403230518205,
            -99.41090328521084
          ],
          [
            176.46217370267536,
            -100.33366181460359
          ],
          [
            177.2003151001687,
            -101.25642034399631
          ],
          [
            177.9384443652258,
            -102.54826781168202
          ],
          [
            178.12297516493555,
            -102.91736579589005
          ],
          [
            179.41475142508492,
            -103.65560699388156
          ],
          [
            180.89107061738022,
            -104.39385723778817
          ],
          [
            181.99831001160172,
            -104.94754492071814
          ],
          [
            182.920994341241,
            -105.87031249602596
          ],
          [
            183.47458067415215,
            -107.16215091779655
          ],
          [
            184.39725287135522,
            -108.45400743139734
          ],
          [
            185.1353760701942,
            -109.93039936822952
          ],
          [
            185.8734992690332,
            -111.40679130506169
          ],
          [
            186.7961775324544,
            -112.51410334951599
          ],
          [
            187.16526339674635,
            -112.51412144134616
          ],
          [
            187.3497941964561,
            -112.88321942555422
          ],
          [
            188.08792952773132,
            -113.99052242409341
          ],
          [
            188.82605879278842,
            -115.2823698917791
          ],
          [
            189.56418199162746,
            -116.75876182861128
          ],
          [
            189.74869459268282,
            -117.68149322025877
          ],
          [
            189.56412132944632,
            -118.60420652007608
          ],
          [
            190.4867935266494,
            -119.89606303367685
          ],
          [
            191.2249167254884,
            -121.37245497050903
          ],
          [
            191.96303992432738,
            -122.8488469073412
          ],
          [
            192.5166141248023,
            -124.50977426740477
          ],
          [
            193.43928632200536,
            -125.80163078100554
          ],
          [
            194.36195851920843,
            -127.09348729460632
          ],
          [
            194.54647112026385,
            -128.0162186862538
          ],
          [
            194.73100191997364,
            -128.38531667046183
          ],
          [
            194.91552058724716,
            -129.12350359296283
          ],
          [
            195.1000513869569,
            -129.4926015771709
          ],
          [
            195.28458218666665,
            -129.86169956137894
          ],
          [
            195.28455792179417,
            -130.59987743796486
          ],
          [
            195.28453365692172,
            -131.33805531455076
          ],
          [
            195.83811998983288,
            -132.62989373632135
          ],
          [
            196.20716945681616,
            -133.7371786430304
          ],
          [
            196.391706322744,
            -133.92173215809197
          ],
          [
            196.5762431886719,
            -134.10628567315354
          ],
          [
            196.76077398838166,
            -134.4753836573616
          ],
          [
            196.94530478809136,
            -134.84448164156962
          ],
          [
            197.68342798693038,
            -136.3208735784018
          ],
          [
            198.42155118576935,
            -137.79726551523396
          ],
          [
            198.79060065275266,
            -138.90455042194301
          ],
          [
            198.97513145246236,
            -139.27364840615107
          ],
          [
            199.1596440535178,
            -140.19637979779853
          ],
          [
            199.5286935205011,
            -141.30366470450758
          ],
          [
            200.2668288517763,
            -142.4109677030468
          ],
          [
            201.0049702492696,
            -143.33372623243952
          ],
          [
            201.1895071151975,
            -143.51827974750108
          ],
          [
            201.37403791490726,
            -143.88737773170914
          ],
          [
            201.55856871461697,
            -144.2564757159172
          ],
          [
            201.74309951432673,
            -144.62557370012522
          ],
          [
            202.11217324618246,
            -144.99468073024838
          ],
          [
            202.29670404589223,
            -145.3637787144564
          ],
          [
            202.6657656453117,
            -146.10197468287248
          ]
        ]
      },
      "properties": {
        "type": "variant",
        "id": 1,
        "color": "#ff4444",
        "vzdal_m": 1510,
        "prevyseni_m": 17,
        "cas_s": 444,
        "tempo_str": "4:53"
      }
    },
    {
      "type": "Feature",
      "geometry": {
        "type": "LineString",
        "coordinates": [
          [
            175.72403230518205,
            -99.41090328521084
          ],
          [
            176.46215550402104,
            -100.88729522204302
          ],
          [
            177.20027870286003,
            -102.36368715887518
          ],
          [
            177.75385290333494,
            -104.02461451893876
          ],
          [
            178.67652510053802,
            -105.31647103253954
          ],
          [
            178.86103770159343,
            -106.23920242418701
          ],
          [
            179.23008716857672,
            -107.34648733089607
          ],
          [
            179.9682103674157,
            -108.82287926772823
          ],
          [
            180.7063335662547,
            -110.29927120456041
          ],
          [
            180.89086436596443,
            -110.66836918876844
          ],
          [
            181.0753951656742,
            -111.03746717297648
          ],
          [
            181.25992596538396,
            -111.40656515718453
          ],
          [
            181.07537090080174,
            -111.7756450495624
          ],
          [
            181.07535876836553,
            -112.14473398785535
          ],
          [
            180.89080370378332,
            -112.51381388023322
          ],
          [
            180.8907794389109,
            -113.25199175681914
          ],
          [
            180.70620617567437,
            -114.17470505663645
          ],
          [
            180.33708391407373,
            -115.28195377968515
          ],
          [
            180.1525045846191,
            -116.38921154864893
          ],
          [
            181.0751889142584,
            -117.31197912395675
          ],
          [
            181.81333031175174,
            -118.2347376533495
          ],
          [
            182.55147777546318,
            -118.97295171359575
          ],
          [
            183.28961917295652,
            -119.8957102429885
          ],
          [
            184.02776057044983,
            -120.81846877238122
          ],
          [
            185.3195489630354,
            -121.18762103207979
          ],
          [
            185.87315956081898,
            -121.74128157726449
          ],
          [
            186.61128275965797,
            -123.21767351409665
          ],
          [
            187.16485696013288,
            -124.87860087416023
          ],
          [
            188.0875412897722,
            -125.80136844946804
          ],
          [
            189.0102134869753,
            -127.09322496306882
          ],
          [
            189.1947260880307,
            -128.0159563547163
          ],
          [
            189.56376342257775,
            -129.4923301997183
          ],
          [
            189.7482881560694,
            -130.04597265307282
          ],
          [
            189.74826389119693,
            -130.78415052965875
          ],
          [
            189.74823962632453,
            -131.52232840624464
          ],
          [
            189.9327522273799,
            -132.44505979789213
          ],
          [
            190.48633856029105,
            -133.73689821966272
          ],
          [
            191.22447995778438,
            -134.65965674905547
          ],
          [
            191.96262742149582,
            -135.39787080930174
          ],
          [
            192.70076275277103,
            -136.50517380784095
          ],
          [
            193.40402507084548,
            -137.51783215798991
          ],
          [
            193.9242691895432,
            -137.71513766651285
          ],
          [
            194.57037806838025,
            -138.5534606764382
          ],
          [
            195.24221005674556,
            -139.50371000495156
          ],
          [
            196.0604306404733,
            -140.15454406535164
          ],
          [
            196.94509741111682,
            -140.93433036408015
          ],
          [
            197.72803953548222,
            -141.77230276221746
          ],
          [
            198.41480092118235,
            -142.4312185664679
          ],
          [
            199.344089926174,
            -143.1491003500573
          ],
          [
            200.08223738988542,
            -143.88731441030353
          ],
          [
            200.26677425581332,
            -144.0718679253651
          ],
          [
            200.45130505552302,
            -144.44096590957315
          ],
          [
            200.82037878737876,
            -144.81007293969628
          ],
          [
            201.00490958708852,
            -145.1791709239043
          ],
          [
            202.11214898130999,
            -145.73285860683427
          ],
          [
            202.48122877938383,
            -145.91742116781091
          ],
          [
            202.6657656453117,
            -146.10197468287248
          ]
        ]
      },
      "properties": {
        "type": "variant",
        "id": 2,
        "color": "#4444ff",
        "vzdal_m": 1550,
        "prevyseni_m": 18,
        "cas_s": 446,
        "tempo_str": "4:47"
      }
    },
    {
      "type": "Feature",
      "geometry": {
        "type": "LineString",
        "coordinates": [
          [
            175.72403230518205,
            -99.41090328521084
          ],
          [
            176.46217370267536,
            -100.33366181460359
          ],
          [
            177.2003151001687,
            -101.25642034399631
          ],
          [
            177.9384443652258,
            -102.54826781168202
          ],
          [
            178.12297516493555,
            -102.91736579589005
          ],
          [
            179.41475142508492,
            -103.65560699388156
          ],
          [
            180.89107061738022,
            -104.39385723778817
          ],
          [
            181.99831001160172,
            -104.94754492071814
          ],
          [
            183.47462920389702,
            -105.68579516462472
          ],
          [
            184.2127766676085,
            -106.424009224871
          ],
          [
            185.13546706346588,
            -107.16223233103233
          ],
          [
            186.0581513931052,
            -108.08499990634017
          ],
          [
            187.34993371947266,
            -108.63869663518521
          ],
          [
            188.27262411533007,
            -109.37691974134655
          ],
          [
            189.0107594466053,
            -110.48422273988575
          ],
          [
            189.7488826454443,
            -111.96061467671794
          ],
          [
            190.48703010915577,
            -112.69882873696419
          ],
          [
            191.22517757286718,
            -113.43704279721045
          ],
          [
            191.77878817065078,
            -113.99070334239514
          ],
          [
            191.9633189703605,
            -114.35980132660319
          ],
          [
            192.5168931708354,
            -116.02072868666676
          ],
          [
            193.43956536803847,
            -117.31258520026753
          ],
          [
            194.1776885668775,
            -118.78897713709972
          ],
          [
            194.3622011679329,
            -119.71170852874718
          ],
          [
            194.65042869848983,
            -121.13635603057794
          ],
          [
            195.46937383375518,
            -122.29538537228841
          ],
          [
            195.83843543317468,
            -123.03358134070449
          ],
          [
            196.02296623288444,
            -123.40267932491253
          ],
          [
            196.20747883393983,
            -124.32541071656001
          ],
          [
            196.94561416521506,
            -125.43271371509921
          ],
          [
            197.68375556270837,
            -126.35547224449196
          ],
          [
            198.4219030264198,
            -127.09368630473821
          ],
          [
            199.16003229147694,
            -128.3855337724239
          ],
          [
            199.5290938908964,
            -129.12372974084002
          ],
          [
            199.7136246906062,
            -129.49282772504804
          ],
          [
            199.71360042573372,
            -130.23100560163394
          ],
          [
            200.08264989271697,
            -131.338290508343
          ],
          [
            200.820773091556,
            -132.81468244517518
          ],
          [
            201.1898346909755,
            -133.55287841359126
          ],
          [
            201.18981042610304,
            -134.29105629017718
          ],
          [
            201.18978616123061,
            -135.02923416676308
          ],
          [
            201.18976189635816,
            -135.767412043349
          ],
          [
            201.18975583014003,
            -135.95195651249549
          ],
          [
            201.37428662984982,
            -136.3210544967035
          ],
          [
            201.55881742955953,
            -136.69015248091156
          ],
          [
            201.7433482292693,
            -137.05925046511962
          ],
          [
            201.74332396439684,
            -137.79742834170554
          ],
          [
            201.7432996995244,
            -138.53560621829143
          ],
          [
            201.9278123005798,
            -139.45833760993892
          ],
          [
            201.92780016814362,
            -139.82742654823187
          ],
          [
            201.7432451035614,
            -140.19650644060974
          ],
          [
            201.74320870625274,
            -141.3037732554886
          ],
          [
            201.7431844413803,
            -142.04195113207453
          ],
          [
            201.74316017650784,
            -142.78012900866045
          ],
          [
            201.5585869132713,
            -143.70284230847776
          ],
          [
            201.55856871461697,
            -144.2564757159172
          ],
          [
            201.74309951432673,
            -144.62557370012522
          ],
          [
            202.11217324618246,
            -144.99468073024838
          ],
          [
            202.29670404589223,
            -145.3637787144564
          ],
          [
            202.6657656453117,
            -146.10197468287248
          ]
        ]
      },
      "properties": {
        "type": "variant",
        "id": 3,
        "color": "#44ff44",
        "vzdal_m": 1556,
        "prevyseni_m": 17,
        "cas_s": 443,
        "tempo_str": "4:44"
      }
    }
  ]
}