{
  "type": "FeatureCollection",
  "features": [
    {
      "type": "Feature",
      "geometry": {
        "type": "Point",
        "coordinates": [
          206.20116452420945,
          -159.80432375337608
        ]
      },
      "properties": {
        "type": "start",
        "isom": "109"
      }
    },
    {
      "type": "Feature",
      "geometry": {
        "type": "Point",
        "coordinates": [
          151.54752863415283,
          -197.72331868159483
        ]
      },
      "properties": {
        "type": "end",
        "isom": "417"
      }
    },
    {
      "type": "Feature",
      "geometry": {
        "type": "LineString",
        "coordinates": [
          [
            206.14037032350868,
            -159.8462762103915
          ],
          [
            205.40219859492478,
            -159.84624002673115
          ],
          [
            204.2949288696128,
            -160.21527468953357
          ],
          [
            203.5567571410289,
            -160.21523850587326
          ],
          [
            202.634042480299,
            -160.2151932762978
          ],
          [
            201.52676062255074,
            -160.9533168773932
          ],
          [
            200.60403382938466,
            -161.32236058611073
          ],
          [
            199.31220903949043,
            -162.06047514129105
          ],
          [
            198.38947011388814,
            -162.7986077883015
          ],
          [
            198.02037211715998,
            -163.16767863476431
          ],
          [
            197.65128018664993,
            -163.35220501208062
          ],
          [
            197.46673118828582,
            -163.536740435312
          ],
          [
            197.28217612370364,
            -163.90582032768987
          ],
          [
            195.9903513338094,
            -164.64393488287018
          ],
          [
            195.0676306068614,
            -164.82843412244122
          ],
          [
            194.3294588782775,
            -164.82839793878088
          ],
          [
            193.59128714969364,
            -164.82836175512054
          ],
          [
            192.4840234905997,
            -165.0128519487765
          ],
          [
            191.74584569579773,
            -165.19736023426262
          ],
          [
            191.37674769906957,
            -165.56643108072544
          ],
          [
            191.00766183477762,
            -165.56641298889525
          ],
          [
            189.90037997702933,
            -166.30453658999065
          ],
          [
            189.16217185113678,
            -167.41176722120915
          ],
          [
            188.42396979146233,
            -168.33445338328121
          ],
          [
            187.87031673015196,
            -169.07260412212187
          ],
          [
            187.13211467047753,
            -169.9952902841939
          ],
          [
            185.84028988058327,
            -170.73340483937423
          ],
          [
            185.10209388712695,
            -171.47154653229978
          ],
          [
            184.3638918274525,
            -172.39423269437185
          ],
          [
            183.6256958339962,
            -173.1323743872974
          ],
          [
            182.88749984053985,
            -173.87051608022298
          ],
          [
            182.70295084217577,
            -174.05505150345437
          ],
          [
            182.51839577759358,
            -174.42413139583223
          ],
          [
            181.5956568519913,
            -175.16226404284274
          ],
          [
            180.85746085853495,
            -175.9004057357683
          ],
          [
            180.11926486507863,
            -176.63854742869387
          ],
          [
            179.3810688716223,
            -177.37668912161942
          ],
          [
            179.0119708748941,
            -177.7457599680822
          ],
          [
            178.64287894438408,
            -177.9302863453985
          ],
          [
            177.90468295092774,
            -178.6684280383241
          ],
          [
            176.98194402532545,
            -179.40656068533457
          ],
          [
            175.87466216757716,
            -180.14468428642996
          ],
          [
            174.39829444553695,
            -180.88278979569517
          ],
          [
            173.6600984520806,
            -181.62093148862076
          ],
          [
            172.92188425996994,
            -182.91270658898574
          ],
          [
            172.3682251324415,
            -183.8354017969729
          ],
          [
            172.18367006785928,
            -184.20448168935076
          ],
          [
            171.44547407440297,
            -184.9426233822763
          ],
          [
            170.70727808094662,
            -185.6807650752019
          ],
          [
            169.9690820874903,
            -186.41890676812747
          ],
          [
            169.23088002781586,
            -187.3415929301995
          ],
          [
            168.4926840343595,
            -188.0797346231251
          ],
          [
            167.7544819746851,
            -189.00242078519716
          ],
          [
            167.01629204744685,
            -189.55601800897622
          ],
          [
            165.90902838835294,
            -189.7405082026322
          ],
          [
            165.35539959191502,
            -189.74048106488692
          ],
          [
            164.61722786333115,
            -189.7404448812266
          ],
          [
            163.50993993936476,
            -190.66311295146846
          ],
          [
            162.77175001212655,
            -191.21671017524756
          ],
          [
            162.0335479524521,
            -192.13939633731962
          ],
          [
            161.1108150930679,
            -192.69298451518364
          ],
          [
            160.00354536775586,
            -193.06201917798606
          ],
          [
            159.26537363917197,
            -193.0619829943257
          ],
          [
            158.15810391385992,
            -193.43101765712817
          ],
          [
            157.05083418854787,
            -193.8000523199306
          ],
          [
            155.94356446323582,
            -194.169086982733
          ],
          [
            154.83629473792377,
            -194.53812164553548
          ],
          [
            153.91356794475772,
            -194.907165354253
          ],
          [
            153.17535981886513,
            -196.0143959854715
          ],
          [
            152.25261482704474,
            -196.93707310162847
          ],
          [
            151.5144188335884,
            -197.67521479455405
          ]
        ]
      },
      "properties": {
        "type": "variant",
        "id": 1,
        "color": "#ff4444",
        "vzdal_m": 1883,
        "prevyseni_m": 45,
        "cas_s": 584,
        "tempo_str": "5:10"
      }
    },
    {
      "type": "Feature",
      "geometry": {
        "type": "LineString",
        "coordinates": [
          [
            206.14037032350868,
            -159.8462762103915
          ],
          [
            206.14035212485436,
            -160.39990961783093
          ],
          [
            205.95579706027215,
            -160.7689895102088
          ],
          [
            205.95579099405404,
            -160.95353397935529
          ],
          [
            205.77123592947186,
            -161.32261387173315
          ],
          [
            205.58666266623533,
            -162.24532717155046
          ],
          [
            205.40209546921693,
            -162.98349600222127
          ],
          [
            205.21754040463472,
            -163.35257589459914
          ],
          [
            205.40207120434448,
            -163.7216738788072
          ],
          [
            205.40206513812637,
            -163.90621834795365
          ],
          [
            205.2175100735442,
            -164.27529824033152
          ],
          [
            205.03295500896198,
            -164.6443781327094
          ],
          [
            204.4792958814335,
            -165.56707334069654
          ],
          [
            204.29474081685132,
            -165.9361532330744
          ],
          [
            204.1101918184872,
            -166.1206886563058
          ],
          [
            203.92563675390502,
            -166.48976854868366
          ],
          [
            203.18742256179436,
            -167.78154364904867
          ],
          [
            202.4492023034656,
            -169.25786321856015
          ],
          [
            201.8955310435009,
            -170.54964736484027
          ],
          [
            201.15731685139022,
            -171.84142246520526
          ],
          [
            200.78818852357153,
            -173.13321565740043
          ],
          [
            200.6036334589893,
            -173.5022955497783
          ],
          [
            200.41907839440714,
            -173.87137544215616
          ],
          [
            199.6808702685146,
            -174.9786060733747
          ],
          [
            198.9426500101858,
            -176.4549256428862
          ],
          [
            198.38899694887544,
            -177.19307638172683
          ],
          [
            198.20444188429326,
            -177.5621562741047
          ],
          [
            197.46624589083692,
            -178.30029796703028
          ],
          [
            196.91259282952657,
            -179.03844870587093
          ],
          [
            196.3589215695619,
            -180.33023285215103
          ],
          [
            196.35891550334378,
            -180.5147773212975
          ],
          [
            196.17436043876157,
            -180.88385721367536
          ],
          [
            195.98980537417938,
            -181.25293710605322
          ],
          [
            195.8052503095972,
            -181.6220169984311
          ],
          [
            195.62069524501499,
            -181.99109689080896
          ],
          [
            195.4361401804328,
            -182.36017678318686
          ],
          [
            194.67772967253313,
            -183.26927227676907
          ],
          [
            194.07028329619035,
            -184.1057000519475
          ],
          [
            193.8648911004465,
            -184.45348178163005
          ],
          [
            193.34608922494613,
            -185.0654610888093
          ],
          [
            193.09341953296905,
            -185.3649026975234
          ],
          [
            192.34713835184527,
            -186.04699600811313
          ],
          [
            191.63583351519625,
            -186.86767486494693
          ],
          [
            190.8759879488293,
            -187.58512318639023
          ],
          [
            189.54836446228452,
            -188.38229170492033
          ],
          [
            188.48116741680641,
            -188.77595847431212
          ],
          [
            186.93958265241645,
            -189.35052791991282
          ],
          [
            186.16602705513688,
            -189.63588551382998
          ],
          [
            185.78470346167964,
            -189.7899910423504
          ],
          [
            185.40258149633576,
            -190.15875990088622
          ],
          [
            184.70560283059737,
            -190.63153802975356
          ],
          [
            183.894943952178,
            -191.3091137128489
          ],
          [
            182.909693727626,
            -192.1681341381196
          ],
          [
            181.4830613201379,
            -193.0019876289562
          ],
          [
            180.16410302429352,
            -193.54734476310836
          ],
          [
            179.37307086776832,
            -193.45220594978855
          ],
          [
            178.88634240300416,
            -193.2717351750577
          ],
          [
            178.4378222427154,
            -193.1514579786437
          ],
          [
            178.26096317525716,
            -193.18831648725876
          ],
          [
            177.8359700064554,
            -193.36112742946287
          ],
          [
            177.23943113641425,
            -194.21809714503425
          ],
          [
            176.49200415334795,
            -194.97480319389652
          ],
          [
            175.55352519747993,
            -195.71560647899676
          ],
          [
            174.61394696102317,
            -196.42713378128948
          ],
          [
            174.02869295270554,
            -196.5690515813157
          ],
          [
            173.29052729033978,
            -196.38447092850888
          ],
          [
            172.92144142604783,
            -196.3844528366787
          ],
          [
            172.552361627974,
            -196.19989027570205
          ],
          [
            171.8141898993901,
            -196.19985409204173
          ],
          [
            171.26056716917032,
            -196.01528248514995
          ],
          [
            171.07602423702434,
            -196.0152734392349
          ],
          [
            170.7069444389505,
            -195.83071087825823
          ],
          [
            170.3378646408767,
            -195.6461483172816
          ],
          [
            169.2306191804371,
            -195.27700510349814
          ],
          [
            168.12337371999746,
            -194.90786188971464
          ],
          [
            167.01612825955786,
            -194.53871867593114
          ],
          [
            166.277956530974,
            -194.53868249227082
          ],
          [
            165.5397848023901,
            -194.53864630861048
          ],
          [
            164.98615600595218,
            -194.53861917086522
          ],
          [
            164.61707620787837,
            -194.35405660988857
          ],
          [
            163.8789166117307,
            -193.98493148793526
          ],
          [
            163.50983681365688,
            -193.8003689269586
          ],
          [
            163.14075094936493,
            -193.80035083512843
          ],
          [
            162.7716711512911,
            -193.61578827415175
          ],
          [
            162.40259135321725,
            -193.43122571317514
          ],
          [
            162.03351155514343,
            -193.2466631521985
          ],
          [
            161.6644317570696,
            -193.06210059122185
          ],
          [
            161.29535195899575,
            -192.87753803024518
          ],
          [
            160.5571802304119,
            -192.87750184658483
          ],
          [
            159.63445950346392,
            -193.06200108615587
          ],
          [
            158.89628777488002,
            -193.06196490249553
          ],
          [
            157.6044690512039,
            -193.61553498852936
          ],
          [
            156.68174225803781,
            -193.9845786972469
          ],
          [
            155.75902153108984,
            -194.16907793681793
          ],
          [
            154.6517518057778,
            -194.53811259962035
          ],
          [
            153.91356794475772,
            -194.907165354253
          ],
          [
            153.17535981886513,
            -196.0143959854715
          ],
          [
            152.4371577591907,
            -196.93708214754355
          ],
          [
            151.5144188335884,
            -197.67521479455405
          ]
        ]
      },
      "properties": {
        "type": "variant",
        "id": 2,
        "color": "#4444ff",
        "vzdal_m": 2085,
        "prevyseni_m": 47,
        "cas_s": 586,
        "tempo_str": "4:40"
      }
    },
    {
      "type": "Feature",
      "geometry": {
        "type": "LineString",
        "coordinates": [
          [
            206.14037032350868,
            -159.8462762103915
          ],
          [
            205.40219859492478,
            -159.84624002673115
          ],
          [
            204.2949288696128,
            -160.21527468953357
          ],
          [
            203.5567571410289,
            -160.21523850587326
          ],
          [
            202.634042480299,
            -160.2151932762978
          ],
          [
            201.52676062255074,
            -160.9533168773932
          ],
          [
            200.60403382938466,
            -161.32236058611073
          ],
          [
            199.31220903949043,
            -162.06047514129105
          ],
          [
            198.57400091359787,
            -163.16770577250955
          ],
          [
            198.02035391850563,
            -163.72131204220375
          ],
          [
            197.65126198799558,
            -163.90583841952005
          ],
          [
            196.5439801302473,
            -164.64396202061545
          ],
          [
            195.43669827249906,
            -165.38208562171084
          ],
          [
            195.06760634198898,
            -165.56661199902715
          ],
          [
            194.32941034853266,
            -166.3047536919527
          ],
          [
            193.59120828885818,
            -167.22743985402477
          ],
          [
            192.85298803052945,
            -168.70375942353624
          ],
          [
            192.1147920370731,
            -169.4419011164618
          ],
          [
            191.37659604361676,
            -170.18004280938737
          ],
          [
            190.63839398394234,
            -171.1027289714594
          ],
          [
            189.90017372561354,
            -172.57904854097092
          ],
          [
            189.16195346728477,
            -174.0553681104824
          ],
          [
            188.6082822073201,
            -175.34715225676248
          ],
          [
            188.42370894408353,
            -176.2698655565798
          ],
          [
            188.23914781328324,
            -176.82348991810414
          ],
          [
            188.05458668248292,
            -177.37711427962847
          ],
          [
            187.87003768411884,
            -177.56164970285988
          ],
          [
            187.13181742579008,
            -179.03796927237136
          ],
          [
            186.3936032336794,
            -180.32974437273634
          ],
          [
            185.4708643080771,
            -181.06787701974685
          ],
          [
            184.36358245032883,
            -181.80600062084224
          ],
          [
            183.62538645687252,
            -182.5441423137678
          ],
          [
            182.7026475312702,
            -183.2822749607783
          ],
          [
            182.14899446995983,
            -184.02042569961893
          ],
          [
            181.4107863440673,
            -185.12765633083748
          ],
          [
            179.93442468824517,
            -185.6812173709562
          ],
          [
            178.45805696620496,
            -186.41932288022144
          ],
          [
            177.71986097274865,
            -187.15746457314702
          ],
          [
            176.6125791150004,
            -187.89558817424242
          ],
          [
            175.50529725725212,
            -188.6337117753378
          ],
          [
            174.0289295352119,
            -189.37181728460305
          ],
          [
            173.65983760470183,
            -189.55634366191936
          ],
          [
            172.55255574695357,
            -190.29446726301472
          ],
          [
            172.18346381644352,
            -190.47899364033103
          ],
          [
            171.44527388920528,
            -191.03259086411015
          ],
          [
            171.2607188246231,
            -191.401670756488
          ],
          [
            169.96889403472886,
            -192.1397853116683
          ],
          [
            169.0461733077809,
            -192.32428455123937
          ],
          [
            168.30798944676079,
            -192.69333730587198
          ],
          [
            167.38525658737657,
            -193.24692548373596
          ],
          [
            166.4625297942105,
            -193.61596919245352
          ],
          [
            165.72436413184474,
            -193.43138853964666
          ],
          [
            164.98619240326084,
            -193.43135235598635
          ],
          [
            164.24802067467695,
            -193.431316172326
          ],
          [
            163.32529994772898,
            -193.61581541189705
          ],
          [
            162.03351762136154,
            -193.062118683052
          ],
          [
            161.6644317570696,
            -193.06210059122185
          ],
          [
            161.29535195899575,
            -192.87753803024518
          ],
          [
            160.5571802304119,
            -192.87750184658483
          ],
          [
            159.63445950346392,
            -193.06200108615587
          ],
          [
            158.89628777488002,
            -193.06196490249553
          ],
          [
            157.6044690512039,
            -193.61553498852936
          ],
          [
            156.68174225803781,
            -193.9845786972469
          ],
          [
            155.75902153108984,
            -194.16907793681793
          ],
          [
            154.6517518057778,
            -194.53811259962035
          ],
          [
            153.91356794475772,
            -194.907165354253
          ],
          [
            153.17535981886513,
            -196.0143959854715
          ],
          [
            152.4371577591907,
            -196.93708214754355
          ],
          [
            151.5144188335884,
            -197.67521479455405
          ]
        ]
      },
      "properties": {
        "type": "variant",
        "id": 3,
        "color": "#44ff44",
        "vzdal_m": 1938,
        "prevyseni_m": 43,
        "cas_s": 585,
        "tempo_str": "5:01"
      }
    }
  ]
}