{
  "type": "FeatureCollection",
  "features": [
    {
      "type": "Feature",
      "geometry": {
        "type": "Point",
        "coordinates": [
          224.76703286432866,
          -41.27017785907263
        ]
      },
      "properties": {
        "type": "start",
        "isom": "109"
      }
    },
    {
      "type": "Feature",
      "geometry": {
        "type": "Point",
        "coordinates": [
          173.19913189047062,
          -105.87714702889596
        ]
      },
      "properties": {
        "type": "end",
        "isom": "109"
      }
    },
    {
      "type": "Feature",
      "geometry": {
        "type": "LineString",
        "coordinates": [
          [
            224.86904888241938,
            -41.44565671084989
          ],
          [
            221.1780480543925,
            -44.39844126763263
          ],
          [
            218.96320523262455,
            -49.56582050401748
          ],
          [
            218.9630471946125,
            -51.7804130055274
          ],
          [
            216.01004635070905,
            -56.94779115286615
          ],
          [
            212.3189928433448,
            -60.63877321015221
          ],
          [
            210.10420270091421,
            -65.06795494603375
          ],
          [
            207.88935987914627,
            -70.23533418241861
          ],
          [
            204.19830637178202,
            -73.92631623970466
          ],
          [
            201.24530552787857,
            -79.09369438704341
          ],
          [
            198.29251540132452,
            -81.30828253236893
          ],
          [
            196.81614667771618,
            -82.04647785478005
          ],
          [
            193.1251458496893,
            -84.9992624115628
          ],
          [
            191.64867176740626,
            -87.21385273498052
          ],
          [
            190.91040838659603,
            -88.69024664694103
          ],
          [
            188.69572360284013,
            -91.64303338181597
          ],
          [
            187.9574602220299,
            -93.11942729377648
          ],
          [
            185.00461741613856,
            -96.07221293960532
          ],
          [
            182.05177461024715,
            -99.02499858543416
          ],
          [
            179.09882644568106,
            -103.45417923226961
          ],
          [
            174.66977295419335,
            -104.93056769899964
          ],
          [
            173.193404230585,
            -105.66876302141077
          ]
        ]
      },
      "properties": {
        "type": "variant",
        "id": 1,
        "color": "#ff4444",
        "vzdal_m": 577,
        "prevyseni_m": 9,
        "cas_s": 175,
        "tempo_str": "5:02"
      }
    },
    {
      "type": "Feature",
      "geometry": {
        "type": "LineString",
        "coordinates": [
          [
            224.86904888241938,
            -41.44565671084989
          ],
          [
            221.91646947321476,
            -40.707454854162194
          ],
          [
            218.96378470533543,
            -41.445647998481114
          ],
          [
            216.0111526167934,
            -41.44564364229672
          ],
          [
            212.32025714744123,
            -42.92203319807285
          ],
          [
            209.36741434154982,
            -45.874818843901686
          ],
          [
            206.4144134976464,
            -51.04219699124044
          ],
          [
            203.46135997440558,
            -56.9477726390825
          ],
          [
            200.5085171685142,
            -59.90055828491135
          ],
          [
            197.55567436262277,
            -62.85334393074019
          ],
          [
            193.86467353459588,
            -65.80612848752293
          ],
          [
            189.4355146844335,
            -68.75891195525956
          ],
          [
            187.2209352593523,
            -70.23530368912789
          ],
          [
            185.74446117706927,
            -72.44989401254561
          ],
          [
            185.006039758247,
            -76.14088042601605
          ],
          [
            184.26772369809945,
            -78.35547183847987
          ],
          [
            183.52946031728925,
            -79.83186575044039
          ],
          [
            181.31477553353335,
            -82.78465248531532
          ],
          [
            180.57651215272315,
            -84.26104639727583
          ],
          [
            179.09988003242805,
            -88.69022922220348
          ],
          [
            177.62324791213297,
            -93.11941204713112
          ],
          [
            176.88498453132274,
            -94.59580595909165
          ],
          [
            176.88477381397337,
            -97.54859596110487
          ],
          [
            176.14640507448846,
            -100.501384874072
          ],
          [
            175.40814169367826,
            -101.97777878603252
          ],
          [
            174.66987831286806,
            -103.45417269799303
          ],
          [
            173.93161493205784,
            -104.93056660995354
          ],
          [
            173.193404230585,
            -105.66876302141077
          ]
        ]
      },
      "properties": {
        "type": "variant",
        "id": 2,
        "color": "#4444ff",
        "vzdal_m": 606,
        "prevyseni_m": 12,
        "cas_s": 174,
        "tempo_str": "4:47"
      }
    },
    {
      "type": "Feature",
      "geometry": {
        "type": "LineString",
        "coordinates": [
          [
            224.86904888241938,
            -41.44565671084989
          ],
          [
            224.1306801429345,
            -44.39844562381702
          ],
          [
            223.3922060447749,
            -48.82762953779076
          ],
          [
            222.65378462595265,
            -52.5186159512612
          ],
          [
            222.65357390860325,
            -55.47140595327442
          ],
          [
            221.91515248978098,
            -59.162392366744854
          ],
          [
            221.9149417724316,
            -62.115182368758084
          ],
          [
            222.65288907721765,
            -65.06797345981741
          ],
          [
            224.129099762814,
            -66.5443706389162
          ],
          [
            224.86715242627477,
            -68.02076672896892
          ],
          [
            222.65236228384418,
            -72.44994846485048
          ],
          [
            218.22325611301912,
            -74.66453443208381
          ],
          [
            216.7468873894108,
            -75.40272975449491
          ],
          [
            213.79409726285672,
            -77.61731789982045
          ],
          [
            210.841201777628,
            -81.3083010461526
          ],
          [
            207.8881482543872,
            -87.21387669399466
          ],
          [
            207.14988487357698,
            -88.69027060595518
          ],
          [
            202.72083138208933,
            -90.1666590726852
          ],
          [
            200.50630463634545,
            -90.90485330605023
          ],
          [
            199.0299359127371,
            -91.64304862846133
          ],
          [
            198.29172521126424,
            -92.38124503991854
          ],
          [
            196.81535648765592,
            -93.11944036232966
          ],
          [
            196.0771984655204,
            -93.11943927328356
          ],
          [
            194.60082974191207,
            -93.85763459569468
          ],
          [
            191.64798693602066,
            -96.8104202415235
          ],
          [
            186.48061738438543,
            -100.50140012071736
          ],
          [
            180.5751951692894,
            -102.7159839098585
          ],
          [
            175.40793097632883,
            -104.93056878804575
          ],
          [
            173.193404230585,
            -105.66876302141077
          ]
        ]
      },
      "properties": {
        "type": "variant",
        "id": 3,
        "color": "#44ff44",
        "vzdal_m": 640,
        "prevyseni_m": 8,
        "cas_s": 181,
        "tempo_str": "4:42"
      }
    }
  ]
}