{
  "type": "FeatureCollection",
  "features": [
    {
      "type": "Feature",
      "geometry": {
        "type": "Point",
        "coordinates": [
          62.48769092779088,
          -232.73516165837796
        ]
      },
      "properties": {
        "type": "start",
        "isom": "417"
      }
    },
    {
      "type": "Feature",
      "geometry": {
        "type": "Point",
        "coordinates": [
          81.75714366360796,
          -248.5626399068332
        ]
      },
      "properties": {
        "type": "end",
        "isom": "204"
      }
    },
    {
      "type": "Feature",
      "geometry": {
        "type": "LineString",
        "coordinates": [
          [
            62.41029215807942,
            -232.64645581710533
          ],
          [
            63.702074484446875,
            -233.20015254595037
          ],
          [
            65.1783936767422,
            -233.93840278985695
          ],
          [
            66.47016387067345,
            -234.86118845699494
          ],
          [
            67.94648912918687,
            -235.41489423175508
          ],
          [
            69.05372245719026,
            -236.1531263838315
          ],
          [
            69.60733912119196,
            -236.52224245986974
          ],
          [
            69.97641285304766,
            -236.89134948999285
          ],
          [
            70.71454211810477,
            -238.18319695767855
          ],
          [
            71.45268958181622,
            -238.9214110179248
          ],
          [
            72.19081884687333,
            -240.2132584856105
          ],
          [
            72.74439911356635,
            -241.6896413765276
          ],
          [
            74.40526730422576,
            -242.24335619720281
          ],
          [
            75.14341476793719,
            -242.98157025744908
          ],
          [
            75.88156223164863,
            -243.71978431769531
          ],
          [
            76.61970969536007,
            -244.45799837794158
          ],
          [
            77.54240009121747,
            -245.19622148410292
          ],
          [
            78.46509048707489,
            -245.93444459026426
          ],
          [
            79.75686674722424,
            -246.67268578825576
          ],
          [
            80.67955714308167,
            -247.4109088944171
          ],
          [
            81.41770460679311,
            -248.14912295466337
          ],
          [
            81.78677833864882,
            -248.51822998478653
          ]
        ]
      },
      "properties": {
        "type": "variant",
        "id": 1,
        "color": "#ff4444",
        "vzdal_m": 699,
        "prevyseni_m": 22,
        "cas_s": 223,
        "tempo_str": "5:18"
      }
    },
    {
      "type": "Feature",
      "geometry": {
        "type": "LineString",
        "coordinates": [
          [
            62.41029215807942,
            -232.64645581710533
          ],
          [
            63.14846388666329,
            -232.64649200076565
          ],
          [
            63.88663561524718,
            -232.646528184426
          ],
          [
            64.62480734383107,
            -232.64656436808636
          ],
          [
            65.36297907241494,
            -232.6466005517467
          ],
          [
            66.10115080099884,
            -232.64663673540701
          ],
          [
            66.83932252958272,
            -232.64667291906738
          ],
          [
            68.13109272351397,
            -233.56945858620537
          ],
          [
            69.2383503163898,
            -233.5695128616959
          ],
          [
            70.3455957768294,
            -233.93865607547937
          ],
          [
            71.452841237269,
            -234.30779928926285
          ],
          [
            72.3755255669083,
            -235.23056686457068
          ],
          [
            73.29822202898383,
            -235.78424550158553
          ],
          [
            74.03636949269526,
            -236.5224595618318
          ],
          [
            74.7745169564067,
            -237.26067362207806
          ],
          [
            75.51266442011814,
            -237.9988876823243
          ],
          [
            76.25081188382958,
            -238.73710174257056
          ],
          [
            76.9889532813229,
            -239.6598602719633
          ],
          [
            77.5425699453246,
            -240.02897634800152
          ],
          [
            77.72710074503435,
            -240.39807433220957
          ],
          [
            77.9116315447441,
            -240.7671723164176
          ],
          [
            78.28070527659982,
            -241.13627934654076
          ],
          [
            78.46523607630957,
            -241.5053773307488
          ],
          [
            79.20337747380289,
            -242.4281358601415
          ],
          [
            79.38790827351265,
            -242.79723384434953
          ],
          [
            79.57243907322238,
            -243.16633182855762
          ],
          [
            79.57241480834995,
            -243.90450970514354
          ],
          [
            80.12600114126107,
            -245.19634812691413
          ],
          [
            80.679575341736,
            -246.85727548697767
          ],
          [
            81.60224753893907,
            -248.1491320005785
          ],
          [
            81.78677833864882,
            -248.51822998478653
          ]
        ]
      },
      "properties": {
        "type": "variant",
        "id": 2,
        "color": "#4444ff",
        "vzdal_m": 746,
        "prevyseni_m": 19,
        "cas_s": 230,
        "tempo_str": "5:08"
      }
    },
    {
      "type": "Feature",
      "geometry": {
        "type": "LineString",
        "coordinates": [
          [
            62.41029215807942,
            -232.64645581710533
          ],
          [
            62.96389062342677,
            -233.56920530058295
          ],
          [
            63.8865870855023,
            -234.12288393759783
          ],
          [
            64.25564261870367,
            -235.0456243751604
          ],
          [
            64.99379008241512,
            -235.78383843540666
          ],
          [
            65.73192541369033,
            -236.89114143394588
          ],
          [
            66.47007287740178,
            -237.6293554941921
          ],
          [
            66.65460974332964,
            -237.8139090092537
          ],
          [
            66.83914054303938,
            -238.18300699346173
          ],
          [
            67.76182487267869,
            -239.10577456876956
          ],
          [
            68.31542333802604,
            -240.02852405224723
          ],
          [
            69.23811980010156,
            -240.5822026892621
          ],
          [
            69.97624299894056,
            -242.05859462609422
          ],
          [
            70.71437226399766,
            -243.35044209377995
          ],
          [
            71.26796466312692,
            -244.45773604640405
          ],
          [
            72.74428992164034,
            -245.0114418211642
          ],
          [
            73.85152324964372,
            -245.74967397324065
          ],
          [
            74.95875657764711,
            -246.48790612531707
          ],
          [
            75.88146517215885,
            -246.67249582403898
          ],
          [
            76.8041737666706,
            -246.85708552276085
          ],
          [
            77.9114192271102,
            -247.22622873654436
          ],
          [
            79.0186646875498,
            -247.59537195032786
          ],
          [
            79.7568364161337,
            -247.59540813398817
          ],
          [
            81.23315560842902,
            -248.33365837789478
          ],
          [
            81.78677833864882,
            -248.51822998478653
          ]
        ]
      },
      "properties": {
        "type": "variant",
        "id": 3,
        "color": "#44ff44",
        "vzdal_m": 718,
        "prevyseni_m": 24,
        "cas_s": 231,
        "tempo_str": "5:22"
      }
    }
  ]
}