{
  "type": "FeatureCollection",
  "features": [
    {
      "type": "Feature",
      "geometry": {
        "type": "Point",
        "coordinates": [
          180.83029481255653,
          -168.21424795382003
        ]
      },
      "properties": {
        "type": "start",
        "isom": "111"
      }
    },
    {
      "type": "Feature",
      "geometry": {
        "type": "Point",
        "coordinates": [
          122.73958492073011,
          -221.81603250601404
        ]
      },
      "properties": {
        "type": "end",
        "isom": "204"
      }
    },
    {
      "type": "Feature",
      "geometry": {
        "type": "LineString",
        "coordinates": [
          [
            180.8577156396956,
            -168.14953803161617
          ],
          [
            180.67316057511343,
            -168.51861792399407
          ],
          [
            180.1195196462393,
            -168.88767972454175
          ],
          [
            179.75043378194735,
            -168.8876616327116
          ],
          [
            179.3813418514373,
            -169.07218801002787
          ],
          [
            179.01224992092722,
            -169.2567143873442
          ],
          [
            177.53588219888704,
            -169.9948198966094
          ],
          [
            176.982247336231,
            -170.17933722801064
          ],
          [
            176.61315540572093,
            -170.36386360532697
          ],
          [
            175.50764690604953,
            -171.10610824414863
          ],
          [
            175.0610876900424,
            -171.35323893541684
          ],
          [
            174.68822383417142,
            -171.65496305937936
          ],
          [
            173.53389084697002,
            -172.5462575818734
          ],
          [
            172.18403404094596,
            -173.13181354056206
          ],
          [
            171.261313313998,
            -173.3163127801331
          ],
          [
            169.9694945903219,
            -173.86988286616693
          ],
          [
            169.41585366144773,
            -174.23894466671464
          ],
          [
            169.04676173093767,
            -174.42347104403095
          ],
          [
            167.9394798731894,
            -175.16159464512634
          ],
          [
            167.7549248086072,
            -175.5306745375042
          ],
          [
            166.8321858830049,
            -176.26880718451469
          ],
          [
            166.46309395249486,
            -176.453333561831
          ],
          [
            165.5403732255469,
            -176.63783280140206
          ],
          [
            164.61765249859891,
            -176.82233204097307
          ],
          [
            163.1412847765587,
            -177.56043755023833
          ],
          [
            161.84946605288258,
            -178.11400763627216
          ],
          [
            160.37309833084237,
            -178.85211314553737
          ],
          [
            159.26581647309408,
            -179.59023674663274
          ],
          [
            158.71216947800184,
            -180.14384301632694
          ],
          [
            158.52761441341966,
            -180.5129229087048
          ],
          [
            157.7894062875271,
            -181.62015353992334
          ],
          [
            157.05120422785265,
            -182.54283970199538
          ],
          [
            156.3130021681782,
            -183.46552586406744
          ],
          [
            155.57480617472189,
            -184.203667556993
          ],
          [
            154.28298138482765,
            -184.9417821121733
          ],
          [
            154.09842632024547,
            -185.31086200455118
          ],
          [
            153.91387125566325,
            -185.67994189692905
          ],
          [
            153.72931619108107,
            -186.04902178930692
          ],
          [
            153.54476112649886,
            -186.4181016816848
          ],
          [
            152.80655906682443,
            -187.34078784375683
          ],
          [
            152.25291813795027,
            -187.70984964430454
          ],
          [
            152.0683691395862,
            -187.89438506753592
          ],
          [
            150.77654434969196,
            -188.63249962271624
          ],
          [
            149.85379935787157,
            -189.5551767388732
          ],
          [
            149.11559729819712,
            -190.4778629009453
          ],
          [
            148.37737703986832,
            -191.95418247045674
          ],
          [
            147.6391689139758,
            -193.06141310167527
          ],
          [
            146.90097292051945,
            -193.79955479460082
          ],
          [
            146.1627769270631,
            -194.53769648752643
          ],
          [
            145.24003800146082,
            -195.27582913453688
          ],
          [
            144.68638494015048,
            -196.01397987337754
          ],
          [
            143.94817681425792,
            -197.12121050459606
          ],
          [
            143.3945055542932,
            -198.41299465087616
          ],
          [
            142.28722369654494,
            -199.15111825197158
          ],
          [
            141.17994183879668,
            -199.88924185306695
          ],
          [
            140.07265998104842,
            -200.62736545416234
          ],
          [
            138.5962922590082,
            -201.36547096342758
          ],
          [
            137.85812053042432,
            -201.3654347797672
          ],
          [
            136.97152693558817,
            -201.44156417807
          ],
          [
            136.60558133566335,
            -202.45357652538132
          ],
          [
            136.47917829939954,
            -203.38323183027214
          ],
          [
            136.47477036856813,
            -204.13932257036578
          ],
          [
            136.51722727238263,
            -204.87446897218712
          ],
          [
            136.21941502565846,
            -205.88961713667683
          ],
          [
            135.08350117589472,
            -206.5254770698038
          ],
          [
            134.39783478370208,
            -207.6677361759255
          ],
          [
            133.58043192435744,
            -209.09052078446445
          ],
          [
            132.86114539016882,
            -210.0280928283356
          ],
          [
            132.05410357133852,
            -210.826125701914
          ],
          [
            131.690413217262,
            -211.92061887193768
          ],
          [
            131.55898695111227,
            -212.30716839316585
          ],
          [
            131.33583161394,
            -212.97024849955469
          ],
          [
            131.09157518333484,
            -213.74706556143872
          ],
          [
            130.94016400874366,
            -214.15405336415895
          ],
          [
            130.81314944848603,
            -214.37210381515925
          ],
          [
            130.60587069826516,
            -214.72794667976285
          ],
          [
            130.3985919480443,
            -215.08378954436643
          ],
          [
            130.1923756918537,
            -215.43995125239775
          ],
          [
            129.39997578770522,
            -216.06696841038217
          ],
          [
            128.4898095456891,
            -216.2992991559418
          ],
          [
            127.31767242250646,
            -216.6003639415439
          ],
          [
            126.23138804425245,
            -217.42023370286043
          ],
          [
            125.12410012028606,
            -218.34290177310228
          ],
          [
            124.20136726090188,
            -218.89648995096627
          ],
          [
            124.01681219631968,
            -219.26556984334417
          ],
          [
            123.83225713173748,
            -219.634649735722
          ],
          [
            123.64770206715531,
            -220.0037296280999
          ],
          [
            122.90948180882653,
            -221.48004919761138
          ],
          [
            122.72492674424433,
            -221.84912908998928
          ]
        ]
      },
      "properties": {
        "type": "variant",
        "id": 1,
        "color": "#ff4444",
        "vzdal_m": 2262,
        "prevyseni_m": 65,
        "cas_s": 703,
        "tempo_str": "5:10"
      }
    },
    {
      "type": "Feature",
      "geometry": {
        "type": "LineString",
        "coordinates": [
          [
            180.8577156396956,
            -168.14953803161617
          ],
          [
            180.67316057511343,
            -168.51861792399407
          ],
          [
            180.1195196462393,
            -168.88767972454175
          ],
          [
            179.75043378194735,
            -168.8876616327116
          ],
          [
            179.3813418514373,
            -169.07218801002787
          ],
          [
            179.01224992092722,
            -169.2567143873442
          ],
          [
            177.53588219888704,
            -169.9948198966094
          ],
          [
            176.982247336231,
            -170.17933722801064
          ],
          [
            176.61315540572093,
            -170.36386360532697
          ],
          [
            175.50764690604953,
            -171.10610824414863
          ],
          [
            175.0610876900424,
            -171.35323893541684
          ],
          [
            174.68822383417142,
            -171.65496305937936
          ],
          [
            173.96008640115392,
            -172.31438155382588
          ],
          [
            173.76628899389598,
            -172.4561833656921
          ],
          [
            173.4111118309557,
            -172.5930776825544
          ],
          [
            173.01032013747712,
            -172.85220532974174
          ],
          [
            172.67067301749302,
            -173.02264250294735
          ],
          [
            171.99677703846157,
            -173.86567387412853
          ],
          [
            171.23064935113922,
            -175.14598669672978
          ],
          [
            170.49825485900774,
            -176.0582779830475
          ],
          [
            169.7106410010396,
            -177.23745396326905
          ],
          [
            169.04664647279358,
            -177.92981595781401
          ],
          [
            168.30844441311913,
            -178.85250211988608
          ],
          [
            167.57023022100844,
            -180.14427722025107
          ],
          [
            167.20111402562597,
            -181.0669814741533
          ],
          [
            167.20108976075352,
            -181.80515935073922
          ],
          [
            167.2010776283173,
            -182.1742482890322
          ],
          [
            167.01650436508078,
            -183.0969615888495
          ],
          [
            166.83193110184422,
            -184.0196748886668
          ],
          [
            166.09371690973356,
            -185.3114499890318
          ],
          [
            165.35550878384103,
            -186.4186806202503
          ],
          [
            164.80183752387632,
            -187.7104647665304
          ],
          [
            164.8018132590039,
            -188.4486426431163
          ],
          [
            164.61724606198547,
            -189.18681147378717
          ],
          [
            164.2481359328211,
            -189.9249712585429
          ],
          [
            163.32539700721878,
            -190.66310390555338
          ],
          [
            162.58718888132623,
            -191.7703345367719
          ],
          [
            161.84899895408802,
            -192.323931760551
          ],
          [
            160.9262478960495,
            -193.43115334585443
          ],
          [
            159.81896603830123,
            -194.16927694694985
          ],
          [
            159.44987410779117,
            -194.35380332426615
          ],
          [
            159.0807821772811,
            -194.53832970158246
          ],
          [
            158.34258011760667,
            -195.4610158636545
          ],
          [
            157.60438412415033,
            -196.19915755658005
          ],
          [
            156.866188130694,
            -196.93729924950566
          ],
          [
            156.12798607101956,
            -197.8599854115777
          ],
          [
            155.38979614378135,
            -198.41358263535676
          ],
          [
            154.09797135388712,
            -199.15169719053708
          ],
          [
            153.1752324282848,
            -199.88982983754755
          ],
          [
            151.88340157217246,
            -200.81248886187436
          ],
          [
            151.14521164493422,
            -201.36608608565342
          ],
          [
            149.668843922894,
            -202.10419159491866
          ],
          [
            148.37701913299978,
            -202.84230615009898
          ],
          [
            146.90064534474143,
            -203.76495612851068
          ],
          [
            145.9779306840116,
            -203.76491089893523
          ],
          [
            144.68611802655357,
            -204.1339365158226
          ],
          [
            143.39429323665934,
            -204.87205107100291
          ],
          [
            143.20974423829523,
            -205.05658649423432
          ],
          [
            143.02518917371304,
            -205.42566638661216
          ],
          [
            142.47155431105705,
            -205.6101837180134
          ],
          [
            142.10246238054697,
            -205.7947100953297
          ],
          [
            141.17972952116278,
            -206.3482982731937
          ],
          [
            140.77402789662202,
            -206.6918475591178
          ],
          [
            139.8574082470808,
            -206.4808090804974
          ],
          [
            138.9426926659668,
            -206.2716525876097
          ],
          [
            138.0215596440521,
            -206.0795089385423
          ],
          [
            137.31373278794965,
            -205.93293707363674
          ],
          [
            136.55908093477362,
            -205.83004306746378
          ],
          [
            136.01148753622627,
            -205.97688186908758
          ],
          [
            135.6341902005991,
            -206.14044398492663
          ],
          [
            134.74584354574972,
            -207.09736243005514
          ],
          [
            134.01608011423662,
            -208.39518650373017
          ],
          [
            133.33227322085412,
            -209.4102302602058
          ],
          [
            132.70427637046643,
            -210.23375127491667
          ],
          [
            131.97509991433316,
            -211.16646661833798
          ],
          [
            131.690413217262,
            -211.92061887193768
          ],
          [
            131.55898695111227,
            -212.30716839316585
          ],
          [
            131.33583161394,
            -212.97024849955469
          ],
          [
            131.09157518333484,
            -213.74706556143872
          ],
          [
            130.94016400874366,
            -214.15405336415895
          ],
          [
            130.81314944848603,
            -214.37210381515925
          ],
          [
            130.60587069826516,
            -214.72794667976285
          ],
          [
            130.3985919480443,
            -215.08378954436643
          ],
          [
            130.1923756918537,
            -215.43995125239775
          ],
          [
            129.39997578770522,
            -216.06696841038217
          ],
          [
            128.4898095456891,
            -216.2992991559418
          ],
          [
            127.31767242250646,
            -216.6003639415439
          ],
          [
            126.23138804425245,
            -217.42023370286043
          ],
          [
            125.12410012028606,
            -218.34290177310228
          ],
          [
            124.20136726090188,
            -218.89648995096627
          ],
          [
            124.01681219631968,
            -219.26556984334417
          ],
          [
            123.83225713173748,
            -219.634649735722
          ],
          [
            123.64770206715531,
            -220.0037296280999
          ],
          [
            122.90948180882653,
            -221.48004919761138
          ],
          [
            122.72492674424433,
            -221.84912908998928
          ]
        ]
      },
      "properties": {
        "type": "variant",
        "id": 2,
        "color": "#4444ff",
        "vzdal_m": 2300,
        "prevyseni_m": 75,
        "cas_s": 736,
        "tempo_str": "5:20"
      }
    },
    {
      "type": "Feature",
      "geometry": {
        "type": "LineString",
        "coordinates": [
          [
            180.8577156396956,
            -168.14953803161617
          ],
          [
            180.67316057511343,
            -168.51861792399407
          ],
          [
            180.1195196462393,
            -168.88767972454175
          ],
          [
            179.75043378194735,
            -168.8876616327116
          ],
          [
            179.3813418514373,
            -169.07218801002787
          ],
          [
            179.01224992092722,
            -169.2567143873442
          ],
          [
            177.53588219888704,
            -169.9948198966094
          ],
          [
            176.982247336231,
            -170.17933722801064
          ],
          [
            176.61315540572093,
            -170.36386360532697
          ],
          [
            175.50764690604953,
            -171.10610824414863
          ],
          [
            175.0610876900424,
            -171.35323893541684
          ],
          [
            174.68822383417142,
            -171.65496305937936
          ],
          [
            173.96008640115392,
            -172.31438155382588
          ],
          [
            173.76628899389598,
            -172.4561833656921
          ],
          [
            173.4111118309557,
            -172.5930776825544
          ],
          [
            173.01032013747712,
            -172.85220532974174
          ],
          [
            172.67067301749302,
            -173.02264250294735
          ],
          [
            171.99677703846157,
            -173.86567387412853
          ],
          [
            171.380937714525,
            -174.85433949033683
          ],
          [
            171.19197691699245,
            -175.22108190751538
          ],
          [
            170.40103139051118,
            -176.1504126364527
          ],
          [
            169.34479951124305,
            -176.90056602066448
          ],
          [
            169.0801014722291,
            -176.91302324747625
          ],
          [
            168.86212173930193,
            -177.3761735044595
          ],
          [
            168.1239257458456,
            -178.11431519738508
          ],
          [
            167.38572975238927,
            -178.85245689031063
          ],
          [
            166.64753375893292,
            -179.59059858323621
          ],
          [
            166.27843576220477,
            -179.959669429699
          ],
          [
            166.09388069762258,
            -180.32874932207687
          ],
          [
            165.72478876711253,
            -180.51327569939318
          ],
          [
            165.72478270089442,
            -180.69782016853966
          ],
          [
            164.8020316428559,
            -181.80504175384308
          ],
          [
            164.06383564939955,
            -182.54318344676867
          ],
          [
            163.32563358972513,
            -183.4658696088407
          ],
          [
            162.95652952677884,
            -184.01948492444998
          ],
          [
            162.77197446219665,
            -184.38856481682785
          ],
          [
            162.77196839597855,
            -184.5731092859743
          ],
          [
            162.77196232976044,
            -184.7576537551208
          ],
          [
            162.40286433303226,
            -185.1267246015836
          ],
          [
            162.0337542038679,
            -185.86488438633933
          ],
          [
            161.1110274107018,
            -186.23392809505685
          ],
          [
            160.74193548019173,
            -186.41845447237316
          ],
          [
            160.37284354968168,
            -186.60298084968946
          ],
          [
            159.2655616919334,
            -187.34110445078485
          ],
          [
            159.08100662735123,
            -187.71018434316272
          ],
          [
            158.52734749982275,
            -188.63287955114987
          ],
          [
            158.34279243524057,
            -189.00195944352774
          ],
          [
            157.42005350963828,
            -189.74009209053824
          ],
          [
            156.12822871974402,
            -190.47820664571856
          ],
          [
            154.6518549314857,
            -191.40085662413023
          ],
          [
            153.91366500424746,
            -191.95445384790935
          ],
          [
            152.99092607864517,
            -192.69258649491982
          ],
          [
            152.43727301733483,
            -193.43073723376045
          ],
          [
            151.69906489144225,
            -194.537967864979
          ],
          [
            151.51451589307817,
            -194.7225032882104
          ],
          [
            151.32996082849598,
            -195.0915831805883
          ],
          [
            150.59175876882153,
            -196.0142693426603
          ],
          [
            149.85355064292898,
            -197.12149997387883
          ],
          [
            148.93078745245424,
            -198.59781049747522
          ],
          [
            148.74622025543584,
            -199.33597932814607
          ],
          [
            148.56166519085363,
            -199.7050592205239
          ],
          [
            148.19256719412547,
            -200.0741300669867
          ],
          [
            147.82348132983353,
            -200.0741119751565
          ],
          [
            147.63893233146945,
            -200.25864739838792
          ],
          [
            146.3471075415752,
            -200.99676195356824
          ],
          [
            145.0552948841172,
            -201.36578757045558
          ],
          [
            144.50166608767927,
            -201.36576043271035
          ],
          [
            143.20984129778503,
            -202.10387498789066
          ],
          [
            142.10256550625485,
            -202.65745411983957
          ],
          [
            140.9952836485066,
            -203.39557772093497
          ],
          [
            140.25708765505027,
            -204.13371941386055
          ],
          [
            139.51887952915772,
            -205.24095004507905
          ],
          [
            139.14976939999332,
            -205.97910982983478
          ],
          [
            138.76584223532421,
            -206.23476249000777
          ],
          [
            137.84470921340954,
            -206.04261884094032
          ],
          [
            137.1365496772472,
            -205.8968194393527
          ],
          [
            136.35330432806268,
            -205.85821754753073
          ],
          [
            136.01148753622627,
            -205.97688186908758
          ],
          [
            135.6341902005991,
            -206.14044398492663
          ],
          [
            134.74584354574972,
            -207.09736243005514
          ],
          [
            134.01608011423662,
            -208.39518650373017
          ],
          [
            133.33227322085412,
            -209.4102302602058
          ],
          [
            132.70427637046643,
            -210.23375127491667
          ],
          [
            131.97509991433316,
            -211.16646661833798
          ],
          [
            131.690413217262,
            -211.92061887193768
          ],
          [
            131.55898695111227,
            -212.30716839316585
          ],
          [
            131.33583161394,
            -212.97024849955469
          ],
          [
            131.09157518333484,
            -213.74706556143872
          ],
          [
            130.94016400874366,
            -214.15405336415895
          ],
          [
            130.81314944848603,
            -214.37210381515925
          ],
          [
            130.60587069826516,
            -214.72794667976285
          ],
          [
            130.3985919480443,
            -215.08378954436643
          ],
          [
            130.1923756918537,
            -215.43995125239775
          ],
          [
            129.39997578770522,
            -216.06696841038217
          ],
          [
            128.4898095456891,
            -216.2992991559418
          ],
          [
            127.31767242250646,
            -216.6003639415439
          ],
          [
            126.23138804425245,
            -217.42023370286043
          ],
          [
            124.9395632543582,
            -218.15834825804072
          ],
          [
            124.20136726090188,
            -218.89648995096627
          ],
          [
            124.01681219631968,
            -219.26556984334417
          ],
          [
            123.83225713173748,
            -219.634649735722
          ],
          [
            123.64770206715531,
            -220.0037296280999
          ],
          [
            122.90948180882653,
            -221.48004919761138
          ],
          [
            122.72492674424433,
            -221.84912908998928
          ]
        ]
      },
      "properties": {
        "type": "variant",
        "id": 3,
        "color": "#44ff44",
        "vzdal_m": 2255,
        "prevyseni_m": 75,
        "cas_s": 750,
        "tempo_str": "5:32"
      }
    }
  ]
}