{
  "type": "FeatureCollection",
  "features": [
    {
      "type": "Feature",
      "geometry": {
        "type": "Point",
        "coordinates": [
          156.8512020588045,
          -178.01865838742634
        ]
      },
      "properties": {
        "type": "start",
        "isom": "111"
      }
    },
    {
      "type": "Feature",
      "geometry": {
        "type": "Point",
        "coordinates": [
          205.39335661467905,
          -133.6654055042689
        ]
      },
      "properties": {
        "type": "end",
        "isom": "109"
      }
    },
    {
      "type": "Feature",
      "geometry": {
        "type": "LineString",
        "coordinates": [
          [
            156.86681295115946,
            -177.92921892741833
          ],
          [
            157.60498467974335,
            -177.92925511107867
          ],
          [
            158.52770540669133,
            -177.74475587150764
          ],
          [
            159.4504261336393,
            -177.56025663193657
          ],
          [
            160.37314686058727,
            -177.37575739236556
          ],
          [
            161.11131858917116,
            -177.37579357602587
          ],
          [
            161.84949031775503,
            -177.37582975968624
          ],
          [
            162.58766204633892,
            -177.37586594334658
          ],
          [
            163.3258337749228,
            -177.3759021270069
          ],
          [
            164.06400550350668,
            -177.37593831066727
          ],
          [
            164.98672623045465,
            -177.1914390710962
          ],
          [
            166.46309395249486,
            -176.453333561831
          ],
          [
            167.0167409475871,
            -175.89972729213682
          ],
          [
            167.7549248086072,
            -175.5306745375042
          ],
          [
            167.9394798731894,
            -175.16159464512634
          ],
          [
            169.04675566471957,
            -174.6080155131774
          ],
          [
            169.23131072930175,
            -174.23893562079954
          ],
          [
            170.707678451342,
            -173.50083011153433
          ],
          [
            171.63039917828993,
            -173.31633087196326
          ],
          [
            172.75293330073788,
            -172.97217826314943
          ],
          [
            173.94699273977798,
            -172.32583447819567
          ],
          [
            174.68822988009228,
            -171.4710360660986
          ],
          [
            176.0595144768468,
            -170.73292540587465
          ],
          [
            177.16679026837696,
            -170.17934627392572
          ],
          [
            178.4586150582712,
            -169.44123171874543
          ],
          [
            179.3813539838735,
            -168.70309907173493
          ],
          [
            180.11954997732983,
            -167.96495737880937
          ],
          [
            180.85774597078617,
            -167.2268156858838
          ],
          [
            181.59594196424248,
            -166.48867399295824
          ],
          [
            181.7804909626066,
            -166.30413856972686
          ],
          [
            183.07231575250083,
            -165.56602401454654
          ],
          [
            183.81051174595717,
            -164.82788232162096
          ],
          [
            184.5487077394135,
            -164.0897406286954
          ],
          [
            185.28692193152415,
            -162.7979655283304
          ],
          [
            186.0251361236348,
            -161.5061904279654
          ],
          [
            186.76333818330926,
            -160.58350426589334
          ],
          [
            187.50155844163802,
            -159.10718469638184
          ],
          [
            188.23976050131247,
            -158.18449853430982
          ],
          [
            189.16250549313293,
            -157.26182141815283
          ],
          [
            189.71618281931572,
            -155.78549280272628
          ],
          [
            190.63893994357235,
            -154.49372674827637
          ],
          [
            191.37713593702867,
            -153.7555850553508
          ],
          [
            192.115331930485,
            -153.0174433624252
          ],
          [
            192.85354612259567,
            -151.72566826206022
          ],
          [
            193.5917481822701,
            -150.80298209998818
          ],
          [
            193.96087044387073,
            -149.69573337693947
          ],
          [
            194.14544370710723,
            -148.77302007712217
          ],
          [
            194.1454679719797,
            -148.03484220053627
          ],
          [
            194.14548010441592,
            -147.6657532622433
          ],
          [
            194.3300351689981,
            -147.29667336986543
          ],
          [
            194.51460843223464,
            -146.37396007004813
          ],
          [
            195.2528226243453,
            -145.08218496968314
          ],
          [
            195.99102468401972,
            -144.15949880761107
          ],
          [
            196.72922674369417,
            -143.23681264553903
          ],
          [
            196.91377574205825,
            -143.05227722230762
          ],
          [
            197.4674166709324,
            -142.68321542175994
          ],
          [
            198.20561873060683,
            -141.76052925968787
          ],
          [
            199.68198645264704,
            -141.02242375042266
          ],
          [
            200.78927437661343,
            -140.0997556801808
          ],
          [
            201.52745823763357,
            -139.73070292554817
          ],
          [
            201.71201330221572,
            -139.3616230331703
          ],
          [
            202.4502214281083,
            -138.25439240195178
          ],
          [
            202.81931942483644,
            -137.88532155548899
          ],
          [
            203.18842348778273,
            -137.33170623987974
          ],
          [
            203.37297855236494,
            -136.96262634750187
          ],
          [
            204.11119274447557,
            -135.67085124713685
          ],
          [
            204.84940087036816,
            -134.56362061591835
          ],
          [
            205.4030599978966,
            -133.6409254079312
          ]
        ]
      },
      "properties": {
        "type": "variant",
        "id": 1,
        "color": "#ff4444",
        "vzdal_m": 1899,
        "prevyseni_m": 41,
        "cas_s": 573,
        "tempo_str": "5:01"
      }
    },
    {
      "type": "Feature",
      "geometry": {
        "type": "LineString",
        "coordinates": [
          [
            156.86681295115946,
            -177.92921892741833
          ],
          [
            157.97410087512586,
            -177.00655085717645
          ],
          [
            158.7123029348003,
            -176.0838646951044
          ],
          [
            159.45051106069286,
            -174.97663406388588
          ],
          [
            160.1887191865854,
            -173.86940343266735
          ],
          [
            160.92692124625984,
            -172.94671727059531
          ],
          [
            161.48059857244263,
            -171.47038865516876
          ],
          [
            161.48062283731508,
            -170.73221077858284
          ],
          [
            161.71212438258627,
            -169.7959455504971
          ],
          [
            161.8456887415489,
            -169.24672731895524
          ],
          [
            162.21848702309353,
            -169.23891420358305
          ],
          [
            163.2035875192279,
            -168.76432019016366
          ],
          [
            163.9497042061173,
            -168.0225761853025
          ],
          [
            164.56863209003276,
            -167.19503422646235
          ],
          [
            165.37560362733677,
            -166.46352536158645
          ],
          [
            165.8776088553031,
            -165.69057008038345
          ],
          [
            167.02419528460638,
            -165.0236064787202
          ],
          [
            167.9297483645452,
            -164.26791525680903
          ],
          [
            168.57502213323528,
            -163.2515041739764
          ],
          [
            169.28936042002834,
            -162.47750412532028
          ],
          [
            169.54986517388218,
            -162.17357386397913
          ],
          [
            169.65405949605525,
            -161.69307221726407
          ],
          [
            169.69874694577697,
            -160.9611423403934
          ],
          [
            169.68776647880156,
            -160.20760264247582
          ],
          [
            169.63785691760074,
            -159.47299237431903
          ],
          [
            169.6057582284078,
            -158.7384379049083
          ],
          [
            169.62663572939584,
            -157.99580037433546
          ],
          [
            169.5350716890677,
            -157.2691624190585
          ],
          [
            169.49395883618257,
            -156.53694491987082
          ],
          [
            169.28620099619684,
            -155.39499065835275
          ],
          [
            169.16467750672282,
            -154.68834359632032
          ],
          [
            168.88703758001296,
            -153.76664954204546
          ],
          [
            168.81639789601593,
            -152.83524228956327
          ],
          [
            168.87394944809222,
            -152.09290272853264
          ],
          [
            168.86868683952514,
            -151.356173425049
          ],
          [
            169.07327579981938,
            -150.44553942491922
          ],
          [
            169.14702352324795,
            -150.29788525211077
          ],
          [
            169.33296343290843,
            -149.9402964294012
          ],
          [
            169.4416597376128,
            -148.74590745376406
          ],
          [
            169.76270291823602,
            -147.83274076489027
          ],
          [
            170.1693959837928,
            -146.58057576452967
          ],
          [
            171.08297421379183,
            -145.64093017918614
          ],
          [
            171.93812275996288,
            -144.80348324129108
          ],
          [
            172.652068624017,
            -143.91497004611034
          ],
          [
            173.07724140051056,
            -143.46223963795524
          ],
          [
            174.52930893368983,
            -142.99694793947378
          ],
          [
            175.37351675433328,
            -142.1677756272029
          ],
          [
            176.09315090003537,
            -141.23018858962863
          ],
          [
            176.74082768410264,
            -140.2590058512546
          ],
          [
            176.94435720501238,
            -140.05732039091677
          ],
          [
            177.81842049296515,
            -139.27767590775528
          ],
          [
            178.5327402876325,
            -138.51160408394762
          ],
          [
            179.26407537190278,
            -137.75026315281227
          ],
          [
            180.04490006773764,
            -137.0604112679345
          ],
          [
            180.44514797955756,
            -136.7097072882557
          ],
          [
            181.02756614104024,
            -136.37225420369012
          ],
          [
            182.33510855259664,
            -136.2234172365961
          ],
          [
            183.07328028118053,
            -136.22345342025648
          ],
          [
            183.8114520097644,
            -136.2234896039168
          ],
          [
            184.5496237383483,
            -136.22352578757716
          ],
          [
            185.30861364243032,
            -136.1608506319961
          ],
          [
            186.0015076095737,
            -136.36282005573057
          ],
          [
            186.94087706215876,
            -136.49478046260683
          ],
          [
            187.87248264644086,
            -136.5857999343183
          ],
          [
            188.79825820849226,
            -136.734118487624
          ],
          [
            189.53019655543972,
            -136.79072580587848
          ],
          [
            190.25101009837317,
            -136.90261700375214
          ],
          [
            191.18468055779246,
            -137.03711189282953
          ],
          [
            191.90246423826585,
            -137.1121017922643
          ],
          [
            192.84483952758217,
            -137.26700065393936
          ],
          [
            193.59513102477777,
            -137.1546540430476
          ],
          [
            194.5149178093583,
            -136.9621921435777
          ],
          [
            195.2530895379422,
            -136.96222832723808
          ],
          [
            195.9912612665261,
            -136.96226451089842
          ],
          [
            196.72943299511,
            -136.96230069455876
          ],
          [
            197.65215372205793,
            -136.77780145498772
          ],
          [
            198.3903254506418,
            -136.77783763864804
          ],
          [
            199.86669317268203,
            -136.03973212938283
          ],
          [
            201.15851189635816,
            -135.486162043349
          ],
          [
            202.63487961839837,
            -134.7480565340838
          ],
          [
            203.55760034534634,
            -134.56355729451275
          ],
          [
            205.03396806738655,
            -133.8254517852475
          ],
          [
            205.4030599978966,
            -133.6409254079312
          ]
        ]
      },
      "properties": {
        "type": "variant",
        "id": 2,
        "color": "#4444ff",
        "vzdal_m": 2081,
        "prevyseni_m": 43,
        "cas_s": 573,
        "tempo_str": "4:35"
      }
    },
    {
      "type": "Feature",
      "geometry": {
        "type": "LineString",
        "coordinates": [
          [
            156.86681295115946,
            -177.92921892741833
          ],
          [
            157.97409480890772,
            -177.19109532632294
          ],
          [
            158.89683373451004,
            -176.45296267931246
          ],
          [
            160.37320145655025,
            -175.71485717004725
          ],
          [
            161.84956917859049,
            -174.976751660782
          ],
          [
            162.5877651720468,
            -174.23860996785643
          ],
          [
            163.62317048779403,
            -173.56912952951487
          ],
          [
            164.80232888754335,
            -172.76236276566564
          ],
          [
            165.35596981641748,
            -172.39330096511796
          ],
          [
            165.54052488099967,
            -172.0242210727401
          ],
          [
            165.72507994558185,
            -171.65514118036222
          ],
          [
            167.01690473547612,
            -170.9170266251819
          ],
          [
            167.38600273220428,
            -170.5479557787191
          ],
          [
            168.12419265944249,
            -169.99435855494002
          ],
          [
            168.3087416578066,
            -169.80982313170864
          ],
          [
            168.67783358831664,
            -169.6252967543923
          ],
          [
            168.8623886528988,
            -169.25621686201444
          ],
          [
            169.60058464635514,
            -168.5180751690889
          ],
          [
            170.3387867060296,
            -167.59538900701685
          ],
          [
            171.07698876570404,
            -166.6727028449448
          ],
          [
            171.81518475916036,
            -165.93456115201923
          ],
          [
            172.36883175425262,
            -165.38095488232506
          ],
          [
            172.7379358171989,
            -164.82733956671578
          ],
          [
            173.10702774770894,
            -164.64281318939948
          ],
          [
            173.476119678219,
            -164.45828681208317
          ],
          [
            174.21430353923913,
            -164.08923405745057
          ],
          [
            174.58339546974915,
            -163.90470768013427
          ],
          [
            174.9524874002592,
            -163.72018130281796
          ],
          [
            175.69068339371555,
            -162.98203960989238
          ],
          [
            177.16705111575575,
            -162.24393410062714
          ],
          [
            178.64341883779596,
            -161.50582859136193
          ],
          [
            179.01251076830602,
            -161.32130221404563
          ],
          [
            179.38160269881607,
            -161.1367758367293
          ],
          [
            179.5661759620526,
            -160.214062536912
          ],
          [
            179.56620022692505,
            -159.4758846603261
          ],
          [
            179.5662244917975,
            -158.73770678374018
          ],
          [
            180.1198957517622,
            -157.44592263746011
          ],
          [
            180.85811601009095,
            -155.9696030679486
          ],
          [
            181.59633626841972,
            -154.49328349843714
          ],
          [
            182.3345443943123,
            -153.3860528672186
          ],
          [
            183.07275252020486,
            -152.27882223600008
          ],
          [
            183.44187478180544,
            -151.17157351295137
          ],
          [
            183.4418990466779,
            -150.43339563636547
          ],
          [
            183.25736824696816,
            -150.06429765215745
          ],
          [
            183.2573925118406,
            -149.32611977557153
          ],
          [
            183.25741677671303,
            -148.5879418989856
          ],
          [
            183.44199003994956,
            -147.66522859916827
          ],
          [
            184.1801860334059,
            -146.92708690624272
          ],
          [
            185.1029249590082,
            -146.18895425923225
          ],
          [
            185.84112095246454,
            -145.4508125663067
          ],
          [
            186.57931694592085,
            -144.71267087338111
          ],
          [
            186.76387201050304,
            -144.34359098100325
          ],
          [
            186.94842707508525,
            -143.97451108862538
          ],
          [
            187.68662306854156,
            -143.2363693956998
          ],
          [
            187.87117206690564,
            -143.05183397246842
          ],
          [
            188.24026399741572,
            -142.8673075951521
          ],
          [
            189.34754585516401,
            -142.1291839940567
          ],
          [
            190.2702847807663,
            -141.39105134704621
          ],
          [
            191.00848077422265,
            -140.65290965412066
          ],
          [
            191.37757270473267,
            -140.46838327680436
          ],
          [
            191.93121969982494,
            -139.91477700711016
          ],
          [
            192.85395862542723,
            -139.1766443600997
          ],
          [
            193.7766914848114,
            -138.6230561822357
          ],
          [
            194.88396121012346,
            -138.25402151943325
          ],
          [
            195.99123700165364,
            -137.70044238748432
          ],
          [
            196.3603289321637,
            -137.515916010168
          ],
          [
            197.0985006607476,
            -137.51595219382835
          ],
          [
            197.28304359289353,
            -137.51596123974346
          ],
          [
            197.6521355234036,
            -137.33143486242716
          ],
          [
            199.1285032454438,
            -136.59332935316192
          ],
          [
            200.60487096748403,
            -135.8552238438967
          ],
          [
            202.0812386895242,
            -135.1171183346315
          ],
          [
            202.45033062003426,
            -134.93259195731517
          ],
          [
            202.81942255054435,
            -134.74806557999887
          ],
          [
            203.9266922758564,
            -134.37903091719642
          ],
          [
            205.4030599978966,
            -133.6409254079312
          ]
        ]
      },
      "properties": {
        "type": "variant",
        "id": 3,
        "color": "#44ff44",
        "vzdal_m": 1889,
        "prevyseni_m": 50,
        "cas_s": 589,
        "tempo_str": "5:12"
      }
    }
  ]
}