{
  "type": "FeatureCollection",
  "features": [
    {
      "type": "Feature",
      "geometry": {
        "type": "Point",
        "coordinates": [
          90.47993540251133,
          -89.31275753731695
        ]
      },
      "properties": {
        "type": "start",
        "isom": "109"
      }
    },
    {
      "type": "Feature",
      "geometry": {
        "type": "Point",
        "coordinates": [
          107.09697565612997,
          -76.36740847840488
        ]
      },
      "properties": {
        "type": "end",
        "isom": "204"
      }
    },
    {
      "type": "Feature",
      "geometry": {
        "type": "LineString",
        "coordinates": [
          [
            90.5209563987028,
            -89.33429090011731
          ],
          [
            91.07459732757687,
            -88.96522910056824
          ],
          [
            91.4437013905231,
            -88.4116137853601
          ],
          [
            91.81280545346932,
            -87.85799847015198
          ],
          [
            92.18191254952461,
            -87.21211092029122
          ],
          [
            92.5510196455799,
            -86.56622337043046
          ],
          [
            92.92011764230801,
            -86.1971525245276
          ],
          [
            93.28921563903613,
            -85.82808167862471
          ],
          [
            93.65831363576426,
            -85.45901083272183
          ],
          [
            94.02741163249237,
            -85.08993998681895
          ],
          [
            94.3965096292205,
            -84.72086914091607
          ],
          [
            94.76560762594863,
            -84.35179829501318
          ],
          [
            95.13470562267676,
            -83.98272744911031
          ],
          [
            95.50380361940488,
            -83.61365660320743
          ],
          [
            96.05744454827895,
            -83.24459480365837
          ],
          [
            96.79562840929898,
            -82.87554205046311
          ],
          [
            97.16471427359089,
            -82.87556014317073
          ],
          [
            97.71834929198472,
            -82.68630500773047
          ],
          [
            98.07336707381104,
            -82.7280908366684
          ],
          [
            98.60047811273807,
            -82.6657243494606
          ],
          [
            99.03404551981957,
            -82.27391616050495
          ],
          [
            99.2869883243599,
            -81.9529418297133
          ],
          [
            99.47154945516016,
            -81.39931746815137
          ],
          [
            99.84065351810641,
            -80.84570215294323
          ],
          [
            100.48656287994442,
            -80.5689171112237
          ],
          [
            101.1324722417824,
            -80.29213206950416
          ],
          [
            101.68610710443838,
            -80.10761473926034
          ],
          [
            102.05519296873027,
            -80.10763283196796
          ],
          [
            102.42427883302219,
            -80.10765092467558
          ],
          [
            102.7933646973141,
            -80.10766901738322
          ],
          [
            103.162450561606,
            -80.10768711009084
          ],
          [
            103.71608542426198,
            -79.92316977984702
          ],
          [
            104.454269285282,
            -79.55411702665177
          ],
          [
            105.00791021415608,
            -79.1850552271027
          ],
          [
            105.37700821088421,
            -78.81598438119981
          ],
          [
            105.74610620761233,
            -78.44691353529693
          ],
          [
            106.39201860255938,
            -78.07785625892478
          ],
          [
            106.69235951566512,
            -77.52520367746638
          ],
          [
            106.6623857779885,
            -77.15555107907032
          ],
          [
            106.97414849576629,
            -76.38687773536437
          ],
          [
            107.13024796021521,
            -76.32471998594013
          ]
        ]
      },
      "properties": {
        "type": "variant",
        "id": 1,
        "color": "#ff4444",
        "vzdal_m": 1216,
        "prevyseni_m": 9,
        "cas_s": 312,
        "tempo_str": "4:16"
      }
    },
    {
      "type": "Feature",
      "geometry": {
        "type": "LineString",
        "coordinates": [
          [
            90.5209563987028,
            -89.33429090011731
          ],
          [
            90.89006652786712,
            -88.59613111560392
          ],
          [
            91.25917362392241,
            -87.95024356574316
          ],
          [
            91.62828375308675,
            -87.21208378122978
          ],
          [
            91.99739388225107,
            -86.47392399671641
          ],
          [
            92.08968051386933,
            -86.01256734663018
          ],
          [
            92.2742416446696,
            -85.45894298506825
          ],
          [
            92.5510772746519,
            -84.81305091203058
          ],
          [
            92.92018133759814,
            -84.25943559682246
          ],
          [
            93.28927933432625,
            -83.89036475091957
          ],
          [
            93.65837733105438,
            -83.52129390501669
          ],
          [
            94.0274753277825,
            -83.15222305911382
          ],
          [
            94.39657332451063,
            -82.78315221321094
          ],
          [
            94.85794278731174,
            -82.41408589048496
          ],
          [
            95.22704078403987,
            -82.04501504458209
          ],
          [
            95.87838236469996,
            -81.6684636751839
          ],
          [
            96.33431354246086,
            -81.58370814944182
          ],
          [
            96.98022290429884,
            -81.3069231077223
          ],
          [
            97.16476886955385,
            -81.21465991942347
          ],
          [
            97.3961749983242,
            -81.1302615806359
          ],
          [
            97.62614743168211,
            -80.56877689273962
          ],
          [
            97.99524542841024,
            -80.19970604683674
          ],
          [
            98.36434645824743,
            -79.73836296628123
          ],
          [
            98.54889545661149,
            -79.5538275433298
          ],
          [
            99.19480481844947,
            -79.27704250161027
          ],
          [
            99.65616518192341,
            -79.18479288284217
          ],
          [
            100.11752554539734,
            -79.09254326407408
          ],
          [
            100.57888590887129,
            -79.00029364530597
          ],
          [
            101.27861639820927,
            -78.58249378834283
          ],
          [
            101.66465585375323,
            -78.24727729311691
          ],
          [
            102.1458492791831,
            -78.06190190892839
          ],
          [
            102.60925804422395,
            -77.98602708066232
          ],
          [
            103.07174417625646,
            -77.6002869727296
          ],
          [
            103.40325704072917,
            -76.90557891767338
          ],
          [
            103.51291296450388,
            -76.84453322525536
          ],
          [
            104.08113287742898,
            -76.50356294620103
          ],
          [
            104.55496631627666,
            -76.1507396215938
          ],
          [
            105.0080133398639,
            -76.04779924891344
          ],
          [
            105.37709920415581,
            -76.04781734162106
          ],
          [
            105.83845350141165,
            -76.14011219215821
          ],
          [
            106.20753936570354,
            -76.14013028486583
          ],
          [
            106.66889366295938,
            -76.23242513540298
          ],
          [
            107.13024796021521,
            -76.32471998594013
          ]
        ]
      },
      "properties": {
        "type": "variant",
        "id": 2,
        "color": "#4444ff",
        "vzdal_m": 1243,
        "prevyseni_m": 11,
        "cas_s": 327,
        "tempo_str": "4:22"
      }
    },
    {
      "type": "Feature",
      "geometry": {
        "type": "LineString",
        "coordinates": [
          [
            90.5209563987028,
            -89.33429090011731
          ],
          [
            91.16686576054079,
            -89.05750585839776
          ],
          [
            91.72050062319676,
            -88.87298852815395
          ],
          [
            92.45868448421679,
            -88.5039357749587
          ],
          [
            92.92004788079979,
            -88.31941392153797
          ],
          [
            93.2891458775279,
            -87.95034307563509
          ],
          [
            93.750515340329,
            -87.58127675290912
          ],
          [
            94.11961637016618,
            -87.11993367235361
          ],
          [
            94.52121773934334,
            -86.67323741467561
          ],
          [
            94.85781236362244,
            -86.38179198054786
          ],
          [
            95.22691036035056,
            -86.01272113464498
          ],
          [
            95.59600835707869,
            -85.64365028874211
          ],
          [
            95.9651063538068,
            -85.27457944283923
          ],
          [
            96.67789784726051,
            -84.86641697271399
          ],
          [
            97.0723791122278,
            -84.81327254769896
          ],
          [
            97.4414649765197,
            -84.81329064040658
          ],
          [
            97.99509983917567,
            -84.62877331016276
          ],
          [
            98.36419480279474,
            -84.3519746989125
          ],
          [
            98.9178357316688,
            -83.98291289936344
          ],
          [
            99.47147666054288,
            -83.61385109981437
          ],
          [
            100.20966052156292,
            -83.24479834661912
          ],
          [
            100.67102088503687,
            -83.15254872785101
          ],
          [
            101.04010674932876,
            -83.15256682055865
          ],
          [
            101.40919261362068,
            -83.15258491326627
          ],
          [
            102.05510500856772,
            -82.7835276368941
          ],
          [
            102.42392180604747,
            -82.41103773036603
          ],
          [
            102.8951932478845,
            -82.34897429103606
          ],
          [
            103.56209769531678,
            -82.09021516911973
          ],
          [
            104.29286458806222,
            -81.71470908799007
          ],
          [
            104.73102605442891,
            -81.30730305458236
          ],
          [
            105.10012405115704,
            -80.93823220867948
          ],
          [
            105.56149351395814,
            -80.5691658859535
          ],
          [
            105.93060364312247,
            -79.83100610144012
          ],
          [
            106.19541750618839,
            -79.20997625291766
          ],
          [
            106.49113591208759,
            -78.63432191996357
          ],
          [
            106.77396089033572,
            -77.9148268129715
          ],
          [
            106.77013925026834,
            -77.58691550442522
          ],
          [
            106.66848043474877,
            -77.25326604617852
          ],
          [
            106.77960168698301,
            -76.77195346186137
          ],
          [
            107.13024796021521,
            -76.32471998594013
          ]
        ]
      },
      "properties": {
        "type": "variant",
        "id": 3,
        "color": "#44ff44",
        "vzdal_m": 1218,
        "prevyseni_m": 15,
        "cas_s": 310,
        "tempo_str": "4:14"
      }
    },
    {
      "type": "Feature",
      "geometry": {
        "type": "LineString",
        "coordinates": [
          [
            90.5209563987028,
            -89.33429090011731
          ],
          [
            91.25914025972283,
            -88.96523814692205
          ],
          [
            91.90504962156082,
            -88.68845310520251
          ],
          [
            92.55095898339881,
            -88.41166806348296
          ],
          [
            93.01231934687276,
            -88.31941844471487
          ],
          [
            93.56595420952873,
            -88.13490111447106
          ],
          [
            93.93504007382063,
            -88.13491920717868
          ],
          [
            94.30412593811255,
            -88.1349372998863
          ],
          [
            94.67321180240447,
            -88.13495539259394
          ],
          [
            95.31910296558813,
            -88.41180375879014
          ],
          [
            96.05726256173574,
            -88.7809288828159
          ],
          [
            96.61088529195548,
            -88.96550049118257
          ],
          [
            96.9799711562474,
            -88.9655185838902
          ],
          [
            97.44132545350324,
            -89.05781343442735
          ],
          [
            98.08721661668693,
            -89.33466180062356
          ],
          [
            98.45630248097882,
            -89.33467989333118
          ],
          [
            98.54857394705179,
            -89.3346844165081
          ],
          [
            98.82539744459788,
            -89.05788128208093
          ],
          [
            99.37903534036292,
            -88.7810917171845
          ],
          [
            99.74812120465482,
            -88.78110980989211
          ],
          [
            100.11720706894673,
            -88.78112790259974
          ],
          [
            100.39402450027471,
            -88.68886923747783
          ],
          [
            100.85538486374865,
            -88.59661961870974
          ],
          [
            101.50129422558665,
            -88.31983457699019
          ],
          [
            102.23947808660668,
            -87.95078182379494
          ],
          [
            102.70083845008062,
            -87.85853220502685
          ],
          [
            103.16219881355455,
            -87.76628258625874
          ],
          [
            103.53128467784647,
            -87.76630067896636
          ],
          [
            104.08491954050243,
            -87.58178334872255
          ],
          [
            104.45401753723056,
            -87.21271250281967
          ],
          [
            104.82311553395867,
            -86.84364165691679
          ],
          [
            105.19221656379585,
            -86.38229857636128
          ],
          [
            105.56132062674209,
            -85.82868326115315
          ],
          [
            105.83815625672439,
            -85.1827911881155
          ],
          [
            105.93044288834263,
            -84.72143453802927
          ],
          [
            105.93045502077887,
            -84.35234559941877
          ],
          [
            105.93046715321506,
            -83.98325666080828
          ],
          [
            106.0227537848333,
            -83.52190001072205
          ],
          [
            106.02276591726954,
            -83.15281107211155
          ],
          [
            106.02277804970574,
            -82.78372213350104
          ],
          [
            106.02279018214195,
            -82.41463319489054
          ],
          [
            106.11507681376021,
            -81.95327654480432
          ],
          [
            106.11508894619641,
            -81.58418760619382
          ],
          [
            106.02283871188682,
            -80.93827744044853
          ],
          [
            106.11512534350506,
            -80.47692079036231
          ],
          [
            106.11514354215937,
            -79.92328738244656
          ],
          [
            106.29970467295965,
            -79.36966302088463
          ],
          [
            106.3919913045779,
            -78.9083063707984
          ],
          [
            106.57655243537818,
            -78.35468200923646
          ],
          [
            106.76111356617844,
            -77.80105764767453
          ],
          [
            106.76112569861465,
            -77.43196870906402
          ],
          [
            106.66886333186885,
            -77.15514748192923
          ],
          [
            107.03797346103318,
            -76.41698769741585
          ],
          [
            107.13024796021521,
            -76.32471998594013
          ]
        ]
      },
      "properties": {
        "type": "variant",
        "id": 4,
        "color": "#ffaa00",
        "vzdal_m": 1440,
        "prevyseni_m": 36,
        "cas_s": 368,
        "tempo_str": "4:15"
      }
    }
  ]
}