{
  "type": "FeatureCollection",
  "features": [
    {
      "type": "Feature",
      "geometry": {
        "type": "Point",
        "coordinates": [
          89.96684768095095,
          -102.31665843614059
        ]
      },
      "properties": {
        "type": "start",
        "isom": "204"
      }
    },
    {
      "type": "Feature",
      "geometry": {
        "type": "Point",
        "coordinates": [
          74.81732874747746,
          -86.09870144658692
        ]
      },
      "properties": {
        "type": "end",
        "isom": "417"
      }
    },
    {
      "type": "Feature",
      "geometry": {
        "type": "LineString",
        "coordinates": [
          [
            89.96689993388837,
            -102.34464884707606
          ],
          [
            89.59782923514175,
            -101.88326958110531
          ],
          [
            89.32103606868618,
            -101.23735036900622
          ],
          [
            88.95196536993954,
            -100.77597110303546
          ],
          [
            88.5828946711929,
            -100.31459183706473
          ],
          [
            88.21382093933721,
            -99.9454848057466
          ],
          [
            87.84475327369962,
            -99.39183330512321
          ],
          [
            87.47568560806204,
            -98.83818180449985
          ],
          [
            87.10661187620634,
            -98.46907477318172
          ],
          [
            86.64526364516861,
            -98.19223545333932
          ],
          [
            86.09164091494887,
            -98.00766384497263
          ],
          [
            85.63028661769303,
            -97.91536899443548
          ],
          [
            85.16893232043721,
            -97.82307414389832
          ],
          [
            84.52304419036257,
            -97.45395354304948
          ],
          [
            84.15398259094309,
            -96.71575757312085
          ],
          [
            83.69264042612348,
            -96.25437378397321
          ],
          [
            82.95448082997588,
            -95.88524865994746
          ],
          [
            82.3085896667922,
            -95.60840029375125
          ],
          [
            82.03179346722759,
            -95.05475331630478
          ],
          [
            81.75500030077202,
            -94.40883410420567
          ],
          [
            81.38592960202539,
            -93.94745483823492
          ],
          [
            81.01686496949685,
            -93.30153110295892
          ],
          [
            80.7400657368232,
            -92.84015636016508
          ],
          [
            80.3709920049675,
            -92.47104932884695
          ],
          [
            80.00192130622085,
            -92.0096700628762
          ],
          [
            79.26376171007327,
            -91.64054493885045
          ],
          [
            78.71015111228972,
            -91.08688439187327
          ],
          [
            78.34108951287024,
            -90.34868842194464
          ],
          [
            77.97201578101455,
            -89.97958139062652
          ],
          [
            77.6029450822679,
            -89.51820212465576
          ],
          [
            77.23387741663032,
            -88.96455062403238
          ],
          [
            76.86481278410177,
            -88.3186268887564
          ],
          [
            76.58801051831907,
            -87.94952438061517
          ],
          [
            76.12666835349945,
            -87.48814059146753
          ],
          [
            75.84986305460768,
            -87.21131031797893
          ],
          [
            75.29624639060603,
            -86.842194240307
          ],
          [
            74.92717265875034,
            -86.47308720898886
          ],
          [
            74.83491332511358,
            -86.10399374720147
          ]
        ]
      },
      "properties": {
        "type": "variant",
        "id": 1,
        "color": "#ff4444",
        "vzdal_m": 1246,
        "prevyseni_m": 20,
        "cas_s": 315,
        "tempo_str": "4:12"
      }
    },
    {
      "type": "Feature",
      "geometry": {
        "type": "LineString",
        "coordinates": [
          [
            89.96689993388837,
            -102.34464884707606
          ],
          [
            89.59782923514175,
            -101.88326958110531
          ],
          [
            89.32103606868618,
            -101.23735036900622
          ],
          [
            88.95196536993954,
            -100.77597110303546
          ],
          [
            88.5828946711929,
            -100.31459183706473
          ],
          [
            88.21382093933721,
            -99.9454848057466
          ],
          [
            87.84475327369962,
            -99.39183330512321
          ],
          [
            87.47568560806204,
            -98.83818180449985
          ],
          [
            87.1066149093154,
            -98.37680253852909
          ],
          [
            86.82981567664173,
            -97.91542779573527
          ],
          [
            86.6452909431501,
            -97.36178534146569
          ],
          [
            86.55303464262239,
            -96.90041964502566
          ],
          [
            86.55303767573145,
            -96.80814741037304
          ],
          [
            86.18397001009386,
            -96.25449590974965
          ],
          [
            85.99944224349316,
            -95.79312569013271
          ],
          [
            85.90718594296546,
            -95.3317599936927
          ],
          [
            85.63039277650991,
            -94.6858407815936
          ],
          [
            85.5381304097641,
            -94.4090195544588
          ],
          [
            85.16906577723556,
            -93.7630958191828
          ],
          [
            84.79999204537985,
            -93.39398878786467
          ],
          [
            84.15410391530524,
            -93.02486818701583
          ],
          [
            83.69275871737656,
            -92.6557566325208
          ],
          [
            83.32368498552087,
            -92.28664960120268
          ],
          [
            82.95461125366518,
            -91.91754256988456
          ],
          [
            82.58553752180948,
            -91.54843553856642
          ],
          [
            82.21646378995379,
            -91.1793285072483
          ],
          [
            81.8473900580981,
            -90.81022147593018
          ],
          [
            81.29377339409645,
            -90.44110539825824
          ],
          [
            80.83242819616778,
            -90.07199384376321
          ],
          [
            80.46335749742113,
            -89.61061457779246
          ],
          [
            79.90974083341949,
            -89.24149850012053
          ],
          [
            79.26385270334485,
            -88.8723778992717
          ],
          [
            78.52569310719727,
            -88.50325277524594
          ],
          [
            78.15660724290535,
            -88.50323468253832
          ],
          [
            77.69525294564953,
            -88.41093983200116
          ],
          [
            77.23390774772085,
            -88.04182827750614
          ],
          [
            76.8648309827561,
            -87.76499348084064
          ],
          [
            76.49574815157325,
            -87.6727031534804
          ],
          [
            75.9421314875716,
            -87.30358707580845
          ],
          [
            75.48078628964294,
            -86.93447552131343
          ],
          [
            75.01944109171426,
            -86.5653639668184
          ],
          [
            74.83491332511358,
            -86.10399374720147
          ]
        ]
      },
      "properties": {
        "type": "variant",
        "id": 2,
        "color": "#4444ff",
        "vzdal_m": 1254,
        "prevyseni_m": 19,
        "cas_s": 327,
        "tempo_str": "4:21"
      }
    },
    {
      "type": "Feature",
      "geometry": {
        "type": "LineString",
        "coordinates": [
          [
            89.96689993388837,
            -102.34464884707606
          ],
          [
            89.59782923514175,
            -101.88326958110531
          ],
          [
            89.32103303557713,
            -101.32962260365885
          ],
          [
            88.85968783764847,
            -100.96051104916381
          ],
          [
            88.12152824150085,
            -100.59138592513807
          ],
          [
            87.38336864535326,
            -100.22226080111233
          ],
          [
            86.73747748216958,
            -99.94541243491611
          ],
          [
            86.18385475194982,
            -99.76084082654941
          ],
          [
            85.72250955402114,
            -99.39172927205439
          ],
          [
            85.2611643560925,
            -99.02261771755936
          ],
          [
            84.89210275667301,
            -98.28442174763074
          ],
          [
            84.52303812414446,
            -97.63849801235473
          ],
          [
            84.15397349161593,
            -96.99257427707873
          ],
          [
            83.78490885908741,
            -96.34665054180273
          ],
          [
            83.0467492629398,
            -95.97752541777699
          ],
          [
            82.3085896667922,
            -95.60840029375125
          ],
          [
            82.03179346722759,
            -95.05475331630478
          ],
          [
            81.75500030077202,
            -94.40883410420567
          ],
          [
            81.38592960202539,
            -93.94745483823492
          ],
          [
            81.01686496949685,
            -93.30153110295892
          ],
          [
            80.7400657368232,
            -92.84015636016508
          ],
          [
            80.3709920049675,
            -92.47104932884695
          ],
          [
            80.00192130622085,
            -92.0096700628762
          ],
          [
            79.26376171007327,
            -91.64054493885045
          ],
          [
            78.71014807918067,
            -91.1791566265259
          ],
          [
            78.34108647976119,
            -90.44096065659727
          ],
          [
            77.97201274790548,
            -90.07185362527915
          ],
          [
            77.6029390160498,
            -89.70274659396101
          ],
          [
            77.2338652841941,
            -89.33363956264289
          ],
          [
            76.86480368477461,
            -88.59544359271428
          ],
          [
            76.4957390522461,
            -87.94951985743828
          ],
          [
            76.12666835349945,
            -87.48814059146753
          ],
          [
            75.84986305460768,
            -87.21131031797893
          ],
          [
            75.29624639060603,
            -86.842194240307
          ],
          [
            74.92717265875034,
            -86.47308720898886
          ],
          [
            74.83491332511358,
            -86.10399374720147
          ]
        ]
      },
      "properties": {
        "type": "variant",
        "id": 3,
        "color": "#44ff44",
        "vzdal_m": 1246,
        "prevyseni_m": 16,
        "cas_s": 318,
        "tempo_str": "4:15"
      }
    },
    {
      "type": "Feature",
      "geometry": {
        "type": "LineString",
        "coordinates": [
          [
            89.96689993388837,
            -102.34464884707606
          ],
          [
            89.59783530135985,
            -101.69872511180006
          ],
          [
            89.22876763572226,
            -101.14507361117668
          ],
          [
            88.85969693697562,
            -100.68369434520594
          ],
          [
            88.49062623822898,
            -100.2223150792352
          ],
          [
            88.12155250637329,
            -99.85320804791706
          ],
          [
            87.75248787384476,
            -99.20728431264105
          ],
          [
            87.38341717509812,
            -98.74590504667032
          ],
          [
            87.01434344324242,
            -98.37679801535218
          ],
          [
            86.55299217909564,
            -98.19223093016241
          ],
          [
            86.18390631480374,
            -98.19221283745479
          ],
          [
            85.81484471538425,
            -97.45401686752616
          ],
          [
            85.44577098352856,
            -97.08490983620804
          ],
          [
            85.26123715070976,
            -96.80808408589634
          ],
          [
            85.07670028478192,
            -96.62353057023728
          ],
          [
            84.89216038574502,
            -96.53124928923086
          ],
          [
            84.52307452145311,
            -96.53123119652322
          ],
          [
            83.96945179123335,
            -96.34665958815656
          ],
          [
            83.4158290610136,
            -96.16208797978986
          ],
          [
            82.677669464866,
            -95.79296285576412
          ],
          [
            82.21631516761016,
            -95.70066800522697
          ],
          [
            82.12404370153719,
            -95.70066348205006
          ],
          [
            82.03178740100948,
            -95.23929778561002
          ],
          [
            81.93953110048177,
            -94.77793208917
          ],
          [
            81.57046646795324,
            -94.13200835389398
          ],
          [
            81.2013957692066,
            -93.67062908792323
          ],
          [
            80.83233416978712,
            -92.9324331179946
          ],
          [
            80.46326043793142,
            -92.56332608667648
          ],
          [
            80.09418973918478,
            -92.10194682070573
          ],
          [
            79.44830160911016,
            -91.73282621985689
          ],
          [
            78.80241044592648,
            -91.45597785366067
          ],
          [
            78.43332458163457,
            -91.45595976095305
          ],
          [
            77.87970185141482,
            -91.27138815258637
          ],
          [
            77.5106159871229,
            -91.27137005987875
          ],
          [
            77.41834148794088,
            -91.36363777135446
          ],
          [
            77.04926775608519,
            -90.99453074003634
          ],
          [
            76.6801940242295,
            -90.62542370871822
          ],
          [
            76.3111202923738,
            -90.2563166774001
          ],
          [
            75.94204656051811,
            -89.88720964608197
          ],
          [
            75.57297889488052,
            -89.3335581454586
          ],
          [
            75.20391122924292,
            -88.77990664483522
          ],
          [
            74.83483749738724,
            -88.4107996135171
          ],
          [
            74.28121780027654,
            -88.13395577049779
          ],
          [
            73.72759810316583,
            -87.85711192747847
          ],
          [
            73.63534180263812,
            -87.39574623103844
          ],
          [
            73.54309156832852,
            -86.74983606529315
          ],
          [
            74.00445799802057,
            -86.47304197721981
          ],
          [
            74.28127542934855,
            -86.3807833120979
          ],
          [
            74.83491332511358,
            -86.10399374720147
          ]
        ]
      },
      "properties": {
        "type": "variant",
        "id": 4,
        "color": "#ffaa00",
        "vzdal_m": 1396,
        "prevyseni_m": 24,
        "cas_s": 346,
        "tempo_str": "4:07"
      }
    }
  ]
}