{
  "type": "FeatureCollection",
  "features": [
    {
      "type": "Feature",
      "geometry": {
        "type": "Point",
        "coordinates": [
          212.21392431334704,
          -89.54448168766007
        ]
      },
      "properties": {
        "type": "start",
        "isom": "109"
      }
    },
    {
      "type": "Feature",
      "geometry": {
        "type": "Point",
        "coordinates": [
          187.37693036526068,
          -58.86680616257594
        ]
      },
      "properties": {
        "type": "end",
        "isom": "111"
      }
    },
    {
      "type": "Feature",
      "geometry": {
        "type": "LineString",
        "coordinates": [
          [
            212.26385437964424,
            -89.63183751163457
          ],
          [
            211.71026804673312,
            -88.33999908986397
          ],
          [
            211.71029231160557,
            -87.60182121327804
          ],
          [
            211.71029837782368,
            -87.41727674413157
          ],
          [
            210.97217517898466,
            -85.9408848072994
          ],
          [
            210.78764437927495,
            -85.57178682309136
          ],
          [
            210.6031135795652,
            -85.20268883888332
          ],
          [
            210.60313784443764,
            -84.4645109622974
          ],
          [
            210.78771110767417,
            -83.54179766248009
          ],
          [
            210.78773537254656,
            -82.80361978589417
          ],
          [
            210.7877475049828,
            -82.43453084760122
          ],
          [
            210.60321670527307,
            -82.06543286339318
          ],
          [
            210.23416723828979,
            -80.95814795668413
          ],
          [
            209.86509957265218,
            -80.40449645741452
          ],
          [
            209.49602584079645,
            -80.03538942729139
          ],
          [
            209.3114950410867,
            -79.66629144308337
          ],
          [
            209.12696424137698,
            -79.29719345887531
          ],
          [
            208.57336577602962,
            -78.37444397539767
          ],
          [
            207.83521831231818,
            -77.6362299151514
          ],
          [
            207.0970587161705,
            -77.2671047931981
          ],
          [
            206.72797891809665,
            -77.08254223222144
          ],
          [
            206.3588930538047,
            -77.08252414039127
          ],
          [
            205.9898132557309,
            -76.89796157941463
          ],
          [
            205.4361905255111,
            -76.71338997252289
          ],
          [
            205.0671410585278,
            -75.60610506581385
          ],
          [
            204.8826102588181,
            -75.2370070816058
          ],
          [
            204.14446279510662,
            -74.49879302135955
          ],
          [
            203.77538299703278,
            -74.31423046038289
          ],
          [
            203.22179666412165,
            -73.02239203861228
          ],
          [
            203.22180879655787,
            -72.65330310031933
          ],
          [
            202.66822246364674,
            -71.36146467854871
          ],
          [
            202.483691663937,
            -70.99236669434067
          ],
          [
            201.5610012680796,
            -70.25414358817933
          ],
          [
            201.19192147000578,
            -70.06958102720269
          ],
          [
            200.82284167193194,
            -69.88501846622603
          ],
          [
            200.63829873978597,
            -69.88500942031094
          ],
          [
            200.26921894171213,
            -69.70044685933429
          ],
          [
            200.08467600956618,
            -69.7004378134192
          ],
          [
            199.71559621149234,
            -69.51587525244256
          ],
          [
            198.97742448290845,
            -69.51583906878221
          ],
          [
            198.2392648867608,
            -69.14671394682891
          ],
          [
            198.05475228570538,
            -68.22398255518142
          ],
          [
            197.3166048219939,
            -67.48576849493517
          ],
          [
            195.8402856296986,
            -66.74751825102857
          ],
          [
            194.3639664374033,
            -66.00926800712196
          ],
          [
            193.44127604154588,
            -65.27104490096062
          ],
          [
            193.07219624347204,
            -65.08648233998397
          ],
          [
            192.7031164453982,
            -64.90191977900732
          ],
          [
            191.41134018524883,
            -64.1636785810158
          ],
          [
            190.67320485397366,
            -63.056375582476576
          ],
          [
            190.48867405426387,
            -62.687277598268544
          ],
          [
            190.30414325455416,
            -62.3181796140605
          ],
          [
            190.1196124548444,
            -61.94908162985245
          ],
          [
            189.38146499113296,
            -61.21086756960619
          ],
          [
            189.01239125927725,
            -60.84176053948307
          ],
          [
            188.82786045956746,
            -60.47266255527502
          ],
          [
            188.64332965985773,
            -60.103564571066975
          ],
          [
            187.7206392640003,
            -59.36534146490563
          ],
          [
            187.3515715983627,
            -58.81168996563602
          ]
        ]
      },
      "properties": {
        "type": "variant",
        "id": 1,
        "color": "#ff4444",
        "vzdal_m": 1162,
        "prevyseni_m": 25,
        "cas_s": 363,
        "tempo_str": "5:12"
      }
    },
    {
      "type": "Feature",
      "geometry": {
        "type": "LineString",
        "coordinates": [
          [
            212.26385437964424,
            -89.63183751163457
          ],
          [
            211.34116398378683,
            -88.89361440547322
          ],
          [
            210.4184735879294,
            -88.15539129931189
          ],
          [
            209.68033219043608,
            -87.23263276991915
          ],
          [
            209.12674585752495,
            -85.94079434814854
          ],
          [
            208.9422211240333,
            -85.38715189479402
          ],
          [
            208.20409792519433,
            -83.91075995796184
          ],
          [
            207.65050552606507,
            -82.80346600533771
          ],
          [
            207.4659747263553,
            -82.43436802112967
          ],
          [
            207.2814439266456,
            -82.06527003692163
          ],
          [
            206.72785152751635,
            -80.95797608429748
          ],
          [
            206.5433207278066,
            -80.58887810008946
          ],
          [
            205.80518539653139,
            -79.48157510155023
          ],
          [
            204.51340913638202,
            -78.74333390355872
          ],
          [
            203.40618187459677,
            -77.82055728233581
          ],
          [
            203.03712027517724,
            -77.08236131391972
          ],
          [
            202.8525894754675,
            -76.71326332971168
          ],
          [
            202.11444807797415,
            -75.79050480031894
          ],
          [
            201.74537434611844,
            -75.42139777019581
          ],
          [
            200.82268395026105,
            -74.68317466403447
          ],
          [
            200.63814708433318,
            -74.4986211489729
          ],
          [
            200.26909155113182,
            -73.57588071141033
          ],
          [
            199.53095621985656,
            -72.46857771287112
          ],
          [
            198.4237289580713,
            -71.54580109164822
          ],
          [
            198.05467949108805,
            -70.43851618493916
          ],
          [
            197.8701486913783,
            -70.06941820073114
          ],
          [
            197.68561182545042,
            -69.88486468566957
          ],
          [
            197.5010810257407,
            -69.51576670146152
          ],
          [
            196.57838456366517,
            -68.96208806444665
          ],
          [
            196.20930476559133,
            -68.77752550347
          ],
          [
            195.10207143758797,
            -68.03929335139357
          ],
          [
            194.54846083980436,
            -67.48563280620887
          ],
          [
            194.17938104173052,
            -67.30107024523222
          ],
          [
            193.99484417580265,
            -67.11651673017066
          ],
          [
            193.81031337609295,
            -66.74741874596262
          ],
          [
            193.81033764096534,
            -66.00924086937671
          ],
          [
            193.81034370718348,
            -65.82469640023022
          ],
          [
            193.62581290747374,
            -65.45559841602218
          ],
          [
            193.07219624347204,
            -65.08648233998397
          ],
          [
            192.7031164453982,
            -64.90191977900732
          ],
          [
            191.41134018524883,
            -64.1636785810158
          ],
          [
            190.67320485397366,
            -63.056375582476576
          ],
          [
            190.48867405426387,
            -62.687277598268544
          ],
          [
            190.30414325455416,
            -62.3181796140605
          ],
          [
            190.1196124548444,
            -61.94908162985245
          ],
          [
            189.38146499113296,
            -61.21086756960619
          ],
          [
            189.01239125927725,
            -60.84176053948307
          ],
          [
            188.82786045956746,
            -60.47266255527502
          ],
          [
            188.64332965985773,
            -60.103564571066975
          ],
          [
            187.7206392640003,
            -59.36534146490563
          ],
          [
            187.3515715983627,
            -58.81168996563602
          ]
        ]
      },
      "properties": {
        "type": "variant",
        "id": 2,
        "color": "#4444ff",
        "vzdal_m": 1110,
        "prevyseni_m": 26,
        "cas_s": 372,
        "tempo_str": "5:34"
      }
    },
    {
      "type": "Feature",
      "geometry": {
        "type": "LineString",
        "coordinates": [
          [
            212.26385437964424,
            -89.63183751163457
          ],
          [
            211.52568265106035,
            -89.63180132797423
          ],
          [
            210.78751092247649,
            -89.63176514431387
          ],
          [
            210.0493331276745,
            -89.8162734298
          ],
          [
            208.75755686752512,
            -89.07803223180849
          ],
          [
            207.46577454115769,
            -88.52433550296345
          ],
          [
            206.54306594664592,
            -88.33974580424155
          ],
          [
            205.0667467543506,
            -87.60149556033494
          ],
          [
            203.77497049420123,
            -86.86325436234343
          ],
          [
            202.66773109997976,
            -86.30956667941346
          ],
          [
            202.29865130190592,
            -86.12500411843682
          ],
          [
            201.9295715038321,
            -85.94044155746016
          ],
          [
            201.56049170575827,
            -85.75587899648352
          ],
          [
            200.63780130990085,
            -85.01765589032217
          ],
          [
            200.268721511827,
            -84.83309332934552
          ],
          [
            199.8996417137532,
            -84.64853076836887
          ],
          [
            199.16148211760554,
            -84.27940564641557
          ],
          [
            198.7924023195317,
            -84.09484308543891
          ],
          [
            198.4233225214579,
            -83.91028052446227
          ],
          [
            196.94700332916253,
            -83.17203028055566
          ],
          [
            195.83975786872293,
            -82.8028870667722
          ],
          [
            194.54798160857356,
            -82.06464586878067
          ],
          [
            193.44074828057018,
            -81.32641371670424
          ],
          [
            192.70260081685876,
            -80.58819965645797
          ],
          [
            191.96445335314732,
            -79.84998559621172
          ],
          [
            191.59539781994593,
            -78.92724515864916
          ],
          [
            191.59542208481838,
            -78.18906728206325
          ],
          [
            191.5954342172546,
            -77.81997834377029
          ],
          [
            191.41090341754483,
            -77.45088035956225
          ],
          [
            190.85728675354318,
            -77.08176428352402
          ],
          [
            189.38096756124781,
            -76.34351403961742
          ],
          [
            188.70396473654694,
            -76.13063723860382
          ],
          [
            188.64283222997258,
            -75.2362110410782
          ],
          [
            188.64285649484503,
            -74.49803316449228
          ],
          [
            188.45834389378965,
            -73.57530177284482
          ],
          [
            188.45836815866207,
            -72.8371238962589
          ],
          [
            188.6429414218986,
            -71.9144105964416
          ],
          [
            188.6429474881167,
            -71.72986612729511
          ],
          [
            188.8275025526989,
            -71.36078623491724
          ],
          [
            188.82750861891702,
            -71.17624176577077
          ],
          [
            189.0120636834992,
            -70.8071618733929
          ],
          [
            189.01207581593545,
            -70.43807293509994
          ],
          [
            189.19663088051766,
            -70.06899304272207
          ],
          [
            189.19663694673574,
            -69.88444857357558
          ],
          [
            188.82758141353435,
            -68.96170813601303
          ],
          [
            188.8276056784068,
            -68.22353025942711
          ],
          [
            188.82762994327925,
            -67.4853523828412
          ],
          [
            188.45858047629596,
            -66.37806747613216
          ],
          [
            188.27405574280434,
            -65.82442502277763
          ],
          [
            188.27406180902244,
            -65.63988055363116
          ],
          [
            188.27406787524055,
            -65.45533608448468
          ],
          [
            188.27407394145865,
            -65.2707916153382
          ],
          [
            188.08956134040324,
            -64.34806022369072
          ],
          [
            187.9050305406935,
            -63.97896223948268
          ],
          [
            187.90505480556595,
            -63.24078436289676
          ],
          [
            188.08962806880245,
            -62.31807106307946
          ],
          [
            188.0896341350206,
            -62.13352659393298
          ],
          [
            188.27418919960277,
            -61.76444670155511
          ],
          [
            188.27421346447522,
            -61.0262688249692
          ],
          [
            188.27423166312954,
            -60.47263541752976
          ],
          [
            188.0897008634198,
            -60.10353743332172
          ],
          [
            187.3515715983627,
            -58.81168996563602
          ]
        ]
      },
      "properties": {
        "type": "variant",
        "id": 3,
        "color": "#44ff44",
        "vzdal_m": 1261,
        "prevyseni_m": 35,
        "cas_s": 375,
        "tempo_str": "4:57"
      }
    }
  ]
}