{
  "type": "FeatureCollection",
  "features": [
    {
      "type": "Feature",
      "geometry": {
        "type": "Point",
        "coordinates": [
          100.90246541025877,
          -59.85382079601395
        ]
      },
      "properties": {
        "type": "start",
        "isom": "204"
      }
    },
    {
      "type": "Feature",
      "geometry": {
        "type": "Point",
        "coordinates": [
          87.800253903,
          -49.61096049841327
        ]
      },
      "properties": {
        "type": "end",
        "isom": "204"
      }
    },
    {
      "type": "Feature",
      "geometry": {
        "type": "LineString",
        "coordinates": [
          [
            100.90246541025877,
            -59.85382079601395
          ],
          [
            100.44111111300292,
            -59.761525946652995
          ],
          [
            99.79521994981917,
            -59.484677582230475
          ],
          [
            99.24159721959937,
            -59.30010597533874
          ],
          [
            99.05705732056246,
            -59.20782469485041
          ],
          [
            98.59570605641564,
            -59.02325761091622
          ],
          [
            98.22664445699615,
            -58.285061642500125
          ],
          [
            98.0421197235045,
            -57.73141918914561
          ],
          [
            97.67304902475784,
            -57.27003992444924
          ],
          [
            97.30397832601119,
            -56.808660659752874
          ],
          [
            97.21170989304724,
            -56.71638390222209
          ],
          [
            96.84262706186436,
            -56.62409357581868
          ],
          [
            96.65808716282744,
            -56.531812295330354
          ],
          [
            96.28901949718986,
            -55.97816079606074
          ],
          [
            95.91994576533412,
            -55.60905376593762
          ],
          [
            95.55087809969652,
            -55.055402266668004
          ],
          [
            95.1818043678408,
            -54.68629523654488
          ],
          [
            94.81273670220318,
            -54.13264373727527
          ],
          [
            94.44366600345651,
            -53.671264472578905
          ],
          [
            94.07459227160079,
            -53.302157442455766
          ],
          [
            93.70552157285412,
            -52.840778177759404
          ],
          [
            93.33645390721652,
            -52.2871266784898
          ],
          [
            92.9673801753608,
            -51.918019648366666
          ],
          [
            92.41376351135911,
            -51.54890357232845
          ],
          [
            91.86014684735743,
            -51.17978749629024
          ],
          [
            91.21425871728275,
            -50.81066689729448
          ],
          [
            90.56836755409901,
            -50.53381853287196
          ],
          [
            90.19928168980707,
            -50.533800441041784
          ],
          [
            89.83019582551513,
            -50.53378234921161
          ],
          [
            89.18430466233139,
            -50.25693398478909
          ],
          [
            88.53841349914767,
            -49.98008562036657
          ],
          [
            87.800253903,
            -49.61096049841327
          ]
        ]
      },
      "properties": {
        "type": "variant",
        "id": 1,
        "color": "#ff4444",
        "vzdal_m": 945,
        "prevyseni_m": 21,
        "cas_s": 262,
        "tempo_str": "4:36"
      }
    },
    {
      "type": "Feature",
      "geometry": {
        "type": "LineString",
        "coordinates": [
          [
            100.90246541025877,
            -59.85382079601395
          ],
          [
            100.44111111300292,
            -59.761525946652995
          ],
          [
            99.88748838278312,
            -59.57695433976126
          ],
          [
            99.51840251849117,
            -59.57693624793108
          ],
          [
            98.9647646227261,
            -59.85372581390554
          ],
          [
            98.4111418925063,
            -59.669154207013804
          ],
          [
            97.76525072932255,
            -59.392305842591284
          ],
          [
            97.21163406532087,
            -59.023189766553074
          ],
          [
            96.84256033346514,
            -58.654082736429935
          ],
          [
            96.47348660160941,
            -58.28497570630681
          ],
          [
            96.1044128697537,
            -57.91586867618368
          ],
          [
            95.73533913789798,
            -57.54676164606055
          ],
          [
            95.36626843915133,
            -57.08538238136419
          ],
          [
            95.27399697307834,
            -57.085377858406645
          ],
          [
            95.18173157322344,
            -56.90082886630262
          ],
          [
            94.81266087447679,
            -56.43944960160625
          ],
          [
            94.44358714262107,
            -56.070342571483124
          ],
          [
            94.07451341076535,
            -55.701235541359985
          ],
          [
            93.70543967890963,
            -55.33212851123686
          ],
          [
            93.33636898016296,
            -54.8707492465405
          ],
          [
            92.78275231616126,
            -54.501633170502274
          ],
          [
            92.32141015134162,
            -54.040249382848366
          ],
          [
            91.9523364194859,
            -53.67114235272524
          ],
          [
            91.58326268763018,
            -53.30203532260211
          ],
          [
            91.21419502199258,
            -52.7483838233325
          ],
          [
            90.84512129013685,
            -52.379276793209364
          ],
          [
            90.19923316006218,
            -52.01015619421361
          ],
          [
            89.46107356391451,
            -51.641031072260304
          ],
          [
            88.99973139909487,
            -51.179647284606396
          ],
          [
            88.6306607003482,
            -50.718268019910035
          ],
          [
            88.26159000160153,
            -50.25688875521366
          ],
          [
            87.89251930285488,
            -49.7955094905173
          ],
          [
            87.800253903,
            -49.61096049841327
          ]
        ]
      },
      "properties": {
        "type": "variant",
        "id": 2,
        "color": "#4444ff",
        "vzdal_m": 947,
        "prevyseni_m": 15,
        "cas_s": 261,
        "tempo_str": "4:35"
      }
    }
  ]
}