{
  "type": "FeatureCollection",
  "features": [
    {
      "type": "Feature",
      "geometry": {
        "type": "Point",
        "coordinates": [
          67.70503957975718,
          -82.47792311546272
        ]
      },
      "properties": {
        "type": "start",
        "isom": "204"
      }
    },
    {
      "type": "Feature",
      "geometry": {
        "type": "Point",
        "coordinates": [
          53.50046961939066,
          -99.34379578567952
        ]
      },
      "properties": {
        "type": "end",
        "isom": "204"
      }
    },
    {
      "type": "Feature",
      "geometry": {
        "type": "LineString",
        "coordinates": [
          [
            67.6777481507988,
            -82.40555384881792
          ],
          [
            66.57043208680844,
            -83.14373180094525
          ],
          [
            65.27858974783318,
            -83.32824409450562
          ],
          [
            64.54039103957302,
            -83.51277394868679
          ],
          [
            64.17128808512291,
            -83.69731550994848
          ],
          [
            62.87943134486756,
            -84.25093434019333
          ],
          [
            61.40301952706712,
            -84.98910058524014
          ],
          [
            60.29571786435685,
            -85.358172000683
          ],
          [
            59.55752635673674,
            -85.35814858652193
          ],
          [
            59.00388992666171,
            -85.1735777575589
          ],
          [
            58.6347869722116,
            -85.3581193188206
          ],
          [
            57.89656666203128,
            -86.09630897802847
          ],
          [
            57.15834635185097,
            -86.83449863723635
          ],
          [
            56.42011164039057,
            -87.94179483312871
          ],
          [
            55.68186252765006,
            -89.41819756570553
          ],
          [
            55.12816849245464,
            -90.71005288348039
          ],
          [
            55.12813968989444,
            -91.44826595684933
          ],
          [
            55.12811808797429,
            -92.00192576187604
          ],
          [
            54.94355580978917,
            -92.37102644502025
          ],
          [
            54.94354860914912,
            -92.55557971336249
          ],
          [
            54.94354140850907,
            -92.74013298170473
          ],
          [
            54.94353420786903,
            -92.92468625004696
          ],
          [
            54.94352700722898,
            -93.1092395183892
          ],
          [
            54.94351980658892,
            -93.29379278673143
          ],
          [
            54.94351260594887,
            -93.47834605507367
          ],
          [
            54.94350540530883,
            -93.66289932341591
          ],
          [
            54.94347660274863,
            -94.40111239678485
          ],
          [
            54.94344780018844,
            -95.1393254701538
          ],
          [
            54.75888552200332,
            -95.508426153298
          ],
          [
            54.75887112072321,
            -95.87753268998249
          ],
          [
            54.57430884253809,
            -96.24663337312668
          ],
          [
            54.57429444125799,
            -96.61573990981115
          ],
          [
            54.574272839337844,
            -97.16939971483787
          ],
          [
            54.02057880414241,
            -98.46125503261271
          ],
          [
            53.46689917022709,
            -99.38400381370312
          ]
        ]
      },
      "properties": {
        "type": "variant",
        "id": 1,
        "color": "#ff4444",
        "vzdal_m": 686,
        "prevyseni_m": 1,
        "cas_s": 194,
        "tempo_str": "4:43"
      }
    },
    {
      "type": "Feature",
      "geometry": {
        "type": "LineString",
        "coordinates": [
          [
            67.6777481507988,
            -82.40555384881792
          ],
          [
            66.93950623869834,
            -83.6974033130525
          ],
          [
            66.570367281048,
            -84.80471121602538
          ],
          [
            66.38580500286287,
            -85.17381189916958
          ],
          [
            66.20124272467774,
            -85.5429125823138
          ],
          [
            66.2012355240377,
            -85.72746585065603
          ],
          [
            66.01667324585257,
            -86.09656653380024
          ],
          [
            66.01664444329236,
            -86.83477960716918
          ],
          [
            65.462957608737,
            -87.9420816566018
          ],
          [
            65.27840253119192,
            -88.12662907140378
          ],
          [
            65.09384745364684,
            -88.31117648620574
          ],
          [
            64.90929237610176,
            -88.49572390100771
          ],
          [
            64.72473729855669,
            -88.68027131580968
          ],
          [
            64.54017502037155,
            -89.04937199895389
          ],
          [
            64.35561994282648,
            -89.23391941375586
          ],
          [
            64.1710648652814,
            -89.41846682855783
          ],
          [
            63.98650978773632,
            -89.6030142433598
          ],
          [
            63.80195471019124,
            -89.78756165816176
          ],
          [
            63.61739963264616,
            -89.97210907296373
          ],
          [
            63.43283735446104,
            -90.34120975610794
          ],
          [
            62.69461704428073,
            -91.07939941531582
          ],
          [
            62.32551408983063,
            -91.26394097657752
          ],
          [
            61.956396734100416,
            -91.8175890745237
          ],
          [
            61.77183445591529,
            -92.1866897576679
          ],
          [
            61.03361414573498,
            -92.92487941687578
          ],
          [
            60.29539383555467,
            -93.66306907608366
          ],
          [
            59.741721402279396,
            -94.40126458883181
          ],
          [
            59.741707000999284,
            -94.77037112551628
          ],
          [
            59.37260404654918,
            -94.95491268677797
          ],
          [
            59.1880489690041,
            -95.13946010157994
          ],
          [
            58.818946014553994,
            -95.32400166284165
          ],
          [
            58.08072570437369,
            -96.06219132204953
          ],
          [
            57.896163426188565,
            -96.43129200519373
          ],
          [
            57.157943116008255,
            -97.16948166440162
          ],
          [
            56.97338803846317,
            -97.35402907920358
          ],
          [
            56.604285084013064,
            -97.53857064046528
          ],
          [
            55.31242114311767,
            -98.27674273905237
          ],
          [
            54.02055720222227,
            -99.01491483763942
          ],
          [
            53.46689917022709,
            -99.38400381370312
          ]
        ]
      },
      "properties": {
        "type": "variant",
        "id": 2,
        "color": "#4444ff",
        "vzdal_m": 624,
        "prevyseni_m": 2,
        "cas_s": 206,
        "tempo_str": "5:29"
      }
    },
    {
      "type": "Feature",
      "geometry": {
        "type": "LineString",
        "coordinates": [
          [
            67.6777481507988,
            -82.40555384881792
          ],
          [
            67.49316427069353,
            -83.32831433698883
          ],
          [
            67.86223122194339,
            -84.06653911743831
          ],
          [
            68.04675749692828,
            -84.62020477600528
          ],
          [
            68.23129097255321,
            -84.98931716623002
          ],
          [
            68.23128377191316,
            -85.17387043457227
          ],
          [
            68.23127657127311,
            -85.3584237029145
          ],
          [
            68.23126937063307,
            -85.54297697125673
          ],
          [
            68.23126216999302,
            -85.72753023959898
          ],
          [
            68.4157740436978,
            -86.65030243485042
          ],
          [
            68.41573804049756,
            -87.57306877656161
          ],
          [
            68.23116136103232,
            -88.31127599639028
          ],
          [
            67.49291224829183,
            -89.78767872896711
          ],
          [
            66.57014406120649,
            -90.52586253463473
          ],
          [
            66.01646442729115,
            -91.4486113157251
          ],
          [
            65.2782369164708,
            -92.37135424327522
          ],
          [
            64.54000220501038,
            -93.47865043916757
          ],
          [
            63.80176749354998,
            -94.58594663505991
          ],
          [
            63.06353998272962,
            -95.50868956261003
          ],
          [
            62.14075019372413,
            -96.80053317330436
          ],
          [
            61.21799640791889,
            -97.16961044228749
          ],
          [
            59.741584590118464,
            -97.9077766873343
          ],
          [
            59.37248163566836,
            -98.092318248596
          ],
          [
            58.81883080431322,
            -98.27685395631745
          ],
          [
            57.7115219409629,
            -98.83047864010254
          ],
          [
            56.60422027825263,
            -99.19955005554542
          ],
          [
            55.86602156999247,
            -99.38407990972658
          ],
          [
            55.127837263012395,
            -99.19950322722329
          ],
          [
            54.38964575539228,
            -99.1994798130622
          ],
          [
            53.46689917022709,
            -99.38400381370312
          ]
        ]
      },
      "properties": {
        "type": "variant",
        "id": 3,
        "color": "#44ff44",
        "vzdal_m": 702,
        "prevyseni_m": 1,
        "cas_s": 204,
        "tempo_str": "4:51"
      }
    }
  ]
}