{
  "type": "FeatureCollection",
  "features": [
    {
      "type": "Feature",
      "geometry": {
        "type": "Point",
        "coordinates": [
          38.767362124628406,
          -28.29927167422865
        ]
      },
      "properties": {
        "type": "start",
        "isom": "109"
      }
    },
    {
      "type": "Feature",
      "geometry": {
        "type": "Point",
        "coordinates": [
          37.803387554250314,
          -74.0084594879999
        ]
      },
      "properties": {
        "type": "end",
        "isom": "204"
      }
    },
    {
      "type": "Feature",
      "geometry": {
        "type": "LineString",
        "coordinates": [
          [
            38.68473172095601,
            -28.26267770007285
          ],
          [
            38.50012636625045,
            -29.185424303440456
          ],
          [
            38.50010002658177,
            -29.554523053692108
          ],
          [
            38.31553418137922,
            -29.92362153168224
          ],
          [
            37.57736298940939,
            -30.108169817761972
          ],
          [
            37.20820495933561,
            -31.21546552399388
          ],
          [
            37.20815227999826,
            -31.95366302449719
          ],
          [
            36.654467914224945,
            -32.87640908334175
          ],
          [
            36.83895474042147,
            -33.614606856106576
          ],
          [
            36.83890206108412,
            -34.35280435660988
          ],
          [
            36.65429670637856,
            -35.275550959977494
          ],
          [
            36.65424402704121,
            -36.0137484604808
          ],
          [
            36.65419134770386,
            -36.75194596098411
          ],
          [
            36.65417817786952,
            -36.936495336109935
          ],
          [
            36.838691343734716,
            -37.30559435862311
          ],
          [
            36.84255583885671,
            -38.039196152926934
          ],
          [
            37.20766499612777,
            -38.78198990415277
          ],
          [
            37.392138652489955,
            -39.70473705204343
          ],
          [
            37.76113864455168,
            -40.81203384732144
          ],
          [
            37.76108596521433,
            -41.55023134782475
          ],
          [
            37.94555962157651,
            -42.4729784957154
          ],
          [
            37.945533281907835,
            -42.842077245967054
          ],
          [
            38.13004644777304,
            -43.21117626848024
          ],
          [
            38.13000693827002,
            -43.764824393857715
          ],
          [
            38.31452010413523,
            -44.13392341637089
          ],
          [
            38.31449376446655,
            -44.50302216662254
          ],
          [
            38.499006930331745,
            -44.87212118913572
          ],
          [
            38.498967420828734,
            -45.4257693145132
          ],
          [
            38.743808273215414,
            -45.78184724209152
          ],
          [
            38.86796741289046,
            -46.53306610979121
          ],
          [
            38.86791473355311,
            -47.27126361029452
          ],
          [
            39.052427899418305,
            -47.640362632807694
          ],
          [
            39.23691472561483,
            -48.37856040557253
          ],
          [
            39.12390381398528,
            -48.84663012467329
          ],
          [
            38.60480355136187,
            -49.850522090165896
          ],
          [
            38.58474065771859,
            -50.59976954509583
          ],
          [
            38.45545647172821,
            -51.035117320339275
          ],
          [
            37.58369147655652,
            -51.713636863032704
          ],
          [
            36.9317945846704,
            -52.10261561145094
          ],
          [
            36.83759824748469,
            -52.62319249406672
          ],
          [
            36.83754556814735,
            -53.361389994570025
          ],
          [
            36.65294021344178,
            -54.28413659793763
          ],
          [
            36.83741386980397,
            -55.20688374582829
          ],
          [
            36.837361190466616,
            -55.945081246331604
          ],
          [
            36.837321680963605,
            -56.49872937170908
          ],
          [
            36.652755835761056,
            -56.867827849699204
          ],
          [
            36.652703156423705,
            -57.606025350202515
          ],
          [
            36.652650477086354,
            -58.34422285070582
          ],
          [
            36.46804512238079,
            -59.26696945407343
          ],
          [
            36.283413428006554,
            -60.5588148076927
          ],
          [
            36.098847582804,
            -60.92791328568282
          ],
          [
            36.46791342403741,
            -61.1124632053317
          ],
          [
            36.836887076430465,
            -62.58885875086136
          ],
          [
            36.83683439709311,
            -63.32705625136467
          ],
          [
            36.83678171775576,
            -64.06525375186797
          ],
          [
            36.6521763630502,
            -64.98800035523558
          ],
          [
            36.83665001941238,
            -65.91074750312625
          ],
          [
            37.39017634717364,
            -67.2025939457916
          ],
          [
            38.12822901063444,
            -68.67899003584431
          ],
          [
            38.31270266699663,
            -69.60173718373497
          ],
          [
            38.31267632732796,
            -69.97083593398662
          ],
          [
            37.75896562188597,
            -71.26268074308283
          ],
          [
            37.75895245205163,
            -71.44723011820865
          ],
          [
            37.57437343701474,
            -72.00087797132461
          ],
          [
            37.389781252143514,
            -72.7390751995664
          ],
          [
            37.38972857280616,
            -73.4772727000697
          ],
          [
            37.7587680743709,
            -74.03092136997023
          ]
        ]
      },
      "properties": {
        "type": "variant",
        "id": 1,
        "color": "#ff4444",
        "vzdal_m": 1326,
        "prevyseni_m": 13,
        "cas_s": 362,
        "tempo_str": "4:33"
      }
    },
    {
      "type": "Feature",
      "geometry": {
        "type": "LineString",
        "coordinates": [
          [
            38.68473172095601,
            -28.26267770007285
          ],
          [
            38.50012636625045,
            -29.185424303440456
          ],
          [
            38.50010002658177,
            -29.554523053692108
          ],
          [
            38.31553418137922,
            -29.92362153168224
          ],
          [
            37.57736298940939,
            -30.108169817761972
          ],
          [
            37.20820495933561,
            -31.21546552399388
          ],
          [
            37.20815227999826,
            -31.95366302449719
          ],
          [
            36.654467914224945,
            -32.87640908334175
          ],
          [
            36.83895474042147,
            -33.614606856106576
          ],
          [
            36.83890206108412,
            -34.35280435660988
          ],
          [
            36.65429670637856,
            -35.275550959977494
          ],
          [
            36.65424402704121,
            -36.0137484604808
          ],
          [
            36.65419134770386,
            -36.75194596098411
          ],
          [
            36.65417817786952,
            -36.936495336109935
          ],
          [
            36.838691343734716,
            -37.30559435862311
          ],
          [
            36.84255583885671,
            -38.039196152926934
          ],
          [
            37.20766499612777,
            -38.78198990415277
          ],
          [
            37.392138652489955,
            -39.70473705204343
          ],
          [
            37.76113864455168,
            -40.81203384732144
          ],
          [
            37.76108596521433,
            -41.55023134782475
          ],
          [
            37.94555962157651,
            -42.4729784957154
          ],
          [
            37.945533281907835,
            -42.842077245967054
          ],
          [
            38.13004644777304,
            -43.21117626848024
          ],
          [
            38.13000693827002,
            -43.764824393857715
          ],
          [
            38.31452010413523,
            -44.13392341637089
          ],
          [
            38.31449376446655,
            -44.50302216662254
          ],
          [
            38.499006930331745,
            -44.87212118913572
          ],
          [
            38.498967420828734,
            -45.4257693145132
          ],
          [
            38.743808273215414,
            -45.78184724209152
          ],
          [
            38.86796741289046,
            -46.53306610979121
          ],
          [
            38.86791473355311,
            -47.27126361029452
          ],
          [
            39.052427899418305,
            -47.640362632807694
          ],
          [
            39.05238838991529,
            -48.19401075818517
          ],
          [
            39.23690155578049,
            -48.563109780698355
          ],
          [
            39.42138838197702,
            -49.30130755346319
          ],
          [
            39.42133570263967,
            -50.039505053966494
          ],
          [
            39.605848868504864,
            -50.40860407647966
          ],
          [
            39.60582252883619,
            -50.77770282673132
          ],
          [
            39.79033569470139,
            -51.1468018492445
          ],
          [
            39.79029618519838,
            -51.70044997462198
          ],
          [
            39.97480935106358,
            -52.06954899713516
          ],
          [
            39.974769841560565,
            -52.62319712251264
          ],
          [
            40.15928300742576,
            -52.99229614502581
          ],
          [
            40.159256667757084,
            -53.36139489527746
          ],
          [
            40.34376983362228,
            -53.730493917790646
          ],
          [
            40.34373032411928,
            -54.284142043168124
          ],
          [
            40.52824348998447,
            -54.65324106568131
          ],
          [
            40.5282171503158,
            -55.02233981593296
          ],
          [
            40.712730316180995,
            -55.39143883844613
          ],
          [
            40.71270397651232,
            -55.76053758869778
          ],
          [
            40.89721714237752,
            -56.12963661121096
          ],
          [
            40.89719080270885,
            -56.498735361462614
          ],
          [
            41.08170396857405,
            -56.8678343839758
          ],
          [
            41.45070396063577,
            -57.9751311792538
          ],
          [
            41.45065128129842,
            -58.71332867975711
          ],
          [
            41.45062494162974,
            -59.082427430008764
          ],
          [
            41.635138107494946,
            -59.45152645252195
          ],
          [
            41.81965127336014,
            -59.820625475035115
          ],
          [
            41.81961176385713,
            -60.37427360041259
          ],
          [
            42.00412492972233,
            -60.743372622925776
          ],
          [
            41.819559084519774,
            -61.1124711009159
          ],
          [
            41.635006409151565,
            -61.29702020378021
          ],
          [
            41.450440563949016,
            -61.666118681770335
          ],
          [
            40.89674302834137,
            -62.77341411574072
          ],
          [
            40.15846647769683,
            -64.43435740282706
          ],
          [
            39.9738742928256,
            -65.17255463106885
          ],
          [
            39.78928210795438,
            -65.91075185931064
          ],
          [
            39.97374259448223,
            -67.01804838232712
          ],
          [
            39.97367674531054,
            -67.94079525795625
          ],
          [
            39.78909773027365,
            -68.4944431110722
          ],
          [
            39.6045318850711,
            -68.86354158906234
          ],
          [
            39.235400194666,
            -69.6017385450426
          ],
          [
            39.09164668575141,
            -70.13686562647649
          ],
          [
            38.68168948922401,
            -70.89358335413881
          ],
          [
            38.68163680988667,
            -71.63178085464212
          ],
          [
            38.68158413054931,
            -72.36997835514542
          ],
          [
            38.31242610047554,
            -73.47727406137733
          ],
          [
            37.7587680743709,
            -74.03092136997023
          ]
        ]
      },
      "properties": {
        "type": "variant",
        "id": 2,
        "color": "#4444ff",
        "vzdal_m": 1324,
        "prevyseni_m": 14,
        "cas_s": 365,
        "tempo_str": "4:35"
      }
    },
    {
      "type": "Feature",
      "geometry": {
        "type": "LineString",
        "coordinates": [
          [
            38.68473172095601,
            -28.26267770007285
          ],
          [
            37.76198151394929,
            -29.000873839268532
          ],
          [
            37.57742883858107,
            -29.18542294213284
          ],
          [
            37.208336657678984,
            -29.369971772735614
          ],
          [
            36.101046945138386,
            -30.108167639669777
          ],
          [
            35.916441590432825,
            -31.03091424303738
          ],
          [
            35.916388911095474,
            -31.769111743540687
          ],
          [
            35.91633623175812,
            -32.507309244043995
          ],
          [
            35.916323061923784,
            -32.69185861916982
          ],
          [
            35.731757216721235,
            -33.06095709715995
          ],
          [
            34.99350700574538,
            -34.352801633994645
          ],
          [
            34.624375315340274,
            -35.0909985899749
          ],
          [
            33.70162510833355,
            -35.82919472917058
          ],
          [
            33.332519757597126,
            -36.198292934899186
          ],
          [
            33.11035203613272,
            -36.711542396745514
          ],
          [
            33.369118379851756,
            -36.775770106220605
          ],
          [
            32.59424320695259,
            -37.85923622198553
          ],
          [
            31.856032505479742,
            -38.59743263344274
          ],
          [
            31.11782180400689,
            -39.33562904489995
          ],
          [
            30.748716453270468,
            -39.70472725062855
          ],
          [
            30.56415060806792,
            -40.07382572861869
          ],
          [
            30.379584762865367,
            -40.442924206608815
          ],
          [
            30.195018917662818,
            -40.812022684598944
          ],
          [
            30.010453072460265,
            -41.18112116258907
          ],
          [
            29.82588722725772,
            -41.5502196405792
          ],
          [
            29.641321382055168,
            -41.91931811856933
          ],
          [
            28.90305800124497,
            -43.39571203052984
          ],
          [
            28.533926310839867,
            -44.1339089865101
          ],
          [
            28.349360465637318,
            -44.503007464500236
          ],
          [
            28.533834121999504,
            -45.42575461239089
          ],
          [
            28.718334118030366,
            -45.97940301002989
          ],
          [
            28.718320948196027,
            -46.16395238515572
          ],
          [
            28.90283411406123,
            -46.5330514076689
          ],
          [
            29.30456182712867,
            -47.25832406100131
          ],
          [
            29.45636044182249,
            -47.82489785033426
          ],
          [
            29.45634727198815,
            -48.009447225460086
          ],
          [
            29.640860437853352,
            -48.37854624797327
          ],
          [
            29.640847268019012,
            -48.563095623099095
          ],
          [
            29.825360433884214,
            -48.93219464561226
          ],
          [
            30.00987359974941,
            -49.301293668125446
          ],
          [
            30.009860429915072,
            -49.48584304325127
          ],
          [
            30.194373595780274,
            -49.854942065764455
          ],
          [
            30.37888676164547,
            -50.22404108827762
          ],
          [
            30.378873591811136,
            -50.40859046340345
          ],
          [
            30.563386757676334,
            -50.77768948591663
          ],
          [
            31.116913085437595,
            -52.06953592858199
          ],
          [
            31.11689991560326,
            -52.25408530370782
          ],
          [
            31.301413081468457,
            -52.62318432622099
          ],
          [
            31.48592624733366,
            -52.99228334873417
          ],
          [
            31.85492623939538,
            -54.09958014401218
          ],
          [
            32.2239262314571,
            -55.20687693929019
          ],
          [
            32.59292622351882,
            -56.31417373456819
          ],
          [
            32.77743938938402,
            -56.683272757081376
          ],
          [
            32.961952555249226,
            -57.05237177959455
          ],
          [
            32.96193938541489,
            -57.23692115472038
          ],
          [
            33.146452551280085,
            -57.60602017723356
          ],
          [
            33.33096571714528,
            -57.97511919974673
          ],
          [
            33.33095254731095,
            -58.159668574872555
          ],
          [
            33.51546571317615,
            -58.52876759738574
          ],
          [
            33.699978879041346,
            -58.89786661989892
          ],
          [
            33.884492044906544,
            -59.26696564241209
          ],
          [
            34.62254470836734,
            -60.743361732464805
          ],
          [
            35.176071036128604,
            -62.035208175130165
          ],
          [
            35.17604469645993,
            -62.40430692538182
          ],
          [
            34.806886666386156,
            -63.511602631613734
          ],
          [
            34.991373492582674,
            -64.24980040437856
          ],
          [
            34.806781307711454,
            -64.98799763262035
          ],
          [
            34.8067286283741,
            -65.72619513312365
          ],
          [
            34.622123273668535,
            -66.64894173649125
          ],
          [
            34.99114960539894,
            -67.3871397815176
          ],
          [
            34.99109692606159,
            -68.12533728202091
          ],
          [
            35.36012325779198,
            -68.86353532704727
          ],
          [
            35.54463642365718,
            -69.23263434956044
          ],
          [
            35.729162759356726,
            -69.4171839969478
          ],
          [
            35.91367592522192,
            -69.78628301946098
          ],
          [
            36.651728588682715,
            -71.26267910951368
          ],
          [
            36.83620224504491,
            -72.18542625740434
          ],
          [
            36.65159689033934,
            -73.10817286077196
          ],
          [
            37.7587680743709,
            -74.03092136997023
          ]
        ]
      },
      "properties": {
        "type": "variant",
        "id": 3,
        "color": "#44ff44",
        "vzdal_m": 1419,
        "prevyseni_m": 7,
        "cas_s": 374,
        "tempo_str": "4:23"
      }
    }
  ]
}