{
  "type": "FeatureCollection",
  "features": [
    {
      "type": "Feature",
      "geometry": {
        "type": "Point",
        "coordinates": [
          164.50609550117608,
          -150.52264854206697
        ]
      },
      "properties": {
        "type": "start",
        "isom": "109"
      }
    },
    {
      "type": "Feature",
      "geometry": {
        "type": "Point",
        "coordinates": [
          163.18306330182426,
          -112.55994088045824
        ]
      },
      "properties": {
        "type": "end",
        "isom": "109"
      }
    },
    {
      "type": "Feature",
      "geometry": {
        "type": "LineString",
        "coordinates": [
          [
            164.46523310186097,
            -150.52916943796512
          ],
          [
            164.6498063650975,
            -149.6064561381478
          ],
          [
            165.2034776250622,
            -148.3146719918677
          ],
          [
            165.57257562179038,
            -147.94560114540494
          ],
          [
            165.75713068637253,
            -147.57652125302707
          ],
          [
            165.94167968473664,
            -147.3919858297957
          ],
          [
            165.9417039496091,
            -146.65380795320976
          ],
          [
            165.94172821448151,
            -145.91563007662384
          ],
          [
            165.94174034691775,
            -145.5465411383309
          ],
          [
            165.75720954720802,
            -145.17744315412284
          ],
          [
            165.75723381208044,
            -144.43926527753692
          ],
          [
            165.7572580769529,
            -143.70108740095102
          ],
          [
            165.94183134018942,
            -142.77837410113372
          ],
          [
            166.6800515985182,
            -141.30205453162222
          ],
          [
            166.86461879553661,
            -140.5638857009514
          ],
          [
            167.0491738601188,
            -140.19480580857353
          ],
          [
            167.0491799263369,
            -140.01026133942705
          ],
          [
            167.04920419120936,
            -139.27208346284112
          ],
          [
            167.0492284560818,
            -138.53390558625523
          ],
          [
            167.233783520664,
            -138.16482569387736
          ],
          [
            167.41833858524618,
            -137.79574580149946
          ],
          [
            167.6029118484827,
            -136.87303250168216
          ],
          [
            167.78748511171926,
            -135.95031920186486
          ],
          [
            167.7875093765917,
            -135.21214132527894
          ],
          [
            167.78753364146414,
            -134.47396344869304
          ],
          [
            167.78755184011845,
            -133.9203300412536
          ],
          [
            167.78758217120904,
            -132.9976076955212
          ],
          [
            167.97214330200933,
            -132.44398333399687
          ],
          [
            168.1566983665915,
            -132.074903441619
          ],
          [
            167.9721857655361,
            -131.1521720499715
          ],
          [
            167.78768529691692,
            -129.86035172003108
          ],
          [
            167.6031666296434,
            -129.12216479753008
          ],
          [
            167.7877338266618,
            -128.38399596685923
          ],
          [
            167.78775809153427,
            -127.64581809027332
          ],
          [
            167.7877823564067,
            -126.90764021368742
          ],
          [
            167.78780662127915,
            -126.1694623371015
          ],
          [
            167.41875715429586,
            -125.06217743039245
          ],
          [
            167.23424455324044,
            -124.13944603874499
          ],
          [
            167.04973195218503,
            -123.21671464709752
          ],
          [
            166.8652072186934,
            -122.66307219374299
          ],
          [
            166.1270840198544,
            -121.1866802569108
          ],
          [
            166.12710828472683,
            -120.4485023803249
          ],
          [
            165.94259568367144,
            -119.52577098867742
          ],
          [
            165.94261994854386,
            -118.78759311209151
          ],
          [
            165.94264421341634,
            -118.0494152355056
          ],
          [
            165.94266847828877,
            -117.31123735891968
          ],
          [
            165.38908214537764,
            -116.01939893714908
          ],
          [
            164.65095894653865,
            -114.54300700031689
          ],
          [
            164.65096501275676,
            -114.3584625311704
          ],
          [
            164.46643421304702,
            -113.98936454696238
          ],
          [
            163.5437498834077,
            -113.06659697165455
          ],
          [
            163.1746822177701,
            -112.51294547238496
          ]
        ]
      },
      "properties": {
        "type": "variant",
        "id": 1,
        "color": "#ff4444",
        "vzdal_m": 1088,
        "prevyseni_m": 20,
        "cas_s": 328,
        "tempo_str": "5:01"
      }
    },
    {
      "type": "Feature",
      "geometry": {
        "type": "LineString",
        "coordinates": [
          [
            164.46523310186097,
            -150.52916943796512
          ],
          [
            164.2806962359331,
            -150.34461592290356
          ],
          [
            164.09616543622337,
            -149.9755179386955
          ],
          [
            163.35802403873004,
            -149.05275940930275
          ],
          [
            163.35803617116625,
            -148.6836704710098
          ],
          [
            163.1735053714565,
            -148.31457248680178
          ],
          [
            162.9889927704011,
            -147.3918410951543
          ],
          [
            162.98901703527355,
            -146.65366321856837
          ],
          [
            162.8044862355638,
            -146.28456523436031
          ],
          [
            162.98904130014597,
            -145.91548534198247
          ],
          [
            162.98907769745466,
            -144.80821852710358
          ],
          [
            162.9891019623271,
            -144.07004065051768
          ],
          [
            162.98912622719953,
            -143.33186277393176
          ],
          [
            163.1736994904361,
            -142.40914947411446
          ],
          [
            163.17372375530852,
            -141.67097159752853
          ],
          [
            163.17372982152662,
            -141.48642712838208
          ],
          [
            162.9891990218169,
            -141.11732914417402
          ],
          [
            162.9892232866893,
            -140.3791512675881
          ],
          [
            163.5428884804359,
            -139.2719115904545
          ],
          [
            163.54291274530837,
            -138.53373371386857
          ],
          [
            163.3583819455986,
            -138.16463572966052
          ],
          [
            163.35840621047106,
            -137.42645785307462
          ],
          [
            163.54297947370756,
            -136.50374455325732
          ],
          [
            163.54300373858004,
            -135.7655666766714
          ],
          [
            163.54302800345246,
            -135.02738880008548
          ],
          [
            163.54303406967057,
            -134.842844330939
          ],
          [
            163.72758913425278,
            -134.47376443856115
          ],
          [
            163.7275952004709,
            -134.28921996941466
          ],
          [
            163.17400886755976,
            -132.99738154764407
          ],
          [
            162.6204225346486,
            -131.70554312587345
          ],
          [
            162.4359038673751,
            -130.96735620337245
          ],
          [
            162.25137913388346,
            -130.4137137500179
          ],
          [
            162.0668483341737,
            -130.04461576580988
          ],
          [
            161.51326200126258,
            -128.7527773440393
          ],
          [
            161.513286266135,
            -128.01459946745337
          ],
          [
            161.51331053100748,
            -127.27642159086744
          ],
          [
            161.69788379424398,
            -126.35370829105014
          ],
          [
            161.69790805911643,
            -125.61553041446423
          ],
          [
            161.513395458061,
            -124.69279902281674
          ],
          [
            161.51341972293346,
            -123.95462114623083
          ],
          [
            161.5134439878059,
            -123.21644326964493
          ],
          [
            161.51346825267834,
            -122.478265393059
          ],
          [
            161.88259051427895,
            -121.37101667001032
          ],
          [
            161.6980597145692,
            -121.00191868580227
          ],
          [
            161.69807184700545,
            -120.6328297475093
          ],
          [
            161.8826269115876,
            -120.26374985513145
          ],
          [
            162.25174917318824,
            -119.15650113208272
          ],
          [
            162.43631637020664,
            -118.41833230141191
          ],
          [
            162.4363406350791,
            -117.68015442482599
          ],
          [
            162.25181590158746,
            -117.12651197147147
          ],
          [
            162.43637096616965,
            -116.7574320790936
          ],
          [
            162.4363830986059,
            -116.38834314080064
          ],
          [
            162.4363952310421,
            -116.01925420250768
          ],
          [
            162.62096242806052,
            -115.28108537183687
          ],
          [
            162.8055174926427,
            -114.912005479459
          ],
          [
            162.9900725572249,
            -114.54292558708113
          ],
          [
            163.17463975424332,
            -113.8047567564103
          ],
          [
            163.3591948188255,
            -113.43567686403242
          ],
          [
            163.1746822177701,
            -112.51294547238496
          ]
        ]
      },
      "properties": {
        "type": "variant",
        "id": 2,
        "color": "#4444ff",
        "vzdal_m": 1079,
        "prevyseni_m": 27,
        "cas_s": 342,
        "tempo_str": "5:16"
      }
    },
    {
      "type": "Feature",
      "geometry": {
        "type": "LineString",
        "coordinates": [
          [
            164.46523310186097,
            -150.52916943796512
          ],
          [
            164.46523916807908,
            -150.34462496881864
          ],
          [
            164.83433109858913,
            -150.1600985915023
          ],
          [
            165.57250889339113,
            -149.9755903060162
          ],
          [
            165.75706395797334,
            -149.60651041363832
          ],
          [
            166.1261619547015,
            -149.23743956717553
          ],
          [
            166.3107170192837,
            -148.86835967479766
          ],
          [
            167.0489069465219,
            -148.31476245101857
          ],
          [
            167.7871332710688,
            -146.6538984123606
          ],
          [
            168.34079846481538,
            -145.546658735227
          ],
          [
            168.3408227296878,
            -144.8084808586411
          ],
          [
            168.1563101286324,
            -143.88574946699362
          ],
          [
            168.34088339186894,
            -142.9630361671763
          ],
          [
            168.34090765674136,
            -142.2248582905904
          ],
          [
            168.52548091997792,
            -141.3021449907731
          ],
          [
            168.52550518485035,
            -140.56396711418716
          ],
          [
            168.89462744645095,
            -139.45671839113845
          ],
          [
            169.26374364183346,
            -138.53401413723626
          ],
          [
            169.44829870641564,
            -138.1649342448584
          ],
          [
            169.63284770477972,
            -137.980398821627
          ],
          [
            169.81740276936193,
            -137.61131892924914
          ],
          [
            169.81742703423436,
            -136.87314105266321
          ],
          [
            169.8174512991068,
            -136.1349631760773
          ],
          [
            169.81747556397926,
            -135.3967852994914
          ],
          [
            170.37114682394395,
            -134.10500115321128
          ],
          [
            171.1093670822727,
            -132.6286815836998
          ],
          [
            171.47848934387332,
            -131.5214328606511
          ],
          [
            171.10942774445385,
            -130.78323689223504
          ],
          [
            171.29400100769035,
            -129.86052359241774
          ],
          [
            170.55587780885136,
            -128.38413165558555
          ],
          [
            170.1868162094319,
            -127.64593568716944
          ],
          [
            170.00228540972213,
            -127.2768377029614
          ],
          [
            169.2641379460107,
            -126.53862364271515
          ],
          [
            168.34144755015328,
            -125.80040053655381
          ],
          [
            167.60330008644183,
            -125.06218647630755
          ],
          [
            167.0497137535307,
            -123.77034805453695
          ],
          [
            167.04973801840313,
            -123.03217017795103
          ],
          [
            166.8652072186934,
            -122.66307219374299
          ],
          [
            166.68067641898367,
            -122.29397420953494
          ],
          [
            165.94254715392654,
            -121.00212674184925
          ],
          [
            165.942571418799,
            -120.26394886526334
          ],
          [
            165.94259568367144,
            -119.52577098867742
          ],
          [
            165.94261994854386,
            -118.78759311209151
          ],
          [
            165.94264421341634,
            -118.0494152355056
          ],
          [
            165.94266847828877,
            -117.31123735891968
          ],
          [
            165.38908214537764,
            -116.01939893714908
          ],
          [
            164.65095894653865,
            -114.54300700031689
          ],
          [
            164.65096501275676,
            -114.3584625311704
          ],
          [
            164.46643421304702,
            -113.98936454696238
          ],
          [
            163.5437498834077,
            -113.06659697165455
          ],
          [
            163.1746822177701,
            -112.51294547238496
          ]
        ]
      },
      "properties": {
        "type": "variant",
        "id": 3,
        "color": "#44ff44",
        "vzdal_m": 1168,
        "prevyseni_m": 19,
        "cas_s": 347,
        "tempo_str": "4:57"
      }
    }
  ]
}