{
  "type": "FeatureCollection",
  "features": [
    {
      "type": "Feature",
      "geometry": {
        "type": "Point",
        "coordinates": [
          191.9955277116844,
          -106.71871991093954
        ]
      },
      "properties": {
        "type": "start",
        "isom": "109"
      }
    },
    {
      "type": "Feature",
      "geometry": {
        "type": "Point",
        "coordinates": [
          222.77409112499777,
          -184.89388063181815
        ]
      },
      "properties": {
        "type": "end",
        "isom": "417"
      }
    },
    {
      "type": "Feature",
      "geometry": {
        "type": "LineString",
        "coordinates": [
          [
            191.64730210463512,
            -106.40698774806648
          ],
          [
            192.38519673008386,
            -110.09797633962913
          ],
          [
            193.12324939354465,
            -111.57437242968183
          ],
          [
            193.12314403486997,
            -113.05076743068844
          ],
          [
            193.86119669833076,
            -114.52716352074117
          ],
          [
            193.86098598098135,
            -117.4799535227544
          ],
          [
            196.07514397136373,
            -121.90914179291252
          ],
          [
            196.07482789533967,
            -126.33832679593236
          ],
          [
            199.76524925065567,
            -131.50571474468597
          ],
          [
            202.71745990449887,
            -137.41129910489684
          ],
          [
            204.9315652155439,
            -142.57868487555828
          ],
          [
            206.4075651837908,
            -147.0078720566703
          ],
          [
            208.62167049483585,
            -152.17525782733173
          ],
          [
            209.35972315829665,
            -153.65165391738444
          ],
          [
            209.3595651202846,
            -155.86624641889438
          ],
          [
            210.62967016628258,
            -157.77029231593326
          ],
          [
            209.5534857289961,
            -159.19908406556027
          ],
          [
            210.83551240919414,
            -161.03363110050972
          ],
          [
            212.31151237744103,
            -165.46281828162174
          ],
          [
            214.5256703678234,
            -169.89200655177987
          ],
          [
            215.26372303128423,
            -171.36840264183257
          ],
          [
            215.26367035194687,
            -172.10660014233588
          ],
          [
            215.2636176726095,
            -172.8447976428392
          ],
          [
            218.21593368512742,
            -177.2739870020434
          ],
          [
            220.43003899617247,
            -182.44137277270485
          ],
          [
            222.6443550245669,
            -184.65596854135308
          ]
        ]
      },
      "properties": {
        "type": "variant",
        "id": 1,
        "color": "#ff4444",
        "vzdal_m": 582,
        "prevyseni_m": 5,
        "cas_s": 176,
        "tempo_str": "5:02"
      }
    },
    {
      "type": "Feature",
      "geometry": {
        "type": "LineString",
        "coordinates": [
          [
            191.64730210463512,
            -106.40698774806648
          ],
          [
            192.38519673008386,
            -110.09797633962913
          ],
          [
            193.12324939354465,
            -111.57437242968183
          ],
          [
            193.12314403486997,
            -113.05076743068844
          ],
          [
            193.86119669833076,
            -114.52716352074117
          ],
          [
            193.86098598098135,
            -117.4799535227544
          ],
          [
            197.55172341232148,
            -118.21815646848817
          ],
          [
            200.50435550086348,
            -118.21816082467257
          ],
          [
            204.19509293220364,
            -118.95636377040637
          ],
          [
            204.93314559566443,
            -120.43275986045907
          ],
          [
            207.88551428751967,
            -124.12375171915998
          ],
          [
            211.57609368084775,
            -127.0765471664037
          ],
          [
            213.7904097092422,
            -129.2911429350519
          ],
          [
            214.528462372703,
            -130.76753902510464
          ],
          [
            215.2665150361638,
            -132.24393511515734
          ],
          [
            216.74251500441068,
            -136.67312229626938
          ],
          [
            219.69477833759123,
            -141.8405091559769
          ],
          [
            223.38525237224465,
            -146.26969960422724
          ],
          [
            224.12335771504277,
            -147.00789819377664
          ],
          [
            224.86141037850356,
            -148.48429428382934
          ],
          [
            225.599410362627,
            -150.69888787438535
          ],
          [
            225.5991996452776,
            -153.6516778763986
          ],
          [
            226.33725230873839,
            -155.1280739664513
          ],
          [
            226.33714695006373,
            -156.6044689674579
          ],
          [
            227.0751996135245,
            -158.08086505751064
          ],
          [
            227.07504157551247,
            -160.29545755902055
          ],
          [
            227.81309423897326,
            -161.77185364907325
          ],
          [
            227.81298888029855,
            -163.24824865007986
          ],
          [
            228.5510415437593,
            -164.72464474013256
          ],
          [
            228.5508835057473,
            -166.93923724164247
          ],
          [
            229.28893616920809,
            -168.4156333316952
          ],
          [
            227.0740933474401,
            -173.58301256808008
          ],
          [
            227.07382995075338,
            -177.2740000705966
          ],
          [
            227.07367191274133,
            -179.4885925721065
          ],
          [
            224.1207764275126,
            -183.17957571843866
          ],
          [
            222.6443550245669,
            -184.65596854135308
          ]
        ]
      },
      "properties": {
        "type": "variant",
        "id": 2,
        "color": "#4444ff",
        "vzdal_m": 663,
        "prevyseni_m": 4,
        "cas_s": 179,
        "tempo_str": "4:30"
      }
    },
    {
      "type": "Feature",
      "geometry": {
        "type": "LineString",
        "coordinates": [
          [
            191.64730210463512,
            -106.40698774806648
          ],
          [
            188.6944592987437,
            -109.35977339389532
          ],
          [
            187.9561959179335,
            -110.83616730585585
          ],
          [
            186.4797745149878,
            -112.31256012877027
          ],
          [
            185.00340579137946,
            -113.05075545118137
          ],
          [
            182.05045762681337,
            -117.47993609801684
          ],
          [
            182.05024690946397,
            -120.43272610003005
          ],
          [
            182.7881415349127,
            -124.12371469159268
          ],
          [
            184.26414150315964,
            -128.55290187270472
          ],
          [
            184.2639307858102,
            -131.50569187471794
          ],
          [
            184.2637200684608,
            -134.45848187673118
          ],
          [
            184.26366738912344,
            -135.1966793772345
          ],
          [
            185.00172005258426,
            -136.6730754672872
          ],
          [
            185.7397200367077,
            -138.88766905784323
          ],
          [
            186.47761466215644,
            -142.57865764940584
          ],
          [
            187.95361463040334,
            -147.00784483051788
          ],
          [
            187.95340391305393,
            -149.9606348325311
          ],
          [
            189.42940388130083,
            -154.3898220136431
          ],
          [
            189.42919316395142,
            -157.34261201565636
          ],
          [
            190.90529849087304,
            -160.29540419576176
          ],
          [
            191.64319311632178,
            -163.9863927873244
          ],
          [
            194.59556180817702,
            -167.67738464602533
          ],
          [
            196.07182517311068,
            -168.41558432462082
          ],
          [
            196.80987783657145,
            -169.89198041467355
          ],
          [
            202.13161370368869,
            -172.9675333398857
          ],
          [
            205.66740534683598,
            -175.05937598674984
          ],
          [
            208.62003743537795,
            -175.05938034293425
          ],
          [
            213.04888020951628,
            -176.53578187821745
          ],
          [
            216.739406923507,
            -180.22677482596447
          ],
          [
            221.16819701830792,
            -182.44137386175098
          ],
          [
            222.6443550245669,
            -184.65596854135308
          ]
        ]
      },
      "properties": {
        "type": "variant",
        "id": 3,
        "color": "#44ff44",
        "vzdal_m": 689,
        "prevyseni_m": 7,
        "cas_s": 183,
        "tempo_str": "4:25"
      }
    }
  ]
}