{
  "type": "FeatureCollection",
  "features": [
    {
      "type": "Feature",
      "geometry": {
        "type": "Point",
        "coordinates": [
          203.3567976081194,
          -83.58547570011808
        ]
      },
      "properties": {
        "type": "start",
        "isom": "109"
      }
    },
    {
      "type": "Feature",
      "geometry": {
        "type": "Point",
        "coordinates": [
          158.88138994286845,
          -123.10681553892893
        ]
      },
      "properties": {
        "type": "end",
        "isom": "111"
      }
    },
    {
      "type": "Feature",
      "geometry": {
        "type": "LineString",
        "coordinates": [
          [
            203.4059938218353,
            -83.54143582587663
          ],
          [
            202.48323063136056,
            -85.01774634947304
          ],
          [
            201.92956543761397,
            -86.12498602660665
          ],
          [
            201.56045530844958,
            -86.86314581136239
          ],
          [
            200.82226538121137,
            -87.41674303514148
          ],
          [
            200.08406332153695,
            -88.33942919721352
          ],
          [
            199.89951432317284,
            -88.52396462044493
          ],
          [
            199.71495925859065,
            -88.8930445128228
          ],
          [
            198.79223246542455,
            -89.26208822154031
          ],
          [
            198.23860366898666,
            -89.26206108379506
          ],
          [
            197.3158829420387,
            -89.4465603233661
          ],
          [
            196.76225414560076,
            -89.44653318562084
          ],
          [
            196.0240824170169,
            -89.4464970019605
          ],
          [
            194.73226369334077,
            -90.00006708799432
          ],
          [
            193.80954296639277,
            -90.18456632756538
          ],
          [
            192.70226110864454,
            -90.92268992866077
          ],
          [
            191.41044238496838,
            -91.4762600146946
          ],
          [
            189.9340685967101,
            -92.3989099931063
          ],
          [
            189.56498273241814,
            -92.39889190127613
          ],
          [
            189.1958908019081,
            -92.58341827859243
          ],
          [
            187.9040660120138,
            -93.32153283377275
          ],
          [
            186.79679022048364,
            -93.87511196572167
          ],
          [
            186.4276982899736,
            -94.05963834303797
          ],
          [
            186.05860635946354,
            -94.24416472035428
          ],
          [
            185.68949623029914,
            -94.98232450511003
          ],
          [
            185.50494116571696,
            -95.3514043974879
          ],
          [
            185.32038610113477,
            -95.72048428986575
          ],
          [
            185.13583103655256,
            -96.08956418224362
          ],
          [
            184.39762897687814,
            -97.01225034431569
          ],
          [
            183.6594329834218,
            -97.75039203724124
          ],
          [
            182.92123698996548,
            -98.48853373016682
          ],
          [
            182.18304099650913,
            -99.22667542309237
          ],
          [
            181.44484500305282,
            -99.96481711601795
          ],
          [
            180.89119800796058,
            -100.51842338571213
          ],
          [
            180.5221060774505,
            -100.70294976302844
          ],
          [
            179.7839100839942,
            -101.441091455954
          ],
          [
            179.04571409053784,
            -102.17923314887958
          ],
          [
            178.3075180970815,
            -102.91737484180513
          ],
          [
            177.56931603740708,
            -103.8400610038772
          ],
          [
            177.2002059082427,
            -104.57822078863293
          ],
          [
            176.2774730488585,
            -105.13180896649693
          ],
          [
            175.53927705540218,
            -105.8699506594225
          ],
          [
            174.24745226550792,
            -106.6080652146028
          ],
          [
            174.06290933336194,
            -106.60805616868771
          ],
          [
            173.6938174028519,
            -106.79258254600404
          ],
          [
            172.95562140939558,
            -107.5307242389296
          ],
          [
            172.21741934972115,
            -108.45341040100165
          ],
          [
            170.9255945598269,
            -109.19152495618196
          ],
          [
            169.63376370371455,
            -110.11418398050876
          ],
          [
            168.1573959816743,
            -110.85228948977397
          ],
          [
            166.86557725799818,
            -111.4058595758078
          ],
          [
            165.75830753268613,
            -111.77489423861024
          ],
          [
            164.4664827427919,
            -112.51300879379056
          ],
          [
            163.72827461689934,
            -113.62023942500907
          ],
          [
            162.99007862344303,
            -114.35838111793464
          ],
          [
            162.25188262998668,
            -115.09652281086021
          ],
          [
            161.88279069947663,
            -115.28104918817652
          ],
          [
            161.51369876896658,
            -115.46557556549283
          ],
          [
            160.77549064307402,
            -116.57280619671134
          ],
          [
            160.4063683814734,
            -117.68005491976005
          ],
          [
            160.59089918118318,
            -118.04915290396808
          ],
          [
            160.40632591794662,
            -118.9718662037854
          ],
          [
            160.22177085336446,
            -119.34094609616326
          ],
          [
            160.03721578878225,
            -119.71002598854113
          ],
          [
            159.66809352718164,
            -120.81727471158983
          ],
          [
            159.11442226721695,
            -122.10905885786994
          ],
          [
            158.92984900398042,
            -123.03177215768723
          ]
        ]
      },
      "properties": {
        "type": "variant",
        "id": 1,
        "color": "#ff4444",
        "vzdal_m": 1705,
        "prevyseni_m": 22,
        "cas_s": 507,
        "tempo_str": "4:57"
      }
    },
    {
      "type": "Feature",
      "geometry": {
        "type": "LineString",
        "coordinates": [
          [
            203.4059938218353,
            -83.54143582587663
          ],
          [
            202.48323063136056,
            -85.01774634947304
          ],
          [
            201.92956543761397,
            -86.12498602660665
          ],
          [
            201.56045530844958,
            -86.86314581136239
          ],
          [
            200.82226538121137,
            -87.41674303514148
          ],
          [
            200.08406332153695,
            -88.33942919721352
          ],
          [
            199.89951432317284,
            -88.52396462044493
          ],
          [
            199.71495925859065,
            -88.8930445128228
          ],
          [
            198.79223246542455,
            -89.26208822154031
          ],
          [
            198.23860366898666,
            -89.26206108379506
          ],
          [
            197.31586474338437,
            -90.00019373080553
          ],
          [
            196.57766874992802,
            -90.7383354237311
          ],
          [
            195.83948488890792,
            -91.10738817836372
          ],
          [
            195.65493589054384,
            -91.29192360159512
          ],
          [
            195.2858439600338,
            -91.47644997891142
          ],
          [
            195.10129496166968,
            -91.66098540214281
          ],
          [
            194.73220303115963,
            -91.84551177945912
          ],
          [
            194.36309290199526,
            -92.58367156421485
          ],
          [
            194.17853783741305,
            -92.95275145659272
          ],
          [
            192.8867130475188,
            -93.69086601177304
          ],
          [
            192.33305998620847,
            -94.4290167506137
          ],
          [
            191.96396805569842,
            -94.61354312792999
          ],
          [
            191.22577206224207,
            -95.35168482085557
          ],
          [
            190.48757606878578,
            -96.08982651378113
          ],
          [
            190.1184720058395,
            -96.64344182939041
          ],
          [
            189.74938007532944,
            -96.8279682067067
          ],
          [
            189.38028814481936,
            -97.012494584023
          ],
          [
            188.64209215136302,
            -97.75063627694858
          ],
          [
            187.71935322576073,
            -98.48876892395906
          ],
          [
            186.7966143001584,
            -99.22690157096955
          ],
          [
            186.42752236964836,
            -99.41142794828585
          ],
          [
            186.0584304391383,
            -99.59595432560216
          ],
          [
            185.32021018080954,
            -101.07227389511364
          ],
          [
            184.58199598869888,
            -102.36404899547864
          ],
          [
            184.3974469903348,
            -102.54858441871004
          ],
          [
            184.2128919257526,
            -102.9176643110879
          ],
          [
            183.47469593229627,
            -103.65580600401346
          ],
          [
            182.73649993883993,
            -104.39394769693904
          ],
          [
            181.9982978791655,
            -105.31663385901109
          ],
          [
            181.26009581949106,
            -106.23932002108313
          ],
          [
            181.07554682112698,
            -106.42385544431453
          ],
          [
            180.33733262901632,
            -107.71563054467953
          ],
          [
            179.59913663555997,
            -108.4537722376051
          ],
          [
            178.86093457588552,
            -109.37645839967715
          ],
          [
            178.1227325162111,
            -110.29914456174919
          ],
          [
            177.56907338868263,
            -111.22183976973633
          ],
          [
            177.38451832410044,
            -111.5909196621142
          ],
          [
            177.19996932573636,
            -111.77545508534558
          ],
          [
            177.01541426115415,
            -112.14453497772345
          ],
          [
            176.27723040013404,
            -112.51358773235607
          ],
          [
            175.908138469624,
            -112.69811410967237
          ],
          [
            174.98541774267605,
            -112.88261334924343
          ],
          [
            174.80087481053008,
            -112.88260430332834
          ],
          [
            174.43178288002,
            -113.06713068064464
          ],
          [
            173.5090378881996,
            -113.9898077968016
          ],
          [
            172.77084796096136,
            -114.54340502058068
          ],
          [
            172.4017560304513,
            -114.72793139789701
          ],
          [
            171.84809690292286,
            -115.65062660588413
          ],
          [
            171.66354183834065,
            -116.019706498262
          ],
          [
            170.3717170484464,
            -116.75782105344231
          ],
          [
            169.63352105499007,
            -117.49596274636788
          ],
          [
            169.07988012611594,
            -117.86502454691558
          ],
          [
            168.71078819560591,
            -118.04955092423188
          ],
          [
            167.60350633785762,
            -118.78767452532728
          ],
          [
            166.86532247683752,
            -119.1567272799599
          ],
          [
            166.68077347847344,
            -119.34126270319129
          ],
          [
            166.3116815479634,
            -119.5257890805076
          ],
          [
            165.94258961745334,
            -119.71031545782391
          ],
          [
            165.01985069185102,
            -120.44844810483437
          ],
          [
            164.46620369675878,
            -121.00205437452857
          ],
          [
            164.09711176624873,
            -121.18658075184486
          ],
          [
            163.91256276788465,
            -121.37111617507625
          ],
          [
            163.54347083737457,
            -121.55564255239256
          ],
          [
            162.8052991087907,
            -121.55560636873221
          ],
          [
            162.0671273802068,
            -121.55557018507186
          ],
          [
            161.5134925175508,
            -121.7400875164731
          ],
          [
            161.14440058704076,
            -121.9246138937894
          ],
          [
            159.66803286500053,
            -122.66271940305461
          ],
          [
            158.92984900398042,
            -123.03177215768723
          ]
        ]
      },
      "properties": {
        "type": "variant",
        "id": 2,
        "color": "#4444ff",
        "vzdal_m": 1673,
        "prevyseni_m": 22,
        "cas_s": 517,
        "tempo_str": "5:08"
      }
    },
    {
      "type": "Feature",
      "geometry": {
        "type": "LineString",
        "coordinates": [
          [
            203.4059938218353,
            -83.54143582587663
          ],
          [
            202.48323063136056,
            -85.01774634947304
          ],
          [
            201.92956543761397,
            -86.12498602660665
          ],
          [
            201.74499217437747,
            -87.04769932642395
          ],
          [
            201.74498004194123,
            -87.41678826471691
          ],
          [
            201.92951084165097,
            -87.78588624892495
          ],
          [
            201.56038858005036,
            -88.89313497197365
          ],
          [
            200.82216832172156,
            -90.36945454148513
          ],
          [
            200.26850312797498,
            -91.47669421861875
          ],
          [
            200.45302179524853,
            -92.21488114111975
          ],
          [
            200.26845459823014,
            -92.95304997179058
          ],
          [
            200.2684424657939,
            -93.32213891008354
          ],
          [
            199.89934446906574,
            -93.69120975654631
          ],
          [
            200.08386313633926,
            -94.42939667904731
          ],
          [
            199.71474087473862,
            -95.536645402096
          ],
          [
            199.7147105436481,
            -96.4593677478284
          ],
          [
            199.53014334662964,
            -97.19753657849924
          ],
          [
            199.53011908175725,
            -97.93571445508516
          ],
          [
            199.530106949321,
            -98.30480339337811
          ],
          [
            199.1609907539385,
            -99.22750764728033
          ],
          [
            198.42278262804598,
            -100.33473827849885
          ],
          [
            198.05366036644534,
            -101.44198700154756
          ],
          [
            197.31544010811655,
            -102.91830657105902
          ],
          [
            196.76177491436997,
            -104.02554624819265
          ],
          [
            196.02357892091368,
            -104.7636879411182
          ],
          [
            195.28538292745733,
            -105.50182963404379
          ],
          [
            194.73171773371075,
            -106.6090693111774
          ],
          [
            194.54716266912857,
            -106.97814920355526
          ],
          [
            194.54715053669236,
            -107.34723814184821
          ],
          [
            194.17805860618228,
            -107.53176451916454
          ],
          [
            193.80896667567222,
            -107.71629089648083
          ],
          [
            193.43987474516217,
            -107.90081727379713
          ],
          [
            193.07078281465212,
            -108.08534365111343
          ],
          [
            192.33258682119578,
            -108.82348534403901
          ],
          [
            191.22530496344748,
            -109.56160894513441
          ],
          [
            190.8562130329375,
            -109.74613532245071
          ],
          [
            190.48712110242744,
            -109.93066169976701
          ],
          [
            190.30257817028144,
            -109.93065265385192
          ],
          [
            189.93348623977138,
            -110.11517903116824
          ],
          [
            189.0107473141691,
            -110.85331167817871
          ],
          [
            187.71892252427483,
            -111.59142623335902
          ],
          [
            186.2425548022346,
            -112.32953174262424
          ],
          [
            185.68890780714236,
            -112.88313801231843
          ],
          [
            185.50435274256017,
            -113.2522179046963
          ],
          [
            185.31979767797796,
            -113.62129779707416
          ],
          [
            184.58160168452164,
            -114.35943948999974
          ],
          [
            183.28977689462738,
            -115.09755404518006
          ],
          [
            182.3670379690251,
            -115.83568669219052
          ],
          [
            181.25975611127683,
            -116.57381029328592
          ],
          [
            180.33703538432886,
            -116.75830953285698
          ],
          [
            178.86067979472486,
            -117.12732610382925
          ],
          [
            178.30705099828697,
            -117.12729896608397
          ],
          [
            177.9379590677769,
            -117.3118253434003
          ],
          [
            177.38432420512086,
            -117.49634267480151
          ],
          [
            177.01523834082894,
            -117.49632458297133
          ],
          [
            176.64614641031886,
            -117.68085096028764
          ],
          [
            176.46159741195478,
            -117.86538638351904
          ],
          [
            175.90796254929876,
            -118.04990371492025
          ],
          [
            175.35431555420652,
            -118.60350998461443
          ],
          [
            174.43158876104044,
            -118.97255369333195
          ],
          [
            174.06249076431226,
            -119.34162453979472
          ],
          [
            172.95522710521834,
            -119.5261147334507
          ],
          [
            172.5861351747083,
            -119.71064111076701
          ],
          [
            172.21704324419824,
            -119.89516748808332
          ],
          [
            171.6634083815422,
            -120.07968481948453
          ],
          [
            171.29431645103216,
            -120.26421119680084
          ],
          [
            170.3715957240842,
            -120.44871043637188
          ],
          [
            169.6334239955003,
            -120.44867425271154
          ],
          [
            168.8952522669164,
            -120.44863806905119
          ],
          [
            167.6034335432403,
            -121.00220815508501
          ],
          [
            166.68071281629233,
            -121.18670739465607
          ],
          [
            166.31162088578228,
            -121.37123377197237
          ],
          [
            165.3888880263981,
            -121.92482194983639
          ],
          [
            164.28161830108604,
            -122.29385661263882
          ],
          [
            163.54344657250215,
            -122.29382042897846
          ],
          [
            162.80527484391826,
            -122.29378424531814
          ],
          [
            162.0671031153344,
            -122.29374806165778
          ],
          [
            161.69802331726055,
            -122.10918550068114
          ],
          [
            160.77530259031258,
            -122.29368474025217
          ],
          [
            159.48348386663645,
            -122.847254826286
          ],
          [
            158.92984900398042,
            -123.03177215768723
          ]
        ]
      },
      "properties": {
        "type": "variant",
        "id": 3,
        "color": "#44ff44",
        "vzdal_m": 1806,
        "prevyseni_m": 17,
        "cas_s": 515,
        "tempo_str": "4:45"
      }
    }
  ]
}