{
  "type": "FeatureCollection",
  "features": [
    {
      "type": "Feature",
      "geometry": {
        "type": "Point",
        "coordinates": [
          91.44895010063088,
          -260.3776519130511
        ]
      },
      "properties": {
        "type": "start",
        "isom": "417"
      }
    },
    {
      "type": "Feature",
      "geometry": {
        "type": "Point",
        "coordinates": [
          71.16145490578248,
          -225.24677225842288
        ]
      },
      "properties": {
        "type": "end",
        "isom": "111"
      }
    },
    {
      "type": "Feature",
      "geometry": {
        "type": "LineString",
        "coordinates": [
          [
            91.3826225722802,
            -260.3295463977456
          ],
          [
            91.38264683715263,
            -259.59136852115967
          ],
          [
            91.01359737016936,
            -258.4840836144507
          ],
          [
            90.27546203889415,
            -257.37678061591146
          ],
          [
            89.53731457518272,
            -256.6385665556652
          ],
          [
            88.79918531012561,
            -255.3467190879795
          ],
          [
            87.87650098048631,
            -254.42395151267166
          ],
          [
            87.50742118241247,
            -254.23938895169502
          ],
          [
            86.58472472033695,
            -253.68571031468014
          ],
          [
            85.84658938906173,
            -252.57840731614095
          ],
          [
            85.66205858935199,
            -252.2093093319329
          ],
          [
            85.47752172342412,
            -252.02475581687133
          ],
          [
            85.29299092371438,
            -251.65565783266328
          ],
          [
            84.55484952622105,
            -250.73289930327059
          ],
          [
            84.3703187265113,
            -250.3638013190625
          ],
          [
            83.63218339523608,
            -249.2564983205233
          ],
          [
            82.89404199774276,
            -248.33373979113057
          ],
          [
            82.15589453403132,
            -247.5955257308843
          ],
          [
            81.97136373432157,
            -247.22642774667622
          ],
          [
            81.7868268683937,
            -247.04187423161468
          ],
          [
            81.60229606868396,
            -246.67277624740666
          ],
          [
            81.4177592027561,
            -246.48822273234506
          ],
          [
            81.23322840304635,
            -246.11912474813704
          ],
          [
            80.49509913798924,
            -244.82727728045134
          ],
          [
            79.75696987293215,
            -243.53542981276564
          ],
          [
            79.38790827351265,
            -242.79723384434953
          ],
          [
            79.20337747380289,
            -242.4281358601415
          ],
          [
            78.46523607630957,
            -241.5053773307488
          ],
          [
            78.28070527659982,
            -241.13627934654076
          ],
          [
            77.9116315447441,
            -240.7671723164176
          ],
          [
            77.72710074503435,
            -240.39807433220957
          ],
          [
            77.5425699453246,
            -240.02897634800152
          ],
          [
            76.80442854783126,
            -239.10621781860877
          ],
          [
            76.06628108411982,
            -238.36800375836253
          ],
          [
            75.32815788528083,
            -236.89161182153035
          ],
          [
            75.14364528422543,
            -235.9688804298829
          ],
          [
            75.14366954909787,
            -235.230702553297
          ],
          [
            75.14369381397032,
            -234.49252467671107
          ],
          [
            74.77463221455082,
            -233.754328708295
          ],
          [
            74.40559488000376,
            -232.27795486329296
          ],
          [
            74.40563127731244,
            -231.1706880484141
          ],
          [
            73.85202674574697,
            -230.43248303408294
          ],
          [
            73.6674959460372,
            -230.06338504987488
          ],
          [
            72.74482374883414,
            -228.7715285362741
          ],
          [
            72.00670054999514,
            -227.29513659944192
          ],
          [
            71.63764501679375,
            -226.37239616187935
          ],
          [
            71.63765108301187,
            -226.18785169273286
          ],
          [
            71.45312028330211,
            -225.81875370852484
          ],
          [
            71.08405261766451,
            -225.26510220925522
          ]
        ]
      },
      "properties": {
        "type": "variant",
        "id": 1,
        "color": "#ff4444",
        "vzdal_m": 1128,
        "prevyseni_m": 6,
        "cas_s": 330,
        "tempo_str": "4:52"
      }
    },
    {
      "type": "Feature",
      "geometry": {
        "type": "LineString",
        "coordinates": [
          [
            91.3826225722802,
            -260.3295463977456
          ],
          [
            91.56719583551673,
            -259.4068330979283
          ],
          [
            91.56722010038918,
            -258.6686552213424
          ],
          [
            91.56724436526162,
            -257.93047734475647
          ],
          [
            91.56726863013405,
            -257.1922994681706
          ],
          [
            91.0136701647867,
            -256.26954998469296
          ],
          [
            90.27554089972959,
            -254.97770251700723
          ],
          [
            90.09101010001984,
            -254.60860453279918
          ],
          [
            90.27556516460204,
            -254.23952464042134
          ],
          [
            90.27558942947448,
            -253.50134676383541
          ],
          [
            90.27561369434693,
            -252.7631688872495
          ],
          [
            90.09110109329151,
            -251.840437495602
          ],
          [
            90.09111929194586,
            -251.28680408816257
          ],
          [
            89.90660669089044,
            -250.3640726965151
          ],
          [
            89.72209408983502,
            -249.44134130486765
          ],
          [
            89.53758148877961,
            -248.51860991322013
          ],
          [
            89.53760575365206,
            -247.7804320366342
          ],
          [
            89.5376300185245,
            -247.04225416004832
          ],
          [
            89.53764821717883,
            -246.48862075260888
          ],
          [
            89.35311741746908,
            -246.11952276840086
          ],
          [
            88.61496995375764,
            -245.38130870815456
          ],
          [
            87.8768224900462,
            -244.6430946479083
          ],
          [
            87.1386992912072,
            -243.16670271107617
          ],
          [
            86.71979876533828,
            -242.07434399752034
          ],
          [
            86.43923493029013,
            -241.18702567506367
          ],
          [
            86.00068984804857,
            -239.85189596064237
          ],
          [
            85.91142303608298,
            -239.46104181881825
          ],
          [
            85.6015990072593,
            -239.03032943570255
          ],
          [
            84.92434182712644,
            -238.36843796228666
          ],
          [
            84.18619436341501,
            -237.63022390204043
          ],
          [
            83.44804689970357,
            -236.89200984179416
          ],
          [
            82.70989943599213,
            -236.1537957815479
          ],
          [
            81.97175197228069,
            -235.4155817213016
          ],
          [
            81.23360450856926,
            -234.6773676610554
          ],
          [
            80.31090804649372,
            -234.12368902404052
          ],
          [
            79.5727666490004,
            -233.20093049464776
          ],
          [
            78.83461918528896,
            -232.4627164344015
          ],
          [
            78.09647172157753,
            -231.72450237415524
          ],
          [
            76.98923232735604,
            -231.1708146912253
          ],
          [
            76.43563386200866,
            -230.24806520774766
          ],
          [
            75.69748639829723,
            -229.5098511475014
          ],
          [
            74.95933893458579,
            -228.77163708725513
          ],
          [
            73.8520995403643,
            -228.2179494043252
          ],
          [
            73.48305007338102,
            -227.11066449761614
          ],
          [
            73.29851927367127,
            -226.7415665134081
          ],
          [
            72.92943947559743,
            -226.55700395243142
          ],
          [
            72.74489654345147,
            -226.55699490651637
          ],
          [
            72.37581674537765,
            -226.3724323455397
          ],
          [
            72.0067369473038,
            -226.18786978456305
          ],
          [
            71.26858948359238,
            -225.44965572431678
          ],
          [
            71.08405261766451,
            -225.26510220925522
          ]
        ]
      },
      "properties": {
        "type": "variant",
        "id": 2,
        "color": "#4444ff",
        "vzdal_m": 1176,
        "prevyseni_m": 6,
        "cas_s": 330,
        "tempo_str": "4:40"
      }
    },
    {
      "type": "Feature",
      "geometry": {
        "type": "LineString",
        "coordinates": [
          [
            91.3826225722802,
            -260.3295463977456
          ],
          [
            90.2753771118406,
            -259.96040318396217
          ],
          [
            89.53723571434726,
            -259.0376446545694
          ],
          [
            89.35270491463751,
            -258.66854667036137
          ],
          [
            88.98362511656367,
            -258.4839841093847
          ],
          [
            88.61454531848985,
            -258.2994215484081
          ],
          [
            88.06092865448817,
            -257.93030547236987
          ],
          [
            87.87639785477842,
            -257.5612074881618
          ],
          [
            87.69187312128678,
            -257.00756503480727
          ],
          [
            87.50734232157703,
            -256.6384670505992
          ],
          [
            87.1382625235032,
            -256.45390448962263
          ],
          [
            85.84648626335385,
            -255.7156632916311
          ],
          [
            84.73925293535045,
            -254.97743113955465
          ],
          [
            83.4474766752011,
            -254.23918994156313
          ],
          [
            82.5247802131256,
            -253.68551130454827
          ],
          [
            81.60209588348629,
            -252.76274372924044
          ],
          [
            80.6794176200651,
            -251.65543168478612
          ],
          [
            79.941288355008,
            -250.36358421710045
          ],
          [
            79.203165156169,
            -248.88719228026827
          ],
          [
            78.83410355674951,
            -248.1489963118522
          ],
          [
            78.64957275703975,
            -247.77989832764416
          ],
          [
            77.91144955820076,
            -246.30350639081198
          ],
          [
            77.17330816070744,
            -245.38074786141922
          ],
          [
            76.435160696996,
            -244.642533801173
          ],
          [
            75.69702536572078,
            -243.53523080263375
          ],
          [
            74.95887790200933,
            -242.79701674238748
          ],
          [
            74.03618750615192,
            -242.05879363622614
          ],
          [
            73.66715017160487,
            -240.58241979122414
          ],
          [
            72.92902697276588,
            -239.10602785439195
          ],
          [
            72.5599775057826,
            -237.9987429476829
          ],
          [
            72.3754649047272,
            -237.07601155603544
          ],
          [
            72.37548916959963,
            -236.33783367944955
          ],
          [
            72.37551343447207,
            -235.59965580286362
          ],
          [
            72.37553769934452,
            -234.8614779262777
          ],
          [
            71.8219513664334,
            -233.5696395045071
          ],
          [
            71.26835896730414,
            -232.46234555188295
          ],
          [
            71.45291403188634,
            -232.0932656595051
          ],
          [
            71.63748729512287,
            -231.17055235968778
          ],
          [
            70.89935196384764,
            -230.0632493611486
          ],
          [
            70.89938836115631,
            -228.95598254626972
          ],
          [
            71.08396162439284,
            -228.0332692464524
          ],
          [
            71.4530535549029,
            -227.84874286913612
          ],
          [
            71.6376146857032,
            -227.29511850761173
          ],
          [
            71.63763895057565,
            -226.55694063102584
          ],
          [
            71.63765108301187,
            -226.18785169273286
          ],
          [
            71.45312028330211,
            -225.81875370852484
          ],
          [
            71.08405261766451,
            -225.26510220925522
          ]
        ]
      },
      "properties": {
        "type": "variant",
        "id": 3,
        "color": "#44ff44",
        "vzdal_m": 1194,
        "prevyseni_m": 9,
        "cas_s": 349,
        "tempo_str": "4:52"
      }
    }
  ]
}