{
  "type": "FeatureCollection",
  "features": [
    {
      "type": "Feature",
      "geometry": {
        "type": "Point",
        "coordinates": [
          88.0111020527714,
          -78.63212533606158
        ]
      },
      "properties": {
        "type": "start",
        "isom": "111"
      }
    },
    {
      "type": "Feature",
      "geometry": {
        "type": "Point",
        "coordinates": [
          103.10057851673382,
          -74.40199851693514
        ]
      },
      "properties": {
        "type": "end",
        "isom": "109"
      }
    },
    {
      "type": "Feature",
      "geometry": {
        "type": "LineString",
        "coordinates": [
          [
            88.02997865538262,
            -78.6305895546363
          ],
          [
            88.12225315456465,
            -78.53832184316059
          ],
          [
            88.21452462063763,
            -78.53832636633749
          ],
          [
            88.39906451967454,
            -78.63060764734394
          ],
          [
            88.9526993823305,
            -78.44609031710011
          ],
          [
            89.32178524662241,
            -78.44610840980774
          ],
          [
            89.69087111091432,
            -78.44612650251536
          ],
          [
            90.15838934564285,
            -78.54309186785902
          ],
          [
            90.52131127246204,
            -78.53843944576013
          ],
          [
            90.89039713675396,
            -78.53845753846775
          ],
          [
            91.3517575002279,
            -78.44620791969966
          ],
          [
            91.90539236288387,
            -78.26169058945584
          ],
          [
            92.3667527263578,
            -78.16944097068775
          ],
          [
            93.0185284046957,
            -77.88101147785959
          ],
          [
            93.4317179915461,
            -77.96195275033386
          ],
          [
            94.02765731432572,
            -77.6158889799563
          ],
          [
            94.67356667616373,
            -77.33910393823676
          ],
          [
            95.2272015388197,
            -77.15458660799294
          ],
          [
            95.68856796851175,
            -76.87779251991958
          ],
          [
            96.24220889738581,
            -76.50873072037052
          ],
          [
            96.91747355863313,
            -76.14703697395966
          ],
          [
            97.00940665237482,
            -75.96833160953638
          ],
          [
            97.34950288757018,
            -75.40151818266189
          ],
          [
            97.99541224940819,
            -75.12473314094234
          ],
          [
            98.08768978169925,
            -74.940193194814
          ],
          [
            98.45677867910022,
            -74.847939052869
          ],
          [
            98.54905317828226,
            -74.75567134139328
          ],
          [
            98.64132767746429,
            -74.66340362991757
          ],
          [
            99.19496254012024,
            -74.47888629967375
          ],
          [
            99.74859740277623,
            -74.29436896942993
          ],
          [
            100.11360704202049,
            -74.29607553966869
          ],
          [
            100.48676913136003,
            -74.29440515484518
          ],
          [
            101.04039186157979,
            -74.47897676321186
          ],
          [
            101.50175222505374,
            -74.38672714444375
          ],
          [
            101.87083808934565,
            -74.38674523715139
          ],
          [
            102.23992395363754,
            -74.38676332985901
          ],
          [
            102.60900981792946,
            -74.38678142256663
          ],
          [
            102.97809568222138,
            -74.38679951527425
          ],
          [
            103.07036714829435,
            -74.38680403845116
          ]
        ]
      },
      "properties": {
        "type": "variant",
        "id": 1,
        "color": "#ff4444",
        "vzdal_m": 891,
        "prevyseni_m": 5,
        "cas_s": 241,
        "tempo_str": "4:30"
      }
    },
    {
      "type": "Feature",
      "geometry": {
        "type": "LineString",
        "coordinates": [
          [
            88.02997865538262,
            -78.6305895546363
          ],
          [
            88.12225315456465,
            -78.53832184316059
          ],
          [
            88.21453068685574,
            -78.35378189703225
          ],
          [
            88.58362261736575,
            -78.16925552043462
          ],
          [
            89.0449890470578,
            -77.89246143236126
          ],
          [
            89.41408704378591,
            -77.52339058645838
          ],
          [
            90.15227090480595,
            -77.15433783326313
          ],
          [
            90.87932266697608,
            -76.85754528178123
          ],
          [
            91.29731045550149,
            -76.43314450790884
          ],
          [
            91.76075821511901,
            -75.68539962862583
          ],
          [
            91.76615573874572,
            -75.58830111074633
          ],
          [
            91.7965628997155,
            -75.30745649294735
          ],
          [
            91.9977639215556,
            -75.21671136909612
          ],
          [
            92.64367328339361,
            -74.93992632737657
          ],
          [
            93.01275914768553,
            -74.93994442008419
          ],
          [
            93.59768958134968,
            -74.70733006506575
          ],
          [
            93.93979334162063,
            -74.78548898030732
          ],
          [
            94.29081402464783,
            -74.7051764331973
          ],
          [
            94.76799858705087,
            -74.66693847431381
          ],
          [
            95.50410996341928,
            -74.29416090329227
          ],
          [
            95.96548245932944,
            -73.83282234591367
          ],
          [
            96.61139485427648,
            -73.46376506954151
          ],
          [
            97.16501758449624,
            -73.64833667790819
          ],
          [
            97.53410344878816,
            -73.64835477061581
          ],
          [
            97.90318931308006,
            -73.64837286332343
          ],
          [
            98.3645436103359,
            -73.74066771386059
          ],
          [
            98.5490895755909,
            -73.64840452556177
          ],
          [
            98.91816330744659,
            -74.0175115568799
          ],
          [
            99.37950850537527,
            -74.38662311137493
          ],
          [
            99.8408688688492,
            -74.29437349260684
          ],
          [
            100.19710588951763,
            -74.31953305155548
          ],
          [
            100.579040597433,
            -74.29440967802208
          ],
          [
            101.22493782683482,
            -74.38671357491305
          ],
          [
            101.59402369112671,
            -74.38673166762067
          ],
          [
            101.96310955541863,
            -74.38674976032829
          ],
          [
            102.33219541971052,
            -74.38676785303592
          ],
          [
            102.70128128400243,
            -74.38678594574354
          ],
          [
            103.07036714829435,
            -74.38680403845116
          ]
        ]
      },
      "properties": {
        "type": "variant",
        "id": 2,
        "color": "#4444ff",
        "vzdal_m": 940,
        "prevyseni_m": 9,
        "cas_s": 246,
        "tempo_str": "4:22"
      }
    },
    {
      "type": "Feature",
      "geometry": {
        "type": "LineString",
        "coordinates": [
          [
            88.02997865538262,
            -78.6305895546363
          ],
          [
            88.12225315456465,
            -78.53832184316059
          ],
          [
            88.21452462063763,
            -78.53832636633749
          ],
          [
            88.67587891789347,
            -78.63062121687464
          ],
          [
            88.9526933161124,
            -78.63063478640537
          ],
          [
            89.50631604633215,
            -78.81520639477205
          ],
          [
            89.88554604593247,
            -79.07478830288316
          ],
          [
            90.70582387351747,
            -79.4611708386402
          ],
          [
            91.1671781707733,
            -79.55346568917734
          ],
          [
            91.53626403506522,
            -79.55348378188498
          ],
          [
            91.90534989935712,
            -79.5535018745926
          ],
          [
            92.27443576364902,
            -79.55351996730022
          ],
          [
            92.64352162794093,
            -79.55353806000784
          ],
          [
            93.01260749223285,
            -79.55355615271546
          ],
          [
            93.38169335652475,
            -79.55357424542308
          ],
          [
            93.75077922081665,
            -79.55359233813071
          ],
          [
            94.11986508510857,
            -79.55361043083833
          ],
          [
            94.58122544858253,
            -79.46136081207024
          ],
          [
            94.91422248407095,
            -79.47339496619703
          ],
          [
            95.31939717716634,
            -79.46139699748548
          ],
          [
            95.78075147442216,
            -79.55369184802264
          ],
          [
            96.14983733871408,
            -79.55370994073026
          ],
          [
            96.51892320300598,
            -79.55372803343788
          ],
          [
            96.9737607030439,
            -79.52967474757422
          ],
          [
            97.6261929283179,
            -79.18469337295025
          ],
          [
            98.17982779097389,
            -79.00017604270643
          ],
          [
            98.5489197214839,
            -78.8156496661088
          ],
          [
            99.10256065035797,
            -78.44658786655974
          ],
          [
            99.74847001219598,
            -78.16980282484019
          ],
          [
            100.20983340877896,
            -77.98528097141947
          ],
          [
            100.7634773707621,
            -77.52394693721777
          ],
          [
            101.13257840059927,
            -77.06260385666226
          ],
          [
            101.22486503221752,
            -76.60124720657605
          ],
          [
            101.59396606205469,
            -76.13990412602054
          ],
          [
            101.96307012500093,
            -75.5862888108124
          ],
          [
            102.33216812172905,
            -75.21721796490954
          ],
          [
            102.70126915156622,
            -74.75587488435403
          ],
          [
            103.07036714829435,
            -74.38680403845116
          ]
        ]
      },
      "properties": {
        "type": "variant",
        "id": 3,
        "color": "#44ff44",
        "vzdal_m": 948,
        "prevyseni_m": 10,
        "cas_s": 254,
        "tempo_str": "4:27"
      }
    },
    {
      "type": "Feature",
      "geometry": {
        "type": "LineString",
        "coordinates": [
          [
            88.02997865538262,
            -78.6305895546363
          ],
          [
            88.12225315456465,
            -78.53832184316059
          ],
          [
            88.21452462063763,
            -78.53832636633749
          ],
          [
            88.39906451967454,
            -78.63060764734394
          ],
          [
            88.9526993823305,
            -78.44609031710011
          ],
          [
            89.32178524662241,
            -78.44610840980774
          ],
          [
            89.69087111091432,
            -78.44612650251536
          ],
          [
            90.15222540817014,
            -78.53842135305251
          ],
          [
            90.52131127246204,
            -78.53843944576013
          ],
          [
            90.89039713675396,
            -78.53845753846775
          ],
          [
            91.3517575002279,
            -78.44620791969966
          ],
          [
            91.90539236288387,
            -78.26169058945584
          ],
          [
            92.27447822717578,
            -78.26170868216346
          ],
          [
            92.82811308983175,
            -78.07719135191965
          ],
          [
            92.92038455590472,
            -78.07719587509656
          ],
          [
            93.56629391774273,
            -77.80041083337701
          ],
          [
            94.1199287803987,
            -77.6158935031332
          ],
          [
            94.85811264141873,
            -77.24684074993795
          ],
          [
            95.31947300489267,
            -77.15459113116984
          ],
          [
            95.5962874031116,
            -77.15460470070056
          ],
          [
            95.78082426903946,
            -77.33915821635962
          ],
          [
            95.87309876822148,
            -77.24689050488391
          ],
          [
            96.33445306547732,
            -77.33918535542105
          ],
          [
            96.79580736273314,
            -77.43148020595821
          ],
          [
            97.16489322702505,
            -77.43149829866583
          ],
          [
            97.53397909131697,
            -77.43151639137345
          ],
          [
            98.08760182153671,
            -77.61608799974015
          ],
          [
            98.64122455175645,
            -77.80065960810683
          ],
          [
            99.10257884901229,
            -77.89295445864398
          ],
          [
            99.47166471330421,
            -77.8929725513516
          ],
          [
            100.11756194270599,
            -77.98527644824257
          ],
          [
            100.39438847336113,
            -77.61620107916278
          ],
          [
            101.04029783519914,
            -77.33941603744324
          ],
          [
            101.5939326978551,
            -77.15489870719942
          ],
          [
            101.7784786631101,
            -77.06263551890062
          ],
          [
            102.23984509280217,
            -76.78584143082726
          ],
          [
            102.51668072278447,
            -76.1399493577896
          ],
          [
            102.70124185358473,
            -75.58632499622766
          ],
          [
            102.97807748356706,
            -74.94043292319
          ],
          [
            102.97808961600326,
            -74.5713439845795
          ],
          [
            103.07036714829435,
            -74.38680403845116
          ]
        ]
      },
      "properties": {
        "type": "variant",
        "id": 4,
        "color": "#ffaa00",
        "vzdal_m": 959,
        "prevyseni_m": 5,
        "cas_s": 257,
        "tempo_str": "4:27"
      }
    }
  ]
}