{
  "type": "FeatureCollection",
  "features": [
    {
      "type": "Feature",
      "geometry": {
        "type": "Point",
        "coordinates": [
          39.06359688939157,
          -32.49104500543705
        ]
      },
      "properties": {
        "type": "start",
        "isom": "419"
      }
    },
    {
      "type": "Feature",
      "geometry": {
        "type": "Point",
        "coordinates": [
          61.0371223016781,
          -104.38077667407066
        ]
      },
      "properties": {
        "type": "end",
        "isom": "204"
      }
    },
    {
      "type": "Feature",
      "geometry": {
        "type": "LineString",
        "coordinates": [
          [
            39.0739512975503,
            -32.46813720883018
          ],
          [
            38.88940342064527,
            -32.46813135528991
          ],
          [
            38.704855543740244,
            -32.46812550174965
          ],
          [
            37.966628032919886,
            -33.390868429299765
          ],
          [
            37.228407722739576,
            -34.129058088507634
          ],
          [
            36.674749690744385,
            -34.49814706457131
          ],
          [
            36.391118630007846,
            -34.93663230893998
          ],
          [
            36.459599021327364,
            -35.332268297670616
          ],
          [
            36.82382469405337,
            -35.72535668499985
          ],
          [
            37.1325042900827,
            -36.50309449551008
          ],
          [
            37.09553997128341,
            -37.271043984569026
          ],
          [
            36.933795816240426,
            -37.994338078045224
          ],
          [
            36.872063213030465,
            -38.735365253671986
          ],
          [
            36.89756894742466,
            -39.49263822694394
          ],
          [
            37.00749863545658,
            -40.22532404735293
          ],
          [
            37.33916534226207,
            -41.35651183387462
          ],
          [
            37.42510280058452,
            -42.09187778183639
          ],
          [
            37.642787275211425,
            -42.427254831990574
          ],
          [
            37.86105993692365,
            -43.565569284239245
          ],
          [
            38.63229177244354,
            -44.92489435255268
          ],
          [
            39.4837752976608,
            -45.51190078062543
          ],
          [
            40.24305655224064,
            -46.282916869367845
          ],
          [
            40.86075199379471,
            -47.30374672838287
          ],
          [
            41.66590437013303,
            -47.959778934824165
          ],
          [
            42.076824917619255,
            -48.19975402175963
          ],
          [
            42.48429823093621,
            -48.4519844898458
          ],
          [
            43.139127899546544,
            -49.25791640207344
          ],
          [
            43.826923922891886,
            -50.143442462703106
          ],
          [
            43.99440770478302,
            -50.70222154457458
          ],
          [
            44.045178800942146,
            -50.871468324640595
          ],
          [
            44.16208297795312,
            -51.26087672590641
          ],
          [
            44.37958620954313,
            -51.62240932998113
          ],
          [
            44.49019383577115,
            -52.01248212154865
          ],
          [
            44.95170343419317,
            -53.04581033033605
          ],
          [
            45.019618056860786,
            -53.50739841217379
          ],
          [
            45.0195892543006,
            -54.24561148554274
          ],
          [
            44.95186393884887,
            -54.99465860825057
          ],
          [
            45.31862999318274,
            -56.09999608280852
          ],
          [
            45.97958764937825,
            -57.47251933986328
          ],
          [
            46.63939175976958,
            -58.67494130857876
          ],
          [
            47.192984986004326,
            -59.96683174759523
          ],
          [
            47.19292738088394,
            -61.44325789433312
          ],
          [
            47.56199433213381,
            -62.18148267478259
          ],
          [
            47.561965529573605,
            -62.91969574815154
          ],
          [
            47.93101807954338,
            -64.02702706528551
          ],
          [
            48.48461130577812,
            -65.31891750430196
          ],
          [
            48.300049027593,
            -65.68801818744616
          ],
          [
            48.669101577562756,
            -66.79534950458012
          ],
          [
            48.6695417527078,
            -67.92750677383745
          ],
          [
            48.48145686525853,
            -67.93117294956159
          ],
          [
            48.29994101799227,
            -68.45631721257972
          ],
          [
            48.11537873980714,
            -68.82541789572393
          ],
          [
            47.56168470461171,
            -70.11727321349878
          ],
          [
            47.74620377895655,
            -70.85549214040799
          ],
          [
            47.93073725458148,
            -71.22460453063273
          ],
          [
            48.115270730206404,
            -71.59371692085747
          ],
          [
            48.299804205831336,
            -71.96282931108222
          ],
          [
            49.037966910891264,
            -72.70106579861223
          ],
          [
            49.77612961595118,
            -73.43930228614225
          ],
          [
            50.51427791973101,
            -74.54664531035674
          ],
          [
            50.6988041947159,
            -75.10031096892372
          ],
          [
            51.43696689977581,
            -75.83854745645374
          ],
          [
            52.17512240419569,
            -76.76133721232598
          ],
          [
            52.91325630669541,
            -78.23778677322495
          ],
          [
            53.651390209195135,
            -79.71423633412391
          ],
          [
            54.38955291425506,
            -80.45247282165393
          ],
          [
            55.12770841867494,
            -81.37526257752617
          ],
          [
            55.865871123734856,
            -82.1134990650562
          ],
          [
            56.234952476264816,
            -82.4826173088212
          ],
          [
            56.97308637876454,
            -83.95906686972016
          ],
          [
            57.342138928734315,
            -85.06639818685413
          ],
          [
            57.34211012617411,
            -85.80461126022307
          ],
          [
            57.342102925534064,
            -85.98916452856531
          ],
          [
            57.15754064734894,
            -86.35826521170951
          ],
          [
            57.71114107422374,
            -87.46560238238374
          ],
          [
            58.264734300458485,
            -88.7574928214002
          ],
          [
            58.818327526693224,
            -90.04938326041666
          ],
          [
            58.81829872413304,
            -90.7875963337856
          ],
          [
            59.00283219975797,
            -91.15670872401034
          ],
          [
            59.00281059783782,
            -91.71036852903705
          ],
          [
            59.18734407346275,
            -92.0794809192618
          ],
          [
            59.18731527090256,
            -92.81769399263075
          ],
          [
            59.37184874652749,
            -93.18680638285548
          ],
          [
            59.37184154588744,
            -93.37135965119772
          ],
          [
            59.55637502151237,
            -93.74047204142246
          ],
          [
            59.55636062023228,
            -94.10957857810693
          ],
          [
            59.7408940958572,
            -94.47869096833168
          ],
          [
            59.74088689521715,
            -94.66324423667392
          ],
          [
            59.92542037084209,
            -95.03235662689866
          ],
          [
            59.92540596956199,
            -95.40146316358313
          ],
          [
            60.109939445186924,
            -95.77057555380787
          ],
          [
            60.10991064262672,
            -96.50878862717681
          ],
          [
            60.109881840066535,
            -97.24700170054577
          ],
          [
            59.92529795996126,
            -98.16976218871667
          ],
          [
            59.92526915740106,
            -98.90797526208563
          ],
          [
            60.294321707370834,
            -100.01530657921958
          ],
          [
            60.47883358107561,
            -100.93807877447104
          ],
          [
            60.478804778515425,
            -101.67629184783999
          ],
          [
            60.47877597595523,
            -102.41450492120893
          ],
          [
            60.47874717339504,
            -103.15271799457788
          ],
          [
            61.03234039962978,
            -104.44460843359433
          ]
        ]
      },
      "properties": {
        "type": "variant",
        "id": 1,
        "color": "#ff4444",
        "vzdal_m": 2201,
        "prevyseni_m": 115,
        "cas_s": 768,
        "tempo_str": "5:48"
      }
    },
    {
      "type": "Feature",
      "geometry": {
        "type": "LineString",
        "coordinates": [
          [
            39.0739512975503,
            -32.46813720883018
          ],
          [
            38.88940342064527,
            -32.46813135528991
          ],
          [
            38.704855543740244,
            -32.46812550174965
          ],
          [
            37.966628032919886,
            -33.390868429299765
          ],
          [
            37.228407722739576,
            -34.129058088507634
          ],
          [
            36.674749690744385,
            -34.49814706457131
          ],
          [
            36.391118630007846,
            -34.93663230893998
          ],
          [
            36.459599021327364,
            -35.332268297670616
          ],
          [
            36.82382469405337,
            -35.72535668499985
          ],
          [
            37.1325042900827,
            -36.50309449551008
          ],
          [
            37.09553997128341,
            -37.271043984569026
          ],
          [
            36.933795816240426,
            -37.994338078045224
          ],
          [
            36.872063213030465,
            -38.735365253671986
          ],
          [
            36.89756894742466,
            -39.49263822694394
          ],
          [
            37.00749863545658,
            -40.22532404735293
          ],
          [
            37.33916534226207,
            -41.35651183387462
          ],
          [
            37.42510280058452,
            -42.09187778183639
          ],
          [
            37.642787275211425,
            -42.427254831990574
          ],
          [
            37.86105993692365,
            -43.565569284239245
          ],
          [
            38.63229177244354,
            -44.92489435255268
          ],
          [
            39.4837752976608,
            -45.51190078062543
          ],
          [
            40.24305655224064,
            -46.282916869367845
          ],
          [
            40.86075199379471,
            -47.30374672838287
          ],
          [
            41.66590437013303,
            -47.959778934824165
          ],
          [
            42.076824917619255,
            -48.19975402175963
          ],
          [
            42.48429823093621,
            -48.4519844898458
          ],
          [
            43.139127899546544,
            -49.25791640207344
          ],
          [
            43.826923922891886,
            -50.143442462703106
          ],
          [
            43.99440770478302,
            -50.70222154457458
          ],
          [
            44.045178800942146,
            -50.871468324640595
          ],
          [
            44.16208297795312,
            -51.26087672590641
          ],
          [
            44.37958620954313,
            -51.62240932998113
          ],
          [
            44.49019383577115,
            -52.01248212154865
          ],
          [
            44.95170343419317,
            -53.04581033033605
          ],
          [
            45.019618056860786,
            -53.50739841217379
          ],
          [
            45.0195892543006,
            -54.24561148554274
          ],
          [
            44.95186393884887,
            -54.99465860825057
          ],
          [
            45.31862999318274,
            -56.09999608280852
          ],
          [
            45.347628627834865,
            -56.82936765037453
          ],
          [
            45.34759982527467,
            -57.567580723743475
          ],
          [
            45.26268333247905,
            -58.09080186609966
          ],
          [
            44.326065132386994,
            -58.71122889276921
          ],
          [
            44.240226156163914,
            -59.782184822608706
          ],
          [
            44.05564227605864,
            -60.70494531077962
          ],
          [
            43.68651051904833,
            -61.62769994541028
          ],
          [
            43.6864745158481,
            -62.55046628712146
          ],
          [
            43.87099359019293,
            -63.288685214030664
          ],
          [
            43.68640250944761,
            -64.39599897054383
          ],
          [
            43.50182582998238,
            -65.13420619037251
          ],
          [
            43.68634490432722,
            -65.87242511728172
          ],
          [
            43.50178262614209,
            -66.24152580042593
          ],
          [
            43.31722034795697,
            -66.61062648357013
          ],
          [
            43.31721314731692,
            -66.79517975191237
          ],
          [
            43.50174662294185,
            -67.16429214213711
          ],
          [
            43.50171782038166,
            -67.90250521550605
          ],
          [
            43.50168901782146,
            -68.64071828887501
          ],
          [
            43.501681817181414,
            -68.82527155721723
          ],
          [
            43.71830464067487,
            -69.23353382298274
          ],
          [
            43.378687470045975,
            -70.07565434902254
          ],
          [
            43.050084517772916,
            -71.25476178808582
          ],
          [
            42.923067737639,
            -71.67026732319981
          ],
          [
            42.85101792833695,
            -71.8202145686178
          ],
          [
            42.28199277782758,
            -72.8473598169002
          ],
          [
            42.09854037415644,
            -73.6397762157603
          ],
          [
            42.012513921309015,
            -74.03056931375822
          ],
          [
            41.958169493106496,
            -74.2185282904864
          ],
          [
            41.707070820879224,
            -74.6000963742161
          ],
          [
            40.761324991544036,
            -75.31954139185211
          ],
          [
            39.94458790864787,
            -75.9569136342697
          ],
          [
            39.59836134257093,
            -76.15708505077829
          ],
          [
            39.38385888893931,
            -76.25560090115599
          ],
          [
            39.25677102084365,
            -76.76092746450728
          ],
          [
            39.256742218283456,
            -77.49914053787622
          ],
          [
            39.44125409198824,
            -78.42191273312767
          ],
          [
            39.25667021188297,
            -79.34467322129859
          ],
          [
            39.256641409322775,
            -80.08288629466753
          ],
          [
            39.44115328302756,
            -81.00565848991899
          ],
          [
            39.44114608238751,
            -81.19021175826123
          ],
          [
            39.62567955801244,
            -81.55932414848596
          ],
          [
            39.810213033637375,
            -81.9284365387107
          ],
          [
            40.5483469361371,
            -83.40488609960967
          ],
          [
            41.286495239916924,
            -84.51222912382416
          ],
          [
            42.02462914241665,
            -85.98867868472313
          ],
          [
            42.76277744619647,
            -87.09602170893761
          ],
          [
            43.5009401512564,
            -87.83425819646763
          ],
          [
            44.23910285631632,
            -88.57249468399765
          ],
          [
            44.97726556137624,
            -89.31073117152766
          ],
          [
            45.71542826643616,
            -90.04896765905767
          ],
          [
            47.00723460221117,
            -90.7872217072085
          ],
          [
            48.114493061081156,
            -91.52546990181905
          ],
          [
            49.406299396856156,
            -92.26372394996986
          ],
          [
            50.8826536095362,
            -93.00198385166095
          ],
          [
            51.436290039611244,
            -93.186554680624
          ],
          [
            51.80537859278125,
            -93.37111965604676
          ],
          [
            52.174467145951255,
            -93.55568463146953
          ],
          [
            52.359000621576186,
            -93.92479702169427
          ],
          [
            53.46626628108622,
            -94.47849194796258
          ],
          [
            54.38897686305118,
            -95.21673428903287
          ],
          [
            55.680790399466225,
            -95.77043506884145
          ],
          [
            56.41895310452615,
            -96.50867155637147
          ],
          [
            57.15711580958607,
            -97.2469080439015
          ],
          [
            57.341649285211,
            -97.61602043412621
          ],
          [
            57.895278514645995,
            -97.9851445314315
          ],
          [
            58.079811990270926,
            -98.35425692165624
          ],
          [
            58.81794589277065,
            -99.83070648255521
          ],
          [
            59.00245776647544,
            -100.75347867780664
          ],
          [
            59.74059166897516,
            -102.22992823870563
          ],
          [
            60.294199296490014,
            -103.15271214103761
          ],
          [
            61.03234039962978,
            -104.44460843359433
          ]
        ]
      },
      "properties": {
        "type": "variant",
        "id": 2,
        "color": "#4444ff",
        "vzdal_m": 2385,
        "prevyseni_m": 106,
        "cas_s": 779,
        "tempo_str": "5:26"
      }
    },
    {
      "type": "Feature",
      "geometry": {
        "type": "LineString",
        "coordinates": [
          [
            39.0739512975503,
            -32.46813720883018
          ],
          [
            38.88940342064527,
            -32.46813135528991
          ],
          [
            38.704855543740244,
            -32.46812550174965
          ],
          [
            37.966628032919886,
            -33.390868429299765
          ],
          [
            37.228407722739576,
            -34.129058088507634
          ],
          [
            36.674749690744385,
            -34.49814706457131
          ],
          [
            36.391118630007846,
            -34.93663230893998
          ],
          [
            36.459599021327364,
            -35.332268297670616
          ],
          [
            36.82382469405337,
            -35.72535668499985
          ],
          [
            37.1325042900827,
            -36.50309449551008
          ],
          [
            37.09553997128341,
            -37.271043984569026
          ],
          [
            36.933795816240426,
            -37.994338078045224
          ],
          [
            36.872063213030465,
            -38.735365253671986
          ],
          [
            36.89756894742466,
            -39.49263822694394
          ],
          [
            37.00749863545658,
            -40.22532404735293
          ],
          [
            37.33916534226207,
            -41.35651183387462
          ],
          [
            37.42510280058452,
            -42.09187778183639
          ],
          [
            37.642787275211425,
            -42.427254831990574
          ],
          [
            37.86105993692365,
            -43.565569284239245
          ],
          [
            38.63229177244354,
            -44.92489435255268
          ],
          [
            39.4837752976608,
            -45.51190078062543
          ],
          [
            40.24305655224064,
            -46.282916869367845
          ],
          [
            40.86075199379471,
            -47.30374672838287
          ],
          [
            41.152399103364836,
            -47.54143139194118
          ],
          [
            40.9188252128365,
            -47.97067028498074
          ],
          [
            40.73426293465138,
            -48.339770968124945
          ],
          [
            40.54970065646625,
            -48.70887165126915
          ],
          [
            39.99601382191087,
            -49.816173700701775
          ],
          [
            39.257771909810415,
            -51.10802316493636
          ],
          [
            38.70407787461499,
            -52.39987848271121
          ],
          [
            38.704049072054794,
            -53.13809155608016
          ],
          [
            38.7040202694946,
            -53.87630462944911
          ],
          [
            38.703991466934404,
            -54.614517702818056
          ],
          [
            38.51940758682913,
            -55.53727819098898
          ],
          [
            38.51937878426894,
            -56.275491264357925
          ],
          [
            38.519349981708736,
            -57.01370433772687
          ],
          [
            38.33478770352362,
            -57.382805020871075
          ],
          [
            38.15022542533849,
            -57.75190570401528
          ],
          [
            38.888366528478265,
            -59.04380199657201
          ],
          [
            39.44196695535306,
            -60.151139167246235
          ],
          [
            39.441938152792865,
            -60.88935224061518
          ],
          [
            39.62645002649765,
            -61.81212443586662
          ],
          [
            39.564684087755076,
            -62.54145933182421
          ],
          [
            39.441837343832184,
            -63.4730979974065
          ],
          [
            39.44180854127199,
            -64.21131107077544
          ],
          [
            39.25722466116672,
            -65.13407155894636
          ],
          [
            38.88808570351637,
            -66.24137946191924
          ],
          [
            38.88805690095617,
            -66.97959253528819
          ],
          [
            38.88802809839598,
            -67.71780560865713
          ],
          [
            38.88799929583578,
            -68.45601868202608
          ],
          [
            38.70341541573051,
            -69.37877917019699
          ],
          [
            37.96516630299,
            -70.85518190277382
          ],
          [
            37.226917190249495,
            -72.33158463535065
          ],
          [
            37.22688838768931,
            -73.06979770871959
          ],
          [
            37.96504389210918,
            -73.99258746459185
          ],
          [
            38.33412524463914,
            -74.36170570835687
          ],
          [
            38.51865872026407,
            -74.73081809858161
          ],
          [
            38.51865151962402,
            -74.91537136692384
          ],
          [
            38.518644318983974,
            -75.09992463526608
          ],
          [
            38.51863711834392,
            -75.2844779036083
          ],
          [
            38.518629917703876,
            -75.46903117195055
          ],
          [
            38.70316339332881,
            -75.83814356217528
          ],
          [
            39.07221594329857,
            -76.94547487930924
          ],
          [
            39.256749418923505,
            -77.31458726953399
          ],
          [
            39.44126129262829,
            -78.23735946478544
          ],
          [
            39.25667741252302,
            -79.16011995295635
          ],
          [
            39.256648609962824,
            -79.8983330263253
          ],
          [
            39.25661980740263,
            -80.63654609969424
          ],
          [
            39.44115328302756,
            -81.00565848991899
          ],
          [
            39.44114608238751,
            -81.19021175826123
          ],
          [
            39.62567955801244,
            -81.55932414848596
          ],
          [
            39.810213033637375,
            -81.9284365387107
          ],
          [
            40.5483469361371,
            -83.40488609960967
          ],
          [
            41.286495239916924,
            -84.51222912382416
          ],
          [
            42.02462914241665,
            -85.98867868472313
          ],
          [
            42.76277744619647,
            -87.09602170893761
          ],
          [
            43.5009401512564,
            -87.83425819646763
          ],
          [
            44.23910285631632,
            -88.57249468399765
          ],
          [
            44.97726556137624,
            -89.31073117152766
          ],
          [
            45.71542826643616,
            -90.04896765905767
          ],
          [
            47.00723460221117,
            -90.7872217072085
          ],
          [
            47.92993798353608,
            -91.71001731662102
          ],
          [
            49.406299396856156,
            -92.26372394996986
          ],
          [
            50.8826536095362,
            -93.00198385166095
          ],
          [
            51.436290039611244,
            -93.186554680624
          ],
          [
            51.80537859278125,
            -93.37111965604676
          ],
          [
            52.174467145951255,
            -93.55568463146953
          ],
          [
            52.359000621576186,
            -93.92479702169427
          ],
          [
            53.46626628108622,
            -94.47849194796258
          ],
          [
            54.38897686305118,
            -95.21673428903287
          ],
          [
            55.680790399466225,
            -95.77043506884145
          ],
          [
            56.41895310452615,
            -96.50867155637147
          ],
          [
            57.15711580958607,
            -97.2469080439015
          ],
          [
            57.341649285211,
            -97.61602043412621
          ],
          [
            57.895278514645995,
            -97.9851445314315
          ],
          [
            58.079811990270926,
            -98.35425692165624
          ],
          [
            58.81794589277065,
            -99.83070648255521
          ],
          [
            59.00245776647544,
            -100.75347867780664
          ],
          [
            59.74059166897516,
            -102.22992823870563
          ],
          [
            60.294199296490014,
            -103.15271214103761
          ],
          [
            61.03234039962978,
            -104.44460843359433
          ]
        ]
      },
      "properties": {
        "type": "variant",
        "id": 3,
        "color": "#44ff44",
        "vzdal_m": 2346,
        "prevyseni_m": 105,
        "cas_s": 776,
        "tempo_str": "5:30"
      }
    }
  ]
}