{
  "type": "FeatureCollection",
  "features": [
    {
      "type": "Feature",
      "geometry": {
        "type": "Point",
        "coordinates": [
          56.18288595685926,
          -119.14804293403859
        ]
      },
      "properties": {
        "type": "start",
        "isom": "204"
      }
    },
    {
      "type": "Feature",
      "geometry": {
        "type": "Point",
        "coordinates": [
          40.04481200350287,
          -112.89673065502895
        ]
      },
      "properties": {
        "type": "end",
        "isom": "204"
      }
    },
    {
      "type": "Feature",
      "geometry": {
        "type": "LineString",
        "coordinates": [
          [
            56.210619358440105,
            -119.1848928364538
          ],
          [
            55.47243549742008,
            -119.55394558964905
          ],
          [
            55.103349633128175,
            -119.55392749694144
          ],
          [
            54.73426376883627,
            -119.5539094042338
          ],
          [
            54.18064103861651,
            -119.36933779586714
          ],
          [
            53.719286741360676,
            -119.27704294532997
          ],
          [
            53.257932444104846,
            -119.18474809479282
          ],
          [
            52.888846579812935,
            -119.1847300020852
          ],
          [
            52.427492282557104,
            -119.09243515154806
          ],
          [
            51.78160415248249,
            -118.7233145506992
          ],
          [
            51.41253042062679,
            -118.35420751938109
          ],
          [
            51.04345972188015,
            -117.89282825341033
          ],
          [
            50.67438599002446,
            -117.52372122209222
          ],
          [
            50.1207632598047,
            -117.33914961372552
          ],
          [
            49.75167739551279,
            -117.3391315210179
          ],
          [
            49.38259153122089,
            -117.33911342831028
          ],
          [
            48.644431935073285,
            -116.96998830428454
          ],
          [
            48.09080920485352,
            -116.78541669591783
          ],
          [
            47.444921074778904,
            -116.416296095069
          ],
          [
            47.075847342923204,
            -116.04718906375089
          ],
          [
            46.70677361106751,
            -115.67808203243275
          ],
          [
            46.15315694706587,
            -115.30896595476084
          ],
          [
            45.691811749137194,
            -114.93985440026579
          ],
          [
            45.04592361906257,
            -114.57073379941696
          ],
          [
            44.40003245587889,
            -114.29388543322075
          ],
          [
            44.03094659158698,
            -114.29386734051312
          ],
          [
            43.477323861367225,
            -114.10929573214644
          ],
          [
            43.10823799707532,
            -114.1092776394388
          ],
          [
            42.64687763360138,
            -114.2015272582069
          ],
          [
            42.18552333634555,
            -114.10923240766975
          ],
          [
            41.816449604489854,
            -113.74012537635161
          ],
          [
            41.17056147441523,
            -113.37100477550278
          ],
          [
            40.61693874419547,
            -113.1864331671361
          ],
          [
            40.063319047084775,
            -112.90958932411678
          ]
        ]
      },
      "properties": {
        "type": "variant",
        "id": 1,
        "color": "#ff4444",
        "vzdal_m": 989,
        "prevyseni_m": 0,
        "cas_s": 230,
        "tempo_str": "3:52"
      }
    },
    {
      "type": "Feature",
      "geometry": {
        "type": "LineString",
        "coordinates": [
          [
            56.210619358440105,
            -119.1848928364538
          ],
          [
            55.74924989563901,
            -119.55395915917978
          ],
          [
            55.011066034618985,
            -119.92301191237503
          ],
          [
            54.27288217359895,
            -120.2920646655703
          ],
          [
            53.90379630930705,
            -120.29204657286266
          ],
          [
            53.442435945833104,
            -120.38429619163077
          ],
          [
            53.07335008154119,
            -120.38427809892315
          ],
          [
            52.70426421724929,
            -120.38426000621551
          ],
          [
            52.15062935459332,
            -120.56877733645933
          ],
          [
            51.59700055815546,
            -120.56875019739792
          ],
          [
            51.13564626089963,
            -120.47645534686075
          ],
          [
            50.39748666475202,
            -120.107330222835
          ],
          [
            49.751598534677406,
            -119.73820962198617
          ],
          [
            49.290253336748734,
            -119.36909806749112
          ],
          [
            48.55209374060113,
            -118.99997294346538
          ],
          [
            48.18302000874543,
            -118.63086591214726
          ],
          [
            47.72167481081676,
            -118.26175435765224
          ],
          [
            47.26032657977904,
            -117.98491503780981
          ],
          [
            46.614435416595356,
            -117.70806667161361
          ],
          [
            45.96854425341168,
            -117.4312183054174
          ],
          [
            45.230384657264075,
            -117.06209318139166
          ],
          [
            44.86131092540838,
            -116.69298615007352
          ],
          [
            44.39996572747971,
            -116.3238745955785
          ],
          [
            43.938620529551045,
            -115.95476304108347
          ],
          [
            43.29273239947642,
            -115.58564244023464
          ],
          [
            42.6468442694018,
            -115.21652183938578
          ],
          [
            42.185499071473124,
            -114.84741028489076
          ],
          [
            41.72415387354445,
            -114.47829873039574
          ],
          [
            41.26280867561578,
            -114.1091871759007
          ],
          [
            40.89373494376009,
            -113.74008014458256
          ],
          [
            40.524661211904395,
            -113.37097311326445
          ],
          [
            40.1555874800487,
            -113.00186608194632
          ],
          [
            40.063319047084775,
            -112.90958932411678
          ]
        ]
      },
      "properties": {
        "type": "variant",
        "id": 2,
        "color": "#4444ff",
        "vzdal_m": 1027,
        "prevyseni_m": 0,
        "cas_s": 21571,
        "tempo_str": "350:02"
      }
    },
    {
      "type": "Feature",
      "geometry": {
        "type": "LineString",
        "coordinates": [
          [
            56.210619358440105,
            -119.1848928364538
          ],
          [
            55.656984495784144,
            -119.36941016669762
          ],
          [
            55.28789863149223,
            -119.36939207398999
          ],
          [
            54.734275901272476,
            -119.1848204656233
          ],
          [
            54.08838777119786,
            -118.81569986477447
          ],
          [
            53.71931403934216,
            -118.44659283345634
          ],
          [
            53.35024334059552,
            -117.9852135674856
          ],
          [
            52.981169608739826,
            -117.61610653616748
          ],
          [
            52.612098909993186,
            -117.15472727019672
          ],
          [
            52.243025178137486,
            -116.78562023887861
          ],
          [
            51.781679980208814,
            -116.41650868438356
          ],
          [
            51.32032568295298,
            -116.32421383384641
          ],
          [
            50.67443451976931,
            -116.04736546765021
          ],
          [
            50.02854335658563,
            -115.77051710145398
          ],
          [
            49.38265219340195,
            -115.49366873525777
          ],
          [
            49.01356632911005,
            -115.49365064255014
          ],
          [
            48.55221203185422,
            -115.40135579201299
          ],
          [
            48.1831261675623,
            -115.40133769930536
          ],
          [
            47.814040303270396,
            -115.40131960659775
          ],
          [
            47.260417573050646,
            -115.21674799823106
          ],
          [
            46.70679484283089,
            -115.03217638986438
          ],
          [
            46.33770897853898,
            -115.03215829715676
          ],
          [
            45.876354681283146,
            -114.93986344661961
          ],
          [
            45.23046351809947,
            -114.66301508042339
          ],
          [
            44.492303921951866,
            -114.29388995639763
          ],
          [
            44.12321805765996,
            -114.29387186369003
          ],
          [
            43.569595327440204,
            -114.10930025532332
          ],
          [
            43.20050946314829,
            -114.10928216261571
          ],
          [
            42.73914909967436,
            -114.2015317813838
          ],
          [
            42.370063235382446,
            -114.20151368867619
          ],
          [
            41.908718037453774,
            -113.83240213418115
          ],
          [
            41.35510137345213,
            -113.46328605650922
          ],
          [
            40.80147864323238,
            -113.27871444814255
          ],
          [
            40.063319047084775,
            -112.90958932411678
          ]
        ]
      },
      "properties": {
        "type": "variant",
        "id": 3,
        "color": "#44ff44",
        "vzdal_m": 983,
        "prevyseni_m": 0,
        "cas_s": 234,
        "tempo_str": "3:58"
      }
    }
  ]
}