{
  "type": "FeatureCollection",
  "features": [
    {
      "type": "Feature",
      "geometry": {
        "type": "Point",
        "coordinates": [
          145.2176949069972,
          -303.5427740818869
        ]
      },
      "properties": {
        "type": "start",
        "isom": "112"
      }
    },
    {
      "type": "Feature",
      "geometry": {
        "type": "Point",
        "coordinates": [
          82.89092016907222,
          -319.52170522526325
        ]
      },
      "properties": {
        "type": "end",
        "isom": "204"
      }
    },
    {
      "type": "Feature",
      "geometry": {
        "type": "LineString",
        "coordinates": [
          [
            145.12928132702612,
            -303.5056517725452
          ],
          [
            144.39107062555325,
            -304.24384818400245
          ],
          [
            142.9147019019449,
            -304.98204350641356
          ],
          [
            139.96206981340293,
            -304.9820391502291
          ],
          [
            137.00943772486093,
            -304.9820347940448
          ],
          [
            133.3185949348461,
            -305.7202268493176
          ],
          [
            130.3659628463041,
            -305.7202224931332
          ],
          [
            127.4133307577621,
            -305.7202181369488
          ],
          [
            124.46069866922011,
            -305.7202137807644
          ],
          [
            121.5080665806781,
            -305.72020942458005
          ],
          [
            117.81722379066328,
            -306.45840147985285
          ],
          [
            114.12643367998577,
            -306.4583960346224
          ],
          [
            110.43553821063358,
            -307.9347855903985
          ],
          [
            107.48285344275423,
            -308.6729787347174
          ],
          [
            104.53001063686284,
            -311.6257643805463
          ],
          [
            102.31543121178164,
            -313.1021561144146
          ],
          [
            101.57727318964616,
            -313.10215502536846
          ],
          [
            100.10095714537515,
            -313.1021528472763
          ],
          [
            95.67195633322481,
            -313.840343813503
          ],
          [
            92.71932424468282,
            -313.84033945731863
          ],
          [
            91.98116622254732,
            -313.8403383682725
          ],
          [
            90.50479749893897,
            -314.5785336906836
          ],
          [
            88.29021807385777,
            -316.054925424552
          ],
          [
            86.07574400745128,
            -316.05492215741367
          ],
          [
            84.59937528384293,
            -316.79311747982473
          ],
          [
            83.12284852222253,
            -319.7459053037458
          ]
        ]
      },
      "properties": {
        "type": "variant",
        "id": 1,
        "color": "#ff4444",
        "vzdal_m": 456,
        "prevyseni_m": 3,
        "cas_s": 132,
        "tempo_str": "4:49"
      }
    },
    {
      "type": "Feature",
      "geometry": {
        "type": "LineString",
        "coordinates": [
          [
            145.12928132702612,
            -303.5056517725452
          ],
          [
            145.12922864768876,
            -304.2438492730485
          ],
          [
            144.39096526687857,
            -305.72024318500905
          ],
          [
            140.700017118189,
            -307.93483024128847
          ],
          [
            139.22364839458066,
            -308.67302556369964
          ],
          [
            134.05633152228276,
            -311.62580794239017
          ],
          [
            129.62717267212037,
            -314.5785914101268
          ],
          [
            125.19806650129534,
            -316.7931773773601
          ],
          [
            122.2454870920907,
            -316.05497552067243
          ],
          [
            120.76911836848235,
            -316.79317084308354
          ],
          [
            116.34006487699466,
            -318.2695593098136
          ],
          [
            112.6492220869798,
            -319.0077513650864
          ],
          [
            107.48195789401927,
            -321.2223362432736
          ],
          [
            105.26748382761278,
            -321.2223329761353
          ],
          [
            103.79111510400445,
            -321.9605282985464
          ],
          [
            100.83848301546244,
            -321.96052394236204
          ],
          [
            97.88585092692044,
            -321.96051958617767
          ],
          [
            94.93321883837845,
            -321.9605152299933
          ],
          [
            91.98058674983646,
            -321.96051087380886
          ],
          [
            88.28984931849632,
            -321.2223079280751
          ],
          [
            83.86100654435803,
            -319.74590639279194
          ],
          [
            83.12284852222253,
            -319.7459053037458
          ]
        ]
      },
      "properties": {
        "type": "variant",
        "id": 2,
        "color": "#4444ff",
        "vzdal_m": 462,
        "prevyseni_m": 3,
        "cas_s": 133,
        "tempo_str": "4:47"
      }
    },
    {
      "type": "Feature",
      "geometry": {
        "type": "LineString",
        "coordinates": [
          [
            145.12928132702612,
            -303.5056517725452
          ],
          [
            143.65291260341775,
            -304.2438470949564
          ],
          [
            139.96206981340293,
            -304.9820391502291
          ],
          [
            137.00943772486093,
            -304.9820347940448
          ],
          [
            133.3185949348461,
            -305.7202268493176
          ],
          [
            130.3659628463041,
            -305.7202224931332
          ],
          [
            127.4133307577621,
            -305.7202181369488
          ],
          [
            124.46069866922011,
            -305.7202137807644
          ],
          [
            120.0318558950818,
            -304.24381224548125
          ],
          [
            115.60301312094353,
            -302.767410710198
          ],
          [
            113.38859173387438,
            -302.02920994255646
          ],
          [
            109.69785430253424,
            -301.2910069968226
          ],
          [
            106.0071168711941,
            -300.55280405108886
          ],
          [
            101.5780633797064,
            -302.0291925178189
          ],
          [
            97.14900988821871,
            -303.5055809845489
          ],
          [
            91.24353499378533,
            -306.4583622741934
          ],
          [
            89.76716627017697,
            -307.19655759660446
          ],
          [
            88.29079754656864,
            -307.9347529190156
          ],
          [
            87.55237612774638,
            -311.62573933248603
          ],
          [
            84.59937528384293,
            -316.79311747982473
          ],
          [
            83.12284852222253,
            -319.7459053037458
          ]
        ]
      },
      "properties": {
        "type": "variant",
        "id": 3,
        "color": "#44ff44",
        "vzdal_m": 491,
        "prevyseni_m": 4,
        "cas_s": 133,
        "tempo_str": "4:31"
      }
    }
  ]
}