{
  "type": "FeatureCollection",
  "features": [
    {
      "type": "Feature",
      "geometry": {
        "type": "Point",
        "coordinates": [
          30.128315808701345,
          -118.72003734530499
        ]
      },
      "properties": {
        "type": "start",
        "isom": "417"
      }
    },
    {
      "type": "Feature",
      "geometry": {
        "type": "Point",
        "coordinates": [
          56.05686468880719,
          -110.60135165392957
        ]
      },
      "properties": {
        "type": "end",
        "isom": "204"
      }
    },
    {
      "type": "Feature",
      "geometry": {
        "type": "LineString",
        "coordinates": [
          [
            30.128315808701345,
            -118.72003734530499
          ],
          [
            30.68195673757548,
            -118.35097554475729
          ],
          [
            31.420140598595587,
            -117.98192279012467
          ],
          [
            32.1583244596157,
            -117.61287003549207
          ],
          [
            32.71195932227172,
            -117.42835270409084
          ],
          [
            33.081045186563664,
            -117.42837079592101
          ],
          [
            33.63468004921968,
            -117.2438534645198
          ],
          [
            34.00376591351163,
            -117.24387155634996
          ],
          [
            34.55740684238576,
            -116.87480975580227
          ],
          [
            35.29559070340587,
            -116.50575700116966
          ],
          [
            35.941503098352996,
            -116.1366997235795
          ],
          [
            36.495137961009014,
            -115.95218239217829
          ],
          [
            36.86422382530096,
            -115.95220048400847
          ],
          [
            37.2333096895929,
            -115.95221857583864
          ],
          [
            37.694663986848774,
            -116.0445134251996
          ],
          [
            38.15602435032275,
            -115.95226380541406
          ],
          [
            38.801933712160825,
            -115.67547876239715
          ],
          [
            39.26330924118009,
            -115.12186796974542
          ],
          [
            39.90922163612721,
            -114.75281069215528
          ],
          [
            40.370581999601185,
            -114.66056107236975
          ],
          [
            40.73966786389313,
            -114.66057916419993
          ],
          [
            41.38556812640403,
            -114.66061082490273
          ],
          [
            41.75465399069597,
            -114.6606289167329
          ],
          [
            42.12373985498792,
            -114.66064700856306
          ],
          [
            42.49282571927986,
            -114.66066510039325
          ],
          [
            42.8619115835718,
            -114.66068319222342
          ],
          [
            43.23099744786374,
            -114.6607012840536
          ],
          [
            43.60008331215568,
            -114.66071937588376
          ],
          [
            43.96916917644763,
            -114.66073746771393
          ],
          [
            44.33825504073957,
            -114.66075555954411
          ],
          [
            44.891889903395594,
            -114.47623822814288
          ],
          [
            44.98416136946858,
            -114.47624275110044
          ],
          [
            45.63004949954326,
            -114.84536335009619
          ],
          [
            46.275937629617935,
            -115.21448394909196
          ],
          [
            46.64501136147366,
            -115.58359097921509
          ],
          [
            47.01408509332938,
            -115.9526980093382
          ],
          [
            47.38315882518509,
            -116.32180503946134
          ],
          [
            48.029046955259766,
            -116.6909256384571
          ],
          [
            48.398132819551705,
            -116.69094373028727
          ],
          [
            48.85949318302569,
            -116.59869411050175
          ],
          [
            49.413128045681724,
            -116.41417677910052
          ],
          [
            49.8744884091557,
            -116.32192715931501
          ],
          [
            50.428129338029834,
            -115.9528653587673
          ],
          [
            50.981764200685866,
            -115.76834802736609
          ],
          [
            51.53539906334189,
            -115.58383069596486
          ],
          [
            51.90449706007005,
            -115.21475984950207
          ],
          [
            52.365863489762155,
            -114.93796576057008
          ],
          [
            52.919504418636286,
            -114.56890396002238
          ],
          [
            53.56541984669246,
            -114.107574447859
          ],
          [
            53.93452997585685,
            -113.36941466310326
          ],
          [
            54.30363100569407,
            -112.90807158206721
          ],
          [
            54.67272900242224,
            -112.53900073560443
          ],
          [
            55.041826999150395,
            -112.16992988914166
          ],
          [
            55.41092499587857,
            -111.80085904267887
          ],
          [
            55.503202528169666,
            -111.61631909648993
          ],
          [
            56.0568434570438,
            -111.24725729594225
          ],
          [
            56.05685558948002,
            -110.87816835764929
          ],
          [
            56.05686468880719,
            -110.60135165392957
          ]
        ]
      },
      "properties": {
        "type": "variant",
        "id": 1,
        "color": "#ff4444",
        "vzdal_m": 1655,
        "prevyseni_m": 84,
        "cas_s": 519,
        "tempo_str": "5:13"
      }
    },
    {
      "type": "Feature",
      "geometry": {
        "type": "LineString",
        "coordinates": [
          [
            30.128315808701345,
            -118.72003734530499
          ],
          [
            30.128334007355676,
            -118.16640393786555
          ],
          [
            30.589703470156827,
            -117.7973376143603
          ],
          [
            30.958801466884992,
            -117.42826676789753
          ],
          [
            31.512442395759127,
            -117.05920496734983
          ],
          [
            31.881540392487295,
            -116.69013412088704
          ],
          [
            32.25063838921546,
            -116.32106327442426
          ],
          [
            32.988822250235565,
            -115.95201051979166
          ],
          [
            33.727006111255676,
            -115.58295776515904
          ],
          [
            34.372918506202794,
            -115.21390048756888
          ],
          [
            35.1111023672229,
            -114.84484773293627
          ],
          [
            35.57247183002405,
            -114.47578140943104
          ],
          [
            36.31065569104416,
            -114.10672865479842
          ],
          [
            36.956565052882226,
            -113.8299436117815
          ],
          [
            37.60247441472029,
            -113.55315856876459
          ],
          [
            38.06383477819428,
            -113.46090894897905
          ],
          [
            38.525195141668256,
            -113.36865932919355
          ],
          [
            38.8942810059602,
            -113.3686774210237
          ],
          [
            39.26336687025214,
            -113.36869551285389
          ],
          [
            39.72472723372612,
            -113.27644589306836
          ],
          [
            40.18608759720011,
            -113.18419627328284
          ],
          [
            40.92427145822022,
            -112.81514351865023
          ],
          [
            41.47791238709436,
            -112.44608171810252
          ],
          [
            41.84700128449535,
            -112.35382757535946
          ],
          [
            42.30835558175122,
            -112.44612242472041
          ],
          [
            42.67744144604317,
            -112.44614051655059
          ],
          [
            43.23107630869919,
            -112.26162318514938
          ],
          [
            43.60016217299113,
            -112.26164127697953
          ],
          [
            43.96924803728307,
            -112.26165936880972
          ],
          [
            44.522876833720986,
            -112.26168650655498
          ],
          [
            44.89197786355821,
            -111.80034342551895
          ],
          [
            45.44561879243234,
            -111.43128162497125
          ],
          [
            45.90697915590633,
            -111.33903200518573
          ],
          [
            46.46061401856235,
            -111.15451467378452
          ],
          [
            47.01423674878215,
            -111.33908628067624
          ],
          [
            47.56785947900196,
            -111.52365788756799
          ],
          [
            47.9369453432939,
            -111.52367597939816
          ],
          [
            48.306031207585846,
            -111.52369407122832
          ],
          [
            48.675117071877786,
            -111.5237121630585
          ],
          [
            49.044202936169725,
            -111.52373025488868
          ],
          [
            49.41328880046167,
            -111.52374834671883
          ],
          [
            49.78237466475361,
            -111.52376643854902
          ],
          [
            50.15146052904556,
            -111.52378453037919
          ],
          [
            50.5205463933375,
            -111.52380262220937
          ],
          [
            50.98190675681148,
            -111.43155300242384
          ],
          [
            51.5355416194675,
            -111.24703567102262
          ],
          [
            51.90462748375944,
            -111.24705376285279
          ],
          [
            52.27371334805139,
            -111.24707185468297
          ],
          [
            52.64279921234333,
            -111.24708994651314
          ],
          [
            53.011885076635274,
            -111.2471080383433
          ],
          [
            53.38097094092721,
            -111.24712613017348
          ],
          [
            53.934599737365126,
            -111.24715326791875
          ],
          [
            54.303691667875185,
            -111.06262689060243
          ],
          [
            54.76505203134917,
            -110.97037727081691
          ],
          [
            54.94959496349514,
            -110.97038631673199
          ],
          [
            55.041866429568124,
            -110.97039083968954
          ],
          [
            55.13413789564111,
            -110.97039536264708
          ],
          [
            55.2264093617141,
            -110.97039988560464
          ],
          [
            55.318680827787084,
            -110.97040440856217
          ],
          [
            55.50322679304211,
            -110.87814121990402
          ],
          [
            55.8723156904431,
            -110.78588707716096
          ],
          [
            56.05686468880719,
            -110.60135165392957
          ]
        ]
      },
      "properties": {
        "type": "variant",
        "id": 2,
        "color": "#4444ff",
        "vzdal_m": 1560,
        "prevyseni_m": 90,
        "cas_s": 528,
        "tempo_str": "5:38"
      }
    },
    {
      "type": "Feature",
      "geometry": {
        "type": "LineString",
        "coordinates": [
          [
            30.128315808701345,
            -118.72003734530499
          ],
          [
            30.036059508173636,
            -118.25867164948126
          ],
          [
            30.036071640609862,
            -117.8895827111883
          ],
          [
            29.851546907118223,
            -117.33594025783377
          ],
          [
            29.851559039554445,
            -116.96685131954081
          ],
          [
            29.851571171990667,
            -116.59776238124786
          ],
          [
            30.03613230279097,
            -116.0441380197235
          ],
          [
            30.405242431955358,
            -115.30597823496778
          ],
          [
            30.774346494901632,
            -114.7523629193585
          ],
          [
            31.51253035592174,
            -114.3833101647259
          ],
          [
            32.25071421694185,
            -114.01425741009328
          ],
          [
            32.988898077961956,
            -113.64520465546067
          ],
          [
            33.63481047290908,
            -113.27614737787052
          ],
          [
            34.003908469637246,
            -112.90707653140772
          ],
          [
            34.37300646636541,
            -112.53800568494495
          ],
          [
            34.74210446309357,
            -112.16893483848216
          ],
          [
            35.111211559148906,
            -111.52304728829967
          ],
          [
            35.480309555877064,
            -111.15397644183687
          ],
          [
            35.84940451949618,
            -110.87717782994733
          ],
          [
            36.49531388133425,
            -110.60039278693041
          ],
          [
            37.14122324317231,
            -110.3236077439135
          ],
          [
            37.78713563811943,
            -109.95455046632334
          ],
          [
            38.24850510092058,
            -109.5854841428181
          ],
          [
            38.61759096521253,
            -109.58550223464827
          ],
          [
            39.17122582786855,
            -109.40098490324706
          ],
          [
            39.54031169216049,
            -109.40100299507722
          ],
          [
            40.00166598941636,
            -109.49329784443817
          ],
          [
            40.370751853708306,
            -109.49331593626835
          ],
          [
            40.739837718000246,
            -109.49333402809853
          ],
          [
            41.20119808147423,
            -109.401084408313
          ],
          [
            41.57028394576618,
            -109.40110250014318
          ],
          [
            41.93936981005812,
            -109.40112059197337
          ],
          [
            42.30845567435006,
            -109.40113868380352
          ],
          [
            42.86207840456986,
            -109.58571029069526
          ],
          [
            43.32343876804384,
            -109.49346067090974
          ],
          [
            43.69252463233579,
            -109.49347876273991
          ],
          [
            44.153878929591656,
            -109.58577361210087
          ],
          [
            44.5229647938836,
            -109.58579170393105
          ],
          [
            44.98431909113947,
            -109.67808655329199
          ],
          [
            45.353404955431415,
            -109.67810464512215
          ],
          [
            45.722490819723355,
            -109.67812273695233
          ],
          [
            46.0915766840153,
            -109.67814082878252
          ],
          [
            46.46066254830724,
            -109.67815892061269
          ],
          [
            46.82974841259918,
            -109.67817701244284
          ],
          [
            47.38337114281898,
            -109.8627486193346
          ],
          [
            47.84472544007485,
            -109.95504346869555
          ],
          [
            48.2138113043668,
            -109.95506156052572
          ],
          [
            48.58289716865874,
            -109.9550796523559
          ],
          [
            48.95198303295068,
            -109.95509774418606
          ],
          [
            49.321068897242625,
            -109.95511583601623
          ],
          [
            49.690154761534565,
            -109.95513392784642
          ],
          [
            50.151509058790445,
            -110.04742877720737
          ],
          [
            50.889668654938106,
            -110.41655389916066
          ],
          [
            51.443291385157906,
            -110.60112550605241
          ],
          [
            51.90464568241377,
            -110.69342035541335
          ],
          [
            52.27373154670572,
            -110.69343844724354
          ],
          [
            52.64281741099766,
            -110.69345653907371
          ],
          [
            53.19644014121747,
            -110.87802814596544
          ],
          [
            53.65779443847334,
            -110.97032299532638
          ],
          [
            54.026880302765285,
            -110.97034108715657
          ],
          [
            54.395966167057225,
            -110.97035917898674
          ],
          [
            54.76505203134917,
            -110.97037727081691
          ],
          [
            54.94959496349514,
            -110.97038631673199
          ],
          [
            55.041866429568124,
            -110.97039083968954
          ],
          [
            55.13413789564111,
            -110.97039536264708
          ],
          [
            55.2264093617141,
            -110.97039988560464
          ],
          [
            55.318680827787084,
            -110.97040440856217
          ],
          [
            55.50322679304211,
            -110.87814121990402
          ],
          [
            55.8723156904431,
            -110.78588707716096
          ],
          [
            56.05686468880719,
            -110.60135165392957
          ]
        ]
      },
      "properties": {
        "type": "variant",
        "id": 3,
        "color": "#44ff44",
        "vzdal_m": 1719,
        "prevyseni_m": 88,
        "cas_s": 535,
        "tempo_str": "5:11"
      }
    }
  ]
}