{
  "type": "FeatureCollection",
  "features": [
    {
      "type": "Feature",
      "geometry": {
        "type": "Point",
        "coordinates": [
          167.4533954275288,
          -81.69509408834544
        ]
      },
      "properties": {
        "type": "start",
        "isom": "204"
      }
    },
    {
      "type": "Feature",
      "geometry": {
        "type": "Point",
        "coordinates": [
          146.1142406187146,
          -220.61578284409921
        ]
      },
      "properties": {
        "type": "end",
        "isom": "204"
      }
    },
    {
      "type": "Feature",
      "geometry": {
        "type": "LineString",
        "coordinates": [
          [
            167.5309188329934,
            -81.74229514455205
          ],
          [
            168.6380908841828,
            -84.69518255926944
          ],
          [
            168.6380332790624,
            -86.17160870600733
          ],
          [
            168.637975673942,
            -87.64803485274523
          ],
          [
            169.7451621264115,
            -90.23181573077814
          ],
          [
            169.7451477251314,
            -90.60092226746261
          ],
          [
            170.11421467638127,
            -91.33914704791209
          ],
          [
            170.852348578881,
            -92.81559660881106
          ],
          [
            171.22141553013086,
            -93.55382138926055
          ],
          [
            172.32860198260036,
            -96.13760226729346
          ],
          [
            172.6976545325701,
            -97.24493358442741
          ],
          [
            173.06672148381998,
            -97.9831583648769
          ],
          [
            172.69755372360945,
            -99.82867934121873
          ],
          [
            173.066577471019,
            -101.67422373172164
          ],
          [
            174.54284527601845,
            -104.62712285351957
          ],
          [
            174.54278767089806,
            -106.10354900025746
          ],
          [
            174.54273006577768,
            -107.57997514699535
          ],
          [
            174.5426724606573,
            -109.05640129373324
          ],
          [
            173.8043945453566,
            -111.27101709967901
          ],
          [
            172.32789631987558,
            -114.22382256483266
          ],
          [
            172.3278387147552,
            -115.70024871157055
          ],
          [
            171.5895607994545,
            -117.91486451751634
          ],
          [
            169.7440244252838,
            -119.39123212885156
          ],
          [
            168.63665075617305,
            -121.60583622771678
          ],
          [
            167.16015253069205,
            -124.55864169287044
          ],
          [
            165.6837263116115,
            -125.66591447460172
          ],
          [
            164.2072568886907,
            -127.88050686638643
          ],
          [
            163.83813233232044,
            -128.61870823267483
          ],
          [
            162.36171423977683,
            -130.09508755180514
          ],
          [
            159.77798635798604,
            -131.57143174897928
          ],
          [
            157.93244998381536,
            -133.0477993603145
          ],
          [
            155.34870770074446,
            -134.8932500941731
          ],
          [
            154.2413628341939,
            -136.3696411196694
          ],
          [
            152.76489341127308,
            -138.58423351145413
          ],
          [
            151.65751974216232,
            -140.79883761031934
          ],
          [
            150.91927062942182,
            -142.27524034289618
          ],
          [
            150.55014607305156,
            -143.0134417091846
          ],
          [
            149.44275800266072,
            -145.59715234473433
          ],
          [
            149.81178175007028,
            -147.4426967352372
          ],
          [
            149.8117241449499,
            -148.91912288197508
          ],
          [
            149.81166653982947,
            -150.395549028713
          ],
          [
            149.8116089347091,
            -151.87197517545087
          ],
          [
            149.81155132958872,
            -153.34840132218878
          ],
          [
            149.8114937244683,
            -154.82482746892669
          ],
          [
            149.81143611934795,
            -156.30125361566456
          ],
          [
            149.81137851422756,
            -157.77767976240247
          ],
          [
            149.84788441795047,
            -159.23201789897024
          ],
          [
            150.01124559730027,
            -159.5024098394631
          ],
          [
            150.2121527871664,
            -160.551657414335
          ],
          [
            150.56029871967695,
            -161.10218554034938
          ],
          [
            150.29742251279083,
            -162.234154229864
          ],
          [
            150.07364520395097,
            -163.02945862662793
          ],
          [
            147.28196583867046,
            -163.85676212260705
          ],
          [
            146.3433982126935,
            -164.20822162242163
          ],
          [
            145.91986394750222,
            -164.49796943624744
          ],
          [
            145.2747200568647,
            -164.87714826741245
          ],
          [
            144.39782947458707,
            -167.06635882105243
          ],
          [
            144.53991008459204,
            -168.8583007708875
          ],
          [
            144.4975452857224,
            -170.33353156653033
          ],
          [
            144.31370567827742,
            -171.81177669050874
          ],
          [
            143.98834547618705,
            -173.31175730423448
          ],
          [
            143.69495831065322,
            -174.07892142760983
          ],
          [
            143.50150564228153,
            -174.817871805588
          ],
          [
            142.96977028684475,
            -175.68462675768467
          ],
          [
            141.2133578392199,
            -177.06148892106305
          ],
          [
            140.0880338466471,
            -178.587295586572
          ],
          [
            139.6597064051758,
            -179.31990801320555
          ],
          [
            138.69933935116686,
            -180.63395224429124
          ],
          [
            137.12239929903518,
            -182.76051143260463
          ],
          [
            136.57383898399328,
            -184.69696290893697
          ],
          [
            136.42668217827523,
            -186.5599730238131
          ],
          [
            136.52275047209747,
            -188.04399431563004
          ],
          [
            136.60627562988142,
            -189.98089388165127
          ],
          [
            137.0350629049202,
            -191.32006763141447
          ],
          [
            137.29915099956966,
            -193.1933187179953
          ],
          [
            138.83462349114865,
            -196.10563466964985
          ],
          [
            139.29828926749818,
            -196.7279759743502
          ],
          [
            139.74536576222957,
            -197.5760746025188
          ],
          [
            139.82902045604166,
            -197.9251221859061
          ],
          [
            140.01646644839934,
            -198.70686621967536
          ],
          [
            140.7052814274737,
            -200.9024907290293
          ],
          [
            140.52612203891817,
            -202.52342009892834
          ],
          [
            140.8663729204821,
            -203.9157131849144
          ],
          [
            140.86631531536173,
            -205.3921393316523
          ],
          [
            140.92789450756976,
            -206.85088258039673
          ],
          [
            140.7050577480233,
            -208.36759383880093
          ],
          [
            140.44264306621017,
            -209.79582325564212
          ],
          [
            140.95097783589196,
            -211.66695314840277
          ],
          [
            142.42730324601177,
            -213.1434261234628
          ],
          [
            143.90358545229134,
            -215.72721870857626
          ],
          [
            144.2726380022611,
            -216.83455002571023
          ],
          [
            144.64170495351098,
            -217.5727748061597
          ],
          [
            145.3798388560107,
            -219.04922436705868
          ],
          [
            145.74890580726057,
            -219.7874491475081
          ],
          [
            146.1179727585104,
            -220.5256739279576
          ]
        ]
      },
      "properties": {
        "type": "variant",
        "id": 1,
        "color": "#ff4444",
        "vzdal_m": 2134,
        "prevyseni_m": 72,
        "cas_s": 665,
        "tempo_str": "5:11"
      }
    },
    {
      "type": "Feature",
      "geometry": {
        "type": "LineString",
        "coordinates": [
          [
            167.5309188329934,
            -81.74229514455205
          ],
          [
            168.6380908841828,
            -84.69518255926944
          ],
          [
            168.6380332790624,
            -86.17160870600733
          ],
          [
            168.637975673942,
            -87.64803485274523
          ],
          [
            169.7451621264115,
            -90.23181573077814
          ],
          [
            169.7451477251314,
            -90.60092226746261
          ],
          [
            170.11421467638127,
            -91.33914704791209
          ],
          [
            170.852348578881,
            -92.81559660881106
          ],
          [
            171.22141553013086,
            -93.55382138926055
          ],
          [
            172.32860198260036,
            -96.13760226729346
          ],
          [
            172.6976545325701,
            -97.24493358442741
          ],
          [
            173.06672148381998,
            -97.9831583648769
          ],
          [
            172.69755372360945,
            -99.82867934121873
          ],
          [
            173.066577471019,
            -101.67422373172164
          ],
          [
            174.54284527601845,
            -104.62712285351957
          ],
          [
            175.65004612976804,
            -106.841797194868
          ],
          [
            175.64998852464765,
            -108.3182233416059
          ],
          [
            175.64993091952726,
            -109.7946494883438
          ],
          [
            175.64987331440688,
            -111.27107563508169
          ],
          [
            175.6498157092865,
            -112.74750178181958
          ],
          [
            176.01885385797615,
            -114.223939635638
          ],
          [
            176.757002161756,
            -115.3312826598525
          ],
          [
            177.12606911300585,
            -116.06950744030198
          ],
          [
            177.49513606425572,
            -116.80773222075146
          ],
          [
            177.4950784591353,
            -118.28415836748935
          ],
          [
            177.49502085401494,
            -119.76058451422725
          ],
          [
            177.49496324889455,
            -121.23701066096514
          ],
          [
            177.49487684121397,
            -123.45164988107199
          ],
          [
            178.2330107437137,
            -124.92809944197096
          ],
          [
            178.2329531385933,
            -126.40452558870885
          ],
          [
            178.60202008984317,
            -127.14275036915834
          ],
          [
            179.34013959106278,
            -128.98830646674176
          ],
          [
            179.70920654231264,
            -129.72653124719125
          ],
          [
            179.70914893719228,
            -131.20295739392915
          ],
          [
            179.33998117698172,
            -133.04847837027097
          ],
          [
            178.60170326168102,
            -135.26309417621675
          ],
          [
            178.60164565656063,
            -136.73952032295466
          ],
          [
            178.60158805144025,
            -138.21594646969254
          ],
          [
            178.60154484759994,
            -139.32326607974596
          ],
          [
            178.23242029122972,
            -140.06146744603438
          ],
          [
            178.2323626861093,
            -141.53789359277226
          ],
          [
            178.2323050809889,
            -143.01431973951017
          ],
          [
            178.23224747586855,
            -144.49074588624805
          ],
          [
            178.23218987074813,
            -145.96717203298596
          ],
          [
            178.23213226562774,
            -147.44359817972384
          ],
          [
            178.97025176684738,
            -149.28915427730726
          ],
          [
            178.97022296428716,
            -150.0273673506762
          ],
          [
            179.33928991553705,
            -150.7655921311257
          ],
          [
            179.33926111297686,
            -151.50380520449465
          ],
          [
            178.9701365566066,
            -152.24200657078305
          ],
          [
            178.60101200023635,
            -152.9802079370715
          ],
          [
            178.2318874438661,
            -153.7184093033599
          ],
          [
            177.86276288749585,
            -154.4566106696483
          ],
          [
            176.38629346457503,
            -156.671203061433
          ],
          [
            174.90979523909402,
            -159.62400852658666
          ],
          [
            174.17151732379332,
            -161.83862433253242
          ],
          [
            173.43323940849262,
            -164.0532401384782
          ],
          [
            173.06407164828207,
            -165.89876111482005
          ],
          [
            173.06401404316168,
            -167.37518726155793
          ],
          [
            171.58755902152097,
            -169.22067311665816
          ],
          [
            169.74202264735027,
            -170.69704072799337
          ],
          [
            168.6346777807997,
            -172.17343175348967
          ],
          [
            167.158222759159,
            -174.01891760858987
          ],
          [
            165.3126575824281,
            -176.23349829329405
          ],
          [
            163.83615935694712,
            -179.1863037584477
          ],
          [
            162.3597124618433,
            -181.40089615094695
          ],
          [
            160.14508033386255,
            -182.87725205520164
          ],
          [
            157.930477008442,
            -183.6153948860874
          ],
          [
            157.1922710995418,
            -183.98447800861078
          ],
          [
            155.71580167662097,
            -186.1990704003955
          ],
          [
            154.23930345114,
            -189.15187586554913
          ],
          [
            152.3937094718489,
            -192.10466962362224
          ],
          [
            151.28630700017797,
            -195.05748679585645
          ],
          [
            149.80980877469693,
            -198.01029226101008
          ],
          [
            149.4406410144864,
            -199.8558132373519
          ],
          [
            149.440583409366,
            -201.3322393840898
          ],
          [
            148.7023054940653,
            -203.54685519003561
          ],
          [
            148.33312333257464,
            -205.76148270306192
          ],
          [
            148.33308012873437,
            -206.86880231311534
          ],
          [
            148.33302252361398,
            -208.34522845985322
          ],
          [
            148.33296491849362,
            -209.82165460659112
          ],
          [
            148.3329073133732,
            -211.298080753329
          ],
          [
            147.22551924298236,
            -213.8817913888787
          ],
          [
            146.1181311725915,
            -216.4655020244284
          ],
          [
            146.1180735674711,
            -217.9419281711663
          ],
          [
            146.4871117161608,
            -219.41836602498472
          ],
          [
            146.48709731488066,
            -219.7874725616692
          ],
          [
            146.1179727585104,
            -220.5256739279576
          ]
        ]
      },
      "properties": {
        "type": "variant",
        "id": 2,
        "color": "#4444ff",
        "vzdal_m": 2074,
        "prevyseni_m": 78,
        "cas_s": 673,
        "tempo_str": "5:24"
      }
    },
    {
      "type": "Feature",
      "geometry": {
        "type": "LineString",
        "coordinates": [
          [
            167.5309188329934,
            -81.74229514455205
          ],
          [
            166.05453581775316,
            -81.7422483162299
          ],
          [
            163.83993249233262,
            -82.48039114711564
          ],
          [
            163.1017265834324,
            -82.84947426963905
          ],
          [
            162.3634999985089,
            -84.32587700293041
          ],
          [
            160.88705937814828,
            -85.80225632134616
          ],
          [
            159.0414942014174,
            -88.01683700605034
          ],
          [
            157.19598662980692,
            -88.7549915440166
          ],
          [
            155.71954600944628,
            -90.23137086243237
          ],
          [
            153.8740240365557,
            -91.33863193708311
          ],
          [
            153.87399523399552,
            -92.07684501045206
          ],
          [
            153.1357749238152,
            -92.81503466965994
          ],
          [
            152.76663596616487,
            -93.92234257263283
          ],
          [
            151.29015214196394,
            -96.506041501102
          ],
          [
            150.07267930489277,
            -99.4447974135897
          ],
          [
            148.63529673760593,
            -101.05398333197081
          ],
          [
            148.19540605141208,
            -101.9525401399206
          ],
          [
            147.6599879242435,
            -102.51710927354938
          ],
          [
            145.97975533406242,
            -104.13027502925137
          ],
          [
            144.46061064944143,
            -105.96165670485439
          ],
          [
            143.16958471717956,
            -108.31719311923338
          ],
          [
            144.26493429932594,
            -111.15128750940522
          ],
          [
            144.27671356452865,
            -112.37740014400421
          ],
          [
            145.01484746702837,
            -113.85384970490317
          ],
          [
            145.38391441827824,
            -114.59207448535265
          ],
          [
            146.49111527202783,
            -116.80674882670108
          ],
          [
            146.8601534207175,
            -118.28318668051952
          ],
          [
            147.9673974783074,
            -119.39054141181455
          ],
          [
            148.79485232343825,
            -119.75967419439594
          ],
          [
            148.7307930785756,
            -121.23895942745848
          ],
          [
            148.09059939760132,
            -122.92439572702435
          ],
          [
            147.6111549279099,
            -124.84796310779637
          ],
          [
            147.58000809237657,
            -126.34599307612297
          ],
          [
            146.95390117871233,
            -127.27766083611124
          ],
          [
            144.76319223128357,
            -128.78890284296452
          ],
          [
            143.07558680822137,
            -129.984525606062
          ],
          [
            141.480676810733,
            -131.34780822149358
          ],
          [
            140.0114663200526,
            -132.85749611977147
          ],
          [
            138.58221764438505,
            -134.43208982252617
          ],
          [
            137.37490918903944,
            -136.10492598080887
          ],
          [
            135.76349495165852,
            -137.82389890293356
          ],
          [
            134.72561875594116,
            -140.06008748534904
          ],
          [
            134.7255611508208,
            -141.53651363208692
          ],
          [
            136.20454813096194,
            -144.08350603880533
          ],
          [
            137.64631518330927,
            -145.57757265683955
          ],
          [
            139.1080048895786,
            -147.44235722990172
          ],
          [
            139.1079904882985,
            -147.81146376658617
          ],
          [
            138.73886593192825,
            -148.5496651328746
          ],
          [
            138.36975577683808,
            -148.91875996247853
          ],
          [
            138.73882272808794,
            -149.65698474292802
          ],
          [
            139.1078896793378,
            -150.3952095233775
          ],
          [
            139.47697103186778,
            -150.7643277671425
          ],
          [
            139.84603798311764,
            -151.502552547592
          ],
          [
            140.2151049343675,
            -152.24077732804147
          ],
          [
            140.2150905330874,
            -152.60988386472593
          ],
          [
            140.215032927967,
            -154.08631001146384
          ],
          [
            140.21497532284664,
            -155.56273615820172
          ],
          [
            140.21491771772622,
            -157.03916230493962
          ],
          [
            140.5839414651358,
            -158.88470669544253
          ],
          [
            140.58388386001542,
            -160.3611328421804
          ],
          [
            140.95290760742498,
            -162.20667723268332
          ],
          [
            142.7983287713549,
            -163.6831619148239
          ],
          [
            144.27465418147474,
            -165.15963488988393
          ],
          [
            144.6953767693056,
            -165.91446479495937
          ],
          [
            144.48432273047578,
            -167.41394214358817
          ],
          [
            144.5293076203069,
            -169.2271253657973
          ],
          [
            144.5358037605518,
            -170.7509516321607
          ],
          [
            144.23984565979984,
            -172.16635001845472
          ],
          [
            143.98834547618705,
            -173.31175730423448
          ],
          [
            143.69495831065322,
            -174.07892142760983
          ],
          [
            143.50150564228153,
            -174.817871805588
          ],
          [
            142.96977028684475,
            -175.68462675768467
          ],
          [
            141.2133578392199,
            -177.06148892106305
          ],
          [
            140.0880338466471,
            -178.587295586572
          ],
          [
            139.6597064051758,
            -179.31990801320555
          ],
          [
            138.69933935116686,
            -180.63395224429124
          ],
          [
            137.12239929903518,
            -182.76051143260463
          ],
          [
            136.57383898399328,
            -184.69696290893697
          ],
          [
            136.42668217827523,
            -186.5599730238131
          ],
          [
            136.52275047209747,
            -188.04399431563004
          ],
          [
            136.60627562988142,
            -189.98089388165127
          ],
          [
            137.0350629049202,
            -191.32006763141447
          ],
          [
            137.29915099956966,
            -193.1933187179953
          ],
          [
            138.83462349114865,
            -196.10563466964985
          ],
          [
            139.29828926749818,
            -196.7279759743502
          ],
          [
            139.74536576222957,
            -197.5760746025188
          ],
          [
            139.82902045604166,
            -197.9251221859061
          ],
          [
            140.01646644839934,
            -198.70686621967536
          ],
          [
            140.7052814274737,
            -200.9024907290293
          ],
          [
            140.52612203891817,
            -202.52342009892834
          ],
          [
            140.8663729204821,
            -203.9157131849144
          ],
          [
            140.86631531536173,
            -205.3921393316523
          ],
          [
            140.92789450756976,
            -206.85088258039673
          ],
          [
            140.7050577480233,
            -208.36759383880093
          ],
          [
            140.44264306621017,
            -209.79582325564212
          ],
          [
            140.95097783589196,
            -211.66695314840277
          ],
          [
            142.42730324601177,
            -213.1434261234628
          ],
          [
            143.90358545229134,
            -215.72721870857626
          ],
          [
            144.2726380022611,
            -216.83455002571023
          ],
          [
            144.64170495351098,
            -217.5727748061597
          ],
          [
            145.3798388560107,
            -219.04922436705868
          ],
          [
            145.74890580726057,
            -219.7874491475081
          ],
          [
            146.1179727585104,
            -220.5256739279576
          ]
        ]
      },
      "properties": {
        "type": "variant",
        "id": 3,
        "color": "#44ff44",
        "vzdal_m": 2241,
        "prevyseni_m": 71,
        "cas_s": 689,
        "tempo_str": "5:07"
      }
    }
  ]
}