{
  "type": "FeatureCollection",
  "features": [
    {
      "type": "Feature",
      "geometry": {
        "type": "Point",
        "coordinates": [
          86.78516768359832,
          -52.65589448679719
        ]
      },
      "properties": {
        "type": "start",
        "isom": "109"
      }
    },
    {
      "type": "Feature",
      "geometry": {
        "type": "Point",
        "coordinates": [
          81.71082547274091,
          -34.75483221692391
        ]
      },
      "properties": {
        "type": "end",
        "isom": "203"
      }
    },
    {
      "type": "Feature",
      "geometry": {
        "type": "LineString",
        "coordinates": [
          [
            86.78516768359832,
            -52.65589448679719
          ],
          [
            87.06200331358066,
            -52.01000241365715
          ],
          [
            87.06201544601689,
            -51.64091347536419
          ],
          [
            86.96975914548919,
            -51.17954777954045
          ],
          [
            86.9697712779254,
            -50.81045884124749
          ],
          [
            86.96978341036163,
            -50.441369902954534
          ],
          [
            86.96979554279785,
            -50.07228096466158
          ],
          [
            86.87753924227013,
            -49.610915268837836
          ],
          [
            86.78528294174244,
            -49.1495495730141
          ],
          [
            86.69302664121473,
            -48.688183877190355
          ],
          [
            86.69303877365095,
            -48.3190949388974
          ],
          [
            86.41623954097727,
            -47.85772019715858
          ],
          [
            86.13944334141264,
            -47.30407322084651
          ],
          [
            85.77037264266598,
            -46.84269395615014
          ],
          [
            85.77038477510222,
            -46.47360501785719
          ],
          [
            85.77039690753843,
            -46.104516079564235
          ],
          [
            85.40133530811893,
            -45.36632011114814
          ],
          [
            85.03226157626321,
            -44.997213081025016
          ],
          [
            84.66319997684371,
            -44.25901711260893
          ],
          [
            84.570943676316,
            -43.797651416785186
          ],
          [
            84.29415050986044,
            -43.15173220589988
          ],
          [
            84.29416264229666,
            -42.78264326760693
          ],
          [
            84.29417477473288,
            -42.41355432931397
          ],
          [
            84.2941869071691,
            -42.04446539102101
          ],
          [
            84.29419903960533,
            -41.67537645272806
          ],
          [
            84.10967430611369,
            -41.12173399937354
          ],
          [
            84.10968643854991,
            -40.75264506108058
          ],
          [
            84.10969857098614,
            -40.383556122787624
          ],
          [
            83.9251738374945,
            -39.8299136694331
          ],
          [
            83.64838067103894,
            -39.183994458547794
          ],
          [
            83.55612437051123,
            -38.72262876272406
          ],
          [
            83.55613650294745,
            -38.353539824431095
          ],
          [
            83.18707490352796,
            -37.61534385601501
          ],
          [
            83.00255017003632,
            -37.06170140266049
          ],
          [
            82.81802543654467,
            -36.50805894930597
          ],
          [
            82.44895777090707,
            -35.95440745003636
          ],
          [
            82.07989313837852,
            -35.308483716193514
          ],
          [
            81.71082547274091,
            -34.75483221692391
          ]
        ]
      },
      "properties": {
        "type": "variant",
        "id": 1,
        "color": "#ff4444",
        "vzdal_m": 1043,
        "prevyseni_m": 0,
        "cas_s": 261,
        "tempo_str": "4:10"
      }
    },
    {
      "type": "Feature",
      "geometry": {
        "type": "LineString",
        "coordinates": [
          [
            86.78516768359832,
            -52.65589448679719
          ],
          [
            86.41609698485165,
            -52.19451522210082
          ],
          [
            86.047026286105,
            -51.73313595740445
          ],
          [
            85.67795255424927,
            -51.364028927281325
          ],
          [
            85.30887882239355,
            -50.9949218971582
          ],
          [
            84.93980812364688,
            -50.533542632461824
          ],
          [
            84.57074045800928,
            -49.97989113319222
          ],
          [
            84.20167279237167,
            -49.426239633922606
          ],
          [
            83.83260815984312,
            -48.78031590007976
          ],
          [
            83.46354656042362,
            -48.04211993166367
          ],
          [
            83.09447889478601,
            -47.48846843239407
          ],
          [
            82.72540819603935,
            -47.0270891676977
          ],
          [
            82.35634053040174,
            -46.47343766842809
          ],
          [
            82.07954736394618,
            -45.82751845754279
          ],
          [
            81.98729106341847,
            -45.36615276171905
          ],
          [
            81.71049789696289,
            -44.72023355083375
          ],
          [
            81.43370473050733,
            -44.074314339948444
          ],
          [
            81.2491799970157,
            -43.52067188659392
          ],
          [
            81.156923696488,
            -43.05930619077018
          ],
          [
            81.1569358289242,
            -42.69021725247722
          ],
          [
            81.15694796136043,
            -42.321128314184264
          ],
          [
            81.15696009379666,
            -41.9520393758913
          ],
          [
            80.97243536030503,
            -41.39839692253678
          ],
          [
            80.97244749274124,
            -41.02930798424383
          ],
          [
            80.97245962517745,
            -40.660219045950875
          ],
          [
            80.97247175761369,
            -40.291130107657914
          ],
          [
            80.88021545708597,
            -39.82976441183418
          ],
          [
            81.15705108706833,
            -39.18387233869413
          ],
          [
            81.15706321950455,
            -38.814783400401176
          ],
          [
            81.24934985112282,
            -38.353426750492524
          ],
          [
            81.24936198355904,
            -37.98433781219956
          ],
          [
            81.24937411599525,
            -37.61524887390661
          ],
          [
            81.24938624843148,
            -37.24615993561365
          ],
          [
            81.61849637759586,
            -36.50800015085791
          ],
          [
            81.71078300921413,
            -36.04664350094926
          ],
          [
            81.71079514165035,
            -35.677554562656304
          ],
          [
            81.71080727408658,
            -35.30846562436334
          ],
          [
            81.7108194065228,
            -34.93937668607039
          ],
          [
            81.71082547274091,
            -34.75483221692391
          ]
        ]
      },
      "properties": {
        "type": "variant",
        "id": 2,
        "color": "#4444ff",
        "vzdal_m": 1072,
        "prevyseni_m": 5,
        "cas_s": 259,
        "tempo_str": "4:01"
      }
    },
    {
      "type": "Feature",
      "geometry": {
        "type": "LineString",
        "coordinates": [
          [
            86.78516768359832,
            -52.65589448679719
          ],
          [
            86.60063991699762,
            -52.19452426801591
          ],
          [
            86.41611518350598,
            -51.640881814661384
          ],
          [
            86.13932201705042,
            -50.99496260377608
          ],
          [
            85.86252885059486,
            -50.34904339289078
          ],
          [
            85.67800411710323,
            -49.79540093953626
          ],
          [
            85.30894251768372,
            -49.05720497112017
          ],
          [
            85.21668621715601,
            -48.595839275296434
          ],
          [
            84.84762461773651,
            -47.85764330688034
          ],
          [
            84.7553683172088,
            -47.396277611056604
          ],
          [
            84.57084358371716,
            -46.842635157702084
          ],
          [
            84.2940504172616,
            -46.19671594681678
          ],
          [
            84.01725725080604,
            -45.55079673593148
          ],
          [
            83.64819565138653,
            -44.81260076751539
          ],
          [
            83.27913405196703,
            -44.0744047990993
          ],
          [
            83.18687775143934,
            -43.61303910327556
          ],
          [
            83.18688988387555,
            -43.24395016498261
          ],
          [
            83.00236515038392,
            -42.69030771162809
          ],
          [
            83.00237728282015,
            -42.321218773335126
          ],
          [
            83.00238941525636,
            -41.95212983504217
          ],
          [
            83.00240154769259,
            -41.58304089674922
          ],
          [
            83.09468817931085,
            -41.121684246840566
          ],
          [
            83.27924931011115,
            -40.56805988531621
          ],
          [
            83.27926144254738,
            -40.198970947023255
          ],
          [
            83.2792735749836,
            -39.829882008730294
          ],
          [
            83.27928570741983,
            -39.46079307043734
          ],
          [
            83.27929783985604,
            -39.091704132144386
          ],
          [
            83.3715844714743,
            -38.630347482235734
          ],
          [
            83.37159660391053,
            -38.26125854394277
          ],
          [
            83.18707187041889,
            -37.70761609058825
          ],
          [
            83.00254713692726,
            -37.15397363723373
          ],
          [
            82.91029083639955,
            -36.69260794140999
          ],
          [
            82.541226203871,
            -36.04668420756715
          ],
          [
            82.17216157134244,
            -35.4007604737243
          ],
          [
            81.80309087259577,
            -34.93938120902793
          ],
          [
            81.71082547274091,
            -34.75483221692391
          ]
        ]
      },
      "properties": {
        "type": "variant",
        "id": 3,
        "color": "#44ff44",
        "vzdal_m": 1036,
        "prevyseni_m": 0,
        "cas_s": 262,
        "tempo_str": "4:13"
      }
    }
  ]
}