{
  "type": "FeatureCollection",
  "features": [
    {
      "type": "Feature",
      "geometry": {
        "type": "Point",
        "coordinates": [
          30.67677038011186,
          -27.30250168461871
        ]
      },
      "properties": {
        "type": "start",
        "isom": "111"
      }
    },
    {
      "type": "Feature",
      "geometry": {
        "type": "Point",
        "coordinates": [
          14.070189360261077,
          -20.321712519750097
        ]
      },
      "properties": {
        "type": "end",
        "isom": "109"
      }
    },
    {
      "type": "Feature",
      "geometry": {
        "type": "LineString",
        "coordinates": [
          [
            30.732546133290654,
            -27.244500187144457
          ],
          [
            30.54807247692847,
            -26.321753039253803
          ],
          [
            29.809953964295985,
            -25.768103824830227
          ],
          [
            29.62544079843078,
            -25.399004802317044
          ],
          [
            29.256374957197373,
            -25.214454882668175
          ],
          [
            29.07184862149784,
            -25.02990523528082
          ],
          [
            28.702782780264425,
            -24.84535531563194
          ],
          [
            28.33371693903101,
            -24.660805395983072
          ],
          [
            28.149203773165812,
            -24.29170637346989
          ],
          [
            27.96467743746628,
            -24.10715672608254
          ],
          [
            27.595611596232864,
            -23.922606806433663
          ],
          [
            26.48842724236697,
            -23.184407672361214
          ],
          [
            25.565782394034947,
            -22.446208810550285
          ],
          [
            25.38125605833541,
            -22.261659163162935
          ],
          [
            25.012190217101995,
            -22.07710924351406
          ],
          [
            24.45857170050037,
            -22.077108426729488
          ],
          [
            24.089479519598285,
            -22.261657257332264
          ],
          [
            23.16679516176325,
            -22.077106520898816
          ],
          [
            22.42863713962775,
            -22.07710543185272
          ],
          [
            21.321426446093177,
            -21.70800504803192
          ],
          [
            20.952360604859766,
            -21.523455128383045
          ],
          [
            19.660623575625657,
            -20.969805097174895
          ],
          [
            18.553412882091084,
            -20.600704713354098
          ],
          [
            18.36887337655721,
            -20.60070444109257
          ],
          [
            17.999781195655125,
            -20.78525327169535
          ],
          [
            16.8925178227832,
            -21.154350388377857
          ],
          [
            15.41622811818088,
            -20.78524946003401
          ],
          [
            15.047162276947468,
            -20.600699540385133
          ],
          [
            14.124491088946769,
            -20.23159942882586
          ]
        ]
      },
      "properties": {
        "type": "variant",
        "id": 1,
        "color": "#ff4444",
        "vzdal_m": 529,
        "prevyseni_m": 2,
        "cas_s": 143,
        "tempo_str": "4:30"
      }
    },
    {
      "type": "Feature",
      "geometry": {
        "type": "LineString",
        "coordinates": [
          [
            30.732546133290654,
            -27.244500187144457
          ],
          [
            29.809835435786947,
            -27.429048200962665
          ],
          [
            28.88715107795191,
            -27.244497464529218
          ],
          [
            28.148979885982072,
            -27.429045750608942
          ],
          [
            27.77991404474866,
            -27.244495830960073
          ],
          [
            27.041756022613164,
            -27.24449474191397
          ],
          [
            26.303598000477663,
            -27.244493652867877
          ],
          [
            25.565439978342166,
            -27.244492563821776
          ],
          [
            24.273702949108056,
            -26.69084253261363
          ],
          [
            23.351044930941697,
            -26.137193045928527
          ],
          [
            23.16651859524216,
            -25.952643398541177
          ],
          [
            22.699291361781018,
            -25.819918997829237
          ],
          [
            22.081341019495724,
            -24.6491998835545
          ],
          [
            21.655968739569747,
            -23.84332201171126
          ],
          [
            21.12425850446792,
            -23.711307147860627
          ],
          [
            20.398584050246093,
            -23.738046813108394
          ],
          [
            19.29137335671152,
            -23.368946429287593
          ],
          [
            18.18416266317695,
            -22.999846045466793
          ],
          [
            17.261517814844925,
            -22.261647183655867
          ],
          [
            16.89246514344585,
            -21.89254788888116
          ],
          [
            16.707951977580652,
            -21.523448866367985
          ],
          [
            16.33888613634724,
            -21.33889894671911
          ],
          [
            15.41622811818088,
            -20.78524946003401
          ],
          [
            15.047162276947468,
            -20.600699540385133
          ],
          [
            14.124491088946769,
            -20.23159942882586
          ]
        ]
      },
      "properties": {
        "type": "variant",
        "id": 2,
        "color": "#4444ff",
        "vzdal_m": 520,
        "prevyseni_m": 5,
        "cas_s": 138,
        "tempo_str": "4:25"
      }
    },
    {
      "type": "Feature",
      "geometry": {
        "type": "LineString",
        "coordinates": [
          [
            30.732546133290654,
            -27.244500187144457
          ],
          [
            29.625269590584395,
            -27.798146678952794
          ],
          [
            29.25617740968231,
            -27.982695509555572
          ],
          [
            28.517966708209457,
            -28.72089192101278
          ],
          [
            27.779769176570948,
            -29.274538957344166
          ],
          [
            26.3035058116373,
            -28.536339278748663
          ],
          [
            25.011781952237527,
            -27.798139872414684
          ],
          [
            23.904584428537294,
            -27.244490113468057
          ],
          [
            22.89186942414034,
            -26.184760240260736
          ],
          [
            22.1977409443294,
            -24.86971538226454
          ],
          [
            21.655968739569747,
            -23.84332201171126
          ],
          [
            21.12425850446792,
            -23.711307147860627
          ],
          [
            19.85141838011038,
            -24.305605171215408
          ],
          [
            19.10386993484817,
            -24.65464163469852
          ],
          [
            18.73767582110387,
            -24.47624186325798
          ],
          [
            17.99958364814006,
            -23.55349389858275
          ],
          [
            17.446044150544463,
            -22.446196831043217
          ],
          [
            16.89246514344585,
            -21.89254788888116
          ],
          [
            16.707951977580652,
            -21.523448866367985
          ],
          [
            16.33888613634724,
            -21.33889894671911
          ],
          [
            15.41622811818088,
            -20.78524946003401
          ],
          [
            15.047162276947468,
            -20.600699540385133
          ],
          [
            14.124491088946769,
            -20.23159942882586
          ]
        ]
      },
      "properties": {
        "type": "variant",
        "id": 3,
        "color": "#44ff44",
        "vzdal_m": 587,
        "prevyseni_m": 6,
        "cas_s": 150,
        "tempo_str": "4:15"
      }
    }
  ]
}