{
  "type": "FeatureCollection",
  "features": [
    {
      "type": "Feature",
      "geometry": {
        "type": "Point",
        "coordinates": [
          164.7601073872088,
          -218.8727625333014
        ]
      },
      "properties": {
        "type": "start",
        "isom": "115"
      }
    },
    {
      "type": "Feature",
      "geometry": {
        "type": "Point",
        "coordinates": [
          209.33035351236606,
          -157.40023179187193
        ]
      },
      "properties": {
        "type": "end",
        "isom": "109"
      }
    },
    {
      "type": "Feature",
      "geometry": {
        "type": "LineString",
        "coordinates": [
          [
            164.80081233301553,
            -218.89848005228527
          ],
          [
            165.16993459461614,
            -217.79123132923658
          ],
          [
            165.3780464873638,
            -216.82726249525817
          ],
          [
            165.2981924616727,
            -216.78154626338045
          ],
          [
            165.53906898865296,
            -216.31489366789492
          ],
          [
            165.72362405323517,
            -215.94581377551705
          ],
          [
            166.46183217912773,
            -214.83858314429852
          ],
          [
            167.20004030502025,
            -213.73135251308003
          ],
          [
            167.9382423646947,
            -212.808666351008
          ],
          [
            168.67645655680536,
            -211.51689125064294
          ],
          [
            169.23012781677008,
            -210.22510710436288
          ],
          [
            169.96834200888074,
            -208.93333200399786
          ],
          [
            170.33747033669945,
            -207.6415388118027
          ],
          [
            170.8911233980098,
            -206.903388072962
          ],
          [
            171.81386838983022,
            -205.9807109568051
          ],
          [
            172.55208864815899,
            -204.50439138729357
          ],
          [
            173.29030284026965,
            -203.21261628692858
          ],
          [
            174.05607979284443,
            -202.09259914580863
          ],
          [
            173.72006760153903,
            -201.22527393010853
          ],
          [
            173.48023315760665,
            -200.29178129509143
          ],
          [
            173.4428732505451,
            -199.33581418336414
          ],
          [
            173.57926979287447,
            -198.39392690647304
          ],
          [
            174.38002578068134,
            -196.9462898529041
          ],
          [
            175.1430730805875,
            -196.02362183182245
          ],
          [
            176.09828115643185,
            -195.33292065095088
          ],
          [
            176.87032721056514,
            -194.61918333426556
          ],
          [
            177.51133578050795,
            -193.7919504477449
          ],
          [
            177.8359700064554,
            -193.36112742946287
          ],
          [
            178.26096317525716,
            -193.18831648725876
          ],
          [
            178.66080943205134,
            -193.1897589451548
          ],
          [
            179.5469171947299,
            -193.51045422626234
          ],
          [
            180.323862669078,
            -193.48442633301906
          ],
          [
            181.18467124309595,
            -193.17730266106466
          ],
          [
            181.53965108854916,
            -192.9687435241164
          ],
          [
            181.8946365827616,
            -192.76020450164793
          ],
          [
            182.909693727626,
            -192.1681341381196
          ],
          [
            183.72201649956486,
            -191.49328340793448
          ],
          [
            184.59536052039832,
            -190.7220385130175
          ],
          [
            185.40258149633576,
            -190.15875990088622
          ],
          [
            185.78470346167964,
            -189.7899910423504
          ],
          [
            186.16602705513688,
            -189.63588551382998
          ],
          [
            186.31810835706654,
            -189.5738399052111
          ],
          [
            186.71806067804624,
            -189.4248173809868
          ],
          [
            187.1054658630707,
            -189.29489743740302
          ],
          [
            187.87609567612066,
            -189.02014002068753
          ],
          [
            189.1783107878823,
            -188.49099718545273
          ],
          [
            190.5271967139237,
            -187.82018770912234
          ],
          [
            191.44732917260762,
            -187.04807724443828
          ],
          [
            192.20582478715238,
            -186.32113172721643
          ],
          [
            192.91647079185816,
            -185.55645894025693
          ],
          [
            193.62040068387589,
            -184.78388038835712
          ],
          [
            194.2067966138567,
            -183.92752364606733
          ],
          [
            195.06704218370461,
            -182.72924762964965
          ],
          [
            195.4361401804328,
            -182.36017678318686
          ],
          [
            195.62069524501499,
            -181.99109689080896
          ],
          [
            196.17436650497967,
            -180.6993127445289
          ],
          [
            196.3589215695619,
            -180.33023285215103
          ],
          [
            196.91259282952657,
            -179.03844870587093
          ],
          [
            197.650794889201,
            -178.1157625437989
          ],
          [
            198.20444188429326,
            -177.5621562741047
          ],
          [
            198.9426500101858,
            -176.4549256428862
          ],
          [
            199.49630913771426,
            -175.53223043489905
          ],
          [
            200.2345111973887,
            -174.609544272827
          ],
          [
            200.603615260335,
            -174.05592895721773
          ],
          [
            200.7881763911353,
            -173.5023045956934
          ],
          [
            201.52637238459164,
            -172.76416290276782
          ],
          [
            202.26457444426606,
            -171.84147674069575
          ],
          [
            203.00279470259485,
            -170.36515717118428
          ],
          [
            203.92554576063336,
            -169.25793558588086
          ],
          [
            204.47921702059807,
            -167.96615143960076
          ],
          [
            205.03288828056276,
            -166.67436729332067
          ],
          [
            205.21744941136305,
            -166.12074293179631
          ],
          [
            205.9556454048194,
            -165.38260123887076
          ],
          [
            206.69384139827574,
            -164.64445954594518
          ],
          [
            207.43203739173202,
            -163.90631785301963
          ],
          [
            208.7238621816263,
            -163.1682032978393
          ],
          [
            208.90841724620847,
            -162.79912340546144
          ],
          [
            208.90844151108092,
            -162.06094552887552
          ],
          [
            209.0929965756631,
            -161.69186563649765
          ],
          [
            209.2775516402453,
            -161.32278574411978
          ],
          [
            209.27757590511774,
            -160.58460786753386
          ],
          [
            209.2776001699902,
            -159.84642999094794
          ],
          [
            209.27762443486267,
            -159.10825211436205
          ],
          [
            209.27764869973507,
            -158.37007423777612
          ],
          [
            209.27767296460755,
            -157.6318963611902
          ],
          [
            209.27767903082565,
            -157.44735189204374
          ]
        ]
      },
      "properties": {
        "type": "variant",
        "id": 1,
        "color": "#ff4444",
        "vzdal_m": 2195,
        "prevyseni_m": 51,
        "cas_s": 638,
        "tempo_str": "4:50"
      }
    },
    {
      "type": "Feature",
      "geometry": {
        "type": "LineString",
        "coordinates": [
          [
            164.80081233301553,
            -218.89848005228527
          ],
          [
            165.90808812454569,
            -218.34490092033636
          ],
          [
            166.27717398883763,
            -218.34491901216654
          ],
          [
            166.4617229872017,
            -218.16038358893513
          ],
          [
            166.83081491771176,
            -217.97585721161883
          ],
          [
            167.1999007820037,
            -217.97587530344902
          ],
          [
            167.61642503911182,
            -217.62723222796453
          ],
          [
            168.12737873833572,
            -217.774915965145
          ],
          [
            169.02818692324604,
            -218.03528147268977
          ],
          [
            169.9381832315114,
            -218.27680416138742
          ],
          [
            170.85296169794125,
            -218.50940639362574
          ],
          [
            171.98520438810758,
            -218.76988185080998
          ],
          [
            172.72410895677615,
            -218.86696499625543
          ],
          [
            173.65867793288734,
            -218.91260776914137
          ],
          [
            174.61658484807435,
            -218.84769829523398
          ],
          [
            175.74050873218795,
            -218.45666847385345
          ],
          [
            176.83768971091658,
            -217.64677812649964
          ],
          [
            177.6295371043851,
            -216.7665471325503
          ],
          [
            177.78431229631582,
            -216.54408638969403
          ],
          [
            178.01288445551165,
            -216.20464773489587
          ],
          [
            178.19144002926558,
            -215.80723733142122
          ],
          [
            178.48596327527645,
            -214.846187915391
          ],
          [
            178.60442009956637,
            -213.91764884028728
          ],
          [
            178.82626929508888,
            -212.99374452914452
          ],
          [
            179.56447742098146,
            -211.88651389792602
          ],
          [
            180.30267341443778,
            -211.1483722050004
          ],
          [
            181.0408694078941,
            -210.41023051207486
          ],
          [
            181.59452246920446,
            -209.6720797732342
          ],
          [
            182.51726139480675,
            -208.93394712622376
          ],
          [
            183.44000032040907,
            -208.19581447921325
          ],
          [
            184.17820238008352,
            -207.2731283171412
          ],
          [
            184.91640443975794,
            -206.35044215506915
          ],
          [
            185.83914336536026,
            -205.61230950805864
          ],
          [
            186.76188229096255,
            -204.8741768610482
          ],
          [
            187.5000782844189,
            -204.13603516812262
          ],
          [
            187.68462728278297,
            -203.95149974489124
          ],
          [
            188.053719213293,
            -203.76697336757493
          ],
          [
            188.60737227460336,
            -203.02882262873428
          ],
          [
            188.97646420511344,
            -202.84429625141797
          ],
          [
            189.34555613562353,
            -202.65976987410167
          ],
          [
            190.45284405958986,
            -201.73710180385976
          ],
          [
            191.3755829851922,
            -200.99896915684928
          ],
          [
            192.2983219107945,
            -200.26083650983878
          ],
          [
            193.03651790425084,
            -199.52269481691323
          ],
          [
            193.77471389770713,
            -198.78455312398768
          ],
          [
            194.51290989116347,
            -198.04641143106213
          ],
          [
            195.25111195083792,
            -197.12372526899006
          ],
          [
            195.8047832108026,
            -195.83194112271
          ],
          [
            196.54297920425893,
            -195.09379942978438
          ],
          [
            197.09664439800554,
            -193.9865597526508
          ],
          [
            198.01940758848025,
            -192.5102492290544
          ],
          [
            198.7576157143728,
            -191.40301859783588
          ],
          [
            199.49584203891968,
            -189.7421545591779
          ],
          [
            200.23405623103037,
            -188.45037945881288
          ],
          [
            200.97225829070481,
            -187.52769329674084
          ],
          [
            201.71047248281548,
            -186.23591819637582
          ],
          [
            202.44868667492614,
            -184.94414309601083
          ],
          [
            203.18688266838245,
            -184.20600140308525
          ],
          [
            203.5559806651106,
            -183.8369305566225
          ],
          [
            203.74053572969285,
            -183.4678506642446
          ],
          [
            204.10963372642098,
            -183.09877981778183
          ],
          [
            204.2941887910032,
            -182.72969992540396
          ],
          [
            205.03240298311383,
            -181.43792482503895
          ],
          [
            205.7706111090064,
            -180.33069419382042
          ],
          [
            206.50881316868086,
            -179.40800803174838
          ],
          [
            206.69336823326304,
            -179.0389281393705
          ],
          [
            206.8779232978452,
            -178.66984824699264
          ],
          [
            207.06247836242744,
            -178.30076835461477
          ],
          [
            207.06250262729984,
            -177.56259047802885
          ],
          [
            207.06250869351797,
            -177.37804600888236
          ],
          [
            207.24706375810018,
            -177.0089661165045
          ],
          [
            207.24707589053642,
            -176.63987717821155
          ],
          [
            207.616198152137,
            -175.53262845516284
          ],
          [
            208.48063553758425,
            -174.75922590142375
          ],
          [
            209.2581811166576,
            -174.03258045817665
          ],
          [
            209.95620373531682,
            -173.2675541410609
          ],
          [
            210.72546663055,
            -172.37132763016237
          ],
          [
            211.19543218346877,
            -171.70866816598237
          ],
          [
            211.43048411688343,
            -171.37519530744723
          ],
          [
            211.66054777532696,
            -170.9059464524716
          ],
          [
            211.63486153410147,
            -170.5790344060397
          ],
          [
            211.75558901761394,
            -170.20674560717427
          ],
          [
            211.71656698434748,
            -169.88227681661522
          ],
          [
            211.85683235988057,
            -169.6425696668034
          ],
          [
            211.89934584868524,
            -168.89107452192758
          ],
          [
            211.93127063115966,
            -168.13147911306905
          ],
          [
            211.83469242992663,
            -167.41470026267308
          ],
          [
            211.92728436368756,
            -166.68194662914357
          ],
          [
            211.93618820511415,
            -165.93652780111344
          ],
          [
            211.6764884337807,
            -165.01379272394547
          ],
          [
            210.9383531025055,
            -163.90648972540626
          ],
          [
            210.2002299036665,
            -162.4300977885741
          ],
          [
            209.64664357075534,
            -161.13825936680348
          ],
          [
            209.2775941037721,
            -160.03097446009443
          ],
          [
            209.27761836864454,
            -159.2927965835085
          ],
          [
            209.27764263351696,
            -158.5546187069226
          ],
          [
            209.2776668983894,
            -157.8164408303367
          ],
          [
            209.27767903082565,
            -157.44735189204374
          ]
        ]
      },
      "properties": {
        "type": "variant",
        "id": 2,
        "color": "#4444ff",
        "vzdal_m": 2340,
        "prevyseni_m": 50,
        "cas_s": 694,
        "tempo_str": "4:56"
      }
    },
    {
      "type": "Feature",
      "geometry": {
        "type": "LineString",
        "coordinates": [
          [
            164.80081233301553,
            -218.89848005228527
          ],
          [
            164.80083659788795,
            -218.16030217569937
          ],
          [
            164.80086086276043,
            -217.42212429911345
          ],
          [
            164.88291795033163,
            -216.54183071896676
          ],
          [
            164.8009093925053,
            -215.9457685459416
          ],
          [
            165.1700255878878,
            -215.0230642920394
          ],
          [
            165.90822764756223,
            -214.10037812996737
          ],
          [
            166.09278271214444,
            -213.73129823758947
          ],
          [
            166.27733777672663,
            -213.36221834521163
          ],
          [
            166.83100903669134,
            -212.07043419893154
          ],
          [
            167.3846742304379,
            -210.9631945217979
          ],
          [
            167.93835155662072,
            -209.48686590637138
          ],
          [
            168.12292481985722,
            -208.56415260655405
          ],
          [
            168.67659607982193,
            -207.27236846027395
          ],
          [
            169.04571834142254,
            -206.16511973722524
          ],
          [
            169.59938960138723,
            -204.87333559094515
          ],
          [
            169.96851186298784,
            -203.76608686789646
          ],
          [
            170.15308512622437,
            -202.84337356807916
          ],
          [
            169.96856645895085,
            -202.10518664557816
          ],
          [
            170.15313365596927,
            -201.36701781490734
          ],
          [
            170.1531579208417,
            -200.62883993832142
          ],
          [
            170.15318218571414,
            -199.89066206173553
          ],
          [
            170.1532064505866,
            -199.1524841851496
          ],
          [
            170.15323071545905,
            -198.41430630856368
          ],
          [
            170.15324891411336,
            -197.86067290112425
          ],
          [
            170.15327924520395,
            -196.93795055539186
          ],
          [
            170.52240150680456,
            -195.83070183234318
          ],
          [
            170.52243183789508,
            -194.90797948661077
          ],
          [
            170.7069990349135,
            -194.16981065593993
          ],
          [
            171.07612129651412,
            -193.06256193289124
          ],
          [
            171.62976829160635,
            -192.50895566319704
          ],
          [
            171.81432335618857,
            -192.1398757708192
          ],
          [
            171.99887842077075,
            -191.7707958784413
          ],
          [
            172.36798854993515,
            -191.03263609368557
          ],
          [
            172.55254361451733,
            -190.6635562013077
          ],
          [
            173.29073960797368,
            -189.92541450838212
          ],
          [
            174.39802146572194,
            -189.18729090728675
          ],
          [
            175.5053033234702,
            -188.4491673061913
          ],
          [
            176.98167104551044,
            -187.7110617969261
          ],
          [
            178.27348976918654,
            -187.15749171089226
          ],
          [
            179.01169182886102,
            -186.23480554882022
          ],
          [
            179.9344307544633,
            -185.49667290180975
          ],
          [
            181.5953414086495,
            -184.7585764384596
          ],
          [
            182.3335374021058,
            -184.02043474553403
          ],
          [
            183.62536825821817,
            -183.09777572120723
          ],
          [
            184.9171930481124,
            -182.3596611660269
          ],
          [
            185.83993803993283,
            -181.43698404986998
          ],
          [
            186.3935911012432,
            -180.69883331102932
          ],
          [
            187.31635429171791,
            -179.22252278743292
          ],
          [
            187.50092148873634,
            -178.48435395676208
          ],
          [
            187.87003768411884,
            -177.56164970285988
          ],
          [
            188.05459274870105,
            -177.192569810482
          ],
          [
            188.23914781328324,
            -176.82348991810414
          ],
          [
            188.42372107651977,
            -175.90077661828684
          ],
          [
            188.97739233648448,
            -174.60899247200672
          ],
          [
            189.53106359644917,
            -173.31720832572665
          ],
          [
            190.26928385477794,
            -171.84088875621515
          ],
          [
            191.0075041131067,
            -170.36456918670368
          ],
          [
            191.74570617278115,
            -169.44188302463164
          ],
          [
            192.66844509838344,
            -168.70375037762116
          ],
          [
            193.0375430951116,
            -168.33467953115837
          ],
          [
            193.77576335344042,
            -166.8583599616469
          ],
          [
            194.5139593468967,
            -166.12021826872132
          ],
          [
            195.43669827249906,
            -165.38208562171084
          ],
          [
            196.35943719810135,
            -164.64395297470037
          ],
          [
            197.28217612370364,
            -163.90582032768987
          ],
          [
            197.46673118828582,
            -163.536740435312
          ],
          [
            197.65128018664993,
            -163.35220501208062
          ],
          [
            198.02037211715998,
            -163.16767863476431
          ],
          [
            198.7585802430525,
            -162.0604480035458
          ],
          [
            199.86584996836456,
            -161.69141334074334
          ],
          [
            201.1576686920407,
            -161.1378432547095
          ],
          [
            202.44949348193495,
            -160.3997286995292
          ],
          [
            203.00312227837284,
            -160.39975583727445
          ],
          [
            203.18767127673695,
            -160.21522041404307
          ],
          [
            203.92584300532084,
            -160.21525659770342
          ],
          [
            204.6640147339047,
            -160.21529278136376
          ],
          [
            205.4021864624886,
            -160.2153289650241
          ],
          [
            206.1403581910725,
            -160.21536514868444
          ],
          [
            207.4321769147486,
            -159.6617950626506
          ],
          [
            208.3549158403509,
            -158.92366241564014
          ],
          [
            209.09312396624347,
            -157.8164317844216
          ],
          [
            209.27767903082565,
            -157.44735189204374
          ]
        ]
      },
      "properties": {
        "type": "variant",
        "id": 3,
        "color": "#44ff44",
        "vzdal_m": 2232,
        "prevyseni_m": 48,
        "cas_s": 671,
        "tempo_str": "5:00"
      }
    }
  ]
}