{
  "type": "FeatureCollection",
  "features": [
    {
      "type": "Feature",
      "geometry": {
        "type": "Point",
        "coordinates": [
          51.352072953826834,
          -189.08172613640266
        ]
      },
      "properties": {
        "type": "start",
        "isom": "417"
      }
    },
    {
      "type": "Feature",
      "geometry": {
        "type": "Point",
        "coordinates": [
          111.4637977504363,
          -228.32620867209005
        ]
      },
      "properties": {
        "type": "end",
        "isom": "204"
      }
    },
    {
      "type": "Feature",
      "geometry": {
        "type": "LineString",
        "coordinates": [
          [
            51.307891790577294,
            -188.9967128127777
          ],
          [
            51.86149025592466,
            -189.91946229625535
          ],
          [
            52.78418671800017,
            -190.4731409332702
          ],
          [
            53.70687711385758,
            -191.21136403943154
          ],
          [
            55.1831963061529,
            -191.94961428333818
          ],
          [
            56.47496650008415,
            -192.87239995047617
          ],
          [
            58.13583469074355,
            -193.4261147711514
          ],
          [
            59.24306801874693,
            -194.16434692322778
          ],
          [
            60.71938721104227,
            -194.90259716713442
          ],
          [
            62.01116953740972,
            -195.45629389597946
          ],
          [
            63.30295186377719,
            -196.0099906248245
          ],
          [
            64.59472812392654,
            -196.74823182281602
          ],
          [
            65.70196145192992,
            -197.48646397489247
          ],
          [
            66.62465184778733,
            -198.2246870810538
          ],
          [
            66.99373164586116,
            -198.40924964203046
          ],
          [
            67.362811443935,
            -198.59381220300708
          ],
          [
            68.65458163786624,
            -199.51659787014506
          ],
          [
            70.31544982852564,
            -200.0703126908203
          ],
          [
            71.79176902082098,
            -200.80856293472692
          ],
          [
            73.2680882131163,
            -201.5468131786335
          ],
          [
            74.74440740541162,
            -202.28506342254013
          ],
          [
            76.03618973177909,
            -202.83876015138517
          ],
          [
            77.14342305978246,
            -203.57699230346157
          ],
          [
            77.8815705234939,
            -204.31520636370783
          ],
          [
            78.98879778527917,
            -205.23798298493077
          ],
          [
            80.64966597593859,
            -205.79169780560593
          ],
          [
            82.12598516823391,
            -206.52994804951257
          ],
          [
            83.41776142838326,
            -207.2681892475041
          ],
          [
            84.7095316223145,
            -208.19097491464208
          ],
          [
            85.63224021682625,
            -208.375564613364
          ],
          [
            86.00132001490007,
            -208.56012717434064
          ],
          [
            86.37039981297391,
            -208.7446897353173
          ],
          [
            87.10854727668534,
            -209.48290379556357
          ],
          [
            88.03122554010653,
            -210.59021584001786
          ],
          [
            89.3230018002559,
            -211.3284570380094
          ],
          [
            90.06114926396734,
            -212.0666710982556
          ],
          [
            91.53746845626266,
            -212.80492134216223
          ],
          [
            93.01378764855798,
            -213.5431715860688
          ],
          [
            94.4901068408533,
            -214.28142182997544
          ],
          [
            94.67464370678115,
            -214.46597534503698
          ],
          [
            95.04372350485498,
            -214.65053790601365
          ],
          [
            95.96641390071241,
            -215.388761012175
          ],
          [
            96.70456136442384,
            -216.12697507242126
          ],
          [
            97.44270276191718,
            -217.049733601814
          ],
          [
            98.18083202697427,
            -218.34158106949968
          ],
          [
            98.91897949068571,
            -219.07979512974595
          ],
          [
            100.0262128186891,
            -219.8180272818224
          ],
          [
            101.13344614669246,
            -220.5562594338988
          ],
          [
            102.42522240684184,
            -221.29450063189032
          ],
          [
            103.5324557348452,
            -222.03273278396676
          ],
          [
            104.82423806121268,
            -222.5864295128118
          ],
          [
            106.30055725350799,
            -223.32467975671838
          ],
          [
            107.59233351365735,
            -224.0629209547099
          ],
          [
            108.51502390951475,
            -224.80114406087128
          ],
          [
            109.06862237486212,
            -225.72389354434893
          ],
          [
            109.99130670450143,
            -226.64666111965676
          ],
          [
            110.72945416821285,
            -227.38487517990302
          ],
          [
            111.46759556570619,
            -228.30763370929577
          ]
        ]
      },
      "properties": {
        "type": "variant",
        "id": 1,
        "color": "#ff4444",
        "vzdal_m": 1980,
        "prevyseni_m": 91,
        "cas_s": 665,
        "tempo_str": "5:35"
      }
    },
    {
      "type": "Feature",
      "geometry": {
        "type": "LineString",
        "coordinates": [
          [
            51.307891790577294,
            -188.9967128127777
          ],
          [
            51.861478123488425,
            -190.2885512345483
          ],
          [
            52.78415638690962,
            -191.3958632790026
          ],
          [
            53.70684678276703,
            -192.13408638516393
          ],
          [
            54.81408011077041,
            -192.87231853724037
          ],
          [
            55.55222757448185,
            -193.61053259748667
          ],
          [
            56.8440038346312,
            -194.34877379547817
          ],
          [
            57.58213916590641,
            -195.4560767940174
          ],
          [
            58.32028662961786,
            -196.19429085426364
          ],
          [
            59.05841589467496,
            -197.48613832194934
          ],
          [
            59.242952760602826,
            -197.67069183701088
          ],
          [
            59.61202042624043,
            -198.2243433362805
          ],
          [
            60.53472902075218,
            -198.4089330350024
          ],
          [
            60.90380881882601,
            -198.59349559597905
          ],
          [
            61.64195628253745,
            -199.3317096562253
          ],
          [
            62.1955547478848,
            -200.25445913970296
          ],
          [
            63.11825120996033,
            -200.8081377767178
          ],
          [
            63.85639867367176,
            -201.5463518369641
          ],
          [
            65.51213119493217,
            -202.25880886550607
          ],
          [
            65.56786154225756,
            -202.64642374490006
          ],
          [
            65.65538826583783,
            -203.16197510910666
          ],
          [
            65.69353877896991,
            -203.54920584147163
          ],
          [
            65.83840519727487,
            -203.71438160563136
          ],
          [
            65.97037313223692,
            -204.1014022463408
          ],
          [
            66.49824487208507,
            -205.6494848091784
          ],
          [
            66.79932834254065,
            -206.53246837390753
          ],
          [
            67.25160399259128,
            -207.85885127070904
          ],
          [
            67.94318164339943,
            -209.3723172741519
          ],
          [
            68.7325341726774,
            -210.83185560675685
          ],
          [
            69.45154732762654,
            -212.30738694201764
          ],
          [
            70.203616557294,
            -213.6392145001551
          ],
          [
            70.97963163081508,
            -214.5289393297546
          ],
          [
            71.71923680205603,
            -215.444045444075
          ],
          [
            72.47071126197972,
            -216.3590217538121
          ],
          [
            73.13281590232297,
            -217.15857558312246
          ],
          [
            73.43724075784712,
            -217.38454853982412
          ],
          [
            74.92843060489827,
            -218.15589246246108
          ],
          [
            76.43199163613127,
            -218.83371118158846
          ],
          [
            77.18377215174777,
            -219.17262054115213
          ],
          [
            77.55966240955603,
            -219.34207522093396
          ],
          [
            78.20691154872573,
            -219.85283314554192
          ],
          [
            78.89176146799956,
            -220.80695340707862
          ],
          [
            79.75709481609144,
            -222.00792971196654
          ],
          [
            80.32021234079717,
            -222.7388051921772
          ],
          [
            81.06113192368532,
            -223.65749142041815
          ],
          [
            81.83694192815662,
            -224.54250209986438
          ],
          [
            82.50308032244999,
            -225.34817879401157
          ],
          [
            83.1634321143242,
            -226.32343957453824
          ],
          [
            83.89487442646318,
            -227.43272874745432
          ],
          [
            84.2313358799667,
            -227.99110283523396
          ],
          [
            84.79982805096597,
            -228.27030712166965
          ],
          [
            85.43052188538755,
            -228.06569362422556
          ],
          [
            86.54557613428518,
            -227.82110659067035
          ],
          [
            87.6930225746431,
            -228.12274311642165
          ],
          [
            88.05882085198257,
            -228.12512938230765
          ],
          [
            88.75984796028906,
            -228.32966328025313
          ],
          [
            89.68934575809533,
            -228.68477500423182
          ],
          [
            91.15653809568707,
            -229.43939063881749
          ],
          [
            91.82003618514888,
            -229.84356852536087
          ],
          [
            92.1361962208816,
            -230.09519446312774
          ],
          [
            92.94700727126332,
            -230.76215809313035
          ],
          [
            93.23790636720103,
            -231.03212722873866
          ],
          [
            93.9974291443304,
            -231.7489783635046
          ],
          [
            94.69938711364264,
            -232.5271595128145
          ],
          [
            95.90031504643571,
            -233.3945105509949
          ],
          [
            97.4427886707312,
            -234.0265463364796
          ],
          [
            98.49744872353982,
            -234.46026701182467
          ],
          [
            99.65664772316637,
            -234.397022252564
          ],
          [
            100.94847251306061,
            -233.6589076973837
          ],
          [
            102.05575437080887,
            -232.92078409628832
          ],
          [
            102.42484630131892,
            -232.73625771897198
          ],
          [
            103.3475670282669,
            -232.55175847940097
          ],
          [
            104.08573875685079,
            -232.5517946630613
          ],
          [
            104.82391048543467,
            -232.55183084672163
          ],
          [
            105.74661907994641,
            -232.73642054544354
          ],
          [
            106.66933980689438,
            -232.5519213058725
          ],
          [
            107.96115853057051,
            -231.99835121983867
          ],
          [
            108.88389745617282,
            -231.26021857282817
          ],
          [
            109.43754445126507,
            -230.70661230313402
          ],
          [
            109.62209951584724,
            -230.33753241075613
          ],
          [
            110.36030764173981,
            -229.23030177953763
          ],
          [
            110.72939957224985,
            -229.04577540222132
          ],
          [
            111.46759556570619,
            -228.30763370929577
          ]
        ]
      },
      "properties": {
        "type": "variant",
        "id": 2,
        "color": "#4444ff",
        "vzdal_m": 2287,
        "prevyseni_m": 84,
        "cas_s": 669,
        "tempo_str": "4:52"
      }
    },
    {
      "type": "Feature",
      "geometry": {
        "type": "LineString",
        "coordinates": [
          [
            51.307891790577294,
            -188.9967128127777
          ],
          [
            52.41515544967123,
            -188.8122226191217
          ],
          [
            53.891529237929554,
            -187.88957264071
          ],
          [
            54.62970703273155,
            -187.70506435522387
          ],
          [
            55.552421693461405,
            -187.70510958479932
          ],
          [
            56.47514242040938,
            -187.52061034522828
          ],
          [
            57.21331414899326,
            -187.52064652888862
          ],
          [
            58.32058994052342,
            -186.9670673969397
          ],
          [
            59.24332886612572,
            -186.2289347499292
          ],
          [
            59.98151272714583,
            -185.8598819952966
          ],
          [
            60.1660556592918,
            -185.85989104121168
          ],
          [
            60.53514758980185,
            -185.67536466389538
          ],
          [
            60.719690521947825,
            -185.6753737098105
          ],
          [
            61.088782452457885,
            -185.49084733249416
          ],
          [
            62.19605217776993,
            -185.12181266969174
          ],
          [
            62.934223906353814,
            -185.12184885335208
          ],
          [
            63.67239563493769,
            -185.12188503701242
          ],
          [
            64.04147543301153,
            -185.30644759798906
          ],
          [
            64.40890054642028,
            -185.68129809277036
          ],
          [
            64.55839160199896,
            -186.65157380730935
          ],
          [
            65.82438304421729,
            -187.46443645230588
          ],
          [
            66.9675691362295,
            -188.11843064206457
          ],
          [
            67.61749089971549,
            -188.51466575320913
          ],
          [
            67.96787303894678,
            -188.72969627817352
          ],
          [
            68.18419592490697,
            -188.8624542544559
          ],
          [
            68.53532985535985,
            -189.0785899366077
          ],
          [
            69.01123613188658,
            -189.5187182290497
          ],
          [
            69.44624189803483,
            -189.65148758587577
          ],
          [
            69.6615302371251,
            -189.78728852140733
          ],
          [
            70.00883908074768,
            -190.0063661829362
          ],
          [
            71.03120866530551,
            -190.68883647710274
          ],
          [
            71.85763268529055,
            -191.30950708581153
          ],
          [
            72.06399919230857,
            -191.46334371580724
          ],
          [
            72.3906329262935,
            -191.70522619489753
          ],
          [
            73.19709326187957,
            -192.36692739429532
          ],
          [
            73.50697427223923,
            -192.62383003497473
          ],
          [
            74.52091805071217,
            -193.46593780244095
          ],
          [
            75.31123077335404,
            -194.13545081187794
          ],
          [
            75.53390589306963,
            -194.23243534603898
          ],
          [
            75.90057178256929,
            -194.45510567819917
          ],
          [
            76.11683324117921,
            -194.58805142755838
          ],
          [
            76.44195122989575,
            -194.8473738962469
          ],
          [
            76.7856755342399,
            -195.07092362004826
          ],
          [
            77.00560613306742,
            -195.22967571213394
          ],
          [
            77.24977938296284,
            -195.59848426022918
          ],
          [
            77.93560672936856,
            -196.31495210073757
          ],
          [
            79.30755454645353,
            -197.21445554215896
          ],
          [
            80.6119934417508,
            -197.82580657363135
          ],
          [
            81.75815408113142,
            -198.02289836066376
          ],
          [
            82.47939117501562,
            -198.08057232710755
          ],
          [
            83.22980825819464,
            -198.19671188053255
          ],
          [
            84.1563364931525,
            -198.22167871680952
          ],
          [
            84.87715870916038,
            -198.3146584040062
          ],
          [
            85.63636438118075,
            -198.312867700674
          ],
          [
            86.37281314651062,
            -198.2827720216163
          ],
          [
            87.30086358058624,
            -198.3420986290323
          ],
          [
            88.02964480023485,
            -198.4271156529817
          ],
          [
            88.74602255043646,
            -198.58053755450726
          ],
          [
            89.67824831596015,
            -198.70726382256686
          ],
          [
            90.4711579143907,
            -198.87654752475277
          ],
          [
            90.84532603532044,
            -199.05207937457646
          ],
          [
            91.23419003328586,
            -199.25869636650057
          ],
          [
            92.0150306474299,
            -199.94995410539175
          ],
          [
            92.20965750432211,
            -200.12317020212552
          ],
          [
            92.50726653306506,
            -200.38803947625726
          ],
          [
            93.35472119457123,
            -201.20736403227468
          ],
          [
            94.1181234244231,
            -201.92090320980893
          ],
          [
            94.9178336711112,
            -202.58497887212033
          ],
          [
            96.04715668795141,
            -203.51966677814315
          ],
          [
            96.79936670048563,
            -204.20420844699692
          ],
          [
            97.56729854384126,
            -204.95244629064476
          ],
          [
            98.40030022276221,
            -205.56076901329683
          ],
          [
            99.61500827220242,
            -206.45894327445208
          ],
          [
            101.14857056550096,
            -207.0582107296112
          ],
          [
            102.2470638172365,
            -207.43296201361315
          ],
          [
            102.6370101140594,
            -207.54469745515016
          ],
          [
            103.90198443305928,
            -208.56100462810403
          ],
          [
            104.27103390004254,
            -209.66828953481306
          ],
          [
            104.27100963517012,
            -210.40646741139898
          ],
          [
            104.27098537029765,
            -211.1446452879849
          ],
          [
            104.45550403757119,
            -211.88283221048587
          ],
          [
            105.00910856913664,
            -212.62103722481703
          ],
          [
            105.74723176797566,
            -214.09742916164922
          ],
          [
            106.48535496681465,
            -215.5738210984814
          ],
          [
            107.22347816565365,
            -217.0502130353136
          ],
          [
            107.77706449856478,
            -218.34205145708418
          ],
          [
            108.33065083147592,
            -219.63388987885477
          ],
          [
            108.51516343253132,
            -220.5566212705023
          ],
          [
            108.51513916765889,
            -221.29479914708818
          ],
          [
            108.51511490278642,
            -222.0329770236741
          ],
          [
            109.06870123569756,
            -223.3248154454447
          ],
          [
            109.25323203540732,
            -223.69391342965272
          ],
          [
            109.25321383675299,
            -224.24754683709216
          ],
          [
            109.62229363482682,
            -224.43210939806883
          ],
          [
            109.80682443453655,
            -224.80120738227689
          ],
          [
            110.36041076744769,
            -226.09304580404748
          ],
          [
            111.09853396628668,
            -227.56943774087966
          ],
          [
            111.46759556570619,
            -228.30763370929577
          ]
        ]
      },
      "properties": {
        "type": "variant",
        "id": 3,
        "color": "#44ff44",
        "vzdal_m": 2254,
        "prevyseni_m": 96,
        "cas_s": 689,
        "tempo_str": "5:05"
      }
    }
  ]
}