{
  "type": "FeatureCollection",
  "features": [
    {
      "type": "Feature",
      "geometry": {
        "type": "Point",
        "coordinates": [
          104.10574953270884,
          -234.66753684042035
        ]
      },
      "properties": {
        "type": "start",
        "isom": "204"
      }
    },
    {
      "type": "Feature",
      "geometry": {
        "type": "Point",
        "coordinates": [
          96.84130053829439,
          -159.14272572111807
        ]
      },
      "properties": {
        "type": "end",
        "isom": "204"
      }
    },
    {
      "type": "Feature",
      "geometry": {
        "type": "LineString",
        "coordinates": [
          [
            104.11692809466966,
            -234.67848935452608
          ],
          [
            103.37880489583067,
            -233.20209741769392
          ],
          [
            102.82520643048332,
            -232.27934793421625
          ],
          [
            102.64067563077356,
            -231.91024995000822
          ],
          [
            101.90252816706213,
            -231.17203588976196
          ],
          [
            101.16438070335069,
            -230.43382182951567
          ],
          [
            100.42623930585737,
            -229.51106330012297
          ],
          [
            100.0571898388741,
            -228.40377839341392
          ],
          [
            100.05721410374653,
            -227.66560051682802
          ],
          [
            100.05722016996464,
            -227.48105604768153
          ],
          [
            99.8726893702549,
            -227.11195806347345
          ],
          [
            99.87270756890923,
            -226.55832465603402
          ],
          [
            99.50365810192596,
            -225.451039749325
          ],
          [
            99.5036823667984,
            -224.71286187273907
          ],
          [
            99.31916369952488,
            -223.9746749502381
          ],
          [
            99.50373089654329,
            -223.23650611956722
          ],
          [
            99.50375516141574,
            -222.49832824298133
          ],
          [
            99.50377942628818,
            -221.7601503663954
          ],
          [
            99.50380369116064,
            -221.02197248980949
          ],
          [
            99.13475422417736,
            -219.9146875831005
          ],
          [
            99.13478455526791,
            -218.9919652373681
          ],
          [
            99.31935175228634,
            -218.25379640669726
          ],
          [
            99.1348391512309,
            -217.3310650150498
          ],
          [
            98.95032655017549,
            -216.40833362340229
          ],
          [
            98.95035081504795,
            -215.67015574681636
          ],
          [
            98.39676448213682,
            -214.37831732504577
          ],
          [
            98.39678874700925,
            -213.64013944845988
          ],
          [
            98.3968130118817,
            -212.90196157187395
          ],
          [
            98.39683727675414,
            -212.16378369528803
          ],
          [
            98.39686154162659,
            -211.42560581870214
          ],
          [
            97.84327520871545,
            -210.13376739693152
          ],
          [
            97.84329947358789,
            -209.39558952034562
          ],
          [
            97.84332373846033,
            -208.6574116437597
          ],
          [
            97.84334800333279,
            -207.91923376717378
          ],
          [
            97.84337226820523,
            -207.18105589058788
          ],
          [
            97.84339653307768,
            -206.44287801400196
          ],
          [
            97.84342079795012,
            -205.70470013741604
          ],
          [
            97.68643728030369,
            -205.29787949316184
          ],
          [
            96.92077254479665,
            -204.59736391517032
          ],
          [
            96.9207789318376,
            -203.49012127808282
          ],
          [
            96.73626026456407,
            -202.75193435558185
          ],
          [
            96.9208274615825,
            -202.013765524911
          ],
          [
            96.92085172645494,
            -201.2755876483251
          ],
          [
            97.10541892347337,
            -200.5374188176543
          ],
          [
            96.92091238863605,
            -199.43014295686032
          ],
          [
            96.73639372136252,
            -198.69195603435932
          ],
          [
            96.92096091838094,
            -197.95378720368848
          ],
          [
            96.92098518325338,
            -197.21560932710258
          ],
          [
            97.1055523802718,
            -196.47744049643177
          ],
          [
            96.92103371299828,
            -195.73925357393074
          ],
          [
            96.9210579778707,
            -195.00107569734482
          ],
          [
            96.7365393105972,
            -194.26288877484384
          ],
          [
            96.9211065076156,
            -193.524719944173
          ],
          [
            96.92113077248806,
            -192.78654206758708
          ],
          [
            97.10569796950647,
            -192.0483732369163
          ],
          [
            96.92117930223294,
            -191.31018631441526
          ],
          [
            96.92120356710538,
            -190.57200843782934
          ],
          [
            96.92122783197784,
            -189.83383056124345
          ],
          [
            96.92125209685028,
            -189.09565268465752
          ],
          [
            96.92127636172273,
            -188.3574748080716
          ],
          [
            97.65949662005148,
            -186.88115523856013
          ],
          [
            97.84405168463368,
            -186.51207534618226
          ],
          [
            97.8440577508518,
            -186.32753087703577
          ],
          [
            98.21318001245241,
            -185.22028215398709
          ],
          [
            98.21318607867052,
            -185.0357376848406
          ],
          [
            98.39774114325272,
            -184.66665779246273
          ],
          [
            98.58231440648925,
            -183.74394449264543
          ],
          [
            98.5823386713617,
            -183.0057666160595
          ],
          [
            98.58236293623413,
            -182.2675887394736
          ],
          [
            98.58238720110658,
            -181.5294108628877
          ],
          [
            98.58241146597902,
            -180.79123298630176
          ],
          [
            98.58243573085146,
            -180.05305510971587
          ],
          [
            98.5824539295058,
            -179.49942170227644
          ],
          [
            98.767008994088,
            -179.13034180989854
          ],
          [
            98.76702112652423,
            -178.76125287160556
          ],
          [
            98.58249032681447,
            -178.39215488739754
          ],
          [
            98.39795952710473,
            -178.0230569031895
          ],
          [
            98.21342266117686,
            -177.83850338812795
          ],
          [
            98.02889186146713,
            -177.4694054039199
          ],
          [
            97.2907565301919,
            -176.36210240538068
          ],
          [
            96.55262119891668,
            -175.25479940684147
          ],
          [
            95.99903486600554,
            -173.96296098507085
          ],
          [
            95.81452226495013,
            -173.0402295934234
          ],
          [
            95.6299975314585,
            -172.48658714006885
          ],
          [
            95.44546673174875,
            -172.11748915586082
          ],
          [
            95.26093593203899,
            -171.74839117165277
          ],
          [
            94.89188646505573,
            -170.64110626494372
          ],
          [
            94.89191072992817,
            -169.9029283883578
          ],
          [
            94.89193499480062,
            -169.1647505117719
          ],
          [
            94.89195925967306,
            -168.42657263518598
          ],
          [
            94.8919774583274,
            -167.87293922774654
          ],
          [
            94.70746485727199,
            -166.95020783609905
          ],
          [
            94.70748912214441,
            -166.21202995951313
          ],
          [
            95.26116038210911,
            -164.92024581323307
          ],
          [
            95.44571544669131,
            -164.5511659208552
          ],
          [
            95.81483770829192,
            -163.4439171978065
          ],
          [
            95.81486197316437,
            -162.7057393212206
          ],
          [
            95.81488017181869,
            -162.15210591378116
          ],
          [
            95.99945950127335,
            -161.04484814481737
          ],
          [
            96.7376797596021,
            -159.5685285753059
          ],
          [
            96.9222348241843,
            -159.19944868292802
          ]
        ]
      },
      "properties": {
        "type": "variant",
        "id": 1,
        "color": "#ff4444",
        "vzdal_m": 2159,
        "prevyseni_m": 24,
        "cas_s": 603,
        "tempo_str": "4:39"
      }
    },
    {
      "type": "Feature",
      "geometry": {
        "type": "LineString",
        "coordinates": [
          [
            104.11692809466966,
            -234.67848935452608
          ],
          [
            103.37879276339446,
            -233.57118635598687
          ],
          [
            102.64064529968302,
            -232.8329722957406
          ],
          [
            101.34886903953367,
            -232.0947310977491
          ],
          [
            99.87254984723833,
            -231.35648085384247
          ],
          [
            98.94985945138093,
            -230.61825774768113
          ],
          [
            98.3962731184698,
            -229.32641932591054
          ],
          [
            98.39629738334223,
            -228.5882414493246
          ],
          [
            98.3963216482147,
            -227.85006357273872
          ],
          [
            97.65819844937567,
            -226.37367163590653
          ],
          [
            97.47367978210217,
            -225.63548471340553
          ],
          [
            97.65824697912058,
            -224.8973158827347
          ],
          [
            97.65827124399303,
            -224.15913800614877
          ],
          [
            97.65829550886546,
            -223.42096012956287
          ],
          [
            97.65831977373792,
            -222.68278225297695
          ],
          [
            97.65834403861035,
            -221.94460437639103
          ],
          [
            97.10475770569921,
            -220.65276595462043
          ],
          [
            96.36663450686022,
            -219.17637401778825
          ],
          [
            95.99758503987695,
            -218.06908911107922
          ],
          [
            95.9976093047494,
            -217.3309112344933
          ],
          [
            95.81308457125775,
            -216.7772687811388
          ],
          [
            95.99765783449429,
            -215.85455548132146
          ],
          [
            95.62862049994725,
            -214.37818163631945
          ],
          [
            94.89049730110825,
            -212.90178969948732
          ],
          [
            94.3369109681971,
            -211.60995127771668
          ],
          [
            94.1523983671417,
            -210.68721988606922
          ],
          [
            93.78334890015842,
            -209.57993497936016
          ],
          [
            93.78337316503087,
            -208.84175710277427
          ],
          [
            93.7833974299033,
            -208.10357922618834
          ],
          [
            93.04527423106431,
            -206.62718728935616
          ],
          [
            93.04529849593676,
            -205.88900941277024
          ],
          [
            93.0453227608092,
            -205.15083153618434
          ],
          [
            92.8608101597538,
            -204.22810014453688
          ],
          [
            92.86083442462623,
            -203.48992226795096
          ],
          [
            92.67632182357082,
            -202.5671908763035
          ],
          [
            92.67634608844327,
            -201.82901299971758
          ],
          [
            92.6763703533157,
            -201.09083512313168
          ],
          [
            91.93824108825861,
            -199.79898765544596
          ],
          [
            91.93826535313104,
            -199.06080977886006
          ],
          [
            91.9382896180035,
            -198.32263190227414
          ],
          [
            91.75377701694808,
            -197.39990051062662
          ],
          [
            91.93833814774838,
            -196.84627614910232
          ],
          [
            92.12289321233058,
            -196.47719625672443
          ],
          [
            92.49201547393119,
            -195.36994753367574
          ],
          [
            93.23023573225996,
            -193.89362796416427
          ],
          [
            93.78390092600655,
            -192.78638828703063
          ],
          [
            93.96845599058874,
            -192.4173083946528
          ],
          [
            94.15301712138904,
            -191.8636840331284
          ],
          [
            94.52213938298965,
            -190.75643531007972
          ],
          [
            95.07580457673625,
            -189.64919563294612
          ],
          [
            95.26035964131842,
            -189.28011574056825
          ],
          [
            95.26038390619088,
            -188.5419378639823
          ],
          [
            95.26039603862708,
            -188.17284892568935
          ],
          [
            94.70680970571597,
            -186.88101050391873
          ],
          [
            94.7068339705884,
            -186.1428326273328
          ],
          [
            95.07595623218901,
            -185.03558390428412
          ],
          [
            95.26052949542553,
            -184.11287060446682
          ],
          [
            95.81420075539025,
            -182.82108645818673
          ],
          [
            95.81422502026268,
            -182.08290858160083
          ],
          [
            95.9987982834992,
            -181.16019528178353
          ],
          [
            95.99882254837166,
            -180.4220174051976
          ],
          [
            95.9988468132441,
            -179.68383952861168
          ],
          [
            96.73706100535476,
            -178.39206442824667
          ],
          [
            96.73709133644533,
            -177.4693420825143
          ],
          [
            96.73711560131777,
            -176.73116420592837
          ],
          [
            96.73715199862643,
            -175.6238973910495
          ],
          [
            95.99902879978744,
            -174.14750545421734
          ],
          [
            95.81451619873201,
            -173.22477406256985
          ],
          [
            95.81452833116823,
            -172.8556851242769
          ],
          [
            95.6299975314585,
            -172.48658714006885
          ],
          [
            95.44546673174875,
            -172.11748915586082
          ],
          [
            95.26093593203899,
            -171.74839117165277
          ],
          [
            94.89188646505573,
            -170.64110626494372
          ],
          [
            94.89191072992817,
            -169.9029283883578
          ],
          [
            94.89193499480062,
            -169.1647505117719
          ],
          [
            94.89195925967306,
            -168.42657263518598
          ],
          [
            94.8919774583274,
            -167.87293922774654
          ],
          [
            94.70746485727199,
            -166.95020783609905
          ],
          [
            94.70748912214441,
            -166.21202995951313
          ],
          [
            95.26116038210911,
            -164.92024581323307
          ],
          [
            95.44571544669131,
            -164.5511659208552
          ],
          [
            95.81483770829192,
            -163.4439171978065
          ],
          [
            95.6303190410184,
            -162.7057302753055
          ],
          [
            95.8148862380368,
            -161.96756144463467
          ],
          [
            95.99945950127335,
            -161.04484814481737
          ],
          [
            96.73767369338401,
            -159.75307304445235
          ],
          [
            96.9222348241843,
            -159.19944868292802
          ]
        ]
      },
      "properties": {
        "type": "variant",
        "id": 2,
        "color": "#4444ff",
        "vzdal_m": 2218,
        "prevyseni_m": 20,
        "cas_s": 600,
        "tempo_str": "4:30"
      }
    },
    {
      "type": "Feature",
      "geometry": {
        "type": "LineString",
        "coordinates": [
          [
            104.11692809466966,
            -234.67848935452608
          ],
          [
            103.37880489583067,
            -233.20209741769392
          ],
          [
            102.82520643048332,
            -232.27934793421625
          ],
          [
            102.64067563077356,
            -231.91024995000822
          ],
          [
            101.90252816706213,
            -231.17203588976196
          ],
          [
            101.34894183415099,
            -229.88019746799137
          ],
          [
            101.16442923309558,
            -228.95746607634385
          ],
          [
            101.16445349796803,
            -228.21928819975793
          ],
          [
            101.16447776284046,
            -227.48111032317203
          ],
          [
            101.16449596149481,
            -226.9274769157326
          ],
          [
            101.349051026077,
            -226.55839702335473
          ],
          [
            101.16453842502159,
            -225.63566563170724
          ],
          [
            101.16456268989403,
            -224.89748775512132
          ],
          [
            101.53367888527653,
            -223.97478350121912
          ],
          [
            102.27188094495096,
            -223.05209733914708
          ],
          [
            102.45643600953316,
            -222.68301744676918
          ],
          [
            102.64099107411535,
            -222.31393755439134
          ],
          [
            102.82554613869755,
            -221.94485766201345
          ],
          [
            103.01010726949787,
            -221.39123330048912
          ],
          [
            103.19466233408004,
            -221.02215340811125
          ],
          [
            103.19466840029816,
            -220.83760893896476
          ],
          [
            103.37922346488035,
            -220.46852904658692
          ],
          [
            103.56377852946255,
            -220.09944915420903
          ],
          [
            103.74833359404475,
            -219.73036926183113
          ],
          [
            103.93288865862694,
            -219.3612893694533
          ],
          [
            104.11746192186347,
            -218.43857606963596
          ],
          [
            103.7484124548802,
            -217.3312911629269
          ],
          [
            103.19482612196906,
            -216.0394527411563
          ],
          [
            103.1948503868415,
            -215.30127486457042
          ],
          [
            103.19487465171395,
            -214.5630969879845
          ],
          [
            103.37944791495048,
            -213.64038368816722
          ],
          [
            103.56400297953267,
            -213.27130379578932
          ],
          [
            103.74855804411484,
            -212.90222390341142
          ],
          [
            103.93311310869704,
            -212.53314401103358
          ],
          [
            104.11766817327924,
            -212.1640641186557
          ],
          [
            104.11769243815168,
            -211.4258862420698
          ],
          [
            104.11771670302414,
            -210.68770836548387
          ],
          [
            104.11774096789658,
            -209.94953048889795
          ],
          [
            104.11776523276903,
            -209.21135261231206
          ],
          [
            104.85596729244347,
            -208.28866645024002
          ],
          [
            105.77870621804578,
            -207.5505338032295
          ],
          [
            105.96326128262795,
            -207.18145391085167
          ],
          [
            105.96328554750042,
            -206.44327603426575
          ],
          [
            105.96330374615474,
            -205.88964262682632
          ],
          [
            106.14785881073693,
            -205.52056273444845
          ],
          [
            106.14786487695505,
            -205.33601826530196
          ],
          [
            106.33241994153725,
            -204.96693837292406
          ],
          [
            106.33244420640969,
            -204.22876049633814
          ],
          [
            106.33246847128214,
            -203.49058261975225
          ],
          [
            106.51702353586431,
            -203.1215027273744
          ],
          [
            106.70157860044652,
            -202.7524228349965
          ],
          [
            106.88613366502872,
            -202.38334294261867
          ],
          [
            106.88615792990115,
            -201.64516506603275
          ],
          [
            106.88616399611927,
            -201.46062059688626
          ],
          [
            107.07071906070146,
            -201.0915407045084
          ],
          [
            107.43983525608395,
            -200.16883645060616
          ],
          [
            107.62439032066615,
            -199.79975655822827
          ],
          [
            107.80894538524835,
            -199.43067666585043
          ],
          [
            108.36261664521305,
            -198.13889251957033
          ],
          [
            108.91627577274151,
            -197.2161973115832
          ],
          [
            109.65448996485217,
            -195.9244222112182
          ],
          [
            109.83904502943437,
            -195.55534231884033
          ],
          [
            110.02360009401656,
            -195.18626242646246
          ],
          [
            110.02360616023466,
            -195.00171795731598
          ],
          [
            110.20816122481686,
            -194.63263806493808
          ],
          [
            110.20817335725309,
            -194.26354912664513
          ],
          [
            110.02364255754333,
            -193.8944511424371
          ],
          [
            109.83910569161547,
            -193.70989762737557
          ],
          [
            109.65457489190572,
            -193.3407996431675
          ],
          [
            109.47004409219599,
            -192.97170165895946
          ],
          [
            109.28551329248623,
            -192.6026036747514
          ],
          [
            108.54737796121103,
            -191.49530067621222
          ],
          [
            107.99378556208177,
            -190.38800672358806
          ],
          [
            107.80927296102635,
            -189.4652753319406
          ],
          [
            107.62476035997095,
            -188.5425439402931
          ],
          [
            107.44024775891553,
            -187.6198125486456
          ],
          [
            107.2557351578601,
            -186.69708115699814
          ],
          [
            107.07122255680471,
            -185.77434976535065
          ],
          [
            106.88670995574928,
            -184.85161837370316
          ],
          [
            106.88673422062172,
            -184.11344049711724
          ],
          [
            106.88675848549417,
            -183.37526262053134
          ],
          [
            106.8867827503666,
            -182.63708474394542
          ],
          [
            106.88678881658473,
            -182.45254027479893
          ],
          [
            106.70225801687498,
            -182.0834422905909
          ],
          [
            106.70227014931122,
            -181.71435335229796
          ],
          [
            105.9641469504722,
            -180.23796141546578
          ],
          [
            105.2260237516332,
            -178.76156947863362
          ],
          [
            105.0415111505778,
            -177.83883808698613
          ],
          [
            104.48792481766667,
            -176.5469996652155
          ],
          [
            104.30339401795692,
            -176.17790168100748
          ],
          [
            103.56524655424548,
            -175.43968762076122
          ],
          [
            102.82711122297026,
            -174.33238462222198
          ],
          [
            102.08898802413125,
            -172.85599268538982
          ],
          [
            101.90447542307584,
            -171.93326129374236
          ],
          [
            101.9044996879483,
            -171.19508341715644
          ],
          [
            101.90452395282072,
            -170.45690554057052
          ],
          [
            101.90454821769319,
            -169.7187276639846
          ],
          [
            101.90457248256563,
            -168.9805497873987
          ],
          [
            101.7200538152921,
            -168.2423628648977
          ],
          [
            101.53552301558234,
            -167.87326488068965
          ],
          [
            101.35099221587261,
            -167.50416689648162
          ],
          [
            100.98191848401689,
            -167.1350598663585
          ],
          [
            99.8746790897954,
            -166.58137218342853
          ],
          [
            100.05923415437758,
            -166.21229229105066
          ],
          [
            100.0592462868138,
            -165.8432033527577
          ],
          [
            99.87471548710407,
            -165.47410536854966
          ],
          [
            99.87473368575839,
            -164.92047196111022
          ],
          [
            99.1366104869194,
            -163.44408002427804
          ],
          [
            98.95207968720965,
            -163.07498204007
          ],
          [
            98.76754888749991,
            -162.70588405586196
          ],
          [
            98.0294196224428,
            -161.41403658817626
          ],
          [
            97.29129642360381,
            -159.9376446513441
          ],
          [
            96.9222348241843,
            -159.19944868292802
          ]
        ]
      },
      "properties": {
        "type": "variant",
        "id": 3,
        "color": "#44ff44",
        "vzdal_m": 2248,
        "prevyseni_m": 28,
        "cas_s": 621,
        "tempo_str": "4:36"
      }
    }
  ]
}