{
  "type": "FeatureCollection",
  "features": [
    {
      "type": "Feature",
      "geometry": {
        "type": "Point",
        "coordinates": [
          122.97549234297206,
          -208.71523218389322
        ]
      },
      "properties": {
        "type": "start",
        "isom": "204"
      }
    },
    {
      "type": "Feature",
      "geometry": {
        "type": "Point",
        "coordinates": [
          89.47329053978537,
          -172.25498459152283
        ]
      },
      "properties": {
        "type": "end",
        "isom": "204"
      }
    },
    {
      "type": "Feature",
      "geometry": {
        "type": "LineString",
        "coordinates": [
          [
            122.90990037787618,
            -208.74648082650435
          ],
          [
            122.17175898038288,
            -207.82372229711166
          ],
          [
            121.43361758288954,
            -206.9009637677189
          ],
          [
            120.69548831783243,
            -205.6091163000332
          ],
          [
            119.95735298655721,
            -204.50181330149397
          ],
          [
            119.77282218684746,
            -204.13271531728594
          ],
          [
            119.58829138713773,
            -203.7636173330779
          ],
          [
            119.40376058742797,
            -203.39451934886986
          ],
          [
            118.66561312371654,
            -202.6563052886236
          ],
          [
            117.74293486029534,
            -201.54899324416928
          ],
          [
            117.74295305894968,
            -200.99535983672985
          ],
          [
            117.00482379389257,
            -199.70351236904415
          ],
          [
            116.26669452883547,
            -198.41166490135848
          ],
          [
            115.34402233163239,
            -197.11980838775773
          ],
          [
            114.79044813115748,
            -195.45888102769413
          ],
          [
            114.23684966581011,
            -194.5361315442165
          ],
          [
            114.05231279988226,
            -194.35157802915492
          ],
          [
            113.86778200017253,
            -193.98248004494687
          ],
          [
            113.68325120046275,
            -193.61338206073884
          ],
          [
            113.49872040075302,
            -193.2442840765308
          ],
          [
            113.49872646697112,
            -193.0597396073843
          ],
          [
            112.76058506947778,
            -192.13698107799158
          ],
          [
            112.02244973820257,
            -191.02967807945237
          ],
          [
            111.09977754099951,
            -189.7378215658516
          ],
          [
            110.54620334052458,
            -188.076894205788
          ],
          [
            110.36168467325106,
            -187.338707283287
          ],
          [
            110.17715387354133,
            -186.96960929907894
          ],
          [
            109.99261700761345,
            -186.78505578401737
          ],
          [
            108.51629781531814,
            -186.04680554011077
          ],
          [
            107.0399786230228,
            -185.30855529620416
          ],
          [
            106.67089882494898,
            -185.12399273522752
          ],
          [
            106.30181902687514,
            -184.93943017425087
          ],
          [
            105.93273922880131,
            -184.75486761327423
          ],
          [
            104.45642003650597,
            -184.01661736936762
          ],
          [
            103.71826044035832,
            -183.6474922474143
          ],
          [
            103.3491806422845,
            -183.46292968643766
          ],
          [
            101.87286144998919,
            -182.72467944253106
          ],
          [
            100.58108518983983,
            -181.98643824453953
          ],
          [
            99.47385186183645,
            -181.2482060924631
          ],
          [
            98.735704398125,
            -180.50999203221684
          ],
          [
            97.81301400226758,
            -179.7717689260555
          ],
          [
            97.07486653855615,
            -179.03355486580926
          ],
          [
            96.3367190748447,
            -178.29534080556297
          ],
          [
            95.59857161113327,
            -177.55712674531674
          ],
          [
            94.86042414742182,
            -176.81891268507047
          ],
          [
            93.9377276853463,
            -176.2652340480556
          ],
          [
            93.19958628785298,
            -175.34247551866287
          ],
          [
            92.46143882414154,
            -174.6042614584166
          ],
          [
            91.16966256399219,
            -173.86602026042507
          ],
          [
            90.24696610191667,
            -173.31234162341022
          ],
          [
            89.6933676365693,
            -172.38959213993257
          ],
          [
            89.50883077064145,
            -172.205038624871
          ]
        ]
      },
      "properties": {
        "type": "variant",
        "id": 1,
        "color": "#ff4444",
        "vzdal_m": 1390,
        "prevyseni_m": 22,
        "cas_s": 405,
        "tempo_str": "4:51"
      }
    },
    {
      "type": "Feature",
      "geometry": {
        "type": "LineString",
        "coordinates": [
          [
            122.90990037787618,
            -208.74648082650435
          ],
          [
            122.17177717903719,
            -207.27008888967222
          ],
          [
            121.80272771205392,
            -206.16280398296317
          ],
          [
            121.24912924670657,
            -205.2400544994855
          ],
          [
            121.43370250994309,
            -204.31734119966822
          ],
          [
            121.43372677481555,
            -203.5791633230823
          ],
          [
            121.43373890725177,
            -203.21007438478935
          ],
          [
            121.24920810754202,
            -202.84097640058127
          ],
          [
            120.69562177463088,
            -201.54913797881068
          ],
          [
            119.95749857579189,
            -200.0727460419785
          ],
          [
            119.77298597473647,
            -199.15001465033103
          ],
          [
            119.77299204095458,
            -198.96547018118454
          ],
          [
            119.58846124124484,
            -198.5963721969765
          ],
          [
            119.4039304415351,
            -198.22727421276846
          ],
          [
            118.6658072426961,
            -196.75088227593628
          ],
          [
            117.92768404385708,
            -195.27449033910415
          ],
          [
            117.55863457687383,
            -194.1672054323951
          ],
          [
            117.18957297745432,
            -193.42900946397899
          ],
          [
            117.00504217774458,
            -193.05991147977093
          ],
          [
            116.63596237967074,
            -192.87534891879432
          ],
          [
            115.89782704839553,
            -191.76804592025508
          ],
          [
            115.15970384955654,
            -190.2916539834229
          ],
          [
            114.4215624520632,
            -189.36889545403017
          ],
          [
            113.68341498835177,
            -188.63068139378387
          ],
          [
            112.76073065871246,
            -187.70791381847607
          ],
          [
            112.57618772656649,
            -187.70790477256097
          ],
          [
            112.20710792849266,
            -187.52334221158432
          ],
          [
            112.02256499634669,
            -187.52333316566924
          ],
          [
            111.65348519827286,
            -187.3387706046926
          ],
          [
            111.28440540019903,
            -187.15420804371593
          ],
          [
            110.9153195359071,
            -187.15418995188577
          ],
          [
            110.54623973783326,
            -186.96962739090912
          ],
          [
            109.2544574114658,
            -186.41593066206408
          ],
          [
            107.77813821917047,
            -185.67768041815748
          ],
          [
            106.67089882494898,
            -185.12399273522752
          ],
          [
            106.30181902687514,
            -184.93943017425087
          ],
          [
            105.93273922880131,
            -184.75486761327423
          ],
          [
            104.45642003650597,
            -184.01661736936762
          ],
          [
            103.71826044035832,
            -183.6474922474143
          ],
          [
            103.3491806422845,
            -183.46292968643766
          ],
          [
            101.87286144998919,
            -182.72467944253106
          ],
          [
            100.58108518983983,
            -181.98643824453953
          ],
          [
            99.47385186183645,
            -181.2482060924631
          ],
          [
            98.735704398125,
            -180.50999203221684
          ],
          [
            98.55119179706958,
            -179.58726064056938
          ],
          [
            98.5512039295058,
            -179.21817170227644
          ],
          [
            98.735758994088,
            -178.84909180989854
          ],
          [
            98.73577112652423,
            -178.48000287160556
          ],
          [
            98.55124032681447,
            -178.11090488739754
          ],
          [
            98.36670952710473,
            -177.7418069031895
          ],
          [
            98.18217266117686,
            -177.55725338812795
          ],
          [
            97.99764186146713,
            -177.1881554039199
          ],
          [
            97.44403732990165,
            -176.4499503895887
          ],
          [
            97.2595004639738,
            -176.26539687452717
          ],
          [
            97.07496966426405,
            -175.89629889031912
          ],
          [
            96.89043279833619,
            -175.71174537525755
          ],
          [
            96.70590199862643,
            -175.3426473910495
          ],
          [
            96.33682826677071,
            -174.97354036092636
          ],
          [
            95.96774846869688,
            -174.78897779994972
          ],
          [
            95.59866867062306,
            -174.60441523897308
          ],
          [
            94.49142321018344,
            -174.2352720251896
          ],
          [
            93.56873281432604,
            -173.49704891902826
          ],
          [
            91.90786462366663,
            -172.94333409835306
          ],
          [
            90.80063129566325,
            -172.2051019462766
          ],
          [
            90.06245956707936,
            -172.20506576261627
          ],
          [
            89.50883077064145,
            -172.205038624871
          ]
        ]
      },
      "properties": {
        "type": "variant",
        "id": 2,
        "color": "#4444ff",
        "vzdal_m": 1459,
        "prevyseni_m": 23,
        "cas_s": 415,
        "tempo_str": "4:44"
      }
    },
    {
      "type": "Feature",
      "geometry": {
        "type": "LineString",
        "coordinates": [
          [
            122.90990037787618,
            -208.74648082650435
          ],
          [
            122.17175291416476,
            -208.00826676625815
          ],
          [
            121.43360545045331,
            -207.27005270601185
          ],
          [
            120.51091505459591,
            -206.53182959985054
          ],
          [
            119.03459586230058,
            -205.7935793559439
          ],
          [
            117.9273564680791,
            -205.23989167301397
          ],
          [
            117.55827667000527,
            -205.05532911203733
          ],
          [
            117.18919687193143,
            -204.87076655106065
          ],
          [
            115.71286554719987,
            -204.501605245447
          ],
          [
            114.97471201727033,
            -203.94793565434725
          ],
          [
            114.23656455355888,
            -203.20972159410096
          ],
          [
            113.49841708984745,
            -202.4715075338547
          ],
          [
            111.83754889918804,
            -201.9177927131795
          ],
          [
            111.28393830140446,
            -201.3641321679948
          ],
          [
            110.91485850333063,
            -201.17956960701815
          ],
          [
            109.99216810747322,
            -200.4413465008568
          ],
          [
            109.25402064376179,
            -199.70313244061055
          ],
          [
            108.33132418168627,
            -199.14945380359566
          ],
          [
            107.59318278419293,
            -198.2266952742029
          ],
          [
            107.22411511855532,
            -197.67304377493335
          ],
          [
            106.48596765484389,
            -196.93482971468708
          ],
          [
            105.74782019113243,
            -196.19661565444082
          ],
          [
            105.19421565956698,
            -195.45841064010966
          ],
          [
            104.45606819585554,
            -194.72019657986337
          ],
          [
            103.7179207321441,
            -193.9819825196171
          ],
          [
            102.97977933465077,
            -193.0592239902244
          ],
          [
            102.05709500501146,
            -192.13645641491658
          ],
          [
            101.87255813908361,
            -191.95190289985499
          ],
          [
            101.68802733937386,
            -191.58280491564696
          ],
          [
            101.31895967373626,
            -191.02915341637737
          ],
          [
            101.1344288740265,
            -190.6600554321693
          ],
          [
            100.94989807431675,
            -190.29095744796126
          ],
          [
            100.21175667682341,
            -189.3681989185685
          ],
          [
            99.47362134554821,
            -188.2608959200293
          ],
          [
            98.735486014273,
            -187.15359292149006
          ],
          [
            97.62826481870583,
            -186.0462718311207
          ],
          [
            97.07468455201281,
            -184.5698889402036
          ],
          [
            96.33656135317382,
            -183.09349700337143
          ],
          [
            95.59843815433483,
            -181.61710506653927
          ],
          [
            94.6757477584774,
            -180.8788819603779
          ],
          [
            94.1221674917844,
            -179.40249906946082
          ],
          [
            93.38402002807294,
            -178.66428500921455
          ],
          [
            92.64589076301584,
            -177.37243754152888
          ],
          [
            91.72320643337653,
            -176.44966996622105
          ],
          [
            91.1696140342473,
            -175.34237601359692
          ],
          [
            90.43149083540831,
            -173.86598407676476
          ],
          [
            89.6933615703512,
            -172.57413660907903
          ],
          [
            89.50883077064145,
            -172.205038624871
          ]
        ]
      },
      "properties": {
        "type": "variant",
        "id": 3,
        "color": "#44ff44",
        "vzdal_m": 1383,
        "prevyseni_m": 28,
        "cas_s": 432,
        "tempo_str": "5:12"
      }
    }
  ]
}