{
  "type": "FeatureCollection",
  "features": [
    {
      "type": "Feature",
      "geometry": {
        "type": "Point",
        "coordinates": [
          117.61435416254302,
          -232.78215452672762
        ]
      },
      "properties": {
        "type": "start",
        "isom": "204"
      }
    },
    {
      "type": "Feature",
      "geometry": {
        "type": "Point",
        "coordinates": [
          152.04701093211892,
          -235.8771767415814
        ]
      },
      "properties": {
        "type": "end",
        "isom": "419"
      }
    },
    {
      "type": "Feature",
      "geometry": {
        "type": "LineString",
        "coordinates": [
          [
            117.58862280350668,
            -232.8337050148626
          ],
          [
            119.06498445932877,
            -232.28014397474385
          ],
          [
            119.98769912005862,
            -232.28018920431927
          ],
          [
            120.54132791649654,
            -232.28021634206456
          ],
          [
            121.4640425772264,
            -232.28026157163998
          ],
          [
            122.57131230253846,
            -231.9112269088375
          ],
          [
            123.30948403112234,
            -231.91126309249788
          ],
          [
            124.23220475807031,
            -231.7267638529268
          ],
          [
            124.750345644604,
            -231.64678934455407
          ],
          [
            125.70856641389243,
            -231.17320281280809
          ],
          [
            126.63127500840416,
            -231.35779251153
          ],
          [
            127.36944673698805,
            -231.35782869519036
          ],
          [
            128.10761846557193,
            -231.35786487885068
          ],
          [
            128.84579019415582,
            -231.35790106251102
          ],
          [
            129.76849878866756,
            -231.54249076123293
          ],
          [
            130.87574424910716,
            -231.91163397501643
          ],
          [
            131.79844071118268,
            -232.46531261203128
          ],
          [
            133.09023516998636,
            -232.64992040258338
          ],
          [
            133.82840689857025,
            -232.64995658624372
          ],
          [
            135.12018922493772,
            -233.20365331508876
          ],
          [
            135.8583609535216,
            -233.20368949874907
          ],
          [
            136.78108168046958,
            -233.01919025917806
          ],
          [
            137.70379027498132,
            -233.20377995789997
          ],
          [
            138.2356001735278,
            -233.30456938164718
          ],
          [
            139.3047860900156,
            -234.2434168495174
          ],
          [
            140.84737633560158,
            -234.84271930391625
          ],
          [
            141.74700393153333,
            -235.10626656084008
          ],
          [
            142.48826557429183,
            -235.09779969979073
          ],
          [
            143.39153723045882,
            -235.35157642610707
          ],
          [
            143.56142832181095,
            -235.40002909001637
          ],
          [
            143.9781893057632,
            -235.04953221047765
          ],
          [
            145.08545903107526,
            -234.68049754767523
          ],
          [
            145.63908782751318,
            -234.68052468542047
          ],
          [
            146.00816762558702,
            -234.86508724639714
          ],
          [
            146.7463393541709,
            -234.86512343005748
          ],
          [
            147.48451108275478,
            -234.86515961371785
          ],
          [
            148.0381459454108,
            -234.68064228231663
          ],
          [
            148.40722574348464,
            -234.86520484329327
          ],
          [
            149.14539747206854,
            -234.86524102695364
          ],
          [
            149.3299404042145,
            -234.8652500728687
          ],
          [
            149.69902020228832,
            -235.04981263384536
          ],
          [
            150.43719193087222,
            -235.0498488175057
          ],
          [
            151.91351112316752,
            -235.7880990614123
          ],
          [
            152.0980540553135,
            -235.78810810732736
          ]
        ]
      },
      "properties": {
        "type": "variant",
        "id": 1,
        "color": "#ff4444",
        "vzdal_m": 978,
        "prevyseni_m": 1,
        "cas_s": 267,
        "tempo_str": "4:33"
      }
    },
    {
      "type": "Feature",
      "geometry": {
        "type": "LineString",
        "coordinates": [
          [
            117.58862280350668,
            -232.8337050148626
          ],
          [
            118.32681273074489,
            -232.28010779108348
          ],
          [
            119.43410065471129,
            -231.35743972084163
          ],
          [
            120.35682744787735,
            -230.9883960121241
          ],
          [
            121.83319516991757,
            -230.2502905028589
          ],
          [
            123.30955682573966,
            -229.69672946274014
          ],
          [
            124.41683261726983,
            -229.14315033079123
          ],
          [
            125.15500434585373,
            -229.14318651445154
          ],
          [
            125.8931760744376,
            -229.1432226981119
          ],
          [
            126.46963716292186,
            -229.35271109816472
          ],
          [
            127.36951953160538,
            -229.14329506543262
          ],
          [
            128.10769126018926,
            -229.14333124909294
          ],
          [
            128.84586298877315,
            -229.14336743275328
          ],
          [
            129.58403471735704,
            -229.14340361641365
          ],
          [
            130.50674331186877,
            -229.32799331513556
          ],
          [
            131.4294519063805,
            -229.51258301385744
          ],
          [
            132.35216050089227,
            -229.69717271257934
          ],
          [
            132.90578929733016,
            -229.69719985032464
          ],
          [
            133.82849789184192,
            -229.88178954904654
          ],
          [
            134.56666962042578,
            -229.88182573270686
          ],
          [
            135.48937821493755,
            -230.0664154314288
          ],
          [
            136.89824943314238,
            -230.84500263079423
          ],
          [
            137.8884060017446,
            -230.98925537405728
          ],
          [
            138.6265777303285,
            -230.98929155771765
          ],
          [
            139.36474945891237,
            -230.989327741378
          ],
          [
            140.10292118749626,
            -230.98936392503833
          ],
          [
            140.84109291608016,
            -230.98940010869867
          ],
          [
            141.57926464466405,
            -230.98943629235904
          ],
          [
            142.50197323917578,
            -231.17402599108092
          ],
          [
            143.24014496775968,
            -231.1740621747413
          ],
          [
            144.1628535622714,
            -231.3586518734632
          ],
          [
            144.7164762924912,
            -231.54322348035492
          ],
          [
            145.63919701943917,
            -231.35872424078386
          ],
          [
            147.1155162117345,
            -232.0969744846905
          ],
          [
            148.59183540402984,
            -232.83522472859707
          ],
          [
            149.51454399854157,
            -233.01981442731898
          ],
          [
            150.2526793298168,
            -234.12711742585822
          ],
          [
            151.17537579189232,
            -234.68079606287307
          ],
          [
            151.91351718938563,
            -235.60355459226582
          ],
          [
            152.0980540553135,
            -235.78810810732736
          ]
        ]
      },
      "properties": {
        "type": "variant",
        "id": 2,
        "color": "#4444ff",
        "vzdal_m": 1017,
        "prevyseni_m": 2,
        "cas_s": 281,
        "tempo_str": "4:35"
      }
    },
    {
      "type": "Feature",
      "geometry": {
        "type": "LineString",
        "coordinates": [
          [
            117.58862280350668,
            -232.8337050148626
          ],
          [
            118.5113192655822,
            -233.38738365187746
          ],
          [
            120.17219958867783,
            -233.57200953425973
          ],
          [
            121.27943291668122,
            -234.31024168633613
          ],
          [
            122.57120917683055,
            -235.04848288432765
          ],
          [
            123.49389957268798,
            -235.78670599048903
          ],
          [
            124.41661423341783,
            -235.78675122006445
          ],
          [
            124.78569403149166,
            -235.97131378104112
          ],
          [
            126.262013223787,
            -236.7095640249477
          ],
          [
            127.55379555015445,
            -237.26326075379274
          ],
          [
            128.4765041446662,
            -237.44785045251464
          ],
          [
            128.84559000895814,
            -237.44786854434483
          ],
          [
            130.13737233532558,
            -238.00156527318984
          ],
          [
            131.42915466169308,
            -238.55526200203488
          ],
          [
            132.72093698806052,
            -239.10895873087992
          ],
          [
            133.4591087166444,
            -239.1089949145403
          ],
          [
            134.19726831279206,
            -239.4781200364936
          ],
          [
            134.56636630952025,
            -239.1090491900308
          ],
          [
            135.3045380381041,
            -239.10908537369113
          ],
          [
            136.0427158329061,
            -238.924577088205
          ],
          [
            137.7036264870923,
            -238.18648062485488
          ],
          [
            138.6263593464765,
            -237.63289244699087
          ],
          [
            139.36455533993282,
            -236.8947507540653
          ],
          [
            140.10275133338916,
            -236.1566090611397
          ],
          [
            140.8409533930636,
            -235.2339228990677
          ],
          [
            141.19323406357933,
            -235.05577512314738
          ],
          [
            141.9607032155966,
            -235.15143188329628
          ],
          [
            142.65931063258728,
            -235.14585529264636
          ],
          [
            143.56142832181095,
            -235.40002909001637
          ],
          [
            143.9781893057632,
            -235.04953221047765
          ],
          [
            145.08545903107526,
            -234.68049754767523
          ],
          [
            145.63908782751318,
            -234.68052468542047
          ],
          [
            146.00816762558702,
            -234.86508724639714
          ],
          [
            146.7463393541709,
            -234.86512343005748
          ],
          [
            147.48451108275478,
            -234.86515961371785
          ],
          [
            148.0381459454108,
            -234.68064228231663
          ],
          [
            148.40722574348464,
            -234.86520484329327
          ],
          [
            149.14539747206854,
            -234.86524102695364
          ],
          [
            149.51448333636046,
            -234.86525911878377
          ],
          [
            150.25264293250814,
            -235.23438424073709
          ],
          [
            151.91351112316752,
            -235.7880990614123
          ],
          [
            152.0980540553135,
            -235.78810810732736
          ]
        ]
      },
      "properties": {
        "type": "variant",
        "id": 3,
        "color": "#44ff44",
        "vzdal_m": 1033,
        "prevyseni_m": 6,
        "cas_s": 287,
        "tempo_str": "4:37"
      }
    }
  ]
}