{
  "type": "FeatureCollection",
  "features": [
    {
      "type": "Feature",
      "geometry": {
        "type": "Point",
        "coordinates": [
          41.0035260117732,
          -43.8706216233034
        ]
      },
      "properties": {
        "type": "start",
        "isom": "417"
      }
    },
    {
      "type": "Feature",
      "geometry": {
        "type": "Point",
        "coordinates": [
          45.371412737606605,
          -20.300350972690733
        ]
      },
      "properties": {
        "type": "end",
        "isom": "109"
      }
    },
    {
      "type": "Feature",
      "geometry": {
        "type": "LineString",
        "coordinates": [
          [
            41.06557315809725,
            -43.853959195114214
          ],
          [
            41.25015217313413,
            -43.30031134199827
          ],
          [
            41.250204852471484,
            -42.562113841494956
          ],
          [
            40.593713608870736,
            -41.55442417360358
          ],
          [
            39.841085852045055,
            -40.83134185055843
          ],
          [
            39.088458095219366,
            -40.108259527513276
          ],
          [
            38.24392172802765,
            -39.29625905328201
          ],
          [
            38.48237566615011,
            -38.87112225505555
          ],
          [
            38.85149418672088,
            -38.31747467420113
          ],
          [
            39.03606003192343,
            -37.948376196210994
          ],
          [
            39.22062587712598,
            -37.57927771822087
          ],
          [
            39.95888925793618,
            -36.10288380626035
          ],
          [
            40.697152638746374,
            -34.62648989429984
          ],
          [
            41.25082383468535,
            -33.888293210581104
          ],
          [
            41.619916015587435,
            -33.703744379978325
          ],
          [
            41.80448186078999,
            -33.334645901988196
          ],
          [
            42.542692562262836,
            -32.596449490530986
          ],
          [
            42.35819256623198,
            -32.042801092891985
          ],
          [
            42.54275841143453,
            -31.673702614901853
          ],
          [
            42.727350596305754,
            -30.935505386660076
          ],
          [
            42.911916441508296,
            -30.566406908669943
          ],
          [
            42.911929611342636,
            -30.381857533544117
          ],
          [
            43.09649545654519,
            -30.012759055553985
          ],
          [
            43.096508626379524,
            -29.82820968042816
          ],
          [
            43.28107447158207,
            -29.459111202438034
          ],
          [
            43.46564031678463,
            -29.090012724447902
          ],
          [
            43.65020616198718,
            -28.72091424645777
          ],
          [
            44.203916867429164,
            -27.42906943736156
          ],
          [
            44.573074897502934,
            -26.32177373112965
          ],
          [
            44.57312757684029,
            -25.583576230626342
          ],
          [
            44.57318025617764,
            -24.845378730123034
          ],
          [
            44.757785610883204,
            -23.922632126755424
          ],
          [
            44.757838290220555,
            -23.18443462625212
          ],
          [
            44.757877799723566,
            -22.63078650087464
          ],
          [
            44.942496324263466,
            -21.523490522381206
          ],
          [
            45.127075339300355,
            -20.969842669265248
          ],
          [
            45.3116411845029,
            -20.60074419127512
          ],
          [
            45.31166752417158,
            -20.231645441023467
          ]
        ]
      },
      "properties": {
        "type": "variant",
        "id": 1,
        "color": "#ff4444",
        "vzdal_m": 724,
        "prevyseni_m": 14,
        "cas_s": 211,
        "tempo_str": "4:51"
      }
    },
    {
      "type": "Feature",
      "geometry": {
        "type": "LineString",
        "coordinates": [
          [
            41.06557315809725,
            -43.853959195114214
          ],
          [
            41.25015217313413,
            -43.30031134199827
          ],
          [
            41.250204852471484,
            -42.562113841494956
          ],
          [
            40.593713608870736,
            -41.55442417360358
          ],
          [
            39.841085852045055,
            -40.83134185055843
          ],
          [
            39.088458095219366,
            -40.108259527513276
          ],
          [
            38.24392172802765,
            -39.29625905328201
          ],
          [
            37.49166005975629,
            -38.57278249077879
          ],
          [
            37.00616498055382,
            -37.39472507595675
          ],
          [
            36.82169132419163,
            -36.471977928066096
          ],
          [
            36.63721766782945,
            -35.549230780175435
          ],
          [
            36.821796682866335,
            -34.99558292705948
          ],
          [
            37.56002055417352,
            -34.072837140476445
          ],
          [
            38.11374442944985,
            -32.59644295625441
          ],
          [
            38.48284978018627,
            -32.227344750525795
          ],
          [
            38.85199464042571,
            -31.304598419419715
          ],
          [
            39.03656048562826,
            -30.935499941429583
          ],
          [
            39.405718515702034,
            -29.828204235197674
          ],
          [
            40.143929217174886,
            -29.090007823740468
          ],
          [
            40.69758724327952,
            -28.53636051514756
          ],
          [
            41.06671893368462,
            -27.7981635591673
          ],
          [
            41.06673210351896,
            -27.61361418404147
          ],
          [
            41.25129794872151,
            -27.244515706051345
          ],
          [
            41.43585062408972,
            -27.059966603187043
          ],
          [
            41.620416469292266,
            -26.69086812519691
          ],
          [
            41.80498231449482,
            -26.321769647206786
          ],
          [
            42.17407449539691,
            -26.137220816604003
          ],
          [
            42.35865351043379,
            -25.583572963488052
          ],
          [
            42.543219355636346,
            -25.21447448549792
          ],
          [
            43.09693006107833,
            -23.922629676401705
          ],
          [
            44.01970660775373,
            -22.81533478695437
          ],
          [
            44.75795681872959,
            -21.52349025011968
          ],
          [
            45.127075339300355,
            -20.969842669265248
          ],
          [
            45.3116411845029,
            -20.60074419127512
          ],
          [
            45.31166752417158,
            -20.231645441023467
          ]
        ]
      },
      "properties": {
        "type": "variant",
        "id": 2,
        "color": "#4444ff",
        "vzdal_m": 756,
        "prevyseni_m": 14,
        "cas_s": 214,
        "tempo_str": "4:43"
      }
    },
    {
      "type": "Feature",
      "geometry": {
        "type": "LineString",
        "coordinates": [
          [
            41.06557315809725,
            -43.853959195114214
          ],
          [
            41.91611495403199,
            -42.82230759074454
          ],
          [
            42.35744188567473,
            -42.562115475064104
          ],
          [
            42.54199456104294,
            -42.3775663721998
          ],
          [
            42.91108674194503,
            -42.19301754159702
          ],
          [
            43.095665756981916,
            -41.63936968848106
          ],
          [
            44.57203448059027,
            -40.90117436606995
          ],
          [
            45.31027152173179,
            -39.79387920436109
          ],
          [
            45.49487687643735,
            -38.871132600993484
          ],
          [
            45.4949295557747,
            -38.13293510049017
          ],
          [
            45.494982235112055,
            -37.39473759998687
          ],
          [
            45.495034914449406,
            -36.656540099483564
          ],
          [
            45.679627099320626,
            -35.91834287124178
          ],
          [
            45.49514027312411,
            -35.18014509847695
          ],
          [
            45.49519295246146,
            -34.441947597973645
          ],
          [
            45.4952456317988,
            -33.70375009747033
          ],
          [
            45.86440366187258,
            -32.596454391238424
          ],
          [
            45.86445634120993,
            -31.85825689073512
          ],
          [
            45.86450902054728,
            -31.120059390231813
          ],
          [
            45.49550902848556,
            -30.012762594953802
          ],
          [
            45.31103537212337,
            -29.09001544706315
          ],
          [
            44.94203538006165,
            -27.982718651785138
          ],
          [
            44.94207488956466,
            -27.429070526407656
          ],
          [
            44.75760123320247,
            -26.506323378516996
          ],
          [
            44.57312757684029,
            -25.583576230626342
          ],
          [
            44.57318025617764,
            -24.845378730123034
          ],
          [
            44.757785610883204,
            -23.922632126755424
          ],
          [
            44.757838290220555,
            -23.18443462625212
          ],
          [
            44.57335146402403,
            -22.44623685348729
          ],
          [
            44.942496324263466,
            -21.523490522381206
          ],
          [
            45.127075339300355,
            -20.969842669265248
          ],
          [
            45.3116411845029,
            -20.60074419127512
          ],
          [
            45.31166752417158,
            -20.231645441023467
          ]
        ]
      },
      "properties": {
        "type": "variant",
        "id": 3,
        "color": "#44ff44",
        "vzdal_m": 708,
        "prevyseni_m": 18,
        "cas_s": 215,
        "tempo_str": "5:03"
      }
    },
    {
      "type": "Feature",
      "geometry": {
        "type": "LineString",
        "coordinates": [
          [
            41.06557315809725,
            -43.853959195114214
          ],
          [
            41.25015217313413,
            -43.30031134199827
          ],
          [
            41.250204852471484,
            -42.562113841494956
          ],
          [
            40.51211267950767,
            -41.639365876819724
          ],
          [
            39.77400733670952,
            -40.901167287270326
          ],
          [
            39.03591516374571,
            -39.97841932259509
          ],
          [
            38.11328348524803,
            -39.05567108565834
          ],
          [
            37.37519131228422,
            -38.13292312098311
          ],
          [
            37.00617815038816,
            -37.21017570083092
          ],
          [
            36.637178158326435,
            -36.10287890555292
          ],
          [
            36.26817816626471,
            -34.99558211027491
          ],
          [
            35.89917817420299,
            -33.8882853149969
          ],
          [
            35.89923085354034,
            -33.15008781449359
          ],
          [
            35.89928353287769,
            -32.411890313990284
          ],
          [
            35.89933621221504,
            -31.673692813486976
          ],
          [
            35.89938889155239,
            -30.93549531298367
          ],
          [
            35.89944157088974,
            -30.197297812480365
          ],
          [
            36.45313910649739,
            -29.090002378509976
          ],
          [
            37.19138931747325,
            -27.79815784167529
          ],
          [
            37.92961318878044,
            -26.87541205509225
          ],
          [
            38.66787656959064,
            -25.399018143131737
          ],
          [
            39.22157410519829,
            -24.291722709161352
          ],
          [
            39.406139950400835,
            -23.92262423117122
          ],
          [
            39.59070579560339,
            -23.55352575318109
          ],
          [
            39.95986382567717,
            -22.44623004694918
          ],
          [
            40.14444284071405,
            -21.892582193833224
          ],
          [
            41.6208115643224,
            -21.154386871422115
          ],
          [
            42.72807493719432,
            -20.785289754739605
          ],
          [
            43.09716711809641,
            -20.600740924136826
          ],
          [
            43.466259298998494,
            -20.41619209353405
          ],
          [
            44.38894365683353,
            -20.600742829967498
          ],
          [
            45.31166752417158,
            -20.231645441023467
          ]
        ]
      },
      "properties": {
        "type": "variant",
        "id": 4,
        "color": "#ffaa00",
        "vzdal_m": 822,
        "prevyseni_m": 16,
        "cas_s": 227,
        "tempo_str": "4:36"
      }
    }
  ]
}