{
  "type": "FeatureCollection",
  "features": [
    {
      "type": "Feature",
      "geometry": {
        "type": "Point",
        "coordinates": [
          112.53671489979328,
          -202.90083406691417
        ]
      },
      "properties": {
        "type": "start",
        "isom": "419"
      }
    },
    {
      "type": "Feature",
      "geometry": {
        "type": "Point",
        "coordinates": [
          181.84335145509607,
          -144.87569938971362
        ]
      },
      "properties": {
        "type": "end",
        "isom": "111"
      }
    },
    {
      "type": "Feature",
      "geometry": {
        "type": "LineString",
        "coordinates": [
          [
            112.60694636290273,
            -202.93725661265324
          ],
          [
            113.34511809148654,
            -202.9372927980685
          ],
          [
            114.82143728378175,
            -203.67554304612
          ],
          [
            116.00063792421385,
            -203.38657922096033
          ],
          [
            116.87823054554748,
            -202.59819137871688
          ],
          [
            117.6095089237261,
            -201.84714041750536
          ],
          [
            118.33557365449225,
            -201.1027730412391
          ],
          [
            119.26152195762678,
            -200.36889849588158
          ],
          [
            119.68572737467909,
            -199.82293645758446
          ],
          [
            120.36425991545678,
            -198.33534329791658
          ],
          [
            121.45793938582734,
            -197.5762421816974
          ],
          [
            121.8089683095017,
            -196.85118819884633
          ],
          [
            121.71227434224863,
            -196.13522140762606
          ],
          [
            122.57251947994473,
            -195.18687740493854
          ],
          [
            123.5012248880965,
            -194.46200694864024
          ],
          [
            124.4634979167993,
            -193.73143713310523
          ],
          [
            124.74705908635617,
            -192.9595774314498
          ],
          [
            124.99167635145469,
            -192.23867859276422
          ],
          [
            125.00997827684836,
            -191.49515050684684
          ],
          [
            125.02413010756942,
            -190.5271143556761
          ],
          [
            125.91624741685332,
            -189.47664754625404
          ],
          [
            126.27997075126004,
            -188.54200945075604
          ],
          [
            126.12450467393857,
            -187.88053848889925
          ],
          [
            126.3471305192847,
            -187.11949934676417
          ],
          [
            126.81885031090484,
            -186.8850318001133
          ],
          [
            128.27321864509875,
            -186.11974623750575
          ],
          [
            129.04723186847758,
            -185.22445435647475
          ],
          [
            129.7456500035337,
            -184.27164063070984
          ],
          [
            130.5011771881035,
            -183.55557291115855
          ],
          [
            131.45697251848463,
            -182.86439786755838
          ],
          [
            132.36498753946265,
            -182.10534223017603
          ],
          [
            133.60070154031652,
            -181.29278871803808
          ],
          [
            134.53271891989183,
            -180.5709274867481
          ],
          [
            135.2098587355002,
            -180.24380650132193
          ],
          [
            136.21626827229423,
            -179.85873503610992
          ],
          [
            136.9538574843724,
            -179.26863677994376
          ],
          [
            137.5268747935077,
            -179.2974628420802
          ],
          [
            138.4437255705272,
            -179.55316865383637
          ],
          [
            139.49206476036386,
            -179.3238612004531
          ],
          [
            140.85801383025085,
            -178.60748106103722
          ],
          [
            141.20710336575905,
            -178.37942930187688
          ],
          [
            141.97345789882556,
            -178.34363144169888
          ],
          [
            142.68919415695132,
            -178.40784029186915
          ],
          [
            143.69889198404803,
            -177.84217401164068
          ],
          [
            144.31803215390602,
            -176.45395952197666
          ],
          [
            145.2604257967795,
            -175.62077874345664
          ],
          [
            145.98899553308956,
            -174.8690617090007
          ],
          [
            146.7317339992435,
            -174.13339033797553
          ],
          [
            147.86746961547553,
            -173.42540899548996
          ],
          [
            148.78827710620865,
            -172.68762762933648
          ],
          [
            149.7525573454799,
            -172.01550476899607
          ],
          [
            150.70865547514936,
            -171.31054440950044
          ],
          [
            151.6254016877375,
            -170.5736348262786
          ],
          [
            153.03382213514357,
            -169.63463732401368
          ],
          [
            154.00010544881064,
            -169.039327184808
          ],
          [
            154.80482436181248,
            -168.19476996094156
          ],
          [
            155.49131539088634,
            -167.40552552744322
          ],
          [
            156.16026126187873,
            -166.95322003762877
          ],
          [
            156.9235124977036,
            -166.05835943035646
          ],
          [
            157.69223734852332,
            -165.32538836566903
          ],
          [
            158.05430850809867,
            -164.33954138801147
          ],
          [
            158.19034877362827,
            -163.44697463072094
          ],
          [
            158.37489777199232,
            -163.26243920776952
          ],
          [
            159.32626708742512,
            -162.57500340681392
          ],
          [
            160.0196079803318,
            -162.7514046631015
          ],
          [
            161.33656994455905,
            -163.21411042433527
          ],
          [
            162.01890023267438,
            -163.37007230126375
          ],
          [
            162.8117297126226,
            -163.31941453249064
          ],
          [
            163.9173919302773,
            -162.7169459892695
          ],
          [
            165.04446848022167,
            -162.04880387590651
          ],
          [
            166.27754337989415,
            -161.3691614945699
          ],
          [
            167.62718795753523,
            -161.06438680798811
          ],
          [
            168.70848532400427,
            -160.49194546377717
          ],
          [
            169.26305209296578,
            -159.57208355653935
          ],
          [
            169.70368511766702,
            -158.64036488684076
          ],
          [
            169.61209743564285,
            -157.9137329864039
          ],
          [
            170.55493147882285,
            -157.17306878004777
          ],
          [
            171.66142000748007,
            -156.4702761165206
          ],
          [
            172.3447897026061,
            -155.46356943116805
          ],
          [
            172.67556686711774,
            -155.0201442903697
          ],
          [
            172.58500079191805,
            -154.22045678105567
          ],
          [
            172.58502505679047,
            -153.48227890383467
          ],
          [
            172.585055387881,
            -152.5595565573084
          ],
          [
            172.40053065438937,
            -152.00591410303886
          ],
          [
            172.58508571897156,
            -151.63683421078218
          ],
          [
            172.58510998384395,
            -150.89865633356118
          ],
          [
            172.9542261792264,
            -149.97595207974254
          ],
          [
            174.06150803697457,
            -149.23782848064442
          ],
          [
            175.16878382850462,
            -148.6842493508515
          ],
          [
            176.0908066179266,
            -147.94849305861638
          ],
          [
            177.56789047614686,
            -147.20801119900906
          ],
          [
            178.6751602014588,
            -146.83897653852142
          ],
          [
            180.03761388898286,
            -146.29978644521398
          ],
          [
            180.51707986134772,
            -145.68416008159053
          ],
          [
            181.4871465882204,
            -145.11987325169304
          ],
          [
            181.81245677633922,
            -144.80914116417847
          ]
        ]
      },
      "properties": {
        "type": "variant",
        "id": 1,
        "color": "#ff4444",
        "vzdal_m": 2684,
        "prevyseni_m": 35,
        "cas_s": 530,
        "tempo_str": "3:17"
      }
    },
    {
      "type": "Feature",
      "geometry": {
        "type": "LineString",
        "coordinates": [
          [
            112.60694636290273,
            -202.93725661265324
          ],
          [
            113.34511809148654,
            -202.9372927980685
          ],
          [
            114.82143728378175,
            -203.67554304612
          ],
          [
            116.00063792421385,
            -203.38657922096033
          ],
          [
            116.87823054554748,
            -202.59819137871688
          ],
          [
            117.6095089237261,
            -201.84714041750536
          ],
          [
            118.33557365449225,
            -201.1027730412391
          ],
          [
            119.26152195762678,
            -200.36889849588158
          ],
          [
            119.68572737467909,
            -199.82293645758446
          ],
          [
            120.36425991545678,
            -198.33534329791658
          ],
          [
            121.45793938582734,
            -197.5762421816974
          ],
          [
            121.8089683095017,
            -196.85118819884633
          ],
          [
            121.71227434224863,
            -196.13522140762606
          ],
          [
            122.57251947994473,
            -195.18687740493854
          ],
          [
            123.5012248880965,
            -194.46200694864024
          ],
          [
            124.4634979167993,
            -193.73143713310523
          ],
          [
            124.74705908635617,
            -192.9595774314498
          ],
          [
            124.99167635145469,
            -192.23867859276422
          ],
          [
            125.00997827684836,
            -191.49515050684684
          ],
          [
            125.02413010756942,
            -190.5271143556761
          ],
          [
            125.91624741685332,
            -189.47664754625404
          ],
          [
            126.27997075126004,
            -188.54200945075604
          ],
          [
            126.12450467393857,
            -187.88053848889925
          ],
          [
            126.3471305192847,
            -187.11949934676417
          ],
          [
            126.81885031090484,
            -186.8850318001133
          ],
          [
            128.27321864509875,
            -186.11974623750575
          ],
          [
            129.04723186847758,
            -185.22445435647475
          ],
          [
            129.03187394570335,
            -184.48361480761739
          ],
          [
            129.03189821057575,
            -183.74543693039638
          ],
          [
            129.0319224754482,
            -183.00725905317537
          ],
          [
            129.03194674032062,
            -182.26908117595437
          ],
          [
            129.2165200035571,
            -181.3463678757819
          ],
          [
            129.4010932667936,
            -180.42365457560948
          ],
          [
            129.68935050447195,
            -179.44904540872986
          ],
          [
            129.59103757802936,
            -178.76371081816274
          ],
          [
            129.64944115864526,
            -178.3687733544249
          ],
          [
            128.87497138852305,
            -177.2567695093412
          ],
          [
            128.0704825374171,
            -176.00368255915592
          ],
          [
            128.15450054941786,
            -175.04562639682516
          ],
          [
            128.40669278466186,
            -174.12812331767495
          ],
          [
            128.66926884547505,
            -173.22816773606968
          ],
          [
            128.69589317270894,
            -172.66556648856434
          ],
          [
            128.44704521529394,
            -171.75891043239147
          ],
          [
            128.5064948326337,
            -171.01505829433887
          ],
          [
            128.43191276883593,
            -170.2995063738825
          ],
          [
            128.57939997701192,
            -169.6121990699971
          ],
          [
            129.1926539656703,
            -169.13523240362227
          ],
          [
            130.2680577612087,
            -168.35651164435527
          ],
          [
            130.472123636353,
            -168.19693444143113
          ],
          [
            131.2053835243011,
            -167.61869085402103
          ],
          [
            132.35422758276263,
            -166.9520609737707
          ],
          [
            133.50484968408136,
            -166.2848063317231
          ],
          [
            134.07205791799908,
            -165.9379296132904
          ],
          [
            134.12919109562895,
            -165.0932810728709
          ],
          [
            134.04218709326116,
            -164.3652103020732
          ],
          [
            133.94398316793362,
            -163.64423015811826
          ],
          [
            134.56197538500638,
            -163.03461034830045
          ],
          [
            135.60084718090053,
            -162.23598614958283
          ],
          [
            136.1197119718108,
            -161.4363241490542
          ],
          [
            137.337082368189,
            -160.86232982246676
          ],
          [
            138.27475783887766,
            -159.7566795597246
          ],
          [
            138.90039465959683,
            -158.508512286638
          ],
          [
            139.32710597594487,
            -157.33964561958186
          ],
          [
            140.04152077905024,
            -156.3973755530636
          ],
          [
            140.3514049867872,
            -155.72371728233972
          ],
          [
            140.72023893122966,
            -154.7715720267951
          ],
          [
            140.60219982436743,
            -153.86995636738325
          ],
          [
            140.95857148342512,
            -152.91264387455544
          ],
          [
            141.95092865165265,
            -152.55805486257577
          ],
          [
            142.88423587078665,
            -152.24568575425295
          ],
          [
            143.61738426573197,
            -152.30639671389773
          ],
          [
            144.35079728027927,
            -152.36230392312083
          ],
          [
            145.08526422091407,
            -152.41449198187885
          ],
          [
            146.49653445943403,
            -151.9135366355311
          ],
          [
            147.1443996531959,
            -151.10285085127833
          ],
          [
            147.74689630901298,
            -150.07659693844712
          ],
          [
            148.6338521361684,
            -148.89681350151122
          ],
          [
            149.34708896446298,
            -147.84231966157665
          ],
          [
            150.61878398834122,
            -147.18175162649368
          ],
          [
            151.51786143878903,
            -146.93381267147706
          ],
          [
            152.28170945317262,
            -146.81239156392547
          ],
          [
            153.00347824667008,
            -146.7036097937297
          ],
          [
            153.39156745473036,
            -146.6451179927871
          ],
          [
            154.11735339686373,
            -146.54576223373738
          ],
          [
            154.68419671466128,
            -146.46629762042073
          ],
          [
            155.8214061270158,
            -146.28049225863654
          ],
          [
            156.5403722254976,
            -146.1629514893118
          ],
          [
            157.25743777533256,
            -146.01551650239477
          ],
          [
            158.1884670023366,
            -145.8963508056214
          ],
          [
            158.91435619802076,
            -145.80195058158804
          ],
          [
            160.05404162679918,
            -145.65630965097944
          ],
          [
            160.77364746007882,
            -145.54074163509182
          ],
          [
            161.49322395861822,
            -145.4250021715774
          ],
          [
            162.06182788653416,
            -145.33368364770516
          ],
          [
            162.99126805392763,
            -145.19931224821144
          ],
          [
            163.91763994871195,
            -145.08088268783132
          ],
          [
            164.65004630219966,
            -144.99317794965341
          ],
          [
            165.7738517096639,
            -144.73698694689796
          ],
          [
            166.68451424688476,
            -144.6143101422531
          ],
          [
            167.42644491808642,
            -144.53961274144268
          ],
          [
            168.160714059367,
            -144.45432296437204
          ],
          [
            168.87360198191178,
            -144.3194751335323
          ],
          [
            169.44118815324978,
            -144.22444783839651
          ],
          [
            170.37015397975367,
            -144.06446338191822
          ],
          [
            171.1009731245806,
            -144.00593417492232
          ],
          [
            172.0333044439539,
            -143.89768241913038
          ],
          [
            172.80820042791004,
            -143.91122917172862
          ],
          [
            173.68479889954776,
            -143.67913754982365
          ],
          [
            174.38916417194517,
            -143.75324225582028
          ],
          [
            175.6202207228861,
            -144.0278591348022
          ],
          [
            176.19558129004741,
            -143.88515482692034
          ],
          [
            177.08621129384605,
            -143.96628662811688
          ],
          [
            177.75234676617788,
            -144.0685974561983
          ],
          [
            178.41125298928768,
            -143.93287799641422
          ],
          [
            179.3051293405166,
            -143.91741688160351
          ],
          [
            179.86655136978845,
            -144.1514499876178
          ],
          [
            181.41088514552595,
            -144.42872123764212
          ],
          [
            181.81245677633922,
            -144.80914116417847
          ]
        ]
      },
      "properties": {
        "type": "variant",
        "id": 2,
        "color": "#4444ff",
        "vzdal_m": 2955,
        "prevyseni_m": 29,
        "cas_s": 531,
        "tempo_str": "2:59"
      }
    },
    {
      "type": "Feature",
      "geometry": {
        "type": "LineString",
        "coordinates": [
          [
            112.60694636290273,
            -202.93725661265324
          ],
          [
            113.34511809148654,
            -202.9372927980685
          ],
          [
            114.82143728378175,
            -203.67554304612
          ],
          [
            116.00063792421385,
            -203.38657922096033
          ],
          [
            116.87823054554748,
            -202.59819137871688
          ],
          [
            117.6095089237261,
            -201.84714041750536
          ],
          [
            118.33557365449225,
            -201.1027730412391
          ],
          [
            119.26152195762678,
            -200.36889849588158
          ],
          [
            119.68572737467909,
            -199.82293645758446
          ],
          [
            120.36425991545678,
            -198.33534329791658
          ],
          [
            121.45793938582734,
            -197.5762421816974
          ],
          [
            121.8089683095017,
            -196.85118819884633
          ],
          [
            121.71227434224863,
            -196.13522140762606
          ],
          [
            122.57251947994473,
            -195.18687740493854
          ],
          [
            123.5012248880965,
            -194.46200694864024
          ],
          [
            124.4634979167993,
            -193.73143713310523
          ],
          [
            124.74705908635617,
            -192.9595774314498
          ],
          [
            124.99167635145469,
            -192.23867859276422
          ],
          [
            125.00997827684836,
            -191.49515050684684
          ],
          [
            125.02413010756942,
            -190.5271143556761
          ],
          [
            125.91624741685332,
            -189.47664754625404
          ],
          [
            126.27997075126004,
            -188.54200945075604
          ],
          [
            126.12450467393857,
            -187.88053848889925
          ],
          [
            126.3471305192847,
            -187.11949934676417
          ],
          [
            126.81885031090484,
            -186.8850318001133
          ],
          [
            128.27321864509875,
            -186.11974623750575
          ],
          [
            129.04723186847758,
            -185.22445435647475
          ],
          [
            129.7456500035337,
            -184.27164063070984
          ],
          [
            130.5011771881035,
            -183.55557291115855
          ],
          [
            131.45697251848463,
            -182.86439786755838
          ],
          [
            132.36498753946265,
            -182.10534223017603
          ],
          [
            133.60070154031652,
            -181.29278871803808
          ],
          [
            134.53271891989183,
            -180.5709274867481
          ],
          [
            135.20107200431048,
            -180.05123642587037
          ],
          [
            135.166938661192,
            -179.3145653279792
          ],
          [
            135.13249056289308,
            -178.5779991430023
          ],
          [
            135.11526651374365,
            -178.2097160505138
          ],
          [
            135.06319601491546,
            -177.2729263727467
          ],
          [
            134.983436896583,
            -176.54347093338282
          ],
          [
            134.9195590165209,
            -175.8115751762621
          ],
          [
            134.86801558160846,
            -175.07701499031484
          ],
          [
            134.81647214669604,
            -174.34245480436755
          ],
          [
            134.76472250870725,
            -173.60805976513151
          ],
          [
            134.69857382184617,
            -172.676921482221
          ],
          [
            134.9289557460771,
            -171.81040566846818
          ],
          [
            135.86039920280734,
            -171.19674773273033
          ],
          [
            136.5986012624817,
            -170.2740615716193
          ],
          [
            137.33680332215604,
            -169.3513754105083
          ],
          [
            138.26139376235224,
            -168.60991979287093
          ],
          [
            138.77961412255345,
            -168.42967936697153
          ],
          [
            138.82455374447383,
            -167.87614430263594
          ],
          [
            138.81624015902682,
            -167.15237531584398
          ],
          [
            138.81841982456046,
            -166.39835593674513
          ],
          [
            138.80141457588678,
            -165.66058708238137
          ],
          [
            138.77786123412386,
            -164.92181578146182
          ],
          [
            138.9088848047456,
            -163.97863680220925
          ],
          [
            139.08972393560683,
            -163.39836136917086
          ],
          [
            139.98492090194682,
            -162.74792080386996
          ],
          [
            139.94380531870075,
            -161.96167582789198
          ],
          [
            139.81339029987814,
            -161.23309496019215
          ],
          [
            140.8434162776164,
            -160.3088682952734
          ],
          [
            141.7661612694367,
            -159.38619118051622
          ],
          [
            142.6889001950389,
            -158.64805853506428
          ],
          [
            143.42709618849517,
            -157.90991684325854
          ],
          [
            144.30971235231684,
            -156.77122281277153
          ],
          [
            145.05538521550784,
            -155.492337458096
          ],
          [
            145.47578157202102,
            -154.4070158332601
          ],
          [
            145.47459207067877,
            -153.66415716465536
          ],
          [
            145.84370378474185,
            -152.50092935020652
          ],
          [
            146.8211322912013,
            -151.50845012708774
          ],
          [
            147.43640365576843,
            -150.68770660272756
          ],
          [
            148.14714806917428,
            -149.54650044107947
          ],
          [
            148.9107801032811,
            -148.26828815289213
          ],
          [
            149.5257852748439,
            -147.7803991212827
          ],
          [
            150.79382760279202,
            -147.13547645617015
          ],
          [
            151.51786143878903,
            -146.93381267147706
          ],
          [
            152.28170945317262,
            -146.81239156392547
          ],
          [
            153.00347824667008,
            -146.7036097937297
          ],
          [
            153.39156745473036,
            -146.6451179927871
          ],
          [
            154.11735339686373,
            -146.54576223373738
          ],
          [
            154.68419671466128,
            -146.46629762042073
          ],
          [
            155.8214061270158,
            -146.28049225863654
          ],
          [
            156.5403722254976,
            -146.1629514893118
          ],
          [
            157.25743777533256,
            -146.01551650239477
          ],
          [
            158.1884670023366,
            -145.8963508056214
          ],
          [
            158.91435619802076,
            -145.80195058158804
          ],
          [
            160.05404162679918,
            -145.65630965097944
          ],
          [
            160.77364746007882,
            -145.54074163509182
          ],
          [
            161.49322395861822,
            -145.4250021715774
          ],
          [
            162.06182788653416,
            -145.33368364770516
          ],
          [
            162.99126805392763,
            -145.19931224821144
          ],
          [
            163.91763994871195,
            -145.08088268783132
          ],
          [
            164.65004630219966,
            -144.99317794965341
          ],
          [
            165.7738517096639,
            -144.73698694689796
          ],
          [
            166.68451424688476,
            -144.6143101422531
          ],
          [
            167.42644491808642,
            -144.53961274144268
          ],
          [
            168.160714059367,
            -144.45432296437204
          ],
          [
            168.87360198191178,
            -144.3194751335323
          ],
          [
            169.44118815324978,
            -144.22444783839651
          ],
          [
            170.37015397975367,
            -144.06446338191822
          ],
          [
            171.1009731245806,
            -144.00593417492232
          ],
          [
            172.0333044439539,
            -143.89768241913038
          ],
          [
            172.80820042791004,
            -143.91122917172862
          ],
          [
            173.68479889954776,
            -143.67913754982365
          ],
          [
            174.38916417194517,
            -143.75324225582028
          ],
          [
            175.6202207228861,
            -144.0278591348022
          ],
          [
            176.19558129004741,
            -143.88515482692034
          ],
          [
            177.08621129384605,
            -143.96628662811688
          ],
          [
            177.75234676617788,
            -144.0685974561983
          ],
          [
            178.41125298928768,
            -143.93287799641422
          ],
          [
            179.3051293405166,
            -143.91741688160351
          ],
          [
            179.86655136978845,
            -144.1514499876178
          ],
          [
            181.41088514552595,
            -144.42872123764212
          ],
          [
            181.81245677633922,
            -144.80914116417847
          ]
        ]
      },
      "properties": {
        "type": "variant",
        "id": 3,
        "color": "#44ff44",
        "vzdal_m": 2871,
        "prevyseni_m": 23,
        "cas_s": 533,
        "tempo_str": "3:05"
      }
    }
  ]
}