{
  "type": "FeatureCollection",
  "features": [
    {
      "type": "Feature",
      "geometry": {
        "type": "Point",
        "coordinates": [
          101.79264549517363,
          -99.20877109456148
        ]
      },
      "properties": {
        "type": "start",
        "isom": "419"
      }
    },
    {
      "type": "Feature",
      "geometry": {
        "type": "Point",
        "coordinates": [
          103.81437202275718,
          -63.738315875804346
        ]
      },
      "properties": {
        "type": "end",
        "isom": "204"
      }
    },
    {
      "type": "Feature",
      "geometry": {
        "type": "LineString",
        "coordinates": [
          [
            101.77775071693728,
            -99.20797183553071
          ],
          [
            102.05458634691958,
            -98.56207976249307
          ],
          [
            102.18908415083307,
            -97.97861709374068
          ],
          [
            102.42369950919296,
            -97.73164774332704
          ],
          [
            102.42371770784729,
            -97.17801433541129
          ],
          [
            102.51600433946552,
            -96.71665768532507
          ],
          [
            102.88511446862987,
            -95.9784979008117
          ],
          [
            102.97740110024812,
            -95.51714125072549
          ],
          [
            103.06968773186635,
            -95.05578460063927
          ],
          [
            103.01894936061055,
            -94.77701522697429
          ],
          [
            103.16198649592081,
            -94.22533901194252
          ],
          [
            103.34654156050298,
            -93.85625911968583
          ],
          [
            103.43882819212122,
            -93.3949024695996
          ],
          [
            103.53111482373947,
            -92.93354581951338
          ],
          [
            103.62340145535772,
            -92.47218916942717
          ],
          [
            103.62341358779393,
            -92.10310023081666
          ],
          [
            103.62342268712108,
            -91.82628352685879
          ],
          [
            103.53116638659337,
            -91.36491783041876
          ],
          [
            103.5311785190296,
            -90.99582889180826
          ],
          [
            103.5311906514658,
            -90.62673995319776
          ],
          [
            103.53120278390202,
            -90.25765101458725
          ],
          [
            103.62348638241122,
            -89.88856659915366
          ],
          [
            103.71577301402945,
            -89.42720994906743
          ],
          [
            103.90033414482974,
            -88.87358558750549
          ],
          [
            103.90034627726595,
            -88.50449664889499
          ],
          [
            103.90035840970216,
            -88.13540771028448
          ],
          [
            104.17473826150132,
            -87.48803087357199
          ],
          [
            104.52769766312113,
            -87.09711969028245
          ],
          [
            104.89345198457369,
            -86.73257753702
          ],
          [
            105.23205151689972,
            -86.33737576195244
          ],
          [
            105.59771609173106,
            -85.85433410651622
          ],
          [
            105.85071916440246,
            -85.18686539364292
          ],
          [
            105.99491632291968,
            -84.7423586794709
          ],
          [
            105.9540752227634,
            -84.35347549210191
          ],
          [
            105.94179883239006,
            -83.98010267677348
          ],
          [
            105.94290875165501,
            -83.48734698579982
          ],
          [
            105.98480009726583,
            -83.14862648593567
          ],
          [
            105.96810016877176,
            -82.78371945317376
          ],
          [
            105.9514815817566,
            -82.417070272614
          ],
          [
            106.06204244684406,
            -81.94382612214439
          ],
          [
            106.12579862299182,
            -81.58609763554314
          ],
          [
            106.1340070247793,
            -81.21711431834463
          ],
          [
            106.10123020761344,
            -80.89412202156284
          ],
          [
            106.15124561829595,
            -80.38465032618848
          ],
          [
            106.1461859921179,
            -80.02076872405414
          ],
          [
            106.17717464106703,
            -79.67013619661901
          ],
          [
            106.23512553886147,
            -79.28522883590539
          ],
          [
            106.49113591208759,
            -78.63432191996357
          ],
          [
            106.77396089033572,
            -77.9148268129715
          ],
          [
            106.77013925026834,
            -77.58691550442522
          ],
          [
            106.66848043474877,
            -77.25326604617852
          ],
          [
            106.7593247359108,
            -76.87798717484027
          ],
          [
            106.7611560297052,
            -76.50924636253777
          ],
          [
            106.48436286324963,
            -75.86332715043866
          ],
          [
            106.11879119562512,
            -75.1246207856934
          ],
          [
            106.11531339626636,
            -74.75604224189954
          ],
          [
            106.11532552870258,
            -74.38695330328903
          ],
          [
            106.02306922817488,
            -73.925587606849
          ],
          [
            106.02308136061109,
            -73.5564986682385
          ],
          [
            106.0230934930473,
            -73.187409729628
          ],
          [
            106.02310562548352,
            -72.8183207910175
          ],
          [
            106.02311775791974,
            -72.449231852407
          ],
          [
            105.93086145739203,
            -71.98786615596697
          ],
          [
            105.83860515686432,
            -71.52650045952694
          ],
          [
            105.65408042337269,
            -70.97285800525736
          ],
          [
            105.65409255580889,
            -70.60376906664686
          ],
          [
            105.56183625528118,
            -70.14240337020684
          ],
          [
            105.46957995475347,
            -69.68103767376681
          ],
          [
            105.30010689137795,
            -69.04879909669128
          ],
          [
            105.19279892073413,
            -68.6660295230572
          ],
          [
            105.19281105317035,
            -68.2969405844467
          ],
          [
            105.19282318560656,
            -67.9278516458362
          ],
          [
            105.10056688507885,
            -67.46648594939617
          ],
          [
            105.10057901751507,
            -67.09739701078567
          ],
          [
            105.11950259648216,
            -66.70104097870176
          ],
          [
            105.10060328238748,
            -66.35921913356468
          ],
          [
            104.731541682968,
            -65.62102316363604
          ],
          [
            104.63928538244029,
            -65.15965746719601
          ],
          [
            104.43898628272338,
            -64.6540944423509
          ],
          [
            104.08569298331109,
            -64.05236351230307
          ],
          [
            103.80888768441933,
            -63.775533238814475
          ]
        ]
      },
      "properties": {
        "type": "variant",
        "id": 1,
        "color": "#ff4444",
        "vzdal_m": 2018,
        "prevyseni_m": 58,
        "cas_s": 563,
        "tempo_str": "4:38"
      }
    },
    {
      "type": "Feature",
      "geometry": {
        "type": "LineString",
        "coordinates": [
          [
            101.77775071693728,
            -99.20797183553071
          ],
          [
            101.40867698508158,
            -98.83886480421259
          ],
          [
            101.039609319444,
            -98.28521330358923
          ],
          [
            100.67054772002452,
            -97.54701733366059
          ],
          [
            100.30148308749597,
            -96.9010935983846
          ],
          [
            100.20922678696826,
            -96.43972790194456
          ],
          [
            100.11697048644055,
            -95.97836220550454
          ],
          [
            100.20925711805879,
            -95.51700555541831
          ],
          [
            100.39381824885908,
            -94.96338119385635
          ],
          [
            100.39383038129529,
            -94.59429225524585
          ],
          [
            100.67066601127759,
            -93.94840018220819
          ],
          [
            100.74889279890786,
            -93.48495046015066
          ],
          [
            101.13205973895113,
            -92.84115598226121
          ],
          [
            101.50116683500642,
            -92.19526843240045
          ],
          [
            101.59344436729748,
            -92.01072848627211
          ],
          [
            101.5934564997337,
            -91.64163954766161
          ],
          [
            101.68574313135196,
            -91.1802828975754
          ],
          [
            101.68575526378815,
            -90.81119395896489
          ],
          [
            101.96259089377048,
            -90.16530188592722
          ],
          [
            102.23942652375277,
            -89.51940981288956
          ],
          [
            102.2759785802876,
            -89.14705213134107
          ],
          [
            102.24321802656281,
            -88.78089493079764
          ],
          [
            102.20180630026194,
            -88.42340292736675
          ],
          [
            102.21680401004613,
            -87.99838356663608
          ],
          [
            102.51631068347993,
            -87.3971619854099
          ],
          [
            102.700859681844,
            -87.21262656245847
          ],
          [
            102.70087181428022,
            -86.84353762384796
          ],
          [
            102.51634708078856,
            -86.2898951695784
          ],
          [
            102.5163592132248,
            -85.9208062309679
          ],
          [
            102.33183751284221,
            -85.27489154204571
          ],
          [
            102.39814969304439,
            -84.8561559536436
          ],
          [
            102.33186177771464,
            -84.5367136648247
          ],
          [
            102.33187391015085,
            -84.1676247262142
          ],
          [
            102.0550807436953,
            -83.5217055141151
          ],
          [
            101.68600701183959,
            -83.15259848279698
          ],
          [
            101.38784183596987,
            -82.596496953079
          ],
          [
            101.10440181671386,
            -81.94683307683478
          ],
          [
            101.15311778845721,
            -81.57934702845498
          ],
          [
            101.2153010161973,
            -81.12977777984085
          ],
          [
            101.14997345281677,
            -80.75112906267638
          ],
          [
            101.31693074157869,
            -80.29205839037873
          ],
          [
            101.66508365917747,
            -79.54505424643152
          ],
          [
            101.69825854027553,
            -79.46685543232125
          ],
          [
            101.28586703169802,
            -78.79417296536914
          ],
          [
            101.32536668189054,
            -78.42225098903516
          ],
          [
            101.1325511026178,
            -77.8930539685359
          ],
          [
            101.13256323505401,
            -77.52396502992539
          ],
          [
            101.13257536749022,
            -77.15487609131489
          ],
          [
            101.21131297496358,
            -76.75338702245047
          ],
          [
            101.3171425645086,
            -76.41670726044771
          ],
          [
            101.68624359434577,
            -75.9553641798922
          ],
          [
            101.96307315810998,
            -75.49401657615978
          ],
          [
            101.96308529054619,
            -75.12492763754929
          ],
          [
            102.14764642134645,
            -74.57130327598735
          ],
          [
            102.23993305296472,
            -74.10994662590113
          ],
          [
            102.23994518540093,
            -73.74085768729063
          ],
          [
            102.23995731783714,
            -73.37176874868013
          ],
          [
            102.23996945027336,
            -73.00267981006962
          ],
          [
            102.3322560818916,
            -72.5413231599834
          ],
          [
            102.51681721269186,
            -71.98769879842146
          ],
          [
            102.5168293451281,
            -71.61860985981096
          ],
          [
            102.60911597674634,
            -71.15725320972474
          ],
          [
            102.60912810918254,
            -70.78816427111424
          ],
          [
            102.7014147408008,
            -70.32680762102801
          ],
          [
            102.88597587160106,
            -69.77318325946607
          ],
          [
            103.25507993454731,
            -69.21956794425795
          ],
          [
            103.25183132623535,
            -68.68001036167185
          ],
          [
            103.25511329874689,
            -68.20457336307906
          ],
          [
            103.2551254311831,
            -67.83548442446856
          ],
          [
            103.2551375636193,
            -67.46639548585806
          ],
          [
            103.25514969605554,
            -67.09730654724757
          ],
          [
            103.25516182849174,
            -66.72821760863707
          ],
          [
            103.42743609544549,
            -66.19874546147359
          ],
          [
            103.43973509172824,
            -65.8055043084646
          ],
          [
            103.53202172334647,
            -65.34414765837839
          ],
          [
            103.53203385578269,
            -64.97505871976789
          ],
          [
            103.62432048740094,
            -64.51370206968167
          ],
          [
            103.80888161820121,
            -63.96007770811973
          ],
          [
            103.80888768441933,
            -63.775533238814475
          ]
        ]
      },
      "properties": {
        "type": "variant",
        "id": 2,
        "color": "#4444ff",
        "vzdal_m": 2040,
        "prevyseni_m": 60,
        "cas_s": 594,
        "tempo_str": "4:51"
      }
    },
    {
      "type": "Feature",
      "geometry": {
        "type": "LineString",
        "coordinates": [
          [
            101.77775071693728,
            -99.20797183553071
          ],
          [
            101.40867698508158,
            -98.83886480421259
          ],
          [
            101.039609319444,
            -98.28521330358923
          ],
          [
            100.67054772002452,
            -97.54701733366059
          ],
          [
            100.30148308749597,
            -96.9010935983846
          ],
          [
            100.20922678696826,
            -96.43972790194456
          ],
          [
            99.9324336205127,
            -95.79380868984546
          ],
          [
            99.56337202109324,
            -95.05561271991684
          ],
          [
            99.19429828923754,
            -94.68650568859871
          ],
          [
            98.82523668981806,
            -93.94830971867007
          ],
          [
            98.45292803612826,
            -93.31065533988482
          ],
          [
            98.08711045787003,
            -92.56419001346545
          ],
          [
            97.81031729141449,
            -91.91827080136636
          ],
          [
            97.58568180331999,
            -91.31253571248904
          ],
          [
            97.37451214602272,
            -90.72074445440862
          ],
          [
            97.39633366500463,
            -90.34532813516667
          ],
          [
            97.35516063034399,
            -90.0711245395636
          ],
          [
            97.27233324169039,
            -89.79102675662115
          ],
          [
            96.94383162531194,
            -89.04565380458467
          ],
          [
            96.89676140296689,
            -88.6896595214017
          ],
          [
            96.87470232505473,
            -88.32087237409847
          ],
          [
            96.87665035988381,
            -87.95056919832143
          ],
          [
            96.89193641431996,
            -87.58407471995925
          ],
          [
            96.91963007348892,
            -87.21234316472606
          ],
          [
            96.90889817109677,
            -86.83820560221749
          ],
          [
            96.82756704441579,
            -86.48809158090135
          ],
          [
            96.80928488034945,
            -86.10319460903892
          ],
          [
            96.85416889543104,
            -85.64371196417582
          ],
          [
            96.82304479629718,
            -85.26690077758207
          ],
          [
            96.78719760129594,
            -85.10250010288257
          ],
          [
            96.57673508509383,
            -84.54543919466715
          ],
          [
            96.55574978086226,
            -84.14473769923981
          ],
          [
            96.76159494599304,
            -83.60040187662032
          ],
          [
            97.18130588103156,
            -83.07895550564778
          ],
          [
            97.37416948544225,
            -82.89591135448876
          ],
          [
            97.45276606289003,
            -82.69219413955088
          ],
          [
            97.47994317262807,
            -82.3196460479871
          ],
          [
            97.45914783589956,
            -81.95567263355603
          ],
          [
            97.42416254174171,
            -81.58535007630192
          ],
          [
            97.3938212640888,
            -81.21970980111023
          ],
          [
            97.40647943883765,
            -80.84451318177547
          ],
          [
            97.15274334880955,
            -80.20413930173535
          ],
          [
            97.00451229407165,
            -79.63921992457584
          ],
          [
            96.98665354098901,
            -79.27660997958523
          ],
          [
            96.98196701170149,
            -79.18457647523275
          ],
          [
            96.93546281797305,
            -78.7176572823729
          ],
          [
            96.89862034470546,
            -78.3537724870355
          ],
          [
            96.86940055272972,
            -77.98681466629102
          ],
          [
            96.82594084522073,
            -77.62364539658303
          ],
          [
            96.80473484591776,
            -77.24882358897672
          ],
          [
            96.88809702746045,
            -76.87785132121937
          ],
          [
            96.80948240209106,
            -76.49755736395933
          ],
          [
            96.97462527182759,
            -76.0447802355754
          ],
          [
            97.06311008405083,
            -75.69405559518911
          ],
          [
            96.98042005638733,
            -75.30922785530164
          ],
          [
            97.07232212400874,
            -74.92176540184118
          ],
          [
            97.13002506163274,
            -74.4979852364359
          ],
          [
            97.07235519445122,
            -74.10969714387493
          ],
          [
            96.9733274152768,
            -73.83643882387449
          ],
          [
            97.25730118300544,
            -73.2792522624746
          ],
          [
            97.44185928069665,
            -72.81790013556528
          ],
          [
            97.81096334364288,
            -72.26428482035715
          ],
          [
            98.18006134037101,
            -71.89521397445428
          ],
          [
            98.55233959320421,
            -71.34424254946309
          ],
          [
            98.85991469986385,
            -70.93306169044678
          ],
          [
            99.47190129581038,
            -70.69573824844682
          ],
          [
            100.21676638317803,
            -70.2409487888061
          ],
          [
            100.67145461963152,
            -69.95761917252558
          ],
          [
            101.04055564946869,
            -69.49627609197009
          ],
          [
            101.40965971241492,
            -68.94266077676195
          ],
          [
            101.6044960730901,
            -68.35397859056967
          ],
          [
            101.96332490616142,
            -67.83542109999188
          ],
          [
            102.33243503532576,
            -67.0972613154785
          ],
          [
            102.70154516449008,
            -66.35910153096512
          ],
          [
            103.07065226054537,
            -65.71321398110436
          ],
          [
            103.43976238970971,
            -64.97505419659099
          ],
          [
            103.53204902132795,
            -64.51369754650476
          ],
          [
            103.71661015212824,
            -63.96007318494283
          ],
          [
            103.80888768441933,
            -63.775533238814475
          ]
        ]
      },
      "properties": {
        "type": "variant",
        "id": 3,
        "color": "#44ff44",
        "vzdal_m": 2144,
        "prevyseni_m": 59,
        "cas_s": 588,
        "tempo_str": "4:34"
      }
    }
  ]
}