{
  "type": "FeatureCollection",
  "features": [
    {
      "type": "Feature",
      "geometry": {
        "type": "Point",
        "coordinates": [
          77.04572453614914,
          -122.4645915779678
        ]
      },
      "properties": {
        "type": "start",
        "isom": "527"
      }
    },
    {
      "type": "Feature",
      "geometry": {
        "type": "Point",
        "coordinates": [
          48.60577421593421,
          -112.42287102926774
        ]
      },
      "properties": {
        "type": "end",
        "isom": "204"
      }
    },
    {
      "type": "Feature",
      "geometry": {
        "type": "LineString",
        "coordinates": [
          [
            77.06386149900699,
            -122.50771552192897
          ],
          [
            76.41796730271425,
            -122.32313939038539
          ],
          [
            75.86591203502033,
            -122.32619584633706
          ],
          [
            75.12616677769257,
            -122.32307606590871
          ],
          [
            74.57254404747283,
            -122.13850445754203
          ],
          [
            74.111189750217,
            -122.04620960700488
          ],
          [
            73.92664985118009,
            -121.95392832599845
          ],
          [
            73.83437838510712,
            -121.95392380282154
          ],
          [
            73.37301802163317,
            -122.04617342158963
          ],
          [
            73.09620362341424,
            -122.04615985205892
          ],
          [
            72.45029122846718,
            -122.41521712843107
          ],
          [
            71.98893086499325,
            -122.50746674719917
          ],
          [
            71.61984500070135,
            -122.50744865449154
          ],
          [
            71.25075913640944,
            -122.50743056178393
          ],
          [
            70.7893987729355,
            -122.59968018055203
          ],
          [
            70.42031290864358,
            -122.59966208784441
          ],
          [
            69.95895861138776,
            -122.50736723730725
          ],
          [
            69.49760431413193,
            -122.4150723867701
          ],
          [
            69.12851844984002,
            -122.41505429406247
          ],
          [
            68.75943258554811,
            -122.41503620135487
          ],
          [
            68.20014986990103,
            -122.63417036168062
          ],
          [
            67.84305769433196,
            -122.56826465095244
          ],
          [
            67.18652030537518,
            -122.3260656806609
          ],
          [
            66.73847538318186,
            -121.93812913721472
          ],
          [
            66.28364793192243,
            -121.65103204230242
          ],
          [
            65.73115904233667,
            -121.29203834668006
          ],
          [
            65.35744325777584,
            -120.74616910137088
          ],
          [
            65.18341886038893,
            -120.45943660852262
          ],
          [
            64.80550552193688,
            -120.08889902009463
          ],
          [
            64.3358838157745,
            -119.72675113059073
          ],
          [
            63.87023230812717,
            -119.55057171634796
          ],
          [
            63.384897922911904,
            -119.21981124670447
          ],
          [
            62.875941141971545,
            -118.87689905249286
          ],
          [
            62.4850881507297,
            -118.90838370852552
          ],
          [
            62.1160022864378,
            -118.90836561581789
          ],
          [
            61.74654812470937,
            -118.90922941842102
          ],
          [
            61.39692858508139,
            -118.81858275650009
          ],
          [
            61.25320729006261,
            -118.84802713113088
          ],
          [
            60.677607938188146,
            -119.23493964855828
          ],
          [
            60.32359091853251,
            -119.68790905633824
          ],
          [
            60.243833508057435,
            -119.7899597064005
          ],
          [
            59.624651470704045,
            -119.55414913260982
          ],
          [
            59.25556257330308,
            -119.64640327455481
          ],
          [
            58.73135616214251,
            -119.56559446575879
          ],
          [
            58.4251254448644,
            -119.46181809665741
          ],
          [
            58.05603958057249,
            -119.46180000394978
          ],
          [
            57.77922214924451,
            -119.55405866907171
          ],
          [
            57.410145384279765,
            -119.2772238724062
          ],
          [
            57.31787998442489,
            -119.09267487992403
          ],
          [
            56.76425118798703,
            -119.09264774086262
          ],
          [
            56.118341826149035,
            -119.36943278258215
          ],
          [
            55.843584976620114,
            -119.43563911260557
          ],
          [
            55.38017009756521,
            -119.3693965971669
          ],
          [
            54.918815800309375,
            -119.27710174662975
          ],
          [
            54.18065620416177,
            -118.90797662260401
          ],
          [
            53.811582472306085,
            -118.53886959128587
          ],
          [
            53.442508740450386,
            -118.16976255996777
          ],
          [
            52.98116354252171,
            -117.80065100547273
          ],
          [
            52.42754687852007,
            -117.4315349278008
          ],
          [
            51.966201680591396,
            -117.06242337330576
          ],
          [
            51.59712794873571,
            -116.69331634198764
          ],
          [
            51.123035347206105,
            -116.33426772497633
          ],
          [
            50.48981474764723,
            -115.95526452942396
          ],
          [
            49.719817028343414,
            -115.63250273235818
          ],
          [
            49.38266432583817,
            -115.12457979664727
          ],
          [
            49.198139592346536,
            -114.5709373423777
          ],
          [
            49.198151724782754,
            -114.2018484037672
          ],
          [
            49.105895424255046,
            -113.74048270732716
          ],
          [
            48.736833824835564,
            -113.00228673739855
          ],
          [
            48.644577524307856,
            -112.54092104095852
          ],
          [
            48.6445805574169,
            -112.4486488063059
          ]
        ]
      },
      "properties": {
        "type": "variant",
        "id": 1,
        "color": "#ff4444",
        "vzdal_m": 1851,
        "prevyseni_m": 97,
        "cas_s": 617,
        "tempo_str": "5:33"
      }
    },
    {
      "type": "Feature",
      "geometry": {
        "type": "LineString",
        "coordinates": [
          [
            77.06386149900699,
            -122.50771552192897
          ],
          [
            76.60251630107831,
            -122.13860396743397
          ],
          [
            76.51024786811439,
            -122.04632720960443
          ],
          [
            76.41797336893237,
            -122.13859492108014
          ],
          [
            76.2334304367864,
            -122.13858587472633
          ],
          [
            75.49524657576637,
            -122.5076386279216
          ],
          [
            74.75706271474635,
            -122.87669138111686
          ],
          [
            74.01887885372632,
            -123.2457441343121
          ],
          [
            73.37296949188833,
            -123.52252917603163
          ],
          [
            72.72705709694127,
            -123.8915864524038
          ],
          [
            71.98887323592123,
            -124.26063920559906
          ],
          [
            71.71204973837514,
            -124.53744234002622
          ],
          [
            71.43523534015621,
            -124.53742877049551
          ],
          [
            70.88159441128214,
            -124.90649057004457
          ],
          [
            70.23568201633508,
            -125.27554784641673
          ],
          [
            69.49749815531504,
            -125.64460059961199
          ],
          [
            68.85158879347705,
            -125.92138564133151
          ],
          [
            68.11340493245702,
            -126.29043839452677
          ],
          [
            67.55977006980106,
            -126.4749557247706
          ],
          [
            67.09840970632712,
            -126.56720534353869
          ],
          [
            66.72933597447143,
            -126.19809831222058
          ],
          [
            66.26799077654275,
            -125.82898675772553
          ],
          [
            65.52983118039515,
            -125.45986163369979
          ],
          [
            64.97620845017539,
            -125.27529002533312
          ],
          [
            64.8839369841024,
            -125.27528550215621
          ],
          [
            64.23804582091873,
            -124.99843713596
          ],
          [
            63.86895995662683,
            -124.99841904325237
          ],
          [
            63.31534025951613,
            -124.72157520023306
          ],
          [
            62.94626956076949,
            -124.26019593426231
          ],
          [
            62.484924362840815,
            -123.89108437976729
          ],
          [
            62.02356399936688,
            -123.98333399853537
          ],
          [
            61.46992610360185,
            -124.26012356343183
          ],
          [
            61.100840239309946,
            -124.2601054707242
          ],
          [
            60.54720537665398,
            -124.44462280096802
          ],
          [
            60.08584501318004,
            -124.53687241973611
          ],
          [
            59.624502848360414,
            -124.07548863058847
          ],
          [
            59.3477005825777,
            -123.70638612244724
          ],
          [
            59.25544428204999,
            -123.2450204260072
          ],
          [
            59.255450348268106,
            -123.06047595670195
          ],
          [
            59.16318191530418,
            -122.96819919887241
          ],
          [
            58.70182761804835,
            -122.87590434833528
          ],
          [
            58.332741753756444,
            -122.87588625562765
          ],
          [
            57.87139352271871,
            -122.59904693578525
          ],
          [
            57.59457912449978,
            -122.59903336625453
          ],
          [
            57.225502359535035,
            -122.32219856958902
          ],
          [
            56.57961119635136,
            -122.04535020339281
          ],
          [
            55.93372003316768,
            -121.7685018371966
          ],
          [
            55.28783190309306,
            -121.39938123634775
          ],
          [
            54.82647760583722,
            -121.3070863858106
          ],
          [
            54.18059250887165,
            -120.84569355030914
          ],
          [
            53.81151877701596,
            -120.47658651899101
          ],
          [
            53.719250344052035,
            -120.38430976116148
          ],
          [
            53.165627613832285,
            -120.1997381527948
          ],
          [
            52.61200791672158,
            -119.92289430977547
          ],
          [
            52.51975161619387,
            -119.46152861333546
          ],
          [
            52.33522081648413,
            -119.09243062837115
          ],
          [
            52.242952383520205,
            -119.00015387054161
          ],
          [
            51.78160415248249,
            -118.7233145506992
          ],
          [
            51.41253042062679,
            -118.35420751938109
          ],
          [
            51.04345972188015,
            -117.89282825341033
          ],
          [
            50.76666352231553,
            -117.33918127596385
          ],
          [
            50.39759585667795,
            -116.78552977534049
          ],
          [
            50.02852212482225,
            -116.41642274402236
          ],
          [
            49.751725925257645,
            -115.86277576657591
          ],
          [
            49.38266129272912,
            -115.2168520312999
          ],
          [
            49.29040499220141,
            -114.75548633485985
          ],
          [
            49.198148691673694,
            -114.29412063841983
          ],
          [
            49.105892391145986,
            -113.83275494197979
          ],
          [
            48.92136765765435,
            -113.27911248771024
          ],
          [
            48.644574491198796,
            -112.63319327561115
          ],
          [
            48.6445805574169,
            -112.4486488063059
          ]
        ]
      },
      "properties": {
        "type": "variant",
        "id": 2,
        "color": "#4444ff",
        "vzdal_m": 2019,
        "prevyseni_m": 101,
        "cas_s": 629,
        "tempo_str": "5:11"
      }
    },
    {
      "type": "Feature",
      "geometry": {
        "type": "LineString",
        "coordinates": [
          [
            77.06386149900699,
            -122.50771552192897
          ],
          [
            76.60251933418736,
            -122.04633173278134
          ],
          [
            76.32572313462276,
            -121.49268475533486
          ],
          [
            76.04892693505815,
            -120.93903777788839
          ],
          [
            75.86439310223935,
            -120.66221202757671
          ],
          [
            75.58758780334759,
            -120.38538175408812
          ],
          [
            75.12623957230986,
            -120.10854243424569
          ],
          [
            74.75715977423606,
            -119.92397987223283
          ],
          [
            74.11126861105238,
            -119.64713150603663
          ],
          [
            73.37310901490478,
            -119.27800638201086
          ],
          [
            73.00403224994004,
            -119.00117158534538
          ],
          [
            72.63496458430245,
            -118.44752008472199
          ],
          [
            72.26589388555581,
            -117.98614081875125
          ],
          [
            72.17362545259188,
            -117.89386406092173
          ],
          [
            71.98908555355499,
            -117.80158277991528
          ],
          [
            71.89681105437295,
            -117.893850491391
          ],
          [
            71.71227418844511,
            -117.70929697573193
          ],
          [
            71.43546282333523,
            -117.61701117154861
          ],
          [
            70.9741085260794,
            -117.52471632101144
          ],
          [
            70.42048579585963,
            -117.34014471264477
          ],
          [
            70.05139993156773,
            -117.34012661993714
          ],
          [
            69.49778023445703,
            -117.06328277691783
          ],
          [
            69.31323730231107,
            -117.06327373056402
          ],
          [
            69.12871256881945,
            -116.50963127629446
          ],
          [
            68.7596418700728,
            -116.04825201032371
          ],
          [
            68.4828456705082,
            -115.49460503287723
          ],
          [
            68.29830880458034,
            -115.31005151721817
          ],
          [
            67.83695450732452,
            -115.21775666668103
          ],
          [
            67.4678686430326,
            -115.21773857397339
          ],
          [
            67.0987827787407,
            -115.21772048126576
          ],
          [
            66.54516004852094,
            -115.03314887289909
          ],
          [
            66.17607721733809,
            -114.94085854553883
          ],
          [
            65.62245448711833,
            -114.75628693717215
          ],
          [
            65.16110018986251,
            -114.663992086635
          ],
          [
            64.6074804927518,
            -114.38714824361568
          ],
          [
            64.2383946284599,
            -114.38713015090808
          ],
          [
            63.68475976580392,
            -114.57164748115189
          ],
          [
            63.03886860262024,
            -114.29479911495568
          ],
          [
            62.57751733847347,
            -114.11023202976588
          ],
          [
            62.2084223748544,
            -114.38703064101615
          ],
          [
            61.931614042853575,
            -114.20247260218018
          ],
          [
            61.285704681015574,
            -114.47925764389971
          ],
          [
            60.91661881672367,
            -114.4792395511921
          ],
          [
            60.36299608650391,
            -114.29466794282541
          ],
          [
            59.90162662370281,
            -114.66373426555137
          ],
          [
            59.440257160901716,
            -115.03280058827735
          ],
          [
            58.88662836446385,
            -115.03277344921591
          ],
          [
            58.24072203573491,
            -115.21728625628283
          ],
          [
            57.87163010522489,
            -115.40181263288046
          ],
          [
            57.133470509077284,
            -115.0326875088547
          ],
          [
            56.672116211821454,
            -114.94039265831756
          ],
          [
            56.11848741538359,
            -114.94036551925613
          ],
          [
            55.65712401880061,
            -115.12488737267685
          ],
          [
            55.10348915614463,
            -115.30940470292067
          ],
          [
            54.54986642592488,
            -115.12483309455398
          ],
          [
            54.18078056163298,
            -115.12481500184637
          ],
          [
            53.627157831413214,
            -114.94024339347968
          ],
          [
            52.88899823526561,
            -114.57111826945393
          ],
          [
            52.61218687015574,
            -114.47883246527059
          ],
          [
            52.243101005863835,
            -114.47881437256297
          ],
          [
            51.781746708608,
            -114.38651952202581
          ],
          [
            51.22812397838824,
            -114.20194791365913
          ],
          [
            50.859050246532554,
            -113.83284088234099
          ],
          [
            50.67451034749565,
            -113.74055960133458
          ],
          [
            50.02861918431197,
            -113.46371123513835
          ],
          [
            49.65954545245628,
            -113.09460420382024
          ],
          [
            49.10592878845463,
            -112.72548812614828
          ],
          [
            48.6445805574169,
            -112.4486488063059
          ]
        ]
      },
      "properties": {
        "type": "variant",
        "id": 3,
        "color": "#44ff44",
        "vzdal_m": 1818,
        "prevyseni_m": 100,
        "cas_s": 595,
        "tempo_str": "5:27"
      }
    }
  ]
}