{
  "type": "FeatureCollection",
  "features": [
    {
      "type": "Feature",
      "geometry": {
        "type": "Point",
        "coordinates": [
          181.6493281629336,
          -99.87710197716092
        ]
      },
      "properties": {
        "type": "start",
        "isom": "111"
      }
    },
    {
      "type": "Feature",
      "geometry": {
        "type": "Point",
        "coordinates": [
          215.04755659163044,
          -76.88523637482312
        ]
      },
      "properties": {
        "type": "end",
        "isom": "204"
      }
    },
    {
      "type": "Feature",
      "geometry": {
        "type": "LineString",
        "coordinates": [
          [
            181.59813186898066,
            -99.86812063107952
          ],
          [
            182.3363217962189,
            -99.31452340730043
          ],
          [
            183.07452385589332,
            -98.39183724522839
          ],
          [
            183.81271984934966,
            -97.6536955523028
          ],
          [
            183.99727491393185,
            -97.28461565992494
          ],
          [
            184.7354709073882,
            -96.54647396699939
          ],
          [
            184.92002597197038,
            -96.17739407462149
          ],
          [
            185.10458103655256,
            -95.80831418224362
          ],
          [
            185.28913610113477,
            -95.43923428986575
          ],
          [
            185.47369116571696,
            -95.0701543974879
          ],
          [
            185.65824623029914,
            -94.70107450511003
          ],
          [
            186.02735635946354,
            -93.96291472035428
          ],
          [
            186.3964482899736,
            -93.77838834303797
          ],
          [
            186.76554022048364,
            -93.59386196572167
          ],
          [
            188.05735894415977,
            -93.04029187968783
          ],
          [
            189.16462866947185,
            -92.6712572168854
          ],
          [
            190.27191052722014,
            -91.93313361579
          ],
          [
            191.56373531711438,
            -91.1950190606097
          ],
          [
            193.0401030391546,
            -90.45691355134447
          ],
          [
            194.14738489690285,
            -89.71878995024908
          ],
          [
            194.8855566254867,
            -89.71882613390942
          ],
          [
            195.80827735243471,
            -89.53432689433838
          ],
          [
            196.5464490810186,
            -89.5343630779987
          ],
          [
            197.28462080960247,
            -89.53439926165906
          ],
          [
            198.20735366898666,
            -88.98081108379506
          ],
          [
            199.13008652837084,
            -88.42722290593106
          ],
          [
            199.4991784588809,
            -88.24269652861474
          ],
          [
            199.86827038939094,
            -88.05817015129844
          ],
          [
            200.6064724490654,
            -87.13548398922639
          ],
          [
            201.5292113746677,
            -86.39735134221591
          ],
          [
            202.26741343434216,
            -85.47466518014386
          ],
          [
            203.00560942779845,
            -84.73652348721829
          ],
          [
            203.7438054212548,
            -83.99838179429273
          ],
          [
            204.48200141471114,
            -83.26024010136716
          ],
          [
            204.66655647929332,
            -82.89116020898929
          ],
          [
            204.85110547765743,
            -82.7066247857579
          ],
          [
            205.7738383370416,
            -82.1530366078939
          ],
          [
            205.95838733540566,
            -81.9685011846625
          ],
          [
            206.51202219806171,
            -81.78398385326129
          ],
          [
            206.88111412857177,
            -81.59945747594497
          ],
          [
            207.25020605908182,
            -81.41493109862867
          ],
          [
            207.61929798959187,
            -81.23040472131237
          ],
          [
            207.80384092173782,
            -81.23041376722745
          ],
          [
            208.1729328522479,
            -81.04588738991114
          ],
          [
            208.7265616486858,
            -81.0459145276564
          ],
          [
            209.09565357919584,
            -80.8613881503401
          ],
          [
            210.20293543694413,
            -80.1232645492447
          ],
          [
            210.75657636581823,
            -79.754202748697
          ],
          [
            211.49477842549268,
            -78.83151658662496
          ],
          [
            212.60206028324097,
            -78.09339298552956
          ],
          [
            214.0784280052812,
            -77.35528747626434
          ],
          [
            215.0011608646654,
            -76.80169929840034
          ]
        ]
      },
      "properties": {
        "type": "variant",
        "id": 1,
        "color": "#ff4444",
        "vzdal_m": 1142,
        "prevyseni_m": 10,
        "cas_s": 341,
        "tempo_str": "4:58"
      }
    },
    {
      "type": "Feature",
      "geometry": {
        "type": "LineString",
        "coordinates": [
          [
            181.59813186898066,
            -99.86812063107952
          ],
          [
            182.33629753134645,
            -100.05270128388634
          ],
          [
            183.07447532614844,
            -99.86819299840022
          ],
          [
            184.1817450514605,
            -99.49915833559777
          ],
          [
            184.55083698197055,
            -99.31463195828147
          ],
          [
            184.9199289124806,
            -99.13010558096515
          ],
          [
            185.6581006410645,
            -99.1301417646255
          ],
          [
            186.39627236964836,
            -99.13017794828585
          ],
          [
            187.13444409823225,
            -99.1302141319462
          ],
          [
            187.87261582681614,
            -99.13025031560653
          ],
          [
            188.7953365537641,
            -98.94575107603548
          ],
          [
            189.16442241805606,
            -98.94576916786566
          ],
          [
            189.53350221612988,
            -99.13033172884232
          ],
          [
            190.45622294307788,
            -98.94583248927127
          ],
          [
            191.19439467166177,
            -98.94586867293162
          ],
          [
            191.74802346809966,
            -98.94589581067686
          ],
          [
            192.67073206261142,
            -99.1304855093988
          ],
          [
            193.59344065712312,
            -99.31507520812069
          ],
          [
            194.33161238570702,
            -99.31511139178103
          ],
          [
            195.0697841142909,
            -99.31514757544139
          ],
          [
            195.62340684451073,
            -99.49971918233311
          ],
          [
            195.99249877502078,
            -99.3151928050168
          ],
          [
            196.36159070553083,
            -99.1306664277005
          ],
          [
            196.73068263604088,
            -98.94614005038422
          ],
          [
            197.09977456655096,
            -98.76161367306788
          ],
          [
            197.83794629513483,
            -98.76164985672824
          ],
          [
            198.39157509157272,
            -98.76167699447349
          ],
          [
            199.3143018847388,
            -98.39263328575598
          ],
          [
            199.8679549460492,
            -97.65448254691532
          ],
          [
            200.60614487328738,
            -97.10088532313624
          ],
          [
            201.34435299917993,
            -95.9936546919177
          ],
          [
            201.89800606049027,
            -95.25550395307705
          ],
          [
            202.8207449860926,
            -94.51737130606656
          ],
          [
            203.5589349133308,
            -93.96377408228747
          ],
          [
            204.29713697300525,
            -93.04108792021543
          ],
          [
            205.0353329664616,
            -92.30294622728987
          ],
          [
            205.40443096318972,
            -91.93387538082708
          ],
          [
            205.58898602777197,
            -91.5647954884492
          ],
          [
            206.32718202122828,
            -90.82665379552364
          ],
          [
            207.0653780146846,
            -90.08851210259807
          ],
          [
            207.61904927464929,
            -88.79672795631798
          ],
          [
            208.35725133432373,
            -87.87404179424593
          ],
          [
            209.0954715926525,
            -86.39772222473445
          ],
          [
            209.6491246539629,
            -85.65957148589379
          ],
          [
            209.83367971854506,
            -85.29049159351592
          ],
          [
            210.20278378149135,
            -84.73687627790666
          ],
          [
            210.38733884607353,
            -84.36779638552879
          ],
          [
            210.57189391065575,
            -83.99871649315092
          ],
          [
            211.12556517062043,
            -82.70693234687083
          ],
          [
            211.86376116407675,
            -81.96879065394526
          ],
          [
            212.4174020929509,
            -81.59972885339756
          ],
          [
            213.15560415262533,
            -80.67704269132552
          ],
          [
            213.89382441095412,
            -79.20072312181404
          ],
          [
            214.63204466928286,
            -77.72440355230256
          ],
          [
            214.8165997338651,
            -77.35532365992468
          ],
          [
            215.0011608646654,
            -76.80169929840034
          ]
        ]
      },
      "properties": {
        "type": "variant",
        "id": 2,
        "color": "#4444ff",
        "vzdal_m": 1230,
        "prevyseni_m": 6,
        "cas_s": 353,
        "tempo_str": "4:47"
      }
    },
    {
      "type": "Feature",
      "geometry": {
        "type": "LineString",
        "coordinates": [
          [
            181.59813186898066,
            -99.86812063107952
          ],
          [
            182.3363217962189,
            -99.31452340730043
          ],
          [
            183.07452385589332,
            -98.39183724522839
          ],
          [
            183.81271984934966,
            -97.6536955523028
          ],
          [
            183.99727491393185,
            -97.28461565992494
          ],
          [
            184.7354709073882,
            -96.54647396699939
          ],
          [
            184.92002597197038,
            -96.17739407462149
          ],
          [
            185.10458103655256,
            -95.80831418224362
          ],
          [
            185.28913610113477,
            -95.43923428986575
          ],
          [
            185.47369116571696,
            -95.0701543974879
          ],
          [
            185.65824623029914,
            -94.70107450511003
          ],
          [
            186.21190535782762,
            -93.77837929712288
          ],
          [
            186.3964482899736,
            -93.77838834303797
          ],
          [
            186.76554022048364,
            -93.59386196572167
          ],
          [
            187.8728160120138,
            -93.04028283377275
          ],
          [
            188.057371076596,
            -92.67120294139488
          ],
          [
            188.79557313627043,
            -91.74851677932283
          ],
          [
            189.16467719921673,
            -91.19490146371356
          ],
          [
            189.53376912972678,
            -91.01037508639726
          ],
          [
            189.90287925889118,
            -90.27221530164152
          ],
          [
            190.08743432347336,
            -89.90313540926365
          ],
          [
            190.08744645590957,
            -89.5340464709707
          ],
          [
            190.2720015204918,
            -89.16496657859282
          ],
          [
            190.27200758670992,
            -88.98042210944635
          ],
          [
            190.272013652928,
            -88.79587764029986
          ],
          [
            190.2720197191461,
            -88.61133317115339
          ],
          [
            190.2720257853642,
            -88.42678870200692
          ],
          [
            190.27203791780045,
            -88.05769976371396
          ],
          [
            190.45659298238266,
            -87.68861987133609
          ],
          [
            190.64114804696484,
            -87.3195399789582
          ],
          [
            191.0102399774749,
            -87.13501360164192
          ],
          [
            191.37933190798495,
            -86.9504872243256
          ],
          [
            192.11750363656884,
            -86.95052340798594
          ],
          [
            192.85567536515273,
            -86.9505595916463
          ],
          [
            193.40931022780873,
            -86.76604226024507
          ],
          [
            194.14751228748318,
            -85.84335609817302
          ],
          [
            194.88571434715766,
            -84.92066993610098
          ],
          [
            195.0702633455217,
            -84.73613451286958
          ],
          [
            195.2548184101039,
            -84.36705462049171
          ],
          [
            195.99301440356024,
            -83.62891292756615
          ],
          [
            196.91576546159874,
            -82.52169134226271
          ],
          [
            197.65396145505508,
            -81.78354964933715
          ],
          [
            199.13032917709532,
            -81.04544414007192
          ],
          [
            200.2375928361892,
            -80.86095394641596
          ],
          [
            201.5294176260835,
            -80.12283939123564
          ],
          [
            202.63669948383173,
            -79.38471579014025
          ],
          [
            203.0057974805599,
            -79.01564494367747
          ],
          [
            203.37487727863373,
            -79.20020750465412
          ],
          [
            203.9285121412898,
            -79.01569017325289
          ],
          [
            204.66668386987368,
            -79.01572635691323
          ],
          [
            205.40485559845754,
            -79.01576254057359
          ],
          [
            206.14302732704144,
            -79.01579872423393
          ],
          [
            206.88119905562533,
            -79.01583490789427
          ],
          [
            207.6193707842092,
            -79.01587109155462
          ],
          [
            208.3575425127931,
            -79.01590727521497
          ],
          [
            209.09571424137698,
            -79.01594345887531
          ],
          [
            210.01843496832493,
            -78.83144421930426
          ],
          [
            211.31025975821916,
            -78.09332966412396
          ],
          [
            212.97117041240537,
            -77.35523320077382
          ],
          [
            214.44753813444555,
            -76.6171276915086
          ],
          [
            215.0011608646654,
            -76.80169929840034
          ]
        ]
      },
      "properties": {
        "type": "variant",
        "id": 3,
        "color": "#44ff44",
        "vzdal_m": 1203,
        "prevyseni_m": 12,
        "cas_s": 363,
        "tempo_str": "5:01"
      }
    }
  ]
}