{
  "type": "FeatureCollection",
  "features": [
    {
      "type": "Feature",
      "geometry": {
        "type": "Point",
        "coordinates": [
          60.50112073059789,
          -14.398484277255609
        ]
      },
      "properties": {
        "type": "start",
        "isom": "111"
      }
    },
    {
      "type": "Feature",
      "geometry": {
        "type": "Point",
        "coordinates": [
          8.46503414303591,
          -35.168701480584886
        ]
      },
      "properties": {
        "type": "end",
        "isom": "109"
      }
    },
    {
      "type": "Feature",
      "geometry": {
        "type": "LineString",
        "coordinates": [
          [
            60.444328412648105,
            -14.326087762442006
          ],
          [
            59.521578205641376,
            -15.064283901637692
          ],
          [
            58.41428849310078,
            -15.802479768571853
          ],
          [
            56.93791976949244,
            -16.540675090982965
          ],
          [
            56.19972223785392,
            -17.094322127314346
          ],
          [
            55.64603787208061,
            -18.01706818615891
          ],
          [
            54.538761329374346,
            -18.570714677967242
          ],
          [
            54.169669148472266,
            -18.755263508570017
          ],
          [
            53.43147161683375,
            -19.3089105449014
          ],
          [
            52.87782676056345,
            -19.678008478368483
          ],
          [
            52.50876091933004,
            -19.49345855871961
          ],
          [
            51.95514240272841,
            -19.493457741935035
          ],
          [
            51.770589727360196,
            -19.678006844799338
          ],
          [
            51.2169448710899,
            -20.04710477826642
          ],
          [
            50.84785269018782,
            -20.231653608869195
          ],
          [
            49.37148396657947,
            -20.969848931280307
          ],
          [
            48.817852280143505,
            -21.154397489621562
          ],
          [
            48.448760099241426,
            -21.338946320224338
          ],
          [
            47.895141582639795,
            -21.338945503439767
          ],
          [
            46.97243088513609,
            -21.52349351725797
          ],
          [
            46.787865039933536,
            -21.8925919952481
          ],
          [
            46.41877285903145,
            -22.07714082585088
          ],
          [
            45.12694364095697,
            -22.815336420523515
          ],
          [
            43.835101253048165,
            -23.738081390321977
          ],
          [
            42.727851050010585,
            -23.92262913187866
          ],
          [
            41.43603500177045,
            -24.476275351425468
          ],
          [
            40.51332430426674,
            -24.660823365243672
          ],
          [
            39.77516628213124,
            -24.660822276197578
          ],
          [
            38.4833502338911,
            -25.214468495744384
          ],
          [
            37.74519221175561,
            -25.21446740669829
          ],
          [
            36.8224815142519,
            -25.399015420516495
          ],
          [
            35.71521814137997,
            -25.768112537199002
          ],
          [
            35.346125960477885,
            -25.952661367801777
          ],
          [
            34.9770337795758,
            -26.13721019840456
          ],
          [
            33.68520456150133,
            -26.875405793077196
          ],
          [
            32.393388513261186,
            -27.429052012624005
          ],
          [
            30.91701978965284,
            -28.167247335035118
          ],
          [
            29.99430909214913,
            -28.351795348853322
          ],
          [
            29.071598394645424,
            -28.536343362671527
          ],
          [
            28.887058889111547,
            -28.536343090410003
          ],
          [
            28.517966708209457,
            -28.72089192101278
          ],
          [
            27.779769176570948,
            -29.274538957344166
          ],
          [
            27.226163829803664,
            -29.089988765433766
          ],
          [
            26.857071648901577,
            -29.27453759603654
          ],
          [
            26.487979467999487,
            -29.45908642663932
          ],
          [
            26.30343996246561,
            -29.459086154377797
          ],
          [
            25.00193880826259,
            -29.99289082372752
          ],
          [
            23.71980786598534,
            -30.566378593471416
          ],
          [
            22.61254449311342,
            -30.935475710153924
          ],
          [
            21.320728444873286,
            -31.48912192970073
          ],
          [
            19.844359721264937,
            -32.227317252111845
          ],
          [
            18.5525436730248,
            -32.78096347165865
          ],
          [
            17.076174949416455,
            -33.51915879406977
          ],
          [
            15.784358901176319,
            -34.07280501361658
          ],
          [
            14.307990177567971,
            -34.81100033602769
          ],
          [
            13.569832155432472,
            -34.81099924698159
          ],
          [
            12.831674133296975,
            -34.810998157935494
          ],
          [
            11.908963435793265,
            -34.9955461717537
          ],
          [
            10.801700062921341,
            -35.364643288436206
          ],
          [
            9.694489369386769,
            -34.99554290461541
          ],
          [
            8.95633134725127,
            -34.99554181556931
          ],
          [
            8.587239166349184,
            -35.18009064617209
          ],
          [
            8.402699660815308,
            -35.18009037391056
          ]
        ]
      },
      "properties": {
        "type": "variant",
        "id": 1,
        "color": "#ff4444",
        "vzdal_m": 1566,
        "prevyseni_m": 14,
        "cas_s": 427,
        "tempo_str": "4:32"
      }
    },
    {
      "type": "Feature",
      "geometry": {
        "type": "LineString",
        "coordinates": [
          [
            60.444328412648105,
            -14.326087762442006
          ],
          [
            59.521578205641376,
            -15.064283901637692
          ],
          [
            58.41428849310078,
            -15.802479768571853
          ],
          [
            56.93791976949244,
            -16.540675090982965
          ],
          [
            56.19972223785392,
            -17.094322127314346
          ],
          [
            55.64603787208061,
            -18.01706818615891
          ],
          [
            54.538761329374346,
            -18.570714677967242
          ],
          [
            54.169669148472266,
            -18.755263508570017
          ],
          [
            53.43147161683375,
            -19.3089105449014
          ],
          [
            52.69324774552656,
            -20.231656331484437
          ],
          [
            51.95498436471637,
            -21.708050243444955
          ],
          [
            51.77041851951381,
            -22.077148721435083
          ],
          [
            50.6631551466419,
            -22.44624583811759
          ],
          [
            50.10952346020593,
            -22.630794396458846
          ],
          [
            49.74043127930384,
            -22.81534322706162
          ],
          [
            49.555878603935625,
            -22.999892329925924
          ],
          [
            49.186786423033546,
            -23.184441160528703
          ],
          [
            49.00223374766533,
            -23.368990263393005
          ],
          [
            48.63314156676324,
            -23.553539093995784
          ],
          [
            47.341299178854435,
            -24.476284063794242
          ],
          [
            45.86493045524609,
            -25.214479386205362
          ],
          [
            44.38856173163774,
            -25.95267470861647
          ],
          [
            43.28128518893148,
            -26.506321200424807
          ],
          [
            42.9121930080294,
            -26.690870031027583
          ],
          [
            42.543100827127304,
            -26.87541886163036
          ],
          [
            42.35856132159343,
            -26.875418589368838
          ],
          [
            41.98946914069134,
            -27.059967419971613
          ],
          [
            41.80491646532313,
            -27.24451652283592
          ],
          [
            41.435824284421045,
            -27.429065353438695
          ],
          [
            41.25125843921849,
            -27.798163831428827
          ],
          [
            40.69758724327952,
            -28.53636051514756
          ],
          [
            39.95937654180667,
            -29.274556926604767
          ],
          [
            39.03663950463429,
            -29.828203690674624
          ],
          [
            38.29848148249879,
            -29.82820260162853
          ],
          [
            37.56032346036329,
            -29.828201512582435
          ],
          [
            36.82216543822779,
            -29.828200423536334
          ],
          [
            36.08400741609229,
            -29.82819933449024
          ],
          [
            35.34584939395679,
            -29.82819824544414
          ],
          [
            34.42313869645308,
            -30.012746259262347
          ],
          [
            33.68496750448325,
            -30.197294545342075
          ],
          [
            32.946822652182085,
            -30.01274408117015
          ],
          [
            32.024111954678375,
            -30.197292094988356
          ],
          [
            31.655032943610625,
            -30.197291550465305
          ],
          [
            31.470493438076755,
            -30.197291278203785
          ],
          [
            31.101401257174665,
            -30.38184010880656
          ],
          [
            30.36323006520483,
            -30.566388394886292
          ],
          [
            28.88696670027118,
            -29.82818871629079
          ],
          [
            27.59522967103707,
            -29.274538685082636
          ],
          [
            27.226163829803664,
            -29.089988765433766
          ],
          [
            26.857071648901577,
            -29.27453759603654
          ],
          [
            26.487979467999487,
            -29.45908642663932
          ],
          [
            26.30343996246561,
            -29.459086154377797
          ],
          [
            25.00193880826259,
            -29.99289082372752
          ],
          [
            23.71980786598534,
            -30.566378593471416
          ],
          [
            22.61254449311342,
            -30.935475710153924
          ],
          [
            21.320728444873286,
            -31.48912192970073
          ],
          [
            19.844359721264937,
            -32.227317252111845
          ],
          [
            18.5525436730248,
            -32.78096347165865
          ],
          [
            17.076174949416455,
            -33.51915879406977
          ],
          [
            15.784358901176319,
            -34.07280501361658
          ],
          [
            14.307990177567971,
            -34.81100033602769
          ],
          [
            13.569832155432472,
            -34.81099924698159
          ],
          [
            12.831674133296975,
            -34.810998157935494
          ],
          [
            11.908963435793265,
            -34.9955461717537
          ],
          [
            10.801700062921341,
            -35.364643288436206
          ],
          [
            9.694489369386769,
            -34.99554290461541
          ],
          [
            8.95633134725127,
            -34.99554181556931
          ],
          [
            8.587239166349184,
            -35.18009064617209
          ],
          [
            8.402699660815308,
            -35.18009037391056
          ]
        ]
      },
      "properties": {
        "type": "variant",
        "id": 2,
        "color": "#4444ff",
        "vzdal_m": 1618,
        "prevyseni_m": 13,
        "cas_s": 439,
        "tempo_str": "4:31"
      }
    },
    {
      "type": "Feature",
      "geometry": {
        "type": "LineString",
        "coordinates": [
          [
            60.444328412648105,
            -14.326087762442006
          ],
          [
            59.70618356034694,
            -14.141537298270084
          ],
          [
            58.9680123683771,
            -14.326085584349812
          ],
          [
            58.22985434624161,
            -14.326084495303714
          ],
          [
            57.3071436487379,
            -14.510632509121919
          ],
          [
            56.38443295123418,
            -14.695180522940126
          ],
          [
            55.64627492909869,
            -14.695179433894028
          ],
          [
            54.908116906963194,
            -14.69517834484793
          ],
          [
            54.35449839036156,
            -14.695177528063358
          ],
          [
            53.985406209459484,
            -14.879726358666135
          ],
          [
            52.87814283658755,
            -15.248823475348642
          ],
          [
            52.139984814452056,
            -15.248822386302544
          ],
          [
            51.40181362248222,
            -15.433370672382276
          ],
          [
            51.03272144158013,
            -15.617919502985053
          ],
          [
            50.1100370837451,
            -15.433368766551606
          ],
          [
            49.74095807267735,
            -15.433368222028557
          ],
          [
            49.37186589177526,
            -15.617917052631336
          ],
          [
            48.449115684768536,
            -16.35611319182702
          ],
          [
            47.15728646669407,
            -17.094308786499656
          ],
          [
            45.86547041845393,
            -17.647955006046466
          ],
          [
            45.12731239631843,
            -17.64795391700037
          ],
          [
            44.38915437418294,
            -17.64795282795427
          ],
          [
            43.28194368064836,
            -17.278852444133474
          ],
          [
            42.35927249264766,
            -16.9097523325742
          ],
          [
            42.17473298711379,
            -16.909752060312673
          ],
          [
            41.80566714588038,
            -16.725202140663797
          ],
          [
            40.6984564523458,
            -16.356101756843
          ],
          [
            39.7757457548421,
            -16.540649770661204
          ],
          [
            39.22214040807481,
            -16.356099578750808
          ],
          [
            38.299456050239776,
            -16.171548842317357
          ],
          [
            37.19219267736785,
            -16.540645958999864
          ],
          [
            36.82310049646576,
            -16.725194789602643
          ],
          [
            36.26948197986414,
            -16.72519397281807
          ],
          [
            34.79311325625579,
            -17.46338929522918
          ],
          [
            33.50129720801566,
            -18.01703551477599
          ],
          [
            32.20948115977552,
            -18.5706817343228
          ],
          [
            31.1022177869036,
            -18.939778851005308
          ],
          [
            30.3640597647681,
            -18.93977776195921
          ],
          [
            29.62591491246694,
            -18.75522729778729
          ],
          [
            29.25682273156485,
            -18.939776128390065
          ],
          [
            28.149533019024254,
            -19.677971995324228
          ],
          [
            27.411322317551402,
            -20.416168406781434
          ],
          [
            26.673124785912893,
            -20.969815443112818
          ],
          [
            25.196756062304548,
            -21.70801076552393
          ],
          [
            23.720387338696195,
            -22.446206087935042
          ],
          [
            22.428558120621723,
            -23.184401682607678
          ],
          [
            21.12425850446792,
            -23.711307147860627
          ],
          [
            19.85141838011038,
            -24.305605171215408
          ],
          [
            18.356321489987874,
            -25.003672466181655
          ],
          [
            16.83088103108364,
            -25.780317380016395
          ],
          [
            15.409892111637179,
            -26.43266984053003
          ],
          [
            14.992347855011063,
            -26.57433091984737
          ],
          [
            14.615967919491293,
            -26.76359372367628
          ],
          [
            14.244796593899464,
            -26.923367383326326
          ],
          [
            13.87102518711775,
            -27.097885615072034
          ],
          [
            13.01666141319833,
            -28.53631967591891
          ],
          [
            12.093858526854254,
            -30.0127133156179
          ],
          [
            11.540147821412267,
            -31.304558124714116
          ],
          [
            10.617371274736868,
            -32.41185301416146
          ],
          [
            9.87916057326402,
            -33.15004942561866
          ],
          [
            9.140923532122496,
            -34.25734458732753
          ],
          [
            8.402699660815308,
            -35.18009037391056
          ]
        ]
      },
      "properties": {
        "type": "variant",
        "id": 3,
        "color": "#44ff44",
        "vzdal_m": 1632,
        "prevyseni_m": 19,
        "cas_s": 443,
        "tempo_str": "4:31"
      }
    }
  ]
}