{
  "type": "FeatureCollection",
  "features": [
    {
      "type": "Feature",
      "geometry": {
        "type": "Point",
        "coordinates": [
          58.85241906850122,
          -19.893697453567988
        ]
      },
      "properties": {
        "type": "start",
        "isom": "109"
      }
    },
    {
      "type": "Feature",
      "geometry": {
        "type": "Point",
        "coordinates": [
          53.64396203620007,
          -99.33707045228383
        ]
      },
      "properties": {
        "type": "end",
        "isom": "204"
      }
    },
    {
      "type": "Feature",
      "geometry": {
        "type": "LineString",
        "coordinates": [
          [
            58.821063769911724,
            -19.919141290366685
          ],
          [
            57.89827398090624,
            -21.210984901061007
          ],
          [
            57.16002486816573,
            -22.68738763363783
          ],
          [
            56.79088591051537,
            -23.794695536610718
          ],
          [
            56.23719187531995,
            -25.08655085438557
          ],
          [
            55.8680673189497,
            -25.824752220673982
          ],
          [
            55.68350504076458,
            -26.193852903818193
          ],
          [
            55.49894276257944,
            -26.562953586962397
          ],
          [
            55.31438048439432,
            -26.9320542701066
          ],
          [
            55.129818206209194,
            -27.301154953250812
          ],
          [
            54.94525592802407,
            -27.670255636395016
          ],
          [
            54.76069364983894,
            -28.039356319539223
          ],
          [
            54.576131371653815,
            -28.408457002683427
          ],
          [
            53.805636820968324,
            -29.515887346200337
          ],
          [
            53.807579207669974,
            -30.253965311241004
          ],
          [
            53.78065236828166,
            -30.987649307942
          ],
          [
            53.94703743639321,
            -31.703147692465585
          ],
          [
            53.99037417802279,
            -31.876877403284997
          ],
          [
            54.022809611215315,
            -32.28406935649258
          ],
          [
            53.72996940038853,
            -33.17878972361373
          ],
          [
            53.42780490830263,
            -34.30492229190341
          ],
          [
            53.4812342735704,
            -35.051900637713295
          ],
          [
            53.51641665115543,
            -35.78493327863165
          ],
          [
            53.58129034655171,
            -36.52680928781054
          ],
          [
            53.59279594451527,
            -37.26096760150067
          ],
          [
            53.6284738004688,
            -37.99742458636017
          ],
          [
            53.698265649860176,
            -38.55758607083488
          ],
          [
            53.698878654516804,
            -39.30183679590568
          ],
          [
            53.58725984776599,
            -40.00064402676458
          ],
          [
            53.89981583087186,
            -41.02600369502864
          ],
          [
            53.82339782285809,
            -41.697011904039684
          ],
          [
            53.828978448929604,
            -42.43516883414211
          ],
          [
            53.801916473403715,
            -43.16806432992597
          ],
          [
            53.70407144771812,
            -43.917594859504646
          ],
          [
            53.54026617173443,
            -44.3477258402534
          ],
          [
            52.8088150381038,
            -45.0969997239502
          ],
          [
            52.03358081568336,
            -45.853357424363075
          ],
          [
            51.17393186368729,
            -46.3978884595257
          ],
          [
            50.139400040223826,
            -47.216450319640565
          ],
          [
            49.75978883525303,
            -47.37597367592539
          ],
          [
            49.59256102609277,
            -48.34005193805778
          ],
          [
            49.59254662481267,
            -48.70915847474225
          ],
          [
            49.40798434662755,
            -49.07825915788646
          ],
          [
            49.223422068442424,
            -49.44735984103066
          ],
          [
            48.48518015634197,
            -50.739209305265256
          ],
          [
            47.93148612114654,
            -52.031064623040116
          ],
          [
            47.931464519226395,
            -52.58472442806682
          ],
          [
            48.11599799485133,
            -52.95383681829156
          ],
          [
            48.11599079421128,
            -53.138390086633805
          ],
          [
            48.3005242698362,
            -53.507502476858534
          ],
          [
            48.300509868556105,
            -53.87660901354301
          ],
          [
            48.485043344181044,
            -54.24572140376775
          ],
          [
            48.485036143540995,
            -54.43027467210999
          ],
          [
            48.66956961916593,
            -54.79938706233473
          ],
          [
            48.66956241852588,
            -54.983940330676965
          ],
          [
            48.8540958941508,
            -55.353052720901715
          ],
          [
            49.038622169135685,
            -55.90671837946868
          ],
          [
            49.07077470915583,
            -56.635808441131545
          ],
          [
            49.407645916545256,
            -57.75226276997159
          ],
          [
            49.40762431462512,
            -58.3059225749983
          ],
          [
            48.85393027942969,
            -59.59777789277316
          ],
          [
            48.66935359996446,
            -60.33598511260183
          ],
          [
            48.484762519219146,
            -61.44329886911498
          ],
          [
            47.746506205838585,
            -63.10425487003405
          ],
          [
            47.192819371283214,
            -64.21155691946667
          ],
          [
            46.27003678291777,
            -65.31884726181876
          ],
          [
            45.71634994836239,
            -66.42614931125136
          ],
          [
            45.531787670177266,
            -66.79524999439558
          ],
          [
            45.34722539199214,
            -67.16435067753979
          ],
          [
            45.162663113807014,
            -67.53345136068398
          ],
          [
            44.97810083562189,
            -67.9025520438282
          ],
          [
            44.79353855743676,
            -68.27165272697239
          ],
          [
            44.63806910750818,
            -68.68810355557383
          ],
          [
            43.83898945410036,
            -69.14901644418784
          ],
          [
            43.25015110451996,
            -70.46444669650826
          ],
          [
            43.050095781681414,
            -71.25476178844308
          ],
          [
            42.923067737639,
            -71.67026732319981
          ],
          [
            42.85102919224545,
            -71.82021456897506
          ],
          [
            42.28199277804733,
            -72.84735418478141
          ],
          [
            42.09854037415644,
            -73.6397762157603
          ],
          [
            42.012513921309015,
            -74.03056931375822
          ],
          [
            41.95818075723475,
            -74.2185226587249
          ],
          [
            41.707070820879224,
            -74.6000963742161
          ],
          [
            40.87347198031274,
            -75.22943668041066
          ],
          [
            40.36203240195782,
            -75.85327336064402
          ],
          [
            39.94458790864787,
            -75.9569136342697
          ],
          [
            39.740244569641035,
            -76.07928746207917
          ],
          [
            39.38385888893931,
            -76.25560090115599
          ],
          [
            39.25677102084365,
            -76.76092746450728
          ],
          [
            39.256742218283456,
            -77.49914053787622
          ],
          [
            39.44125409198824,
            -78.42191273312767
          ],
          [
            39.25667021188297,
            -79.34467322129859
          ],
          [
            39.256641409322775,
            -80.08288629466753
          ],
          [
            39.25661260676258,
            -80.82109936803649
          ],
          [
            39.44114608238751,
            -81.19021175826123
          ],
          [
            39.62567955801244,
            -81.55932414848596
          ],
          [
            39.810213033637375,
            -81.9284365387107
          ],
          [
            40.5483469361371,
            -83.40488609960967
          ],
          [
            41.286495239916924,
            -84.51222912382416
          ],
          [
            42.02462914241665,
            -85.98867868472313
          ],
          [
            42.76277744619647,
            -87.09602170893761
          ],
          [
            43.5009401512564,
            -87.83425819646763
          ],
          [
            44.23910285631632,
            -88.57249468399765
          ],
          [
            44.97726556137624,
            -89.31073117152766
          ],
          [
            45.71542826643616,
            -90.04896765905767
          ],
          [
            47.00723460221117,
            -90.7872217072085
          ],
          [
            47.92994518417613,
            -91.52546404827878
          ],
          [
            49.0372036430461,
            -92.26371224288933
          ],
          [
            50.14446210191608,
            -93.00196043749987
          ],
          [
            51.25172056078606,
            -93.74020863211044
          ],
          [
            51.98988326584598,
            -94.47844511964045
          ],
          [
            52.174395139550775,
            -95.4012173148919
          ],
          [
            52.17436633699057,
            -96.13943038826083
          ],
          [
            52.17433753443038,
            -96.87764346162979
          ],
          [
            52.912471436930105,
            -98.35409302252876
          ],
          [
            53.650626941349984,
            -99.27688277840102
          ]
        ]
      },
      "properties": {
        "type": "variant",
        "id": 1,
        "color": "#ff4444",
        "vzdal_m": 2502,
        "prevyseni_m": 59,
        "cas_s": 735,
        "tempo_str": "4:53"
      }
    },
    {
      "type": "Feature",
      "geometry": {
        "type": "LineString",
        "coordinates": [
          [
            58.821063769911724,
            -19.919141290366685
          ],
          [
            57.89827398090624,
            -21.210984901061007
          ],
          [
            57.16002486816573,
            -22.68738763363783
          ],
          [
            56.79088591051537,
            -23.794695536610718
          ],
          [
            56.23719187531995,
            -25.08655085438557
          ],
          [
            55.8680673189497,
            -25.824752220673982
          ],
          [
            55.68350504076458,
            -26.193852903818193
          ],
          [
            55.49894276257944,
            -26.562953586962397
          ],
          [
            55.31438048439432,
            -26.9320542701066
          ],
          [
            55.129818206209194,
            -27.301154953250812
          ],
          [
            54.94525592802407,
            -27.670255636395016
          ],
          [
            54.76069364983894,
            -28.039356319539223
          ],
          [
            54.576131371653815,
            -28.408457002683427
          ],
          [
            53.805636820968324,
            -29.515887346200337
          ],
          [
            53.807579207669974,
            -30.253965311241004
          ],
          [
            53.78065236828166,
            -30.987649307942
          ],
          [
            53.94703743639321,
            -31.703147692465585
          ],
          [
            53.99037417802279,
            -31.876877403284997
          ],
          [
            54.022809611215315,
            -32.28406935649258
          ],
          [
            53.72996940038853,
            -33.17878972361373
          ],
          [
            53.42780490830263,
            -34.30492229190341
          ],
          [
            53.4812342735704,
            -35.051900637713295
          ],
          [
            53.51641665115543,
            -35.78493327863165
          ],
          [
            53.58129034655171,
            -36.52680928781054
          ],
          [
            53.59279594451527,
            -37.26096760150067
          ],
          [
            53.6284738004688,
            -37.99742458636017
          ],
          [
            53.698265649860176,
            -38.55758607083488
          ],
          [
            53.698878654516804,
            -39.30183679590568
          ],
          [
            53.58725984776599,
            -40.00064402676458
          ],
          [
            53.89981583087186,
            -41.02600369502864
          ],
          [
            53.82339782285809,
            -41.697011904039684
          ],
          [
            53.828978448929604,
            -42.43516883414211
          ],
          [
            53.801916473403715,
            -43.16806432992597
          ],
          [
            53.70407144771812,
            -43.917594859504646
          ],
          [
            53.54026617173443,
            -44.3477258402534
          ],
          [
            52.8088150381038,
            -45.0969997239502
          ],
          [
            52.03358081568336,
            -45.853357424363075
          ],
          [
            51.17393186368729,
            -46.3978884595257
          ],
          [
            50.139400040223826,
            -47.216450319640565
          ],
          [
            49.75978883525303,
            -47.37597367592539
          ],
          [
            49.59256102609277,
            -48.34005193805778
          ],
          [
            49.59254662481267,
            -48.70915847474225
          ],
          [
            49.40798434662755,
            -49.07825915788646
          ],
          [
            49.223422068442424,
            -49.44735984103066
          ],
          [
            48.48518015634197,
            -50.739209305265256
          ],
          [
            47.93148612114654,
            -52.031064623040116
          ],
          [
            47.931464519226395,
            -52.58472442806682
          ],
          [
            48.11599799485133,
            -52.95383681829156
          ],
          [
            48.11599079421128,
            -53.138390086633805
          ],
          [
            48.3005242698362,
            -53.507502476858534
          ],
          [
            48.300509868556105,
            -53.87660901354301
          ],
          [
            48.485043344181044,
            -54.24572140376775
          ],
          [
            48.485036143540995,
            -54.43027467210999
          ],
          [
            48.66956961916593,
            -54.79938706233473
          ],
          [
            48.66956241852588,
            -54.983940330676965
          ],
          [
            48.8540958941508,
            -55.353052720901715
          ],
          [
            49.038622169135685,
            -55.90671837946868
          ],
          [
            49.07077470915583,
            -56.635808441131545
          ],
          [
            49.407645916545256,
            -57.75226276997159
          ],
          [
            49.40761711398507,
            -58.49047584334053
          ],
          [
            49.59215058961,
            -58.859588233565276
          ],
          [
            49.59214338896995,
            -59.04414150190752
          ],
          [
            49.77667686459489,
            -59.41325389213226
          ],
          [
            50.14572941456465,
            -60.52058520926621
          ],
          [
            50.33024848890948,
            -61.25880413617542
          ],
          [
            50.51478196453442,
            -61.62791652640017
          ],
          [
            50.51477476389436,
            -61.812469794742405
          ],
          [
            50.6993082395193,
            -62.18158218496715
          ],
          [
            50.6992938382392,
            -62.55068872165162
          ],
          [
            50.88382731386413,
            -62.91980111187635
          ],
          [
            50.88380571194399,
            -63.473460916903065
          ],
          [
            51.068339187568924,
            -63.84257330712781
          ],
          [
            51.06832478628882,
            -64.21167984381228
          ],
          [
            51.25285826191375,
            -64.58079223403702
          ],
          [
            51.621910811883524,
            -65.68812355117097
          ],
          [
            51.621903611243475,
            -65.8726768195132
          ],
          [
            51.43734133305834,
            -66.24177750265743
          ],
          [
            51.252786255513264,
            -66.4263249174594
          ],
          [
            50.330018068427925,
            -67.164508723127
          ],
          [
            49.7763240332325,
            -68.45636404090186
          ],
          [
            49.40722107878239,
            -68.64090560216356
          ],
          [
            49.038118124332286,
            -68.82544716342525
          ],
          [
            48.29989061351192,
            -69.74819009097537
          ],
          [
            47.930758856501626,
            -70.67094472560602
          ],
          [
            47.93074445522153,
            -71.0400512622905
          ],
          [
            47.93073725458148,
            -71.22460453063273
          ],
          [
            48.115270730206404,
            -71.59371692085747
          ],
          [
            48.11524912828626,
            -72.14737672588419
          ],
          [
            49.03793810833107,
            -73.43927887198117
          ],
          [
            49.222449982035855,
            -74.36205106723263
          ],
          [
            48.853311024385505,
            -75.46935897020552
          ],
          [
            48.8532822218253,
            -76.20757204357447
          ],
          [
            48.66869834172004,
            -77.13033253174538
          ],
          [
            48.66866953915984,
            -77.86854560511433
          ],
          [
            48.66864073659964,
            -78.60675867848327
          ],
          [
            48.853152610304434,
            -79.52953087373473
          ],
          [
            49.22220516027419,
            -80.63686219086868
          ],
          [
            49.960339062773926,
            -82.11331175176764
          ],
          [
            50.69847296527365,
            -83.58976131266661
          ],
          [
            51.25208779342855,
            -84.32799194665635
          ],
          [
            51.62117634659855,
            -84.51255692207913
          ],
          [
            51.99026489976856,
            -84.6971218975019
          ],
          [
            52.17479837539349,
            -85.06623428772664
          ],
          [
            52.359331851018425,
            -85.43534667795139
          ],
          [
            52.72838440098819,
            -86.54267799508533
          ],
          [
            53.09743695095796,
            -87.6500093122193
          ],
          [
            53.28194882466275,
            -88.57278150747075
          ],
          [
            53.46648230028767,
            -88.94189389769548
          ],
          [
            53.650994173992466,
            -89.86466609294693
          ],
          [
            54.2046018015073,
            -90.78744999527892
          ],
          [
            54.7582022283821,
            -91.89478716595315
          ],
          [
            54.758195027742055,
            -92.07934043429537
          ],
          [
            54.758187827102006,
            -92.26389370263762
          ],
          [
            54.75818062646196,
            -92.44844697097986
          ],
          [
            54.75817342582191,
            -92.63300023932209
          ],
          [
            54.75816622518187,
            -92.81755350766433
          ],
          [
            54.758159024541804,
            -93.00210677600657
          ],
          [
            54.758151823901756,
            -93.1866600443488
          ],
          [
            54.75814462326171,
            -93.37121331269104
          ],
          [
            54.75811582070152,
            -94.10942638605998
          ],
          [
            54.758087018141325,
            -94.84763945942893
          ],
          [
            54.573524739956206,
            -95.21674014257314
          ],
          [
            54.75805821558112,
            -95.58585253279789
          ],
          [
            54.573495937396004,
            -95.95495321594208
          ],
          [
            54.57348153611591,
            -96.32405975262655
          ],
          [
            54.57345993419576,
            -96.87771955765326
          ],
          [
            54.204320976545404,
            -97.98502746062616
          ],
          [
            53.650626941349984,
            -99.27688277840102
          ]
        ]
      },
      "properties": {
        "type": "variant",
        "id": 2,
        "color": "#4444ff",
        "vzdal_m": 2373,
        "prevyseni_m": 59,
        "cas_s": 728,
        "tempo_str": "5:06"
      }
    },
    {
      "type": "Feature",
      "geometry": {
        "type": "LineString",
        "coordinates": [
          [
            58.821063769911724,
            -19.919141290366685
          ],
          [
            57.89827398090624,
            -21.210984901061007
          ],
          [
            57.16002486816573,
            -22.68738763363783
          ],
          [
            56.79088591051537,
            -23.794695536610718
          ],
          [
            56.23719187531995,
            -25.08655085438557
          ],
          [
            55.8680673189497,
            -25.824752220673982
          ],
          [
            55.68350504076458,
            -26.193852903818193
          ],
          [
            55.49894276257944,
            -26.562953586962397
          ],
          [
            55.31438048439432,
            -26.9320542701066
          ],
          [
            55.129818206209194,
            -27.301154953250812
          ],
          [
            54.94525592802407,
            -27.670255636395016
          ],
          [
            54.76069364983894,
            -28.039356319539223
          ],
          [
            54.576131371653815,
            -28.408457002683427
          ],
          [
            53.805636820968324,
            -29.515887346200337
          ],
          [
            53.09966914937305,
            -30.438496126125898
          ],
          [
            52.36144883919274,
            -31.17668578533377
          ],
          [
            51.62322852901242,
            -31.91487544454165
          ],
          [
            51.06956329637719,
            -32.46851768894756
          ],
          [
            50.700460341927084,
            -32.65305925020926
          ],
          [
            50.33135738747698,
            -32.83760081147096
          ],
          [
            49.59311547537652,
            -34.12945027570555
          ],
          [
            48.85487356327606,
            -35.42129973994014
          ],
          [
            48.301193929360736,
            -36.34404852103052
          ],
          [
            48.11663885181566,
            -36.52859593583249
          ],
          [
            47.93207657363053,
            -36.897696618976696
          ],
          [
            47.747521496085454,
            -37.082244033778665
          ],
          [
            47.56295921790032,
            -37.45134471692287
          ],
          [
            46.82473170707996,
            -38.374087644472986
          ],
          [
            46.82470290451977,
            -39.11230071784193
          ],
          [
            46.82467410195957,
            -39.85051379121088
          ],
          [
            46.82464529939938,
            -40.588726864579826
          ],
          [
            46.82461649683919,
            -41.32693993794877
          ],
          [
            46.82458769427899,
            -42.06515301131772
          ],
          [
            47.00911396926387,
            -42.6188186698847
          ],
          [
            47.1936474448888,
            -42.98793106010944
          ],
          [
            47.19364024424876,
            -43.172484328451674
          ],
          [
            47.37817371987369,
            -43.541596718676416
          ],
          [
            47.37814491731349,
            -44.27980979204536
          ],
          [
            47.19356103720822,
            -45.20257028021628
          ],
          [
            47.00897715710295,
            -46.1253307683872
          ],
          [
            47.00894835454276,
            -46.86354384175615
          ],
          [
            46.455261519987374,
            -47.97084589118876
          ],
          [
            46.36124407039673,
            -48.486857632824766
          ],
          [
            45.60243621107124,
            -49.151344732521245
          ],
          [
            44.813681388888426,
            -50.296599806659756
          ],
          [
            44.41888445555706,
            -51.661643915957576
          ],
          [
            44.45700567677552,
            -52.13254657728171
          ],
          [
            44.69861162364829,
            -52.54659382146797
          ],
          [
            44.95170343419317,
            -53.04581033033605
          ],
          [
            45.019618056860786,
            -53.50739841217379
          ],
          [
            45.0195892543006,
            -54.24561148554274
          ],
          [
            44.95186393884887,
            -54.99465860825057
          ],
          [
            45.31862999318274,
            -56.09999608280852
          ],
          [
            45.47289197914332,
            -56.60667764648303
          ],
          [
            45.59139563863301,
            -56.99589460644275
          ],
          [
            45.709888034214195,
            -57.38511156604519
          ],
          [
            45.58768035738751,
            -57.81562685027587
          ],
          [
            44.79390579007924,
            -58.85943604151832
          ],
          [
            44.42477403306894,
            -59.78219067614898
          ],
          [
            44.055627874778544,
            -61.0740518474641
          ],
          [
            43.50192663894307,
            -62.55046043358119
          ],
          [
            43.317349959477845,
            -63.28866765340987
          ],
          [
            42.39455296983231,
            -64.76506453244643
          ],
          [
            41.840851733996836,
            -66.24147311856352
          ],
          [
            41.6562894558117,
            -66.61057380170773
          ],
          [
            41.840822931436634,
            -66.97968619193247
          ],
          [
            41.47170557570644,
            -67.53333428987864
          ],
          [
            41.65623905133136,
            -67.90244668010338
          ],
          [
            41.656210248771174,
            -68.64065975347233
          ],
          [
            41.656203048131125,
            -68.82521302181456
          ],
          [
            41.47164076994599,
            -69.19431370495877
          ],
          [
            41.47163356930594,
            -69.378866973301
          ],
          [
            41.28707129112082,
            -69.74796765644521
          ],
          [
            41.28704248856062,
            -70.48618072981415
          ],
          [
            41.287028087280525,
            -70.85528726649864
          ],
          [
            41.102465809095406,
            -71.22438794964285
          ],
          [
            40.733348453365195,
            -71.77803604758901
          ],
          [
            40.91788192899013,
            -72.14714843781375
          ],
          [
            40.54874297133978,
            -73.25445634078665
          ],
          [
            40.364159091234505,
            -74.17721682895757
          ],
          [
            40.36413028867431,
            -74.91542990232651
          ],
          [
            40.36411588739421,
            -75.28453643901099
          ],
          [
            40.239091595958485,
            -75.7313904105186
          ],
          [
            39.38385888893931,
            -76.25560090115599
          ],
          [
            39.25677102084365,
            -76.76092746450728
          ],
          [
            39.256742218283456,
            -77.49914053787622
          ],
          [
            39.44125409198824,
            -78.42191273312767
          ],
          [
            39.25667021188297,
            -79.34467322129859
          ],
          [
            39.256641409322775,
            -80.08288629466753
          ],
          [
            39.25661260676258,
            -80.82109936803649
          ],
          [
            39.44114608238751,
            -81.19021175826123
          ],
          [
            39.62567955801244,
            -81.55932414848596
          ],
          [
            39.810213033637375,
            -81.9284365387107
          ],
          [
            40.5483469361371,
            -83.40488609960967
          ],
          [
            41.286495239916924,
            -84.51222912382416
          ],
          [
            42.02462914241665,
            -85.98867868472313
          ],
          [
            42.76277744619647,
            -87.09602170893761
          ],
          [
            43.5009401512564,
            -87.83425819646763
          ],
          [
            44.23910285631632,
            -88.57249468399765
          ],
          [
            44.97726556137624,
            -89.31073117152766
          ],
          [
            45.71542826643616,
            -90.04896765905767
          ],
          [
            47.00723460221117,
            -90.7872217072085
          ],
          [
            47.92994518417613,
            -91.52546404827878
          ],
          [
            49.0372036430461,
            -92.26371224288933
          ],
          [
            50.14446210191608,
            -93.00196043749987
          ],
          [
            51.25172056078606,
            -93.74020863211044
          ],
          [
            51.98988326584598,
            -94.47844511964045
          ],
          [
            52.174395139550775,
            -95.4012173148919
          ],
          [
            52.17436633699057,
            -96.13943038826083
          ],
          [
            52.17433753443038,
            -96.87764346162979
          ],
          [
            52.912471436930105,
            -98.35409302252876
          ],
          [
            53.650626941349984,
            -99.27688277840102
          ]
        ]
      },
      "properties": {
        "type": "variant",
        "id": 3,
        "color": "#44ff44",
        "vzdal_m": 2496,
        "prevyseni_m": 58,
        "cas_s": 742,
        "tempo_str": "4:57"
      }
    }
  ]
}