{
  "type": "FeatureCollection",
  "features": [
    {
      "type": "Feature",
      "geometry": {
        "type": "Point",
        "coordinates": [
          76.61092923430783,
          -45.95649179702767
        ]
      },
      "properties": {
        "type": "start",
        "isom": "204"
      }
    },
    {
      "type": "Feature",
      "geometry": {
        "type": "Point",
        "coordinates": [
          92.30111928088031,
          -52.153341502091564
        ]
      },
      "properties": {
        "type": "end",
        "isom": "110"
      }
    },
    {
      "type": "Feature",
      "geometry": {
        "type": "LineString",
        "coordinates": [
          [
            76.58939058293842,
            -45.965657613670615
          ],
          [
            76.95847644723032,
            -45.96567570637824
          ],
          [
            77.41982467826806,
            -46.242515026220644
          ],
          [
            78.15798427441565,
            -46.61164015024639
          ],
          [
            78.89614387056325,
            -46.98076527427214
          ],
          [
            79.63430346671086,
            -47.34989039829789
          ],
          [
            80.37246306285846,
            -47.71901552232363
          ],
          [
            81.11062265900607,
            -48.08814064634938
          ],
          [
            81.75651382218975,
            -48.36498901254559
          ],
          [
            82.49467341833734,
            -48.73411413657134
          ],
          [
            82.95602468248411,
            -48.918681221761126
          ],
          [
            83.60191281255875,
            -49.28780182260996
          ],
          [
            84.1555355427785,
            -49.472373430976646
          ],
          [
            84.70915827299825,
            -49.656945039343334
          ],
          [
            85.35504943618193,
            -49.93379340553954
          ],
          [
            86.09320903232954,
            -50.3029185295653
          ],
          [
            86.83136862847714,
            -50.67204365359104
          ],
          [
            87.29272292573296,
            -50.76433850412819
          ],
          [
            87.84634565595273,
            -50.94891011249488
          ],
          [
            88.49223681913641,
            -51.22575847869109
          ],
          [
            88.95358808328318,
            -51.41032556388087
          ],
          [
            89.13812798232009,
            -51.50260684488731
          ],
          [
            89.69175071253984,
            -51.687178453254
          ],
          [
            90.24537344275959,
            -51.87175006162067
          ],
          [
            90.9835330389072,
            -52.24087518564642
          ],
          [
            91.53716183534506,
            -52.24090232470786
          ],
          [
            91.99852219881899,
            -52.14865270593977
          ],
          [
            92.27533659703792,
            -52.148666275470475
          ]
        ]
      },
      "properties": {
        "type": "variant",
        "id": 1,
        "color": "#ff4444",
        "vzdal_m": 925,
        "prevyseni_m": 30,
        "cas_s": 261,
        "tempo_str": "4:41"
      }
    },
    {
      "type": "Feature",
      "geometry": {
        "type": "LineString",
        "coordinates": [
          [
            76.58939058293842,
            -45.965657613670615
          ],
          [
            76.95846128168506,
            -46.42703687964137
          ],
          [
            77.3275319804317,
            -46.88841614561212
          ],
          [
            77.60432514688726,
            -47.53433535771121
          ],
          [
            77.97338674630673,
            -48.27253132763984
          ],
          [
            78.15791451290742,
            -48.73390154725678
          ],
          [
            78.71153117690908,
            -49.10301762492871
          ],
          [
            79.26514784091073,
            -49.47213370260065
          ],
          [
            79.7264930388394,
            -49.84124525709568
          ],
          [
            80.18783823676806,
            -50.21035681159071
          ],
          [
            80.83372636684268,
            -50.579477412439545
          ],
          [
            81.5718859629903,
            -50.948602536465295
          ],
          [
            82.03323116091896,
            -51.31771409096033
          ],
          [
            82.58684782492061,
            -51.686830168632255
          ],
          [
            82.95592155677629,
            -52.055937199950385
          ],
          [
            83.324995288632,
            -52.42504423126851
          ],
          [
            83.87861801885175,
            -52.6096158396352
          ],
          [
            84.33997231610758,
            -52.70191069017235
          ],
          [
            84.89360717876356,
            -52.517393359928526
          ],
          [
            85.44724810763762,
            -52.14833156037946
          ],
          [
            86.09316050258468,
            -51.7792742840073
          ],
          [
            86.73907289753173,
            -51.41021700763513
          ],
          [
            87.2927077601877,
            -51.22569967739132
          ],
          [
            87.84634262284366,
            -51.041182347147505
          ],
          [
            88.1231570210626,
            -51.04119591667822
          ],
          [
            88.76904818424627,
            -51.31804428287444
          ],
          [
            88.95358808328318,
            -51.41032556388087
          ],
          [
            89.13812798232009,
            -51.50260684488731
          ],
          [
            89.69175071253984,
            -51.687178453254
          ],
          [
            90.33764187572352,
            -51.964026819450204
          ],
          [
            90.9835330389072,
            -52.24087518564642
          ],
          [
            91.53716183534506,
            -52.24090232470786
          ],
          [
            91.99852219881899,
            -52.14865270593977
          ],
          [
            92.27533659703792,
            -52.148666275470475
          ]
        ]
      },
      "properties": {
        "type": "variant",
        "id": 2,
        "color": "#4444ff",
        "vzdal_m": 1042,
        "prevyseni_m": 27,
        "cas_s": 262,
        "tempo_str": "4:11"
      }
    },
    {
      "type": "Feature",
      "geometry": {
        "type": "LineString",
        "coordinates": [
          [
            76.58939058293842,
            -45.965657613670615
          ],
          [
            76.95847644723032,
            -45.96567570637824
          ],
          [
            77.51209917745008,
            -46.150247314744924
          ],
          [
            77.88118504174199,
            -46.15026540745255
          ],
          [
            78.25027090603389,
            -46.15028350016017
          ],
          [
            78.61935677032581,
            -46.15030159286779
          ],
          [
            78.98844263461771,
            -46.15031968557542
          ],
          [
            79.35752849890963,
            -46.15033777828304
          ],
          [
            79.72661436320153,
            -46.150355870990666
          ],
          [
            80.28023709342129,
            -46.33492747935735
          ],
          [
            80.6493229577132,
            -46.33494557206497
          ],
          [
            81.11067725496903,
            -46.42724042260212
          ],
          [
            81.47976008615187,
            -46.51953074996237
          ],
          [
            81.94112044962583,
            -46.42728113119428
          ],
          [
            82.49474317984557,
            -46.61185273956096
          ],
          [
            82.86381387859221,
            -47.07323200553171
          ],
          [
            83.23288457733885,
            -47.534611271502456
          ],
          [
            83.60195830919456,
            -47.90371830282058
          ],
          [
            84.24784947237823,
            -48.1805666690168
          ],
          [
            84.80147220259798,
            -48.36513827738349
          ],
          [
            85.35509493281774,
            -48.54970988575016
          ],
          [
            85.90871766303749,
            -48.73428149411685
          ],
          [
            86.64687725918509,
            -49.10340661814259
          ],
          [
            87.29276842236877,
            -49.38025498433881
          ],
          [
            87.66185428666068,
            -49.38027307704643
          ],
          [
            88.21547095066234,
            -49.74938915471837
          ],
          [
            88.76909064777303,
            -50.02623299773768
          ],
          [
            89.32271337799278,
            -50.21080460610436
          ],
          [
            89.87633610821254,
            -50.39537621447104
          ],
          [
            90.33769040546838,
            -50.4876710650082
          ],
          [
            90.70677626976028,
            -50.48768915771582
          ],
          [
            91.168124500798,
            -50.76452847755822
          ],
          [
            91.5371982326537,
            -51.13363550887636
          ],
          [
            91.90626893140033,
            -51.5950147748471
          ],
          [
            92.27533659703792,
            -52.148666275470475
          ]
        ]
      },
      "properties": {
        "type": "variant",
        "id": 3,
        "color": "#44ff44",
        "vzdal_m": 958,
        "prevyseni_m": 31,
        "cas_s": 276,
        "tempo_str": "4:48"
      }
    }
  ]
}