{
  "type": "FeatureCollection",
  "features": [
    {
      "type": "Feature",
      "geometry": {
        "type": "Point",
        "coordinates": [
          152.68406397205865,
          -104.24827881846932
        ]
      },
      "properties": {
        "type": "start",
        "isom": "204"
      }
    },
    {
      "type": "Feature",
      "geometry": {
        "type": "Point",
        "coordinates": [
          190.7421326284075,
          -110.95021585436959
        ]
      },
      "properties": {
        "type": "end",
        "isom": "419"
      }
    },
    {
      "type": "Feature",
      "geometry": {
        "type": "LineString",
        "coordinates": [
          [
            152.62474593282852,
            -104.29576768192645
          ],
          [
            153.3629176614124,
            -104.2958038655868
          ],
          [
            154.1010893899963,
            -104.29584004924713
          ],
          [
            154.83926111858017,
            -104.29587623290749
          ],
          [
            155.57742678094596,
            -104.4804568857143
          ],
          [
            156.31560457574795,
            -104.29594860022819
          ],
          [
            157.05377630433185,
            -104.29598478388853
          ],
          [
            157.7919480329157,
            -104.29602096754888
          ],
          [
            158.71465662742747,
            -104.48061066627078
          ],
          [
            159.0837364255013,
            -104.66517322724744
          ],
          [
            160.37551875186878,
            -105.21886995609248
          ],
          [
            161.48276421230838,
            -105.58801316987595
          ],
          [
            162.59000967274795,
            -105.95715638365942
          ],
          [
            163.88179199911542,
            -106.51085311250446
          ],
          [
            165.35811119141076,
            -107.24910335641107
          ],
          [
            166.83443038370606,
            -107.98735360031768
          ],
          [
            168.12621271007356,
            -108.5410503291627
          ],
          [
            168.82983562295155,
            -108.61211147924854
          ],
          [
            169.77015788410355,
            -108.87958657083895
          ],
          [
            170.63345384930022,
            -108.88758809905373
          ],
          [
            172.22654549044904,
            -109.58088982649201
          ],
          [
            173.63411232528927,
            -110.42981984293854
          ],
          [
            174.7696976051474,
            -110.3868206735706
          ],
          [
            175.13878953565745,
            -110.2022942962543
          ],
          [
            175.5078814661675,
            -110.01776791893798
          ],
          [
            175.69243046453158,
            -109.83323249570658
          ],
          [
            176.06152239504164,
            -109.6487061183903
          ],
          [
            176.4306143255517,
            -109.46417974107399
          ],
          [
            177.16878605413558,
            -109.46421592473432
          ],
          [
            177.90695778271945,
            -109.46425210839467
          ],
          [
            178.64512951130334,
            -109.46428829205502
          ],
          [
            179.38330123988723,
            -109.46432447571534
          ],
          [
            180.1214729684711,
            -109.46436065937571
          ],
          [
            180.8596507632731,
            -109.27985237388957
          ],
          [
            181.96690228993083,
            -109.46445111852658
          ],
          [
            182.88961088444256,
            -109.64904081724848
          ],
          [
            183.62778261302645,
            -109.64907700090882
          ],
          [
            184.36594827539224,
            -109.83365765371565
          ],
          [
            185.47319373583184,
            -110.20280086749912
          ],
          [
            186.21136546441574,
            -110.20283705115946
          ],
          [
            186.9495250605634,
            -110.57196217311277
          ],
          [
            187.87224578751136,
            -110.38746293354171
          ],
          [
            188.7949543820231,
            -110.57205263226362
          ],
          [
            189.533126110607,
            -110.57208881592398
          ],
          [
            190.45583470511875,
            -110.75667851464588
          ],
          [
            190.82491450319256,
            -110.94124107562254
          ]
        ]
      },
      "properties": {
        "type": "variant",
        "id": 1,
        "color": "#ff4444",
        "vzdal_m": 1086,
        "prevyseni_m": 26,
        "cas_s": 336,
        "tempo_str": "5:09"
      }
    },
    {
      "type": "Feature",
      "geometry": {
        "type": "LineString",
        "coordinates": [
          [
            152.62474593282852,
            -104.29576768192645
          ],
          [
            153.91655859028654,
            -103.9267420650391
          ],
          [
            155.0238343818167,
            -103.37316293309019
          ],
          [
            155.7620061104006,
            -103.37319911675053
          ],
          [
            156.50017783898448,
            -103.37323530041088
          ],
          [
            157.23834956756835,
            -103.37327148407122
          ],
          [
            157.6074354318603,
            -103.3732895759014
          ],
          [
            157.97651522993414,
            -103.55785213687803
          ],
          [
            158.34559502800798,
            -103.74241469785468
          ],
          [
            158.71469302473614,
            -103.37334385139191
          ],
          [
            159.0837849552462,
            -103.1888174740756
          ],
          [
            159.45287081953813,
            -103.18883556590576
          ],
          [
            159.82195061761195,
            -103.37339812688242
          ],
          [
            160.74467134455992,
            -103.18889888731137
          ],
          [
            161.4828430731438,
            -103.18893507097172
          ],
          [
            162.40555166765554,
            -103.37352476969363
          ],
          [
            163.3282602621673,
            -103.55811446841554
          ],
          [
            164.06643199075117,
            -103.5581506520759
          ],
          [
            164.80460371933506,
            -103.55818683573622
          ],
          [
            165.27459977345544,
            -103.6660549990541
          ],
          [
            166.04719538759915,
            -104.40248359001603
          ],
          [
            167.21981098303448,
            -105.05273323574788
          ],
          [
            168.30165478252258,
            -105.53280489101104
          ],
          [
            169.03940791272967,
            -105.38280689438567
          ],
          [
            170.54211517710755,
            -104.68948348983808
          ],
          [
            171.35528113141424,
            -104.074537297101
          ],
          [
            172.61560189205548,
            -103.29984067529927
          ],
          [
            173.76497204857554,
            -102.49830058400465
          ],
          [
            174.15996337456002,
            -101.89556126434034
          ],
          [
            174.58543978525265,
            -101.71322157777102
          ],
          [
            175.32361151383654,
            -101.71325776143138
          ],
          [
            176.43085697427614,
            -102.08240097521485
          ],
          [
            177.90717616657145,
            -102.82065121912146
          ],
          [
            178.27625596464532,
            -103.00521378009809
          ],
          [
            179.56803829101275,
            -103.55891050894313
          ],
          [
            180.12166102123257,
            -103.74348211583488
          ],
          [
            181.5979802135279,
            -104.48173235974149
          ],
          [
            183.0742994058232,
            -105.21998260364809
          ],
          [
            183.99698980168063,
            -105.95820570980942
          ],
          [
            184.73513726539207,
            -106.6964197700557
          ],
          [
            186.02691352554143,
            -107.43466096804721
          ],
          [
            187.1341468535448,
            -108.17289312012365
          ],
          [
            187.87228825103813,
            -109.09565164951637
          ],
          [
            188.42591704747605,
            -109.09567878726163
          ],
          [
            188.79499684554986,
            -109.28024134823828
          ],
          [
            189.7176872414073,
            -110.01846445439963
          ],
          [
            190.45583470511875,
            -110.75667851464588
          ],
          [
            190.82491450319256,
            -110.94124107562254
          ]
        ]
      },
      "properties": {
        "type": "variant",
        "id": 2,
        "color": "#4444ff",
        "vzdal_m": 1174,
        "prevyseni_m": 30,
        "cas_s": 350,
        "tempo_str": "4:57"
      }
    },
    {
      "type": "Feature",
      "geometry": {
        "type": "LineString",
        "coordinates": [
          [
            152.62474593282852,
            -104.29576768192645
          ],
          [
            153.3629176614124,
            -104.2958038655868
          ],
          [
            154.1010893899963,
            -104.29584004924713
          ],
          [
            154.83926111858017,
            -104.29587623290749
          ],
          [
            155.57743284716406,
            -104.29591241656783
          ],
          [
            156.31560457574795,
            -104.29594860022819
          ],
          [
            157.6073869021154,
            -104.84964532907323
          ],
          [
            157.97646670018923,
            -105.03420789004986
          ],
          [
            158.34554649826308,
            -105.21877045102651
          ],
          [
            159.63732275841244,
            -105.95701164901803
          ],
          [
            160.37547022212388,
            -106.6952257092643
          ],
          [
            160.7445500201977,
            -106.87978827024094
          ],
          [
            161.11362981827153,
            -107.0643508312176
          ],
          [
            162.03632021412892,
            -107.80257393737894
          ],
          [
            162.95901060998636,
            -108.5407970435403
          ],
          [
            163.69715807369778,
            -109.27901110378654
          ],
          [
            164.43530553740922,
            -110.01722516403281
          ],
          [
            164.98890400275658,
            -110.93997464751045
          ],
          [
            166.28069239534216,
            -111.30912690720902
          ],
          [
            167.01887019014416,
            -111.12461862172289
          ],
          [
            167.75703585250994,
            -111.3091992745297
          ],
          [
            168.4952075810938,
            -111.30923545819006
          ],
          [
            169.2333793096777,
            -111.3092716418504
          ],
          [
            169.9715510382616,
            -111.30930782551073
          ],
          [
            170.7097227668455,
            -111.30934400917108
          ],
          [
            172.00150509321293,
            -111.86304073801612
          ],
          [
            173.29328741958042,
            -112.41673746686116
          ],
          [
            174.21599601409216,
            -112.60132716558307
          ],
          [
            174.95416774267605,
            -112.60136334924343
          ],
          [
            175.138710674822,
            -112.60137239515852
          ],
          [
            175.64516552424425,
            -112.76520068101121
          ],
          [
            176.13594725657435,
            -113.22104420845409
          ],
          [
            176.48361070009864,
            -113.43966533983028
          ],
          [
            176.69902049271482,
            -113.57512143522497
          ],
          [
            177.02940645826877,
            -113.83622256168981
          ],
          [
            177.23803405520783,
            -113.95416613132417
          ],
          [
            177.59747920138653,
            -114.15589643890999
          ],
          [
            177.95693868405874,
            -114.35754284436331
          ],
          [
            178.16716646352887,
            -114.46350575799097
          ],
          [
            178.54846252816108,
            -114.65582701729448
          ],
          [
            178.86824395685534,
            -114.82232701425951
          ],
          [
            179.2520460091077,
            -115.14567166826691
          ],
          [
            179.87242379159218,
            -115.88975017014836
          ],
          [
            180.85941418076675,
            -116.47708667060222
          ],
          [
            181.96669603851504,
            -115.73896306950685
          ],
          [
            183.0739778962633,
            -115.00083946841144
          ],
          [
            184.1812597540116,
            -114.26271586731605
          ],
          [
            185.10399867961388,
            -113.52458322030556
          ],
          [
            185.65764567470615,
            -112.97097695061139
          ],
          [
            186.02675580387051,
            -112.23281716585565
          ],
          [
            186.39584773438057,
            -112.04829078853933
          ],
          [
            187.13401946296446,
            -112.04832697219969
          ],
          [
            187.5031113934745,
            -111.86380059488337
          ],
          [
            187.68765432562049,
            -111.86380964079845
          ],
          [
            188.05674625613054,
            -111.67928326348216
          ],
          [
            188.79491798471443,
            -111.67931944714249
          ],
          [
            190.08673670839056,
            -111.12574936110867
          ],
          [
            190.82491450319256,
            -110.94124107562254
          ]
        ]
      },
      "properties": {
        "type": "variant",
        "id": 3,
        "color": "#44ff44",
        "vzdal_m": 1196,
        "prevyseni_m": 21,
        "cas_s": 355,
        "tempo_str": "4:56"
      }
    }
  ]
}