{
  "type": "FeatureCollection",
  "features": [
    {
      "type": "Feature",
      "geometry": {
        "type": "Point",
        "coordinates": [
          30.86669679147749,
          -179.22424069557033
        ]
      },
      "properties": {
        "type": "start",
        "isom": "111"
      }
    },
    {
      "type": "Feature",
      "geometry": {
        "type": "Point",
        "coordinates": [
          200.58470777255718,
          -231.21869384603315
        ]
      },
      "properties": {
        "type": "end",
        "isom": "109"
      }
    },
    {
      "type": "Feature",
      "geometry": {
        "type": "LineString",
        "coordinates": [
          [
            30.723638024698747,
            -179.48830288584466
          ],
          [
            30.723427307349347,
            -182.44109288785788
          ],
          [
            30.723216589999947,
            -185.39388288987112
          ],
          [
            31.46116389478604,
            -188.34667398093043
          ],
          [
            32.19921655824684,
            -189.82307007098316
          ],
          [
            36.62800665304778,
            -192.03766910676964
          ],
          [
            38.10427001798143,
            -192.77586878536516
          ],
          [
            39.580533382915064,
            -193.51406846396065
          ],
          [
            41.794849411309514,
            -195.72866423260885
          ],
          [
            44.0090074016919,
            -200.15785250276699
          ],
          [
            46.9615341315592,
            -201.634251859958
          ],
          [
            48.43779749649284,
            -202.3724515385535
          ],
          [
            50.652166204224635,
            -203.84884980669838
          ],
          [
            52.12848224849564,
            -203.8488519847906
          ],
          [
            53.60474561342928,
            -204.5870516633861
          ],
          [
            54.34279827689008,
            -206.06344775343882
          ],
          [
            55.41495472981991,
            -208.04658916606667
          ],
          [
            59.50969371448916,
            -209.0162453787747
          ],
          [
            61.72411510155831,
            -209.75444614641629
          ],
          [
            63.200378466491955,
            -210.4926458250118
          ],
          [
            66.15301055503394,
            -210.49265018119618
          ],
          [
            69.8437479863741,
            -211.23085312693
          ],
          [
            75.01069610331054,
            -213.44545325176261
          ],
          [
            79.43953887744881,
            -214.9218547870458
          ],
          [
            84.60638163571055,
            -218.61284991288497
          ],
          [
            90.51154045411984,
            -220.0892536262604
          ],
          [
            94.20233056479734,
            -220.08925907149086
          ],
          [
            96.41680463120383,
            -220.08926233862917
          ],
          [
            98.63127869761033,
            -220.08926560576745
          ],
          [
            104.53633215734492,
            -223.04206432014948
          ],
          [
            109.7276319597002,
            -225.56925174346173
          ],
          [
            112.60169904174197,
            -225.60861239955247
          ],
          [
            116.3066444202402,
            -226.27951296655974
          ],
          [
            120.16941363282017,
            -226.30355604140934
          ],
          [
            121.51365059043728,
            -227.47127437122953
          ],
          [
            125.2043880217774,
            -228.20947731696333
          ],
          [
            125.94254604391291,
            -228.20947840600942
          ],
          [
            127.41880940884654,
            -228.94767808460495
          ],
          [
            128.15686207230735,
            -230.42407417465762
          ],
          [
            133.32375750990644,
            -233.37687179999355
          ],
          [
            137.0144949412466,
            -234.11507474572736
          ],
          [
            139.96712702978857,
            -234.1150791019117
          ],
          [
            142.91975911833057,
            -234.1150834580961
          ],
          [
            146.6104965496707,
            -234.85328640382988
          ],
          [
            148.08675991460436,
            -235.59148608242543
          ],
          [
            151.03939200314633,
            -235.59149043860978
          ],
          [
            152.51565536808,
            -236.3296901172053
          ],
          [
            155.468287456622,
            -236.3296944733897
          ],
          [
            159.15902488796212,
            -237.06789741912348
          ],
          [
            162.11165697650412,
            -237.0679017753079
          ],
          [
            165.06434174438348,
            -236.32970863098893
          ],
          [
            167.27881581078998,
            -236.32971189812721
          ],
          [
            168.75518453439832,
            -235.59151657571616
          ],
          [
            173.184238025886,
            -234.1151281089861
          ],
          [
            176.136870114428,
            -234.11513246517052
          ],
          [
            176.87502813656351,
            -234.11513355421658
          ],
          [
            178.35139686017183,
            -233.3769382318055
          ],
          [
            180.56587092657833,
            -233.37694149894378
          ],
          [
            182.04223965018667,
            -232.63874617653266
          ],
          [
            185.73308244020154,
            -231.90055412125983
          ],
          [
            190.16213593168922,
            -230.4241656545298
          ],
          [
            193.85297872170406,
            -229.68597359925698
          ],
          [
            196.80566348958342,
            -228.94778045493806
          ],
          [
            198.28192685451708,
            -229.68598013353358
          ],
          [
            200.49629556224886,
            -231.16237840167847
          ]
        ]
      },
      "properties": {
        "type": "variant",
        "id": 1,
        "color": "#ff4444",
        "vzdal_m": 1321,
        "prevyseni_m": 10,
        "cas_s": 369,
        "tempo_str": "4:39"
      }
    },
    {
      "type": "Feature",
      "geometry": {
        "type": "LineString",
        "coordinates": [
          [
            30.723638024698747,
            -179.48830288584466
          ],
          [
            33.676217433903396,
            -180.22650474253234
          ],
          [
            36.628902201782736,
            -179.48831159821344
          ],
          [
            39.581534290324726,
            -179.48831595439782
          ],
          [
            42.53416637886672,
            -179.48832031058222
          ],
          [
            45.48679846740872,
            -179.4883246667666
          ],
          [
            46.22495648954422,
            -179.4883257558127
          ],
          [
            47.701325213152565,
            -178.75013043340158
          ],
          [
            49.17769393676091,
            -178.01193511099046
          ],
          [
            50.654062660369256,
            -177.27373978857938
          ],
          [
            52.13043138397761,
            -176.53554446616823
          ],
          [
            53.60680010758595,
            -175.79734914375715
          ],
          [
            56.55943219612794,
            -175.79735349994152
          ],
          [
            59.51206428466994,
            -175.79735785612593
          ],
          [
            60.98838032894094,
            -175.79736003421812
          ],
          [
            62.46474905254929,
            -175.059164711807
          ],
          [
            63.20290707468479,
            -175.0591658008531
          ],
          [
            64.67917043961843,
            -175.7973654794486
          ],
          [
            67.63159181081103,
            -178.7501598376462
          ],
          [
            70.58396050266626,
            -182.44115169634713
          ],
          [
            72.0602238675999,
            -183.17935137494263
          ],
          [
            72.79838188973541,
            -183.17935246398872
          ],
          [
            74.27464525466905,
            -183.91755214258424
          ],
          [
            75.7509086196027,
            -184.65575182117973
          ],
          [
            80.17964603506628,
            -187.60854835746954
          ],
          [
            83.13206740625888,
            -190.56134271566714
          ],
          [
            85.34627807597863,
            -194.25233348532197
          ],
          [
            88.95673011335347,
            -194.51557849080598
          ],
          [
            90.39201965931908,
            -194.2728414094937
          ],
          [
            91.94866251510281,
            -194.00958149931589
          ],
          [
            94.1015968332474,
            -193.64548714134747
          ],
          [
            95.65825095242869,
            -193.38222723118622
          ],
          [
            99.36782812474938,
            -192.75489549103986
          ],
          [
            102.23839595328303,
            -192.2694213283987
          ],
          [
            103.79505007246433,
            -192.0061614182375
          ],
          [
            107.50462724639264,
            -191.3788071500912
          ],
          [
            111.21420441871334,
            -190.75147540994485
          ],
          [
            114.08477224724699,
            -190.2660012473037
          ],
          [
            117.79440573173251,
            -189.63873709124007
          ],
          [
            120.66518752141326,
            -189.15387118491182
          ],
          [
            122.22179656128202,
            -188.89097172268242
          ],
          [
            125.10011275849622,
            -188.4173923554178
          ],
          [
            128.81378756164557,
            -187.8215322371711
          ],
          [
            130.36852591775573,
            -187.5720819881195
          ],
          [
            134.08220072090512,
            -186.97622186987283
          ],
          [
            137.79586425904927,
            -186.38038427960942
          ],
          [
            140.67443867843141,
            -185.9185194726715
          ],
          [
            143.55300183441602,
            -185.456654665717
          ],
          [
            145.1077401905262,
            -185.20720441666538
          ],
          [
            147.98631460990833,
            -184.74533960972747
          ],
          [
            149.56660547447785,
            -186.13225572679605
          ],
          [
            152.51902684567042,
            -189.0850500849937
          ],
          [
            155.47144821686302,
            -192.03784444319132
          ],
          [
            159.1620276101911,
            -194.990639890435
          ],
          [
            162.11439630204637,
            -198.68163174913593
          ],
          [
            167.2813444189828,
            -200.8962318739685
          ],
          [
            168.7575551045791,
            -202.37262905306736
          ],
          [
            171.70987111709698,
            -206.80181841227156
          ],
          [
            174.66223980895222,
            -210.49281027097248
          ],
          [
            176.87639779933463,
            -214.92199854113062
          ],
          [
            180.5669771926627,
            -217.87479398837434
          ],
          [
            186.47203065239728,
            -220.82759270275633
          ],
          [
            191.63887341065902,
            -224.51858782859557
          ],
          [
            195.32950548332448,
            -226.73318577533595
          ],
          [
            199.02008487665253,
            -229.6859812225797
          ],
          [
            200.49629556224886,
            -231.16237840167847
          ]
        ]
      },
      "properties": {
        "type": "variant",
        "id": 2,
        "color": "#4444ff",
        "vzdal_m": 1349,
        "prevyseni_m": 15,
        "cas_s": 368,
        "tempo_str": "4:33"
      }
    },
    {
      "type": "Feature",
      "geometry": {
        "type": "LineString",
        "coordinates": [
          [
            30.723638024698747,
            -179.48830288584466
          ],
          [
            33.676217433903396,
            -180.22650474253234
          ],
          [
            36.628902201782736,
            -179.48831159821344
          ],
          [
            39.581534290324726,
            -179.48831595439782
          ],
          [
            42.53416637886672,
            -179.48832031058222
          ],
          [
            45.48679846740872,
            -179.4883246667666
          ],
          [
            46.22495648954422,
            -179.4883257558127
          ],
          [
            47.701325213152565,
            -178.75013043340158
          ],
          [
            49.17769393676091,
            -178.01193511099046
          ],
          [
            50.654062660369256,
            -177.27373978857938
          ],
          [
            52.13043138397761,
            -176.53554446616823
          ],
          [
            53.60680010758595,
            -175.79734914375715
          ],
          [
            56.55943219612794,
            -175.79735349994152
          ],
          [
            60.25027498614279,
            -175.0591614446687
          ],
          [
            66.15574988057618,
            -172.10638015502425
          ],
          [
            70.58490873073858,
            -169.1535966872876
          ],
          [
            72.06127745434692,
            -168.41540136487652
          ],
          [
            73.53764617795527,
            -167.6772060424654
          ],
          [
            77.22848896797012,
            -166.93901398719257
          ],
          [
            80.91933175798495,
            -166.20082193191973
          ],
          [
            86.0865959509455,
            -163.9862370537325
          ],
          [
            88.30107001735199,
            -163.9862403208708
          ],
          [
            94.20612347708656,
            -166.93903903525282
          ],
          [
            100.11117693682115,
            -169.8918377496348
          ],
          [
            103.06380902536316,
            -169.8918421058192
          ],
          [
            104.54007239029681,
            -170.63004178441471
          ],
          [
            106.01633575523044,
            -171.36824146301018
          ],
          [
            106.75449377736595,
            -171.3682425520563
          ],
          [
            108.2307571422996,
            -172.1064422306518
          ],
          [
            108.96880980576039,
            -173.58283832070452
          ],
          [
            109.70686246922119,
            -175.05923441075723
          ],
          [
            111.18312583415482,
            -175.79743408935272
          ],
          [
            111.92123117695297,
            -176.53563267890212
          ],
          [
            114.13544184667272,
            -180.22662344855695
          ],
          [
            117.82617927801287,
            -180.96482639429075
          ],
          [
            120.77881136655485,
            -180.96483075047513
          ],
          [
            123.73144345509685,
            -180.9648351066595
          ],
          [
            126.68407554363884,
            -180.9648394628439
          ],
          [
            129.63670763218084,
            -180.9648438190283
          ],
          [
            133.327445063521,
            -181.7030467647621
          ],
          [
            137.75628783765927,
            -183.1794483000453
          ],
          [
            141.44702526899943,
            -183.91765124577907
          ],
          [
            142.9233413132704,
            -183.91765342387126
          ],
          [
            144.50356462799985,
            -185.30414150884218
          ],
          [
            147.38212778398446,
            -184.84227670188764
          ],
          [
            150.2607022033666,
            -184.38041189494976
          ],
          [
            152.41962738540064,
            -184.03402455373796
          ],
          [
            153.97436574151078,
            -183.78457430468634
          ],
          [
            154.73376430876368,
            -185.39406584961546
          ],
          [
            155.47181697222447,
            -186.87046193966816
          ],
          [
            155.47165893421243,
            -189.08505444117807
          ],
          [
            156.20971159767322,
            -190.56145053123078
          ],
          [
            157.68581692459483,
            -193.5142427113362
          ],
          [
            160.4843263130457,
            -193.7509935910382
          ],
          [
            162.04054524130393,
            -193.27270392123083
          ],
          [
            165.08765552291658,
            -192.7877932190501
          ],
          [
            165.82524891060902,
            -192.8083173151681
          ],
          [
            167.09460416725597,
            -192.4346021976503
          ],
          [
            168.75818725662728,
            -193.51425904702768
          ],
          [
            168.7580818979526,
            -194.9906540480343
          ],
          [
            169.49613456141338,
            -196.46705013808696
          ],
          [
            169.49608188207603,
            -197.20524763859027
          ],
          [
            170.23413454553685,
            -198.681643728643
          ],
          [
            170.97218720899764,
            -200.15803981869573
          ],
          [
            170.9721345296603,
            -200.89623731919903
          ],
          [
            171.71018719312107,
            -202.3726334092517
          ],
          [
            172.44818717724453,
            -204.58722699980774
          ],
          [
            173.18623984070533,
            -206.06362308986047
          ],
          [
            173.18618716136797,
            -206.80182059036377
          ],
          [
            173.92423982482876,
            -208.27821668041645
          ],
          [
            173.92418714549143,
            -209.01641418091975
          ],
          [
            174.66223980895222,
            -210.49281027097248
          ],
          [
            176.87639779933463,
            -214.92199854113062
          ],
          [
            180.5669771926627,
            -217.87479398837434
          ],
          [
            186.47203065239728,
            -220.82759270275633
          ],
          [
            192.37708411213185,
            -223.78039141713833
          ],
          [
            195.32950548332448,
            -226.73318577533595
          ],
          [
            199.02008487665253,
            -229.6859812225797
          ],
          [
            200.49629556224886,
            -231.16237840167847
          ]
        ]
      },
      "properties": {
        "type": "variant",
        "id": 3,
        "color": "#44ff44",
        "vzdal_m": 1412,
        "prevyseni_m": 15,
        "cas_s": 380,
        "tempo_str": "4:29"
      }
    }
  ]
}