{
  "type": "FeatureCollection",
  "features": [
    {
      "type": "Feature",
      "geometry": {
        "type": "Point",
        "coordinates": [
          45.301524096061016,
          -114.48170213704698
        ]
      },
      "properties": {
        "type": "start",
        "isom": "204"
      }
    },
    {
      "type": "Feature",
      "geometry": {
        "type": "Point",
        "coordinates": [
          41.08994250128713,
          -138.5030219900978
        ]
      },
      "properties": {
        "type": "end",
        "isom": "204"
      }
    },
    {
      "type": "Feature",
      "geometry": {
        "type": "LineString",
        "coordinates": [
          [
            45.346202133921814,
            -114.51711426199475
          ],
          [
            45.346173331361626,
            -115.2553273353637
          ],
          [
            45.53070680698655,
            -115.62443972558845
          ],
          [
            45.53067800442636,
            -116.36265279895738
          ],
          [
            45.53063480058607,
            -117.46997240901081
          ],
          [
            45.71514667429085,
            -118.39274460426226
          ],
          [
            46.2687399005256,
            -119.68463504327873
          ],
          [
            46.08415602042033,
            -120.60739553144964
          ],
          [
            46.26866789412511,
            -121.5301677267011
          ],
          [
            45.71497385892968,
            -122.82202304447594
          ],
          [
            45.161279823734255,
            -124.11387836225079
          ],
          [
            44.60761459109902,
            -124.66752060665672
          ],
          [
            44.053920555903595,
            -125.95937592443157
          ],
          [
            43.500233721348216,
            -127.06667797386417
          ],
          [
            42.762013411167906,
            -127.80486763307206
          ],
          [
            42.0237931009876,
            -128.54305729227994
          ],
          [
            41.10101051262216,
            -129.65034763463203
          ],
          [
            40.547323678066775,
            -130.75764968406463
          ],
          [
            40.3627397979615,
            -131.68041017223555
          ],
          [
            40.91633302419625,
            -132.97230061125202
          ],
          [
            41.100844897901034,
            -133.89507280650346
          ],
          [
            41.10081609534084,
            -134.63328587987243
          ],
          [
            41.10078729278065,
            -135.37149895324137
          ],
          [
            41.28530636712548,
            -136.10971788015058
          ],
          [
            41.10072968766026,
            -136.84792509997925
          ],
          [
            41.10070088510007,
            -137.58613817334822
          ],
          [
            41.100672082539866,
            -138.32435124671716
          ],
          [
            41.10066488189982,
            -138.50890451505938
          ]
        ]
      },
      "properties": {
        "type": "variant",
        "id": 1,
        "color": "#ff4444",
        "vzdal_m": 709,
        "prevyseni_m": 7,
        "cas_s": 208,
        "tempo_str": "4:52"
      }
    },
    {
      "type": "Feature",
      "geometry": {
        "type": "LineString",
        "coordinates": [
          [
            45.346202133921814,
            -114.51711426199475
          ],
          [
            45.346173331361626,
            -115.2553273353637
          ],
          [
            45.53070680698655,
            -115.62443972558845
          ],
          [
            45.53067800442636,
            -116.36265279895738
          ],
          [
            45.53064920186616,
            -117.10086587232634
          ],
          [
            45.89970175183593,
            -118.2081971894603
          ],
          [
            46.6378572562558,
            -119.13098694533255
          ],
          [
            47.37601276067567,
            -120.0537767012048
          ],
          [
            48.1141754657356,
            -120.79201318873483
          ],
          [
            48.852316568875366,
            -122.08390948129154
          ],
          [
            49.0368500445003,
            -122.45302187151628
          ],
          [
            48.85226616439503,
            -123.3757823596872
          ],
          [
            48.85223736183484,
            -124.11399543305615
          ],
          [
            48.85220855927464,
            -124.85220850642509
          ],
          [
            48.85217975671445,
            -125.59042157979404
          ],
          [
            48.48304079906409,
            -126.69772948276695
          ],
          [
            47.744791686323595,
            -128.17413221534377
          ],
          [
            47.00654257358309,
            -129.65053494792056
          ],
          [
            46.63743241849293,
            -130.01962977752453
          ],
          [
            45.71465703076754,
            -130.94236685153436
          ],
          [
            44.97642231930713,
            -132.04966304742672
          ],
          [
            44.79183123856181,
            -133.15697680393987
          ],
          [
            44.42269948155151,
            -134.07973143857052
          ],
          [
            43.499916893186075,
            -135.1870217809226
          ],
          [
            42.94622285799064,
            -136.47887709869747
          ],
          [
            42.20799534717029,
            -137.40162002624757
          ],
          [
            41.46977503698997,
            -138.13980968545545
          ],
          [
            41.10066488189982,
            -138.50890451505938
          ]
        ]
      },
      "properties": {
        "type": "variant",
        "id": 2,
        "color": "#4444ff",
        "vzdal_m": 748,
        "prevyseni_m": 14,
        "cas_s": 221,
        "tempo_str": "4:55"
      }
    },
    {
      "type": "Feature",
      "geometry": {
        "type": "LineString",
        "coordinates": [
          [
            45.346202133921814,
            -114.51711426199475
          ],
          [
            44.97709197883166,
            -114.8862090915987
          ],
          [
            44.60798902438155,
            -115.0707506528604
          ],
          [
            44.423433946836475,
            -115.25529806766237
          ],
          [
            44.2388788692914,
            -115.43984548246434
          ],
          [
            43.50064415783099,
            -116.54714167835668
          ],
          [
            43.13151240082069,
            -117.46989631298734
          ],
          [
            42.57782556626531,
            -118.57719836241996
          ],
          [
            41.83959805544495,
            -119.49994128997007
          ],
          [
            41.101377745264635,
            -120.23813094917796
          ],
          [
            40.91682266771956,
            -120.42267836397993
          ],
          [
            40.73226038953444,
            -120.79177904712412
          ],
          [
            40.36312143188408,
            -121.899086950097
          ],
          [
            40.178559153698956,
            -122.26818763324121
          ],
          [
            39.99397527359368,
            -123.19094812141212
          ],
          [
            39.99395367167354,
            -123.74460792643883
          ],
          [
            39.80939139348841,
            -124.11370860958306
          ],
          [
            39.624829115303285,
            -124.48280929272727
          ],
          [
            39.25571896021313,
            -124.85190412233119
          ],
          [
            39.071156682028004,
            -125.2210048054754
          ],
          [
            38.51749144939277,
            -125.77464704988131
          ],
          [
            38.148388494942665,
            -125.95918861114302
          ],
          [
            37.77928554049255,
            -126.14373017240472
          ],
          [
            37.22562030785733,
            -126.69737241681062
          ],
          [
            37.0410580296722,
            -127.06647309995482
          ],
          [
            36.856495751487074,
            -127.43557378309903
          ],
          [
            36.11827544130676,
            -128.17376344230692
          ],
          [
            35.749143684296456,
            -129.09651807693757
          ],
          [
            35.93365555800124,
            -130.019290272189
          ],
          [
            36.671789460500975,
            -131.49573983308798
          ],
          [
            37.4099233630007,
            -132.97218939398695
          ],
          [
            38.148071666780524,
            -134.07953241820144
          ],
          [
            38.8862127699203,
            -135.37142871075815
          ],
          [
            39.62435387306007,
            -136.6633250033149
          ],
          [
            40.17795429993487,
            -137.7706621739891
          ],
          [
            41.10066488189982,
            -138.50890451505938
          ]
        ]
      },
      "properties": {
        "type": "variant",
        "id": 3,
        "color": "#44ff44",
        "vzdal_m": 785,
        "prevyseni_m": 12,
        "cas_s": 231,
        "tempo_str": "4:54"
      }
    }
  ]
}