{
  "type": "FeatureCollection",
  "features": [
    {
      "type": "Feature",
      "geometry": {
        "type": "Point",
        "coordinates": [
          70.81124518698418,
          -139.73811532193275
        ]
      },
      "properties": {
        "type": "start",
        "isom": "109"
      }
    },
    {
      "type": "Feature",
      "geometry": {
        "type": "Point",
        "coordinates": [
          128.59918545057116,
          -236.15122334062087
        ]
      },
      "properties": {
        "type": "end",
        "isom": "109"
      }
    },
    {
      "type": "Feature",
      "geometry": {
        "type": "LineString",
        "coordinates": [
          [
            70.5870159042326,
            -139.62569666715535
          ],
          [
            76.49206936396718,
            -142.57849538153735
          ],
          [
            80.92091213810548,
            -144.05489691682055
          ],
          [
            83.13522816649991,
            -146.26949268546875
          ],
          [
            87.5641762993129,
            -146.26949921974534
          ],
          [
            93.4692297590475,
            -149.22229793412734
          ],
          [
            96.42165113024008,
            -152.17509229232496
          ],
          [
            101.58854656783916,
            -155.12788991766087
          ],
          [
            102.32665191063731,
            -155.86608850721026
          ],
          [
            103.80291527557097,
            -156.60428818580576
          ],
          [
            104.54096793903175,
            -158.0806842758585
          ],
          [
            105.27902060249255,
            -159.5570803659112
          ],
          [
            108.23123125633575,
            -165.46266472612203
          ],
          [
            109.70723122458264,
            -169.89185190723407
          ],
          [
            111.18323119282952,
            -174.3210390883461
          ],
          [
            113.39733650387457,
            -179.48842485900755
          ],
          [
            114.87333647212147,
            -183.91761204011956
          ],
          [
            114.87328379278411,
            -184.65580954062287
          ],
          [
            115.61133645624491,
            -186.1322056306756
          ],
          [
            117.21824730851468,
            -189.03329624400524
          ],
          [
            117.82544176728996,
            -191.29959140133704
          ],
          [
            117.8253890879526,
            -192.03778890184034
          ],
          [
            118.56344175141341,
            -193.51418499189307
          ],
          [
            118.56338907207605,
            -194.25238249239638
          ],
          [
            119.30144173553686,
            -195.72877858244905
          ],
          [
            120.03949439899765,
            -197.20517467250178
          ],
          [
            120.03944171966029,
            -197.9433721730051
          ],
          [
            120.7774943831211,
            -199.41976826305782
          ],
          [
            121.51554704658189,
            -200.8961643531105
          ],
          [
            121.51549436724454,
            -201.6343618536138
          ],
          [
            122.25354703070533,
            -203.11075794366653
          ],
          [
            124.46765234175038,
            -208.27814371432797
          ],
          [
            124.46759966241304,
            -209.01634121483127
          ],
          [
            125.20565232587383,
            -210.49273730488397
          ],
          [
            125.94370498933463,
            -211.96913339493668
          ],
          [
            127.41970495758152,
            -216.39832057604872
          ],
          [
            128.8957049258284,
            -220.82750775716076
          ],
          [
            130.3717048940753,
            -225.25669493827277
          ],
          [
            131.10975755753608,
            -226.7330910283255
          ],
          [
            131.8478102209969,
            -228.2094871183782
          ],
          [
            130.3711781007018,
            -232.63866994330584
          ],
          [
            130.37112542136447,
            -233.37686744380915
          ],
          [
            129.63286204055424,
            -234.8532613557697
          ],
          [
            128.89459865974405,
            -236.32965526773017
          ]
        ]
      },
      "properties": {
        "type": "variant",
        "id": 1,
        "color": "#ff4444",
        "vzdal_m": 842,
        "prevyseni_m": 3,
        "cas_s": 226,
        "tempo_str": "4:28"
      }
    },
    {
      "type": "Feature",
      "geometry": {
        "type": "LineString",
        "coordinates": [
          [
            70.5870159042326,
            -139.62569666715535
          ],
          [
            70.5866998282085,
            -144.05488167017518
          ],
          [
            73.53891048205168,
            -149.96046603038604
          ],
          [
            75.75312115177142,
            -153.65145680004088
          ],
          [
            78.70548984362667,
            -157.34244865874177
          ],
          [
            79.44354250708746,
            -158.81884474879448
          ],
          [
            80.18159517054826,
            -160.2952408388472
          ],
          [
            85.34849060814734,
            -163.2480384641831
          ],
          [
            89.03917536015014,
            -164.7244389104202
          ],
          [
            90.51543872508378,
            -165.4626385890157
          ],
          [
            94.20601811841188,
            -168.41543403625943
          ],
          [
            98.63480821321282,
            -170.63003307204593
          ],
          [
            100.11107157814645,
            -171.36823275064143
          ],
          [
            101.58728226374275,
            -172.84462992974022
          ],
          [
            104.53959827626063,
            -177.27381928894448
          ],
          [
            105.27770361905878,
            -178.01201787849385
          ],
          [
            106.01575628251959,
            -179.48841396854655
          ],
          [
            108.96812497437485,
            -183.1794058272475
          ],
          [
            111.92054634556743,
            -186.1322001854451
          ],
          [
            113.39675703116372,
            -187.60859736454393
          ],
          [
            114.13480969462451,
            -189.08499345459663
          ],
          [
            117.08733642449181,
            -190.5613928117876
          ],
          [
            117.8253890879526,
            -192.03778890184034
          ],
          [
            118.56344175141341,
            -193.51418499189307
          ],
          [
            118.56338907207605,
            -194.25238249239638
          ],
          [
            119.30144173553686,
            -195.72877858244905
          ],
          [
            120.03949439899765,
            -197.20517467250178
          ],
          [
            120.03944171966029,
            -197.9433721730051
          ],
          [
            120.7774943831211,
            -199.41976826305782
          ],
          [
            121.51554704658189,
            -200.8961643531105
          ],
          [
            121.51549436724454,
            -201.6343618536138
          ],
          [
            122.25354703070533,
            -203.11075794366653
          ],
          [
            124.46765234175038,
            -208.27814371432797
          ],
          [
            124.46759966241304,
            -209.01634121483127
          ],
          [
            125.20565232587383,
            -210.49273730488397
          ],
          [
            125.94370498933463,
            -211.96913339493668
          ],
          [
            127.41970495758152,
            -216.39832057604872
          ],
          [
            128.8957049258284,
            -220.82750775716076
          ],
          [
            130.3717048940753,
            -225.25669493827277
          ],
          [
            131.10975755753608,
            -226.7330910283255
          ],
          [
            131.8478102209969,
            -228.2094871183782
          ],
          [
            130.3711781007018,
            -232.63866994330584
          ],
          [
            130.37112542136447,
            -233.37686744380915
          ],
          [
            129.63286204055424,
            -234.8532613557697
          ],
          [
            128.89459865974405,
            -236.32965526773017
          ]
        ]
      },
      "properties": {
        "type": "variant",
        "id": 2,
        "color": "#4444ff",
        "vzdal_m": 825,
        "prevyseni_m": 5,
        "cas_s": 225,
        "tempo_str": "4:32"
      }
    },
    {
      "type": "Feature",
      "geometry": {
        "type": "LineString",
        "coordinates": [
          [
            70.5870159042326,
            -139.62569666715535
          ],
          [
            70.5866998282085,
            -144.05488167017518
          ],
          [
            73.53891048205168,
            -149.96046603038604
          ],
          [
            75.75301579309672,
            -155.12785180104748
          ],
          [
            75.75280507574732,
            -158.0806418030607
          ],
          [
            76.49069970119606,
            -161.77163039462332
          ],
          [
            77.22859432664481,
            -165.46261898618596
          ],
          [
            77.96664699010562,
            -166.93901507623866
          ],
          [
            78.70454161555435,
            -170.6300036678013
          ],
          [
            79.44243624100311,
            -174.32099225936392
          ],
          [
            80.91843620924999,
            -178.75017944047596
          ],
          [
            81.65633083469874,
            -182.44116803203858
          ],
          [
            81.65612011734933,
            -185.3939580340518
          ],
          [
            81.65606743801199,
            -186.13215553455512
          ],
          [
            82.39412010147278,
            -187.60855162460783
          ],
          [
            84.60822541251783,
            -192.77593739526924
          ],
          [
            86.82248876157492,
            -195.72873066442077
          ],
          [
            91.2512261770385,
            -198.6815272007106
          ],
          [
            91.98927884049931,
            -200.1579232907633
          ],
          [
            92.7273315039601,
            -201.634319380816
          ],
          [
            93.46538416742091,
            -203.11071547086874
          ],
          [
            94.94154217367984,
            -205.32531015047084
          ],
          [
            95.67959483714064,
            -206.80170624052357
          ],
          [
            98.63196352899587,
            -210.49269809922447
          ],
          [
            101.58433222085112,
            -214.1836899579254
          ],
          [
            104.53654287469432,
            -220.08927431813626
          ],
          [
            107.4888588872122,
            -224.51846367734043
          ],
          [
            111.19484402913788,
            -225.45555509264892
          ],
          [
            114.02219405313042,
            -225.91916297385043
          ],
          [
            117.81374670149218,
            -226.3901051415604
          ],
          [
            120.16941363282017,
            -226.30355604140934
          ],
          [
            121.51365059043728,
            -227.47127437122953
          ],
          [
            123.72796661883172,
            -229.68587013987772
          ],
          [
            126.68028263134961,
            -234.11505949908198
          ],
          [
            128.89459865974405,
            -236.32965526773017
          ]
        ]
      },
      "properties": {
        "type": "variant",
        "id": 3,
        "color": "#44ff44",
        "vzdal_m": 822,
        "prevyseni_m": 9,
        "cas_s": 224,
        "tempo_str": "4:32"
      }
    }
  ]
}