{
  "type": "FeatureCollection",
  "features": [
    {
      "type": "Feature",
      "geometry": {
        "type": "Point",
        "coordinates": [
          96.37996246149646,
          -96.39340406209708
        ]
      },
      "properties": {
        "type": "start",
        "isom": "419"
      }
    },
    {
      "type": "Feature",
      "geometry": {
        "type": "Point",
        "coordinates": [
          76.44982625272574,
          -81.16750839868328
        ]
      },
      "properties": {
        "type": "end",
        "isom": "204"
      }
    },
    {
      "type": "Feature",
      "geometry": {
        "type": "LineString",
        "coordinates": [
          [
            96.37996246149646,
            -96.39340406209708
          ],
          [
            95.91860209802246,
            -96.4856536818826
          ],
          [
            95.36498240091173,
            -96.20880984041762
          ],
          [
            94.81135967069193,
            -96.02423823352589
          ],
          [
            94.44227380639997,
            -96.02422014169571
          ],
          [
            93.70411421025231,
            -95.65509501974242
          ],
          [
            93.05822304706858,
            -95.37824665531988
          ],
          [
            92.50460031684878,
            -95.19367504842816
          ],
          [
            92.04324601959291,
            -95.10138019906721
          ],
          [
            91.48962328937311,
            -94.91680859217546
          ],
          [
            91.12053742508117,
            -94.91679050034529
          ],
          [
            90.75145156078922,
            -94.91677240851513
          ],
          [
            90.01329196464155,
            -94.54764728656181
          ],
          [
            89.2751323684939,
            -94.17852216460851
          ],
          [
            88.53697277234623,
            -93.8093970426552
          ],
          [
            87.79881317619858,
            -93.4402719207019
          ],
          [
            87.42974247745191,
            -92.97889265600553
          ],
          [
            87.0606748118143,
            -92.42524115673592
          ],
          [
            86.87615007832265,
            -91.8715987033814
          ],
          [
            86.50708544579412,
            -91.22567496953856
          ],
          [
            86.1380177801565,
            -90.67202347026894
          ],
          [
            85.76894404830078,
            -90.30291644014582
          ],
          [
            85.39987638266317,
            -89.7492649408762
          ],
          [
            85.03080871702556,
            -89.1956134416066
          ],
          [
            84.66173498516984,
            -88.82650641148346
          ],
          [
            84.29265822020507,
            -88.54967161593358
          ],
          [
            83.92357842213123,
            -88.36510905495693
          ],
          [
            83.73903852309432,
            -88.27282777446861
          ],
          [
            83.18542185909263,
            -87.90371169843039
          ],
          [
            82.63180519509093,
            -87.53459562239216
          ],
          [
            82.07818853108925,
            -87.16547954635395
          ],
          [
            81.70912086545164,
            -86.61182804708434
          ],
          [
            81.34005319981404,
            -86.05817654781474
          ],
          [
            81.34005623292309,
            -85.9659043132415
          ],
          [
            80.97099160039454,
            -85.31998057939866
          ],
          [
            80.78645776757574,
            -85.04315482976385
          ],
          [
            80.41738403572,
            -84.67404779964072
          ],
          [
            80.04831333697334,
            -84.21266853494434
          ],
          [
            79.67924263822668,
            -83.75128927024798
          ],
          [
            79.31017193948001,
            -83.2899100055516
          ],
          [
            78.75655527547833,
            -82.9207939295134
          ],
          [
            78.11066411229459,
            -82.64394556509087
          ],
          [
            77.5570474482929,
            -82.27482948905266
          ],
          [
            77.0957022503642,
            -81.90571793597199
          ],
          [
            76.6343570524355,
            -81.5366063828913
          ],
          [
            76.44982625272574,
            -81.16750839868328
          ]
        ]
      },
      "properties": {
        "type": "variant",
        "id": 1,
        "color": "#ff4444",
        "vzdal_m": 1429,
        "prevyseni_m": 25,
        "cas_s": 344,
        "tempo_str": "4:00"
      }
    },
    {
      "type": "Feature",
      "geometry": {
        "type": "LineString",
        "coordinates": [
          [
            96.37996246149646,
            -96.39340406209708
          ],
          [
            95.91860209802246,
            -96.4856536818826
          ],
          [
            95.36498240091173,
            -96.20880984041762
          ],
          [
            94.81135967069193,
            -96.02423823352589
          ],
          [
            94.44227380639997,
            -96.02422014169571
          ],
          [
            93.70411421025231,
            -95.65509501974242
          ],
          [
            92.96595461410465,
            -95.2859698977891
          ],
          [
            92.50460941617595,
            -94.91685834470844
          ],
          [
            92.13553871742928,
            -94.45547908001205
          ],
          [
            91.76646498557356,
            -94.08637204988892
          ],
          [
            91.39739125371784,
            -93.71726501976579
          ],
          [
            90.93604605578915,
            -93.34815346668512
          ],
          [
            90.38242939178744,
            -92.97903739064691
          ],
          [
            89.92108419385873,
            -92.60992583756624
          ],
          [
            89.45973899593004,
            -92.24081428448557
          ],
          [
            88.99839683111038,
            -91.77943049683165
          ],
          [
            88.62932309925466,
            -91.41032346670853
          ],
          [
            88.07570643525297,
            -91.04120739067031
          ],
          [
            87.33754683910531,
            -90.672082268717
          ],
          [
            86.78393017510362,
            -90.30296619267878
          ],
          [
            86.32258497717493,
            -89.93385463959812
          ],
          [
            85.58442538102726,
            -89.56472951764482
          ],
          [
            85.1230832162076,
            -89.1033457299909
          ],
          [
            84.56946655220591,
            -88.7342296539527
          ],
          [
            84.10811832116816,
            -88.45739033544525
          ],
          [
            83.92357842213123,
            -88.36510905495693
          ],
          [
            83.73903852309432,
            -88.27282777446861
          ],
          [
            83.18542185909263,
            -87.90371169843039
          ],
          [
            82.63180519509093,
            -87.53459562239216
          ],
          [
            82.07818853108925,
            -87.16547954635395
          ],
          [
            81.70912086545164,
            -86.61182804708434
          ],
          [
            81.34005319981404,
            -86.05817654781474
          ],
          [
            81.34005623292309,
            -85.9659043132415
          ],
          [
            80.97099160039454,
            -85.31998057939866
          ],
          [
            80.78645776757574,
            -85.04315482976385
          ],
          [
            80.41738403572,
            -84.67404779964072
          ],
          [
            80.04831333697334,
            -84.21266853494434
          ],
          [
            79.67924263822668,
            -83.75128927024798
          ],
          [
            79.31017193948001,
            -83.2899100055516
          ],
          [
            78.75655527547833,
            -82.9207939295134
          ],
          [
            78.11066411229459,
            -82.64394556509087
          ],
          [
            77.5570474482929,
            -82.27482948905266
          ],
          [
            77.0957022503642,
            -81.90571793597199
          ],
          [
            76.6343570524355,
            -81.5366063828913
          ],
          [
            76.44982625272574,
            -81.16750839868328
          ]
        ]
      },
      "properties": {
        "type": "variant",
        "id": 2,
        "color": "#4444ff",
        "vzdal_m": 1397,
        "prevyseni_m": 25,
        "cas_s": 346,
        "tempo_str": "4:07"
      }
    },
    {
      "type": "Feature",
      "geometry": {
        "type": "LineString",
        "coordinates": [
          [
            96.37996246149646,
            -96.39340406209708
          ],
          [
            95.91860209802246,
            -96.4856536818826
          ],
          [
            95.36498240091173,
            -96.20880984041762
          ],
          [
            94.81135967069193,
            -96.02423823352589
          ],
          [
            94.44227380639997,
            -96.02422014169571
          ],
          [
            93.70411421025231,
            -95.65509501974242
          ],
          [
            93.05822304706858,
            -95.37824665531988
          ],
          [
            92.50460031684878,
            -95.19367504842816
          ],
          [
            92.04324601959291,
            -95.10138019906721
          ],
          [
            91.67416015530097,
            -95.10136210723702
          ],
          [
            91.30507429100902,
            -95.10134401540685
          ],
          [
            90.93598842671707,
            -95.1013259235767
          ],
          [
            90.19782883056942,
            -94.73220080162338
          ],
          [
            89.6442061003496,
            -94.54762919473166
          ],
          [
            89.18285180309374,
            -94.45533434537067
          ],
          [
            88.53696063991002,
            -94.17848598094815
          ],
          [
            87.89107250983533,
            -93.8093653819524
          ],
          [
            87.33745584583365,
            -93.44024930591418
          ],
          [
            86.69156771575896,
            -93.07112870691842
          ],
          [
            86.0456795856843,
            -92.70200810792267
          ],
          [
            85.30751998953663,
            -92.33288298596936
          ],
          [
            84.66163185946196,
            -91.9637623869736
          ],
          [
            84.29255812760623,
            -91.59465535685047
          ],
          [
            83.73894146360455,
            -91.22553928081226
          ],
          [
            83.36987379796693,
            -90.67188778154265
          ],
          [
            83.00080309922026,
            -90.21050851684629
          ],
          [
            82.63173846669171,
            -89.56458478300343
          ],
          [
            82.35493316779993,
            -89.28775451041109
          ],
          [
            82.17039326876301,
            -89.19547322992275
          ],
          [
            82.07812786890813,
            -89.01092423781874
          ],
          [
            81.70905413705242,
            -88.64181720769561
          ],
          [
            81.24770893912371,
            -88.27270565461494
          ],
          [
            80.87863520726799,
            -87.9035986244918
          ],
          [
            80.50956147541227,
            -87.53449159436869
          ],
          [
            80.14048774355655,
            -87.16538456424554
          ],
          [
            79.77141704480988,
            -86.70400529954918
          ],
          [
            79.40234331295417,
            -86.33489826942605
          ],
          [
            79.03326958109845,
            -85.96579123930293
          ],
          [
            78.66419888235178,
            -85.50441197460655
          ],
          [
            78.29512515049606,
            -85.13530494448342
          ],
          [
            77.92606051796751,
            -84.48938121064057
          ],
          [
            77.64926431840289,
            -83.9357342343285
          ],
          [
            77.92609388216712,
            -83.47438663033495
          ],
          [
            78.01836838134916,
            -83.38211891871924
          ],
          [
            78.11064591364025,
            -83.19757897253031
          ],
          [
            78.11064894674932,
            -83.10530673795708
          ],
          [
            77.7415812811117,
            -82.55165523868747
          ],
          [
            77.372507549256,
            -82.18254820856434
          ],
          [
            77.00343381740026,
            -81.81344117844121
          ],
          [
            76.54209165258061,
            -81.3520573907873
          ],
          [
            76.44982625272574,
            -81.16750839868328
          ]
        ]
      },
      "properties": {
        "type": "variant",
        "id": 3,
        "color": "#44ff44",
        "vzdal_m": 1468,
        "prevyseni_m": 24,
        "cas_s": 383,
        "tempo_str": "4:20"
      }
    }
  ]
}