{
  "type": "FeatureCollection",
  "features": [
    {
      "type": "Feature",
      "geometry": {
        "type": "Point",
        "coordinates": [
          96.33363179863565,
          -190.38275501587418
        ]
      },
      "properties": {
        "type": "start",
        "isom": "204"
      }
    },
    {
      "type": "Feature",
      "geometry": {
        "type": "Point",
        "coordinates": [
          149.81929786145352,
          -247.8307483106651
        ]
      },
      "properties": {
        "type": "end",
        "isom": "418"
      }
    },
    {
      "type": "Feature",
      "geometry": {
        "type": "LineString",
        "coordinates": [
          [
            96.33632477066747,
            -190.2907313000841
          ],
          [
            96.88989897114237,
            -191.95165866014764
          ],
          [
            97.44349743648975,
            -192.87440814362535
          ],
          [
            97.62801003754517,
            -193.7971395352728
          ],
          [
            97.81252263860057,
            -194.7198709269203
          ],
          [
            97.62794937536404,
            -195.64258422673757
          ],
          [
            97.8124741088557,
            -196.1962266800921
          ],
          [
            97.9969867099111,
            -197.1189580717396
          ],
          [
            98.91965890711417,
            -198.41081458534035
          ],
          [
            99.65778817217128,
            -199.70266205302607
          ],
          [
            100.39591743722839,
            -200.99450952071177
          ],
          [
            101.13406490093983,
            -201.732723580958
          ],
          [
            101.87221236465126,
            -202.47093764120427
          ],
          [
            102.61034769592649,
            -203.57824063974348
          ],
          [
            103.16392796261951,
            -205.05462353066056
          ],
          [
            104.08660015982258,
            -206.34648004426134
          ],
          [
            104.27113095953233,
            -206.71557802846942
          ],
          [
            104.45566175924208,
            -207.08467601267745
          ],
          [
            104.82471122622535,
            -208.19196091938647
          ],
          [
            105.00924809215321,
            -208.37651443444804
          ],
          [
            105.10924435344636,
            -208.89705833165937
          ],
          [
            106.12610658539144,
            -209.46671158486978
          ],
          [
            107.59862672167992,
            -210.22567569828067
          ],
          [
            109.01523886295888,
            -211.06842418625453
          ],
          [
            110.17624387096076,
            -211.4181812684024
          ],
          [
            111.04778946753709,
            -211.690401979987
          ],
          [
            112.2036634421185,
            -211.91675352719358
          ],
          [
            113.10377374747827,
            -212.15585788959547
          ],
          [
            114.22378062562245,
            -212.47990599448042
          ],
          [
            115.01673921436263,
            -212.699500570195
          ],
          [
            115.40054639014038,
            -212.85210574901006
          ],
          [
            116.04942289244586,
            -213.09589204936958
          ],
          [
            117.3827181301626,
            -213.51459366110348
          ],
          [
            117.77158993421442,
            -213.6360649634927
          ],
          [
            119.03431681626745,
            -214.2826249366819
          ],
          [
            119.40339054812318,
            -214.65173196680504
          ],
          [
            119.77247034619701,
            -214.8362945277817
          ],
          [
            120.51061780990845,
            -215.57450858802798
          ],
          [
            121.43330213954775,
            -216.49727616333578
          ],
          [
            122.35599860162327,
            -217.05095480035064
          ],
          [
            123.0941399991166,
            -217.9737133297434
          ],
          [
            123.83229352904614,
            -218.52738292084314
          ],
          [
            124.7550021235579,
            -218.7119726195651
          ],
          [
            126.04678444992537,
            -219.26566934841014
          ],
          [
            127.33856677629282,
            -219.81936607725518
          ],
          [
            128.63034303644218,
            -220.55760727524668
          ],
          [
            128.81487990237005,
            -220.74216079030825
          ],
          [
            128.99941070207979,
            -221.11125877451624
          ],
          [
            129.36848443393552,
            -221.4803658046394
          ],
          [
            130.10661976521072,
            -222.58766880317862
          ],
          [
            130.6602182305581,
            -223.51041828665626
          ],
          [
            131.0292919624138,
            -223.8795253167794
          ],
          [
            131.39837176048763,
            -224.06408787775607
          ],
          [
            131.76745155856148,
            -224.2486504387327
          ],
          [
            132.13653135663532,
            -224.43321299970935
          ],
          [
            132.32106822256316,
            -224.61776651477092
          ],
          [
            132.690148020637,
            -224.80232907574756
          ],
          [
            133.25781603483554,
            -225.199550622749
          ],
          [
            133.77385901032972,
            -225.26841003901632
          ],
          [
            134.25233284430203,
            -226.1478958604817
          ],
          [
            134.99068686308985,
            -227.4458815153803
          ],
          [
            135.67786790147306,
            -228.58328435703177
          ],
          [
            136.44460081917694,
            -229.8574546223845
          ],
          [
            137.20262150099035,
            -231.133814286598
          ],
          [
            137.90256213057066,
            -232.44143471715807
          ],
          [
            138.76183451889509,
            -233.69268064679505
          ],
          [
            140.08174084050242,
            -234.37939497347097
          ],
          [
            140.4756494789591,
            -234.4627619080535
          ],
          [
            141.1787771249193,
            -235.32177992919082
          ],
          [
            141.73236345783044,
            -236.61361835096142
          ],
          [
            141.9168881913221,
            -237.16726080431596
          ],
          [
            141.91687605888586,
            -237.5363497426089
          ],
          [
            142.1014068585956,
            -237.90544772681693
          ],
          [
            142.1014007923775,
            -238.08999219596342
          ],
          [
            142.28593159208725,
            -238.45909018017147
          ],
          [
            142.8395179249984,
            -239.7509286019421
          ],
          [
            143.5776593224917,
            -240.67368713133482
          ],
          [
            144.31580678620315,
            -241.41190119158105
          ],
          [
            144.684886584277,
            -241.59646375255772
          ],
          [
            145.42302798177033,
            -242.51922228195048
          ],
          [
            146.16117544548175,
            -243.25743634219674
          ],
          [
            146.3457123114096,
            -243.44198985725828
          ],
          [
            146.53024311111938,
            -243.8110878414663
          ],
          [
            146.71478604326535,
            -243.8110968873814
          ],
          [
            147.08386584133916,
            -243.99565944835808
          ],
          [
            147.82198904017815,
            -245.4720513851902
          ],
          [
            148.00651983988791,
            -245.8411493693983
          ],
          [
            148.19105063959765,
            -246.21024735360632
          ],
          [
            148.3755814393074,
            -246.57934533781437
          ],
          [
            149.2982657689467,
            -247.5021129131222
          ],
          [
            149.8518824329484,
            -247.8712289891604
          ]
        ]
      },
      "properties": {
        "type": "variant",
        "id": 1,
        "color": "#ff4444",
        "vzdal_m": 2260,
        "prevyseni_m": 17,
        "cas_s": 614,
        "tempo_str": "4:31"
      }
    },
    {
      "type": "Feature",
      "geometry": {
        "type": "LineString",
        "coordinates": [
          [
            96.33632477066747,
            -190.2907313000841
          ],
          [
            97.81264396296281,
            -191.02898154399074
          ],
          [
            99.10442022311214,
            -191.76722274198224
          ],
          [
            100.3961964832615,
            -192.50546393997377
          ],
          [
            101.87251567555683,
            -193.24371418388034
          ],
          [
            102.61066313926827,
            -193.9819282441266
          ],
          [
            102.97973687112399,
            -194.35103527424974
          ],
          [
            103.34881666919782,
            -194.5355978352264
          ],
          [
            104.6405989955653,
            -195.08929456407145
          ],
          [
            105.00967879363913,
            -195.27385712504807
          ],
          [
            105.19421565956698,
            -195.45841064010966
          ],
          [
            105.93235705706032,
            -196.3811691695024
          ],
          [
            106.67050452077174,
            -197.11938322974862
          ],
          [
            107.22411511855532,
            -197.67304377493335
          ],
          [
            108.14679944819461,
            -198.59581135024118
          ],
          [
            108.70039791354199,
            -199.5185608337188
          ],
          [
            109.6230943756175,
            -200.07223947073368
          ],
          [
            110.36124183932895,
            -200.81045353097994
          ],
          [
            110.91485850333063,
            -201.17956960701815
          ],
          [
            111.28393830140446,
            -201.3641321679948
          ],
          [
            111.83753676675182,
            -202.28688165147244
          ],
          [
            112.9447761609733,
            -202.8405693344024
          ],
          [
            114.42109535326864,
            -203.57881957830898
          ],
          [
            114.79017515134247,
            -203.76338213928565
          ],
          [
            114.97471201727033,
            -203.94793565434725
          ],
          [
            116.26648827741967,
            -204.68617685233875
          ],
          [
            117.00464787356735,
            -205.05530197429204
          ],
          [
            117.1891786732771,
            -205.4243999585001
          ],
          [
            118.29641200128046,
            -206.1626321105765
          ],
          [
            119.40364532928386,
            -206.90086426265296
          ],
          [
            120.1417867267772,
            -207.8236227920457
          ],
          [
            121.24902612099868,
            -208.37731047497562
          ],
          [
            122.35625944900207,
            -209.11554262705206
          ],
          [
            123.0944069127135,
            -209.85375668729836
          ],
          [
            124.01709730857091,
            -210.59197979345967
          ],
          [
            125.30887356872026,
            -211.3302209914512
          ],
          [
            126.23156396457767,
            -212.06844409761254
          ],
          [
            126.9697114282891,
            -212.8066581578588
          ],
          [
            127.70784675956433,
            -213.913961156398
          ],
          [
            128.63051895676742,
            -215.20581766999882
          ],
          [
            129.3686421556064,
            -216.68220960683095
          ],
          [
            129.55315475666183,
            -217.60494099847847
          ],
          [
            129.73768555637156,
            -217.9740389826865
          ],
          [
            131.214010814885,
            -218.52774475744664
          ],
          [
            132.69033000718034,
            -219.26599500135322
          ],
          [
            133.61302040303772,
            -220.00421810751456
          ],
          [
            134.53570473267703,
            -220.92698568282236
          ],
          [
            135.0893213966787,
            -221.29610175886063
          ],
          [
            135.31056730376287,
            -221.66594326877987
          ],
          [
            135.23523135688038,
            -222.39626573012154
          ],
          [
            135.64290772958987,
            -222.58794018063122
          ],
          [
            136.56559812544728,
            -223.32616328679256
          ],
          [
            137.30373345672248,
            -224.43346628533178
          ],
          [
            138.04186878799769,
            -225.54076928387101
          ],
          [
            138.78001625170916,
            -226.27898334411722
          ],
          [
            139.5181576492025,
            -227.20174187350997
          ],
          [
            140.2562990466958,
            -228.12450040290273
          ],
          [
            140.9944222455348,
            -229.6008923397349
          ],
          [
            141.73255757681002,
            -230.7081953382741
          ],
          [
            142.47068684186712,
            -232.0000428059598
          ],
          [
            143.20882823936046,
            -232.92280133535255
          ],
          [
            143.94695750441755,
            -234.21464880303822
          ],
          [
            144.09058079139672,
            -235.27974551353958
          ],
          [
            144.74277222230032,
            -235.9564416529507
          ],
          [
            145.52000264084793,
            -237.20973106749628
          ],
          [
            146.0081128929993,
            -237.8682111398914
          ],
          [
            146.16133923337077,
            -238.27473567524183
          ],
          [
            146.34585183442616,
            -239.1974670668893
          ],
          [
            146.5303644354816,
            -240.12019845853675
          ],
          [
            147.08396290082896,
            -241.04294794201442
          ],
          [
            147.45302450024843,
            -241.7811439104305
          ],
          [
            147.6375552999582,
            -242.15024189463853
          ],
          [
            147.82208609966796,
            -242.51933987884655
          ],
          [
            147.82208003344982,
            -242.70388434799304
          ],
          [
            147.82207396723172,
            -242.88842881713953
          ],
          [
            147.63751890264953,
            -243.2575087095174
          ],
          [
            147.452945639413,
            -244.18022200933473
          ],
          [
            147.63745824046842,
            -245.1029534009822
          ],
          [
            148.00651983988791,
            -245.8411493693983
          ],
          [
            148.19105063959765,
            -246.21024735360632
          ],
          [
            148.3755814393074,
            -246.57934533781437
          ],
          [
            149.2982657689467,
            -247.5021129131222
          ],
          [
            149.8518824329484,
            -247.8712289891604
          ]
        ]
      },
      "properties": {
        "type": "variant",
        "id": 2,
        "color": "#4444ff",
        "vzdal_m": 2235,
        "prevyseni_m": 14,
        "cas_s": 636,
        "tempo_str": "4:44"
      }
    },
    {
      "type": "Feature",
      "geometry": {
        "type": "LineString",
        "coordinates": [
          [
            96.33632477066747,
            -190.2907313000841
          ],
          [
            96.88989897114237,
            -191.95165866014764
          ],
          [
            97.44349743648975,
            -192.87440814362535
          ],
          [
            97.62801003754517,
            -193.7971395352728
          ],
          [
            97.81252263860057,
            -194.7198709269203
          ],
          [
            97.62795544158216,
            -195.4580397575911
          ],
          [
            97.8124741088557,
            -196.1962266800921
          ],
          [
            97.81244984398325,
            -196.93440455667803
          ],
          [
            97.99696244503866,
            -197.8571359483255
          ],
          [
            98.73509777631388,
            -198.96443894686473
          ],
          [
            98.55052451307733,
            -199.887152246682
          ],
          [
            99.1041229784247,
            -200.80990173015968
          ],
          [
            99.84224617726369,
            -202.28629366699184
          ],
          [
            100.39583251017483,
            -203.57813208876246
          ],
          [
            100.58036330988458,
            -203.94723007297048
          ],
          [
            100.76489410959432,
            -204.3163280571785
          ],
          [
            101.50302944086954,
            -205.42363105571775
          ],
          [
            102.05660364134445,
            -207.08455841578134
          ],
          [
            102.05656724403579,
            -208.1918252306602
          ],
          [
            102.05654297916335,
            -208.93000310724614
          ],
          [
            102.42559851236472,
            -209.85274354480865
          ],
          [
            103.16374597607617,
            -210.5909576050549
          ],
          [
            103.90189343978761,
            -211.3291716653012
          ],
          [
            104.08643030571548,
            -211.51372518036274
          ],
          [
            104.82457170320879,
            -212.4364837097555
          ],
          [
            105.00910856913664,
            -212.62103722481703
          ],
          [
            105.74723176797566,
            -214.09742916164922
          ],
          [
            106.48535496681465,
            -215.5738210984814
          ],
          [
            107.22347816565365,
            -217.0502130353136
          ],
          [
            107.77706449856478,
            -218.34205145708418
          ],
          [
            108.33065083147592,
            -219.63388987885477
          ],
          [
            108.51516343253132,
            -220.5566212705023
          ],
          [
            109.06874976544246,
            -221.84845969227288
          ],
          [
            109.2532805651522,
            -222.2175576764809
          ],
          [
            109.06872550057003,
            -222.5866375688588
          ],
          [
            109.80686689806333,
            -223.50939609825153
          ],
          [
            110.54501436177479,
            -224.24761015849776
          ],
          [
            110.91409415984862,
            -224.43217271947444
          ],
          [
            111.65224162356006,
            -225.1703867797207
          ],
          [
            112.39038908727149,
            -225.90860083996697
          ],
          [
            113.49762241527488,
            -226.6468329920434
          ],
          [
            114.42031281113228,
            -227.3850560982047
          ],
          [
            115.71208907128164,
            -228.12329729619623
          ],
          [
            116.45023653499307,
            -228.8615113564425
          ],
          [
            117.1883779324864,
            -229.78426988583524
          ],
          [
            118.11107439456192,
            -230.3379485228501
          ],
          [
            118.84922185827337,
            -231.0761625830964
          ],
          [
            119.77190012169456,
            -232.18347462755068
          ],
          [
            120.3254985870419,
            -233.10622411102833
          ],
          [
            121.2481768504631,
            -234.21353615548261
          ],
          [
            122.17086724632053,
            -234.95175926164399
          ],
          [
            123.09759556974892,
            -235.683537332043
          ],
          [
            123.83171117210746,
            -236.24365195890508
          ],
          [
            124.93894450011085,
            -236.98188411098153
          ],
          [
            125.86163489596828,
            -237.72010721714287
          ],
          [
            126.96886822397164,
            -238.45833936921932
          ],
          [
            128.44518741626698,
            -239.1965896131259
          ],
          [
            129.55242074427036,
            -239.93482176520234
          ],
          [
            130.2905682079818,
            -240.6730358254486
          ],
          [
            131.02870960547511,
            -241.59579435484133
          ],
          [
            131.76685100296845,
            -242.51855288423408
          ],
          [
            132.8740843309718,
            -243.25678503631053
          ],
          [
            133.79677472682926,
            -243.99500814247187
          ],
          [
            135.08855098697862,
            -244.73324934046337
          ],
          [
            136.01125958149035,
            -244.91783903918528
          ],
          [
            136.74943131007424,
            -244.91787522284565
          ],
          [
            138.04121363644168,
            -245.47157195169066
          ],
          [
            139.51753282873702,
            -246.20982219559727
          ],
          [
            140.44024142324875,
            -246.39441189431918
          ],
          [
            141.17841315183264,
            -246.39444807797952
          ],
          [
            141.5474990161246,
            -246.3944661698097
          ],
          [
            142.47020761063632,
            -246.5790558685316
          ],
          [
            143.94652680293166,
            -247.3173061124382
          ],
          [
            145.05377226337126,
            -247.6864493262217
          ],
          [
            145.97649905653734,
            -247.31740561750414
          ],
          [
            146.1610419886833,
            -247.31741466341927
          ],
          [
            146.53013391919336,
            -247.1328882861029
          ],
          [
            146.89921371726717,
            -247.31745084707958
          ],
          [
            147.63738544585107,
            -247.31748703073993
          ],
          [
            148.37555717443496,
            -247.3175232144003
          ],
          [
            149.2982657689467,
            -247.5021129131222
          ],
          [
            149.8518824329484,
            -247.8712289891604
          ]
        ]
      },
      "properties": {
        "type": "variant",
        "id": 3,
        "color": "#44ff44",
        "vzdal_m": 2329,
        "prevyseni_m": 22,
        "cas_s": 649,
        "tempo_str": "4:38"
      }
    }
  ]
}