{
  "type": "FeatureCollection",
  "features": [
    {
      "type": "Feature",
      "geometry": {
        "type": "Point",
        "coordinates": [
          78.80641482240695,
          -57.84421597435872
        ]
      },
      "properties": {
        "type": "start",
        "isom": "109"
      }
    },
    {
      "type": "Feature",
      "geometry": {
        "type": "Point",
        "coordinates": [
          67.10633257552773,
          -82.13596914423987
        ]
      },
      "properties": {
        "type": "end",
        "isom": "417"
      }
    },
    {
      "type": "Feature",
      "geometry": {
        "type": "LineString",
        "coordinates": [
          [
            78.80351449762196,
            -57.868884440105035
          ],
          [
            78.52667886763966,
            -58.514776513142685
          ],
          [
            78.24984323765736,
            -59.16066858618035
          ],
          [
            78.24983110522113,
            -59.52975752479085
          ],
          [
            78.15754447360288,
            -59.991114174877076
          ],
          [
            77.78843434443856,
            -60.729273959390454
          ],
          [
            77.65751185488003,
            -61.29864403317856
          ],
          [
            77.5502493613727,
            -61.63971902515468
          ],
          [
            77.65704042302642,
            -62.08899555391019
          ],
          [
            77.38114928573752,
            -62.56896965008592
          ],
          [
            77.15090422654912,
            -63.22436783079324
          ],
          [
            77.02889656996422,
            -63.677134656886004
          ],
          [
            76.86560442556475,
            -64.23557364442117
          ],
          [
            76.86559229312854,
            -64.60466258303167
          ],
          [
            76.77330566151029,
            -65.06601923311788
          ],
          [
            76.58874453071002,
            -65.61964359467983
          ],
          [
            76.5887323982738,
            -65.98873253329033
          ],
          [
            76.31189676829149,
            -66.63462460632799
          ],
          [
            76.21961013667325,
            -67.09598125641422
          ],
          [
            76.03504900587298,
            -67.64960561797615
          ],
          [
            75.8504878750727,
            -68.2032299795381
          ],
          [
            75.75820124345447,
            -68.66458662962432
          ],
          [
            75.48136561347215,
            -69.31047870266198
          ],
          [
            75.37861187585109,
            -69.78958832938362
          ],
          [
            75.29679235023566,
            -70.23319200283443
          ],
          [
            75.1122312194354,
            -70.78681636439636
          ],
          [
            75.01994458781715,
            -71.24817301448257
          ],
          [
            75.01993245538092,
            -71.61726195309308
          ],
          [
            74.83537132458066,
            -72.17088631465504
          ],
          [
            74.74308469296241,
            -72.63224296474125
          ],
          [
            74.63659786687772,
            -73.10473367873861
          ],
          [
            74.68356712289064,
            -73.45784688783397
          ],
          [
            74.65866918956735,
            -73.64997396662592
          ],
          [
            74.3013010680842,
            -74.30778175075561
          ],
          [
            73.85782315450649,
            -74.89767346922356
          ],
          [
            73.51160048315661,
            -75.46722913844597
          ],
          [
            73.18208569426523,
            -75.87096160489068
          ],
          [
            72.80160279515918,
            -76.32103460765994
          ],
          [
            72.34389311826665,
            -76.69210368685722
          ],
          [
            71.79025218939258,
            -77.06116548640628
          ],
          [
            71.2366112605185,
            -77.43022728595535
          ],
          [
            70.59069886557145,
            -77.79928456232751
          ],
          [
            69.96566177520835,
            -78.12791262093587
          ],
          [
            69.57621350353459,
            -78.53810233702589
          ],
          [
            69.19018730248821,
            -78.88814894018353
          ],
          [
            68.82107466275947,
            -79.54208981774552
          ],
          [
            68.56065078423963,
            -80.10599091875123
          ],
          [
            68.0442309859054,
            -80.5775370745271
          ],
          [
            67.74050634554544,
            -81.03642013384417
          ],
          [
            67.33617749863801,
            -81.3667092242678
          ],
          [
            67.1765181309639,
            -81.95136776415015
          ],
          [
            67.0842405986728,
            -82.1359077102785
          ]
        ]
      },
      "properties": {
        "type": "variant",
        "id": 1,
        "color": "#ff4444",
        "vzdal_m": 1523,
        "prevyseni_m": 16,
        "cas_s": 382,
        "tempo_str": "4:10"
      }
    },
    {
      "type": "Feature",
      "geometry": {
        "type": "LineString",
        "coordinates": [
          [
            78.80351449762196,
            -57.868884440105035
          ],
          [
            78.52667886763966,
            -58.514776513142685
          ],
          [
            78.24984323765736,
            -59.16066858618035
          ],
          [
            78.24984020454829,
            -59.252940820832976
          ],
          [
            77.88074220782018,
            -59.62201166673586
          ],
          [
            77.69619017634706,
            -59.89881932433992
          ],
          [
            77.69618411012895,
            -60.08336379364517
          ],
          [
            77.28218832568554,
            -60.66554865843793
          ],
          [
            76.9579820504546,
            -61.006049954756186
          ],
          [
            76.58887192129028,
            -61.744209739269564
          ],
          [
            76.21976482523499,
            -62.390097289130324
          ],
          [
            75.85065469607065,
            -63.128257073643695
          ],
          [
            75.48154456690632,
            -63.86641685815708
          ],
          [
            75.11244050396007,
            -64.42003217336521
          ],
          [
            74.7433394741229,
            -64.88137525392071
          ],
          [
            74.37423541117668,
            -65.43499056912884
          ],
          [
            73.95501844701366,
            -65.86725323409118
          ],
          [
            73.25517762940436,
            -66.15164605024847
          ],
          [
            72.92143853112175,
            -66.456419150012
          ],
          [
            72.52875755997228,
            -66.91125586003274
          ],
          [
            72.2953403362027,
            -67.36885352337111
          ],
          [
            72.26652307611617,
            -67.73488862111876
          ],
          [
            72.23409601002112,
            -68.20192511119117
          ],
          [
            72.21080290590007,
            -68.56953849748935
          ],
          [
            72.08228036770146,
            -69.1313822360162
          ],
          [
            72.11218319216358,
            -69.48422969093404
          ],
          [
            71.88276023797172,
            -69.8639357066784
          ],
          [
            71.51366224124361,
            -70.23300655258129
          ],
          [
            71.14455514518833,
            -70.87889410244205
          ],
          [
            70.775445016024,
            -71.61705388695543
          ],
          [
            70.40633488685965,
            -72.3552136714688
          ],
          [
            70.03722475769531,
            -73.09337345598219
          ],
          [
            69.66811462853097,
            -73.83153324049557
          ],
          [
            69.29901056558475,
            -74.3851485557037
          ],
          [
            68.92991256885662,
            -74.75421940160658
          ],
          [
            68.56080547280135,
            -75.40010695146734
          ],
          [
            68.27530010440103,
            -76.05020207707383
          ],
          [
            68.28894594695181,
            -76.41823876449766
          ],
          [
            68.16884129049082,
            -76.87402212428321
          ],
          [
            68.14342522594559,
            -77.2334725577268
          ],
          [
            68.09851793087373,
            -77.71917131004398
          ],
          [
            67.82563498551156,
            -78.35364145924619
          ],
          [
            67.63797555392755,
            -78.90640663649805
          ],
          [
            67.63796342149132,
            -79.27549557510855
          ],
          [
            67.36112779150902,
            -79.92138764814621
          ],
          [
            66.99201766234468,
            -80.65954743265958
          ],
          [
            66.7869628223757,
            -81.2226148308412
          ],
          [
            66.90833634101148,
            -81.48602229909639
          ],
          [
            66.99434749033138,
            -81.95106855243989
          ],
          [
            67.0842405986728,
            -82.1359077102785
          ]
        ]
      },
      "properties": {
        "type": "variant",
        "id": 2,
        "color": "#4444ff",
        "vzdal_m": 1514,
        "prevyseni_m": 20,
        "cas_s": 397,
        "tempo_str": "4:22"
      }
    },
    {
      "type": "Feature",
      "geometry": {
        "type": "LineString",
        "coordinates": [
          [
            78.80351449762196,
            -57.868884440105035
          ],
          [
            78.52667886763966,
            -58.514776513142685
          ],
          [
            78.24984323765736,
            -59.16066858618035
          ],
          [
            78.24983110522113,
            -59.52975752479085
          ],
          [
            78.15754447360288,
            -59.991114174877076
          ],
          [
            77.78843434443856,
            -60.729273959390454
          ],
          [
            77.65751185488003,
            -61.29864403317856
          ],
          [
            77.5502493613727,
            -61.63971902515468
          ],
          [
            77.65704042302642,
            -62.08899555391019
          ],
          [
            77.38114928573752,
            -62.56896965008592
          ],
          [
            77.20060471477841,
            -63.11308736719649
          ],
          [
            77.02889656996422,
            -63.677134656886004
          ],
          [
            76.86560442556475,
            -64.23557364442117
          ],
          [
            76.86559229312854,
            -64.60466258303167
          ],
          [
            76.58875666314623,
            -65.25055465606933
          ],
          [
            76.40420159856407,
            -65.61963454832602
          ],
          [
            75.94283213576297,
            -65.98870087105199
          ],
          [
            75.38919120688888,
            -66.35776267060106
          ],
          [
            74.83554724490575,
            -66.81909670480276
          ],
          [
            74.4571198004847,
            -67.40072773250304
          ],
          [
            74.0973391190133,
            -67.92632733521901
          ],
          [
            73.72822898984896,
            -68.6644871197324
          ],
          [
            73.63594235823072,
            -69.12584376981862
          ],
          [
            73.35910672824842,
            -69.77173584285627
          ],
          [
            73.17454559744813,
            -70.32536020441822
          ],
          [
            72.98998446664787,
            -70.87898456598016
          ],
          [
            72.80542333584759,
            -71.43260892754209
          ],
          [
            72.43631320668325,
            -72.17076871205548
          ],
          [
            72.06720307751891,
            -72.90892849656886
          ],
          [
            71.69809294835459,
            -73.64708828108225
          ],
          [
            71.57353178927634,
            -74.16779631375084
          ],
          [
            71.14442168838997,
            -74.93887242715756
          ],
          [
            70.77531155922564,
            -75.67703221167095
          ],
          [
            70.46366074171256,
            -76.31569693727772
          ],
          [
            70.31451988891563,
            -76.87633427450733
          ],
          [
            70.3444958508072,
            -77.24552004396271
          ],
          [
            70.34520783969323,
            -77.43006175445561
          ],
          [
            69.94325690592787,
            -78.16747560133619
          ],
          [
            69.57621350353459,
            -78.53810233702589
          ],
          [
            69.19018730248821,
            -78.88814894018353
          ],
          [
            68.82107466275947,
            -79.54208981774552
          ],
          [
            68.56065078423963,
            -80.10599091875123
          ],
          [
            68.0442309859054,
            -80.5775370745271
          ],
          [
            67.74050634554544,
            -81.03642013384417
          ],
          [
            67.33617749863801,
            -81.3667092242678
          ],
          [
            67.1765181309639,
            -81.95136776415015
          ],
          [
            67.0842405986728,
            -82.1359077102785
          ]
        ]
      },
      "properties": {
        "type": "variant",
        "id": 3,
        "color": "#44ff44",
        "vzdal_m": 1496,
        "prevyseni_m": 16,
        "cas_s": 394,
        "tempo_str": "4:23"
      }
    }
  ]
}