{
  "type": "FeatureCollection",
  "features": [
    {
      "type": "Feature",
      "geometry": {
        "type": "Point",
        "coordinates": [
          44.74366286926244,
          -101.09903305251231
        ]
      },
      "properties": {
        "type": "start",
        "isom": "111"
      }
    },
    {
      "type": "Feature",
      "geometry": {
        "type": "Point",
        "coordinates": [
          29.19796978690476,
          -94.90680404247608
        ]
      },
      "properties": {
        "type": "end",
        "isom": "419"
      }
    },
    {
      "type": "Feature",
      "geometry": {
        "type": "LineString",
        "coordinates": [
          [
            44.769552054765455,
            -101.09897397060293
          ],
          [
            44.40047832290976,
            -100.72986693928482
          ],
          [
            43.66231872676216,
            -100.36074181525905
          ],
          [
            43.293244994906466,
            -99.99163478394094
          ],
          [
            42.924174296159826,
            -99.53025551797018
          ],
          [
            42.55509449808602,
            -99.34569295595732
          ],
          [
            42.09374020083019,
            -99.25339810542016
          ],
          [
            41.724654336538286,
            -99.25338001271254
          ],
          [
            41.26330003928245,
            -99.16108516217538
          ],
          [
            40.80194574202662,
            -99.06879031163824
          ],
          [
            40.432859877734714,
            -99.0687722189306
          ],
          [
            39.69470028158711,
            -98.69964709490486
          ],
          [
            39.048812151512486,
            -98.330526494056
          ],
          [
            38.31065255536488,
            -97.96140137003026
          ],
          [
            37.84930735743621,
            -97.59228981553524
          ],
          [
            37.48023969179862,
            -97.03863831491186
          ],
          [
            37.11116595994293,
            -96.66953128359376
          ],
          [
            36.64982076201426,
            -96.3004197290987
          ],
          [
            36.09620409801261,
            -95.93130365142679
          ],
          [
            35.63485890008394,
            -95.56219209693174
          ],
          [
            34.988967736900264,
            -95.28534373073553
          ],
          [
            34.61988187260835,
            -95.2853256380279
          ],
          [
            34.25079600831645,
            -95.2853075453203
          ],
          [
            33.88171014402454,
            -95.28528945261266
          ],
          [
            33.32807528136857,
            -95.46980678285648
          ],
          [
            32.86671188478557,
            -95.6543286362772
          ],
          [
            32.49762602049367,
            -95.6543105435696
          ],
          [
            32.12854015620176,
            -95.65429245086196
          ],
          [
            31.574911359763902,
            -95.65426531180053
          ],
          [
            31.113557062508068,
            -95.56197046126337
          ],
          [
            30.559937365397367,
            -95.28512661824406
          ],
          [
            30.098583068141533,
            -95.1928317677069
          ],
          [
            29.54496033792178,
            -95.00826015934022
          ],
          [
            29.175877506738924,
            -94.91596983197996
          ]
        ]
      },
      "properties": {
        "type": "variant",
        "id": 1,
        "color": "#ff4444",
        "vzdal_m": 962,
        "prevyseni_m": 0,
        "cas_s": 223,
        "tempo_str": "3:52"
      }
    },
    {
      "type": "Feature",
      "geometry": {
        "type": "LineString",
        "coordinates": [
          [
            44.769552054765455,
            -101.09897397060293
          ],
          [
            44.03136819374542,
            -101.46802672379819
          ],
          [
            43.570007830271486,
            -101.56027634256627
          ],
          [
            43.200921965979575,
            -101.56025824985866
          ],
          [
            42.83183610168767,
            -101.56024015715103
          ],
          [
            42.37048180443183,
            -101.46794530661388
          ],
          [
            42.00139594013993,
            -101.46792721390625
          ],
          [
            41.35550477695625,
            -101.19107884771005
          ],
          [
            40.61734518080865,
            -100.8219537236843
          ],
          [
            39.879185584661045,
            -100.45282859965856
          ],
          [
            39.32556285444129,
            -100.26825699129186
          ],
          [
            38.77194012422154,
            -100.08368538292518
          ],
          [
            38.40285425992963,
            -100.08366729021756
          ],
          [
            38.03376839563772,
            -100.08364919750994
          ],
          [
            37.66468253134581,
            -100.08363110480232
          ],
          [
            37.2955966670539,
            -100.08361301209469
          ],
          [
            36.926510802761996,
            -100.08359491938707
          ],
          [
            36.28062267268737,
            -99.71447431853824
          ],
          [
            35.91154894083168,
            -99.3453672872201
          ],
          [
            35.173389344684075,
            -98.97624216319437
          ],
          [
            34.7120441467554,
            -98.60713060869932
          ],
          [
            34.34297041489971,
            -98.23802357738121
          ],
          [
            33.60481081875211,
            -97.86889845335547
          ],
          [
            33.143456521496276,
            -97.7766036028183
          ],
          [
            32.58983985749463,
            -97.40748752514638
          ],
          [
            32.12849465956596,
            -97.03837597065134
          ],
          [
            31.48260349638228,
            -96.76152760445513
          ],
          [
            30.928986832380634,
            -96.39241152678318
          ],
          [
            30.559913100524934,
            -96.02330449546507
          ],
          [
            30.19083936866924,
            -95.65419746414693
          ],
          [
            29.82176563681355,
            -95.28509043282882
          ],
          [
            29.360417405775827,
            -95.00825111298641
          ],
          [
            29.175877506738924,
            -94.91596983197996
          ]
        ]
      },
      "properties": {
        "type": "variant",
        "id": 2,
        "color": "#4444ff",
        "vzdal_m": 958,
        "prevyseni_m": 0,
        "cas_s": 242,
        "tempo_str": "4:12"
      }
    },
    {
      "type": "Feature",
      "geometry": {
        "type": "LineString",
        "coordinates": [
          [
            44.769552054765455,
            -101.09897397060293
          ],
          [
            44.40047832290976,
            -100.72986693928482
          ],
          [
            43.66231872676216,
            -100.36074181525905
          ],
          [
            43.293244994906466,
            -99.99163478394094
          ],
          [
            42.924174296159826,
            -99.53025551797018
          ],
          [
            42.55509449808602,
            -99.34569295595732
          ],
          [
            42.09374020083019,
            -99.25339810542016
          ],
          [
            41.724654336538286,
            -99.25338001271254
          ],
          [
            41.355568472246375,
            -99.25336192000492
          ],
          [
            40.80194574202662,
            -99.06879031163824
          ],
          [
            40.432859877734714,
            -99.0687722189306
          ],
          [
            39.69470028158711,
            -98.69964709490486
          ],
          [
            39.048812151512486,
            -98.330526494056
          ],
          [
            38.31065255536488,
            -97.96140137003026
          ],
          [
            37.84930735743621,
            -97.59228981553524
          ],
          [
            37.48023969179862,
            -97.03863831491186
          ],
          [
            37.11116595994293,
            -96.66953128359376
          ],
          [
            36.74209222808724,
            -96.30042425227562
          ],
          [
            36.09620409801261,
            -95.93130365142679
          ],
          [
            35.63485890008394,
            -95.56219209693174
          ],
          [
            34.98897077000932,
            -95.19307149608291
          ],
          [
            34.619897038153624,
            -94.82396446476477
          ],
          [
            34.06628037415198,
            -94.45484838709284
          ],
          [
            33.512660677041275,
            -94.17800454407353
          ],
          [
            32.77450108089367,
            -93.80887942004779
          ],
          [
            32.220878350673914,
            -93.62430781168109
          ],
          [
            31.759517987199978,
            -93.71655743044919
          ],
          [
            31.205883124544005,
            -93.901074760693
          ],
          [
            30.65224219566993,
            -94.27013656024208
          ],
          [
            30.00632980072288,
            -94.63919383661427
          ],
          [
            29.360420438884876,
            -94.91597887833379
          ],
          [
            29.175877506738924,
            -94.91596983197996
          ]
        ]
      },
      "properties": {
        "type": "variant",
        "id": 3,
        "color": "#44ff44",
        "vzdal_m": 996,
        "prevyseni_m": 0,
        "cas_s": 230,
        "tempo_str": "3:51"
      }
    }
  ]
}