{
  "type": "FeatureCollection",
  "features": [
    {
      "type": "Feature",
      "geometry": {
        "type": "Point",
        "coordinates": [
          49.10012498856206,
          -12.407002027476912
        ]
      },
      "properties": {
        "type": "start",
        "isom": "111"
      }
    },
    {
      "type": "Feature",
      "geometry": {
        "type": "Point",
        "coordinates": [
          10.121066372311661,
          -52.18619323328657
        ]
      },
      "properties": {
        "type": "end",
        "isom": "111"
      }
    },
    {
      "type": "Feature",
      "geometry": {
        "type": "LineString",
        "coordinates": [
          [
            49.02007663660603,
            -12.391446685897117
          ],
          [
            48.09735276926798,
            -12.76054407484115
          ],
          [
            47.72826058836589,
            -12.945092905443927
          ],
          [
            47.543707912997675,
            -13.129642008308231
          ],
          [
            47.17461573209559,
            -13.314190838911006
          ],
          [
            46.99007622656172,
            -13.314190566649483
          ],
          [
            46.62098404565963,
            -13.498739397252262
          ],
          [
            46.06733918938933,
            -13.867837330719341
          ],
          [
            45.88277334418678,
            -14.23693580870947
          ],
          [
            45.69822066881857,
            -14.421484911573772
          ],
          [
            45.32912848791648,
            -14.606033742176551
          ],
          [
            44.96002313718006,
            -14.975131947905156
          ],
          [
            44.77545729197751,
            -15.344230425895285
          ],
          [
            44.59090461660929,
            -15.528779528759587
          ],
          [
            44.406338771406745,
            -15.897878006749714
          ],
          [
            43.66812806993389,
            -16.636074418206928
          ],
          [
            42.92991736846105,
            -17.374270829664134
          ],
          [
            42.376272512190745,
            -17.743368763131215
          ],
          [
            42.00718033128866,
            -17.927917593733994
          ],
          [
            41.26896962981581,
            -18.6661140051912
          ],
          [
            40.53070624900561,
            -20.14250791715172
          ],
          [
            40.34614040380306,
            -20.511606395141847
          ],
          [
            39.60792970233022,
            -21.249802806599057
          ],
          [
            38.869719000857366,
            -21.987999218056267
          ],
          [
            37.76242928831677,
            -22.726195084990426
          ],
          [
            37.20875809237779,
            -23.464391768709163
          ],
          [
            36.4705342210706,
            -24.387137555292195
          ],
          [
            35.732336689432096,
            -24.94078459162358
          ],
          [
            34.809560142756695,
            -26.048079481070918
          ],
          [
            34.07134944128384,
            -26.786275892528128
          ],
          [
            33.333138739811,
            -27.524472303985334
          ],
          [
            32.59491486850381,
            -28.447218090568374
          ],
          [
            31.856690997196623,
            -29.369963877151413
          ],
          [
            31.118480295723774,
            -30.108160288608616
          ],
          [
            30.564769590281788,
            -31.40000509770483
          ],
          [
            30.564756420447445,
            -31.584554472830657
          ],
          [
            30.3801905752449,
            -31.95365295082079
          ],
          [
            30.380137895907545,
            -32.69185045132409
          ],
          [
            30.380124726073213,
            -32.87639982644992
          ],
          [
            30.19555888087066,
            -33.24549830444005
          ],
          [
            28.903729662796188,
            -33.98369389911269
          ],
          [
            27.378416816994175,
            -34.747728765194104
          ],
          [
            27.058268758285752,
            -34.906438052126575
          ],
          [
            25.76643954021128,
            -35.644633646799214
          ],
          [
            24.47461032213681,
            -36.382829241471846
          ],
          [
            24.290057646768595,
            -36.56737834433615
          ],
          [
            23.920965465866512,
            -36.75192717493893
          ],
          [
            23.551873284964422,
            -36.936476005541714
          ],
          [
            22.813649413657238,
            -37.85922179212474
          ],
          [
            22.07542554235005,
            -38.78196757870778
          ],
          [
            21.70630702177929,
            -39.33561515956221
          ],
          [
            21.521741176576736,
            -39.704713637552345
          ],
          [
            21.337175331374187,
            -40.07381211554247
          ],
          [
            21.152609486171638,
            -40.4429105935326
          ],
          [
            20.96804364096909,
            -40.81200907152273
          ],
          [
            20.783490965600876,
            -40.996558174387026
          ],
          [
            20.598925120398327,
            -41.36565665237716
          ],
          [
            20.045280264128028,
            -41.73475458584424
          ],
          [
            19.676188083225938,
            -41.919303416447015
          ],
          [
            19.491582728520378,
            -42.84205001981463
          ],
          [
            19.491556388851702,
            -43.21114877006628
          ],
          [
            19.30699054364915,
            -43.58024724805641
          ],
          [
            19.1224246984466,
            -43.94934572604654
          ],
          [
            18.753332517544514,
            -44.13389455664932
          ],
          [
            18.384253506476764,
            -44.13389401212627
          ],
          [
            18.01516132557468,
            -44.31844284272905
          ],
          [
            17.276937454267493,
            -45.24118862931208
          ],
          [
            17.276884774930142,
            -45.97938612981539
          ],
          [
            17.092305759893254,
            -46.53303398293134
          ],
          [
            16.907739914690705,
            -46.90213246092147
          ],
          [
            16.723187239322492,
            -47.086681563785774
          ],
          [
            16.538621394119943,
            -47.4557800417759
          ],
          [
            15.800358013309744,
            -48.932173953736424
          ],
          [
            15.426489587684099,
            -50.032176213052594
          ],
          [
            15.069085638692455,
            -50.77417478631785
          ],
          [
            14.927247987383588,
            -51.21525028701393
          ],
          [
            13.982815291895294,
            -51.920268282373875
          ],
          [
            12.676477344935877,
            -52.52126833627639
          ],
          [
            11.555659649675198,
            -52.99225394448955
          ],
          [
            10.07939628474155,
            -52.25405426589405
          ]
        ]
      },
      "properties": {
        "type": "variant",
        "id": 1,
        "color": "#ff4444",
        "vzdal_m": 1613,
        "prevyseni_m": 4,
        "cas_s": 425,
        "tempo_str": "4:23"
      }
    },
    {
      "type": "Feature",
      "geometry": {
        "type": "LineString",
        "coordinates": [
          [
            49.02007663660603,
            -12.391446685897117
          ],
          [
            48.09735276926798,
            -12.76054407484115
          ],
          [
            47.72826058836589,
            -12.945092905443927
          ],
          [
            47.543707912997675,
            -13.129642008308231
          ],
          [
            47.17461573209559,
            -13.314190838911006
          ],
          [
            46.99007622656172,
            -13.314190566649483
          ],
          [
            46.62098404565963,
            -13.498739397252262
          ],
          [
            46.06733918938933,
            -13.867837330719341
          ],
          [
            45.88277334418678,
            -14.23693580870947
          ],
          [
            45.69822066881857,
            -14.421484911573772
          ],
          [
            45.32912848791648,
            -14.606033742176551
          ],
          [
            44.96002313718006,
            -14.975131947905156
          ],
          [
            44.77545729197751,
            -15.344230425895285
          ],
          [
            44.59090461660929,
            -15.528779528759587
          ],
          [
            44.406338771406745,
            -15.897878006749714
          ],
          [
            44.221772926204196,
            -16.266976484739846
          ],
          [
            43.483562224731344,
            -17.005172896197056
          ],
          [
            42.56081201772462,
            -17.74336903539274
          ],
          [
            42.376272512190745,
            -17.743368763131215
          ],
          [
            42.00718033128866,
            -17.927917593733994
          ],
          [
            41.453509135349684,
            -18.666114277452728
          ],
          [
            41.08435110527591,
            -19.77340998368464
          ],
          [
            40.899758920404686,
            -20.51160721192642
          ],
          [
            40.71519307520214,
            -20.88070568991655
          ],
          [
            39.976929694391934,
            -22.357099601877064
          ],
          [
            39.792324339686374,
            -23.279846205244674
          ],
          [
            39.607758494483825,
            -23.648944683234802
          ],
          [
            39.42319264928127,
            -24.01804316122493
          ],
          [
            39.23862680407873,
            -24.387141639215063
          ],
          [
            38.68494243830541,
            -25.309887698059622
          ],
          [
            38.500376593102864,
            -25.678986176049747
          ],
          [
            38.31582391773465,
            -25.863535278914053
          ],
          [
            38.1312580725321,
            -26.232633756904185
          ],
          [
            37.94669222732955,
            -26.60173223489431
          ],
          [
            37.76213955196134,
            -26.786281337758613
          ],
          [
            37.577573706758784,
            -27.155379815748745
          ],
          [
            36.83933666561726,
            -28.262674977457603
          ],
          [
            36.101073284807065,
            -29.73906888941812
          ],
          [
            35.916467930101504,
            -30.661815492785728
          ],
          [
            35.916415250764146,
            -31.400012993289035
          ],
          [
            35.9163625714268,
            -32.13821049379234
          ],
          [
            35.916323061923784,
            -32.69185861916982
          ],
          [
            35.731757216721235,
            -33.06095709715995
          ],
          [
            34.99350700574538,
            -34.352801633994645
          ],
          [
            34.624375315340274,
            -35.0909985899749
          ],
          [
            33.70162510833355,
            -35.82919472917058
          ],
          [
            33.332519757597126,
            -36.198292934899186
          ],
          [
            33.11035203613272,
            -36.711542396745514
          ],
          [
            33.369118379851756,
            -36.775770106220605
          ],
          [
            32.59424320695259,
            -37.85923622198553
          ],
          [
            31.856032505479742,
            -38.59743263344274
          ],
          [
            31.11782180400689,
            -39.33562904489995
          ],
          [
            30.748716453270468,
            -39.70472725062855
          ],
          [
            30.56415060806792,
            -40.07382572861869
          ],
          [
            30.379584762865367,
            -40.442924206608815
          ],
          [
            30.195018917662818,
            -40.812022684598944
          ],
          [
            30.010453072460265,
            -41.18112116258907
          ],
          [
            29.82588722725772,
            -41.5502196405792
          ],
          [
            29.641321382055168,
            -41.91931811856933
          ],
          [
            29.456768706686958,
            -42.10386722143363
          ],
          [
            29.272202861484406,
            -42.47296569942376
          ],
          [
            29.087650186116196,
            -42.65751480228806
          ],
          [
            28.903084340913644,
            -43.02661328027819
          ],
          [
            28.718531665545434,
            -43.211162383142494
          ],
          [
            28.533965820342882,
            -43.58026086113262
          ],
          [
            27.795741949035698,
            -44.50300664771566
          ],
          [
            27.057518077728506,
            -45.425752434298694
          ],
          [
            26.503846881789535,
            -46.16394911801743
          ],
          [
            26.319294206421322,
            -46.34849822088173
          ],
          [
            26.134741531053113,
            -46.53304732374604
          ],
          [
            25.212004493880727,
            -47.08669408781589
          ],
          [
            24.842912312978637,
            -47.27124291841867
          ],
          [
            24.658346467776088,
            -47.64034139640879
          ],
          [
            23.376329158169113,
            -48.43658602928864
          ],
          [
            22.239182528338368,
            -48.628894622701495
          ],
          [
            21.52331948869265,
            -48.76006284594093
          ],
          [
            20.77591604850455,
            -48.892233518642385
          ],
          [
            20.386439777763112,
            -48.96059415970951
          ],
          [
            19.670332150280423,
            -49.08628244661346
          ],
          [
            18.954224522797734,
            -49.21197073351742
          ],
          [
            18.02766893967041,
            -49.3745933657646
          ],
          [
            17.1011105406937,
            -49.53721599800762
          ],
          [
            15.960358800530846,
            -49.74105892204823
          ],
          [
            15.556708913510434,
            -49.94806248556208
          ],
          [
            15.069085638692455,
            -50.77417478631785
          ],
          [
            14.927247987383588,
            -51.21525028701393
          ],
          [
            13.982815291895294,
            -51.920268282373875
          ],
          [
            12.676477344935877,
            -52.52126833627639
          ],
          [
            11.555659649675198,
            -52.99225394448955
          ],
          [
            10.07939628474155,
            -52.25405426589405
          ]
        ]
      },
      "properties": {
        "type": "variant",
        "id": 2,
        "color": "#4444ff",
        "vzdal_m": 1656,
        "prevyseni_m": 1,
        "cas_s": 431,
        "tempo_str": "4:19"
      }
    },
    {
      "type": "Feature",
      "geometry": {
        "type": "LineString",
        "coordinates": [
          [
            49.02007663660603,
            -12.391446685897117
          ],
          [
            49.02002395726868,
            -13.129644186400423
          ],
          [
            49.01997127793132,
            -13.86784168690373
          ],
          [
            49.019958108096986,
            -14.052391062029557
          ],
          [
            48.83539226289443,
            -14.421489540019687
          ],
          [
            49.204392254956154,
            -15.528786335297696
          ],
          [
            49.01982640975361,
            -15.897884813287822
          ],
          [
            48.28161570828075,
            -16.63608122474503
          ],
          [
            46.989786490206285,
            -17.37427681941767
          ],
          [
            46.43611529426732,
            -18.112473503136403
          ],
          [
            46.06697043402788,
            -19.03521983424249
          ],
          [
            46.06693092452486,
            -19.588867959619968
          ],
          [
            45.88236507932231,
            -19.957966437610096
          ],
          [
            45.32869388338334,
            -20.69616312132883
          ],
          [
            45.14412803818079,
            -21.06526159931896
          ],
          [
            44.22137783117407,
            -21.803457738514645
          ],
          [
            43.29864079400168,
            -22.3571045025845
          ],
          [
            42.92954861309959,
            -22.54165333318728
          ],
          [
            41.637719395025115,
            -23.279848927859916
          ],
          [
            40.714969188018394,
            -24.018045067055606
          ],
          [
            39.79221898101167,
            -24.75624120625129
          ],
          [
            39.423126800109586,
            -24.940790036854064
          ],
          [
            39.0540346192075,
            -25.12533886745684
          ],
          [
            38.31582391773465,
            -25.863535278914053
          ],
          [
            38.1312580725321,
            -26.232633756904185
          ],
          [
            37.94669222732955,
            -26.60173223489431
          ],
          [
            37.76213955196134,
            -26.786281337758613
          ],
          [
            37.577573706758784,
            -27.155379815748745
          ],
          [
            36.83933666561726,
            -28.262674977457603
          ],
          [
            36.101073284807065,
            -29.73906888941812
          ],
          [
            35.916467930101504,
            -30.661815492785728
          ],
          [
            35.916415250764146,
            -31.400012993289035
          ],
          [
            35.9163625714268,
            -32.13821049379234
          ],
          [
            35.916323061923784,
            -32.69185861916982
          ],
          [
            35.731757216721235,
            -33.06095709715995
          ],
          [
            34.99350700574538,
            -34.352801633994645
          ],
          [
            34.624375315340274,
            -35.0909985899749
          ],
          [
            33.70162510833355,
            -35.82919472917058
          ],
          [
            33.332519757597126,
            -36.198292934899186
          ],
          [
            33.11035203613272,
            -36.711542396745514
          ],
          [
            33.369118379851756,
            -36.775770106220605
          ],
          [
            32.59424320695259,
            -37.85923622198553
          ],
          [
            31.856032505479742,
            -38.59743263344274
          ],
          [
            31.11782180400689,
            -39.33562904489995
          ],
          [
            30.748716453270468,
            -39.70472725062855
          ],
          [
            30.56415060806792,
            -40.07382572861869
          ],
          [
            30.379584762865367,
            -40.442924206608815
          ],
          [
            30.195018917662818,
            -40.812022684598944
          ],
          [
            30.010453072460265,
            -41.18112116258907
          ],
          [
            29.82588722725772,
            -41.5502196405792
          ],
          [
            29.641321382055168,
            -41.91931811856933
          ],
          [
            28.90305800124497,
            -43.39571203052984
          ],
          [
            28.533926310839867,
            -44.1339089865101
          ],
          [
            28.349360465637318,
            -44.503007464500236
          ],
          [
            28.533834121999504,
            -45.42575461239089
          ],
          [
            28.718334118030366,
            -45.97940301002989
          ],
          [
            28.718320948196027,
            -46.16395238515572
          ],
          [
            28.90283411406123,
            -46.5330514076689
          ],
          [
            28.90282094422689,
            -46.717600782794726
          ],
          [
            28.533728763324806,
            -46.902149613397505
          ],
          [
            27.980083907054503,
            -47.271247546864586
          ],
          [
            27.61099172615242,
            -47.45579637746736
          ],
          [
            26.51733442510676,
            -47.90538605785087
          ],
          [
            25.58994013162468,
            -48.06222462488744
          ],
          [
            24.662545838142595,
            -48.219063191924015
          ],
          [
            23.944901065561705,
            -48.34042610058017
          ],
          [
            22.807757251178437,
            -48.532740325997146
          ],
          [
            21.903425042713945,
            -48.68567595107658
          ],
          [
            21.52331948869265,
            -48.76006284594093
          ],
          [
            20.77591604850455,
            -48.892233518642385
          ],
          [
            20.386439777763112,
            -48.96059415970951
          ],
          [
            19.670332150280423,
            -49.08628244661346
          ],
          [
            18.954224522797734,
            -49.21197073351742
          ],
          [
            18.02766893967041,
            -49.3745933657646
          ],
          [
            17.1011105406937,
            -49.53721599800762
          ],
          [
            15.960358800530846,
            -49.74105892204823
          ],
          [
            15.556708913510434,
            -49.94806248556208
          ],
          [
            15.069085638692455,
            -50.77417478631785
          ],
          [
            14.927247987383588,
            -51.21525028701393
          ],
          [
            13.982815291895294,
            -51.920268282373875
          ],
          [
            12.676477344935877,
            -52.52126833627639
          ],
          [
            11.555659649675198,
            -52.99225394448955
          ],
          [
            10.07939628474155,
            -52.25405426589405
          ]
        ]
      },
      "properties": {
        "type": "variant",
        "id": 3,
        "color": "#44ff44",
        "vzdal_m": 1724,
        "prevyseni_m": 6,
        "cas_s": 446,
        "tempo_str": "4:18"
      }
    }
  ]
}