{
  "type": "FeatureCollection",
  "features": [
    {
      "type": "Feature",
      "geometry": {
        "type": "Point",
        "coordinates": [
          98.15865900591939,
          -64.52216808227712
        ]
      },
      "properties": {
        "type": "start",
        "isom": "109"
      }
    },
    {
      "type": "Feature",
      "geometry": {
        "type": "Point",
        "coordinates": [
          104.51389230111808,
          -83.07455060253628
        ]
      },
      "properties": {
        "type": "end",
        "isom": "109"
      }
    },
    {
      "type": "Feature",
      "geometry": {
        "type": "LineString",
        "coordinates": [
          [
            98.18030398909528,
            -64.51343520224424
          ],
          [
            97.90347139222204,
            -65.06705504062927
          ],
          [
            97.62663576223974,
            -65.71294711366693
          ],
          [
            97.53434913062148,
            -66.17430376375316
          ],
          [
            97.1652420345662,
            -66.8201913136139
          ],
          [
            96.980683936875,
            -67.28154344052324
          ],
          [
            96.98067180443877,
            -67.65063237913374
          ],
          [
            96.98065967200256,
            -68.01972131774424
          ],
          [
            96.98064753956635,
            -68.38881025635474
          ],
          [
            97.16517227305798,
            -68.9424527106243
          ],
          [
            97.53423993869555,
            -69.49610421124767
          ],
          [
            97.90331367055126,
            -69.86521124256579
          ],
          [
            98.27238740240695,
            -70.23431827388393
          ],
          [
            98.64146113426264,
            -70.60342530520205
          ],
          [
            99.01053486611835,
            -70.97253233652016
          ],
          [
            99.10280329908227,
            -71.0648090943497
          ],
          [
            99.19506869893712,
            -71.24935808683186
          ],
          [
            99.47186186539268,
            -71.89527729893095
          ],
          [
            99.56411816592039,
            -72.35664299537099
          ],
          [
            99.6563744664481,
            -72.81800869181102
          ],
          [
            99.93316763290366,
            -73.4639279039101
          ],
          [
            99.93315550046744,
            -73.8330168425206
          ],
          [
            100.11768023395909,
            -74.38665929679019
          ],
          [
            100.48674183337857,
            -75.1248552667188
          ],
          [
            100.48672970094233,
            -75.4939442053293
          ],
          [
            100.57898600147004,
            -75.95530990176934
          ],
          [
            100.85578523414372,
            -76.41668464456318
          ],
          [
            101.40940189814536,
            -76.78580072223512
          ],
          [
            101.87074406296499,
            -77.24718451138277
          ],
          [
            102.23980566238447,
            -77.9853804813114
          ],
          [
            102.6088763611311,
            -78.44675974728214
          ],
          [
            102.97794705987775,
            -78.90813901325289
          ],
          [
            103.34701775862438,
            -79.36951827922364
          ],
          [
            103.71608542426198,
            -79.92316977984702
          ],
          [
            104.08515915611767,
            -80.29227681116514
          ],
          [
            104.26969298893646,
            -80.56910256147683
          ],
          [
            104.26968085650026,
            -80.93819150008733
          ],
          [
            104.36193715702797,
            -81.39955719652737
          ],
          [
            104.36192502459174,
            -81.76864613513786
          ],
          [
            104.45418132511945,
            -82.2300118315779
          ],
          [
            104.45416919268324,
            -82.5991007701884
          ],
          [
            104.54642549321095,
            -83.06046646662844
          ]
        ]
      },
      "properties": {
        "type": "variant",
        "id": 1,
        "color": "#ff4444",
        "vzdal_m": 1153,
        "prevyseni_m": 0,
        "cas_s": 265,
        "tempo_str": "3:50"
      }
    },
    {
      "type": "Feature",
      "geometry": {
        "type": "LineString",
        "coordinates": [
          [
            98.18030398909528,
            -64.51343520224424
          ],
          [
            98.54937165473288,
            -65.06708670286761
          ],
          [
            98.73390245444261,
            -65.43618468783193
          ],
          [
            98.8261678542975,
            -65.62073368031407
          ],
          [
            98.91843325415236,
            -65.80528267279624
          ],
          [
            99.01069865400724,
            -65.9898316652784
          ],
          [
            99.37976935275387,
            -66.45121093124915
          ],
          [
            99.65657161853657,
            -66.82031343939038
          ],
          [
            99.93336478499215,
            -67.46623265148946
          ],
          [
            100.30242941752068,
            -68.11215638676546
          ],
          [
            100.6714940500492,
            -68.75808012204145
          ],
          [
            100.76375035057691,
            -69.21944581848149
          ],
          [
            100.94827508406856,
            -69.77308827275105
          ],
          [
            100.94825688541424,
            -70.32672168066681
          ],
          [
            101.04051318594195,
            -70.78808737710685
          ],
          [
            101.22503791943357,
            -71.3417298313764
          ],
          [
            101.50183108588914,
            -71.9876490434755
          ],
          [
            101.59408738641685,
            -72.44901473991553
          ],
          [
            101.96314898583633,
            -73.18721070984415
          ],
          [
            102.33221058525581,
            -73.92540667977279
          ],
          [
            102.60900375171134,
            -74.57132589187188
          ],
          [
            102.60899161927514,
            -74.94041483048238
          ],
          [
            102.70124791980285,
            -75.40178052692241
          ],
          [
            102.70123578736664,
            -75.77086946553291
          ],
          [
            102.88576052085827,
            -76.32451191980248
          ],
          [
            103.0702852543499,
            -76.87815437407204
          ],
          [
            103.25480998784154,
            -77.4317968283416
          ],
          [
            103.25479785540531,
            -77.8008857669521
          ],
          [
            103.34705415593302,
            -78.26225146339213
          ],
          [
            103.43931045646073,
            -78.72361715983217
          ],
          [
            103.62383518995237,
            -79.27725961410174
          ],
          [
            103.99289678937185,
            -80.01545558403036
          ],
          [
            104.26969298893646,
            -80.56910256147683
          ],
          [
            104.26968085650026,
            -80.93819150008733
          ],
          [
            104.36193715702797,
            -81.39955719652737
          ],
          [
            104.36192502459174,
            -81.76864613513786
          ],
          [
            104.45418132511945,
            -82.2300118315779
          ],
          [
            104.45416919268324,
            -82.5991007701884
          ],
          [
            104.54642549321095,
            -83.06046646662844
          ]
        ]
      },
      "properties": {
        "type": "variant",
        "id": 2,
        "color": "#4444ff",
        "vzdal_m": 1081,
        "prevyseni_m": 0,
        "cas_s": 270,
        "tempo_str": "4:10"
      }
    },
    {
      "type": "Feature",
      "geometry": {
        "type": "LineString",
        "coordinates": [
          [
            98.18030398909528,
            -64.51343520224424
          ],
          [
            97.90346835911298,
            -65.1593272752819
          ],
          [
            97.81118172749474,
            -65.62068392536813
          ],
          [
            97.81116959505853,
            -65.98977286397863
          ],
          [
            97.99569432855016,
            -66.54341531824818
          ],
          [
            98.08795972840502,
            -66.72796431073034
          ],
          [
            98.27249659433288,
            -66.9125178263894
          ],
          [
            98.64155819375236,
            -67.65071379631803
          ],
          [
            98.91835136020792,
            -68.29663300841712
          ],
          [
            99.19514452666347,
            -68.94255222051622
          ],
          [
            99.28740082719118,
            -69.40391791695625
          ],
          [
            99.28738869475497,
            -69.77300685556675
          ],
          [
            99.28737656231876,
            -70.14209579417725
          ],
          [
            99.28736442988253,
            -70.51118473278775
          ],
          [
            99.28735229744632,
            -70.88027367139826
          ],
          [
            99.28734016501012,
            -71.24936261000876
          ],
          [
            99.37959646553783,
            -71.71072830644879
          ],
          [
            99.56412119902946,
            -72.26437076071836
          ],
          [
            99.65637749955717,
            -72.72573645715839
          ],
          [
            99.84090223304878,
            -73.27937891142795
          ],
          [
            99.9331585335765,
            -73.74074460786798
          ],
          [
            100.11768326706814,
            -74.29438706213756
          ],
          [
            100.39447643352369,
            -74.94030627423665
          ],
          [
            100.4867327340514,
            -75.40167197067667
          ],
          [
            100.48672060161519,
            -75.77076090928718
          ],
          [
            100.76351376807075,
            -76.41668012138628
          ],
          [
            101.13258749992644,
            -76.78578715270439
          ],
          [
            101.13257536749022,
            -77.15487609131489
          ],
          [
            101.13256323505401,
            -77.52396502992539
          ],
          [
            101.1325511026178,
            -77.8930539685359
          ],
          [
            101.2248074031455,
            -78.35441966497594
          ],
          [
            101.31706370367321,
            -78.81578536141596
          ],
          [
            101.68612833620175,
            -79.46170909669196
          ],
          [
            102.05519296873027,
            -80.10763283196796
          ],
          [
            102.42426063436787,
            -80.66128433259134
          ],
          [
            102.79332223378735,
            -81.39948030251998
          ],
          [
            102.97786213282424,
            -81.4917615835264
          ],
          [
            103.07013056578818,
            -81.58403834135594
          ],
          [
            103.07012753267912,
            -81.67631057600856
          ],
          [
            103.25466136549791,
            -81.95313632632025
          ],
          [
            103.80827802949955,
            -82.32225240399218
          ],
          [
            104.17735176135525,
            -82.69135943531032
          ],
          [
            104.54642549321095,
            -83.06046646662844
          ]
        ]
      },
      "properties": {
        "type": "variant",
        "id": 3,
        "color": "#44ff44",
        "vzdal_m": 1114,
        "prevyseni_m": 0,
        "cas_s": 277,
        "tempo_str": "4:08"
      }
    }
  ]
}