{
  "type": "FeatureCollection",
  "features": [
    {
      "type": "Feature",
      "geometry": {
        "type": "Point",
        "coordinates": [
          194.38032398781885,
          -243.88320101232446
        ]
      },
      "properties": {
        "type": "start",
        "isom": "111"
      }
    },
    {
      "type": "Feature",
      "geometry": {
        "type": "Point",
        "coordinates": [
          103.641385115763,
          -287.02185267901234
        ]
      },
      "properties": {
        "type": "end",
        "isom": "109"
      }
    },
    {
      "type": "Feature",
      "geometry": {
        "type": "LineString",
        "coordinates": [
          [
            194.5901358364299,
            -243.71172719786588
          ],
          [
            190.16097698626754,
            -246.66451066560253
          ],
          [
            185.73187081544248,
            -248.87909663283588
          ],
          [
            182.77923872690047,
            -248.8790922766515
          ],
          [
            179.8266066383585,
            -248.8790879204671
          ],
          [
            178.35029059408748,
            -248.87908574237494
          ],
          [
            174.65939512473528,
            -250.35547529815105
          ],
          [
            171.70676303619328,
            -250.35547094196664
          ],
          [
            168.01592024617847,
            -251.09366299723948
          ],
          [
            162.11049803108241,
            -253.30824678638064
          ],
          [
            159.89602396467592,
            -253.30824351924235
          ],
          [
            156.20512849532372,
            -254.78463307501843
          ],
          [
            152.5141803466342,
            -256.9992201312979
          ],
          [
            148.0850214964718,
            -259.9520035990345
          ],
          [
            144.39402066844488,
            -262.90478815581724
          ],
          [
            142.9177046241739,
            -262.90478597772506
          ],
          [
            141.44133590056555,
            -263.6429813001362
          ],
          [
            137.01217705040315,
            -266.5957647678728
          ],
          [
            131.84486017810525,
            -269.5485471465634
          ],
          [
            125.93938528367187,
            -272.5013284362078
          ],
          [
            121.51033179218418,
            -273.97771690293786
          ],
          [
            118.5575943449675,
            -275.4541075477601
          ],
          [
            117.08122562135915,
            -276.1923028701712
          ],
          [
            115.60485689775079,
            -276.9304981925823
          ],
          [
            114.12848817414245,
            -277.66869351499344
          ],
          [
            111.17564536825105,
            -280.6214791608223
          ],
          [
            108.222855241697,
            -282.83606730614775
          ],
          [
            105.27001243580561,
            -285.7888529519766
          ],
          [
            103.79359103285992,
            -287.265245774891
          ]
        ]
      },
      "properties": {
        "type": "variant",
        "id": 1,
        "color": "#ff4444",
        "vzdal_m": 699,
        "prevyseni_m": 5,
        "cas_s": 191,
        "tempo_str": "4:33"
      }
    },
    {
      "type": "Feature",
      "geometry": {
        "type": "LineString",
        "coordinates": [
          [
            194.5901358364299,
            -243.71172719786588
          ],
          [
            190.16097698626754,
            -246.66451066560253
          ],
          [
            185.73187081544248,
            -248.87909663283588
          ],
          [
            182.77923872690047,
            -248.8790922766515
          ],
          [
            179.08850129556032,
            -248.1408893309177
          ],
          [
            175.3977638642202,
            -247.40268638518393
          ],
          [
            173.92150049928654,
            -246.6644867065884
          ],
          [
            172.4452371343529,
            -245.9262870279929
          ],
          [
            170.96897376941925,
            -245.18808734939742
          ],
          [
            168.01634168087725,
            -245.18808299321302
          ],
          [
            165.06370959233527,
            -245.1880786370286
          ],
          [
            162.11107750379327,
            -245.18807428084426
          ],
          [
            156.2056026093599,
            -248.1408555704887
          ],
          [
            153.25297052081788,
            -248.1408512143043
          ],
          [
            150.3003384322759,
            -248.14084685811991
          ],
          [
            147.3477063437339,
            -248.1408425019355
          ],
          [
            141.44223144930052,
            -251.09362379158
          ],
          [
            136.27491457700262,
            -254.04640617027053
          ],
          [
            132.58391374897573,
            -256.99919072705325
          ],
          [
            130.36912360654514,
            -261.42837246293476
          ],
          [
            129.63091290507228,
            -262.166568874392
          ],
          [
            128.1543861434519,
            -265.119356698313
          ],
          [
            127.41617544197904,
            -265.85755310977027
          ],
          [
            126.67796474050617,
            -266.59574952122745
          ],
          [
            125.20159601689784,
            -267.3339448436386
          ],
          [
            123.72522729328949,
            -268.0721401660497
          ],
          [
            123.72501657594007,
            -271.0249301680629
          ],
          [
            123.72485853792804,
            -273.2395226695728
          ],
          [
            118.5575943449675,
            -275.4541075477601
          ],
          [
            117.08122562135915,
            -276.1923028701712
          ],
          [
            115.60485689775079,
            -276.9304981925823
          ],
          [
            114.12848817414245,
            -277.66869351499344
          ],
          [
            111.17564536825105,
            -280.6214791608223
          ],
          [
            108.222855241697,
            -282.83606730614775
          ],
          [
            105.27001243580561,
            -285.7888529519766
          ],
          [
            103.79359103285992,
            -287.265245774891
          ]
        ]
      },
      "properties": {
        "type": "variant",
        "id": 2,
        "color": "#4444ff",
        "vzdal_m": 758,
        "prevyseni_m": 4,
        "cas_s": 204,
        "tempo_str": "4:28"
      }
    },
    {
      "type": "Feature",
      "geometry": {
        "type": "LineString",
        "coordinates": [
          [
            194.5901358364299,
            -243.71172719786588
          ],
          [
            190.16097698626754,
            -246.66451066560253
          ],
          [
            185.73187081544248,
            -248.87909663283588
          ],
          [
            180.56460662248193,
            -251.09368151102314
          ],
          [
            179.82634324167174,
            -252.57007542298365
          ],
          [
            179.08807986086154,
            -254.04646933494413
          ],
          [
            178.34981648005132,
            -255.5228632469047
          ],
          [
            177.61155309924112,
            -256.9992571588652
          ],
          [
            176.13518437563278,
            -257.7374524812763
          ],
          [
            173.18228889040404,
            -261.42843562760845
          ],
          [
            170.22944608451263,
            -264.3812212734373
          ],
          [
            166.5383925771484,
            -268.07220333072337
          ],
          [
            163.58539173324496,
            -273.23958147806206
          ],
          [
            159.89439090521805,
            -276.19236603484484
          ],
          [
            156.94154809932664,
            -279.1451516806737
          ],
          [
            153.28147878825712,
            -281.43538780616
          ],
          [
            148.96871081605968,
            -283.1965754191336
          ],
          [
            143.7648920226176,
            -285.32164523580434
          ],
          [
            139.4564149362597,
            -287.0893997670781
          ],
          [
            134.2576412253487,
            -289.22735560713244
          ],
          [
            129.05886751524147,
            -291.3653001831869
          ],
          [
            123.860105067728,
            -293.5032560232579
          ],
          [
            120.1837819035731,
            -295.01511593636906
          ],
          [
            114.12748726673279,
            -291.69444602455627
          ],
          [
            109.69869717193185,
            -289.47984698876974
          ],
          [
            108.2224338069982,
            -288.74164731017424
          ],
          [
            107.48427578486272,
            -288.7416462211281
          ],
          [
            106.00790706125436,
            -289.47984154353924
          ],
          [
            103.79359103285992,
            -287.265245774891
          ]
        ]
      },
      "properties": {
        "type": "variant",
        "id": 3,
        "color": "#44ff44",
        "vzdal_m": 758,
        "prevyseni_m": 8,
        "cas_s": 204,
        "tempo_str": "4:29"
      }
    }
  ]
}