{
  "type": "FeatureCollection",
  "features": [
    {
      "type": "Feature",
      "geometry": {
        "type": "Point",
        "coordinates": [
          77.71093036697039,
          -34.81227563729387
        ]
      },
      "properties": {
        "type": "start",
        "isom": "111"
      }
    },
    {
      "type": "Feature",
      "geometry": {
        "type": "Point",
        "coordinates": [
          92.6149726000257,
          -40.85462308408203
        ]
      },
      "properties": {
        "type": "end",
        "isom": "204"
      }
    },
    {
      "type": "Feature",
      "geometry": {
        "type": "LineString",
        "coordinates": [
          [
            77.71264321511867,
            -34.84912426417319
          ],
          [
            78.08171694697437,
            -35.218231295491314
          ],
          [
            78.54306214490303,
            -35.58734284998634
          ],
          [
            79.28122174105064,
            -35.95646797401209
          ],
          [
            79.83484447127039,
            -36.141039582378774
          ],
          [
            80.48073563445408,
            -36.417887948574986
          ],
          [
            81.12662679763775,
            -36.694736314771205
          ],
          [
            81.58798109489359,
            -36.787031165308356
          ],
          [
            81.9570669591855,
            -36.78704925801598
          ],
          [
            82.41842125644132,
            -36.879344108553134
          ],
          [
            82.87976645437,
            -37.24845566304817
          ],
          [
            83.15657175326177,
            -37.525285936536754
          ],
          [
            83.52564245200841,
            -37.98666520250751
          ],
          [
            83.89471618386409,
            -38.35577223382563
          ],
          [
            84.35606744801088,
            -38.54033931901541
          ],
          [
            84.7251533123028,
            -38.54035741172303
          ],
          [
            85.46331290845038,
            -38.90948253574878
          ],
          [
            86.10920103852501,
            -39.27860313659762
          ],
          [
            86.57054926956273,
            -39.55544245644002
          ],
          [
            86.93961996830937,
            -40.016821722410775
          ],
          [
            87.40096516623805,
            -40.3859332769058
          ],
          [
            87.95459092956685,
            -40.47823265061986
          ],
          [
            88.60050029140486,
            -40.201447608900324
          ],
          [
            89.15413515406082,
            -40.01693027865651
          ],
          [
            89.7077760829349,
            -39.64786847910744
          ],
          [
            89.89232204818991,
            -39.55560529080863
          ],
          [
            89.98459351426288,
            -39.555609813985534
          ],
          [
            90.7227531104105,
            -39.92473493801128
          ],
          [
            91.18410134144821,
            -40.201574257853686
          ],
          [
            91.73772407166797,
            -40.38614586622037
          ],
          [
            92.38361523485165,
            -40.66299423241658
          ],
          [
            92.66042356685247,
            -40.847552271252546
          ]
        ]
      },
      "properties": {
        "type": "variant",
        "id": 1,
        "color": "#ff4444",
        "vzdal_m": 936,
        "prevyseni_m": 19,
        "cas_s": 232,
        "tempo_str": "4:07"
      }
    },
    {
      "type": "Feature",
      "geometry": {
        "type": "LineString",
        "coordinates": [
          [
            77.71264321511867,
            -34.84912426417319
          ],
          [
            78.08171694697437,
            -35.218231295491314
          ],
          [
            78.54306214490303,
            -35.58734284998634
          ],
          [
            79.28122174105064,
            -35.95646797401209
          ],
          [
            79.83484447127039,
            -36.141039582378774
          ],
          [
            80.48073563445408,
            -36.417887948574986
          ],
          [
            81.12662679763775,
            -36.694736314771205
          ],
          [
            81.58798109489359,
            -36.787031165308356
          ],
          [
            81.9570669591855,
            -36.78704925801598
          ],
          [
            82.3261528234774,
            -36.7870673507236
          ],
          [
            82.6952386877693,
            -36.78708544343122
          ],
          [
            83.06432455206122,
            -36.78710353613885
          ],
          [
            83.43341041635313,
            -36.78712162884647
          ],
          [
            83.89476471360896,
            -36.87941647938362
          ],
          [
            84.26385057790087,
            -36.87943457209124
          ],
          [
            84.63293644219277,
            -36.87945266479887
          ],
          [
            85.00202533959373,
            -36.78719852285386
          ],
          [
            85.46338570306767,
            -36.69494890408577
          ],
          [
            85.83247156735959,
            -36.6949669967934
          ],
          [
            86.29383193083352,
            -36.60271737802529
          ],
          [
            86.66291779512542,
            -36.60273547073292
          ],
          [
            87.21655265778139,
            -36.418218140489095
          ],
          [
            87.67791302125534,
            -36.325968521721
          ],
          [
            88.13927338472928,
            -36.2337189029529
          ],
          [
            88.50835924902118,
            -36.23373699566053
          ],
          [
            88.96971961249511,
            -36.141487376892435
          ],
          [
            89.33880547678703,
            -36.141505469600055
          ],
          [
            89.70789134107893,
            -36.141523562307675
          ],
          [
            90.07697720537085,
            -36.141541655015295
          ],
          [
            90.35379160358978,
            -36.14155522454601
          ],
          [
            90.53833150262668,
            -36.23383650555245
          ],
          [
            90.90740523448237,
            -36.602943536870576
          ],
          [
            91.27646683390185,
            -37.3411395067992
          ],
          [
            91.64552843332133,
            -38.07933547672783
          ],
          [
            91.83005316681296,
            -38.63297793099739
          ],
          [
            91.83004103437675,
            -39.002066869607894
          ],
          [
            91.83002890194052,
            -39.37115580821839
          ],
          [
            92.1068220683961,
            -40.01707502031749
          ],
          [
            92.47588670092462,
            -40.662998755593485
          ],
          [
            92.66042356685247,
            -40.847552271252546
          ]
        ]
      },
      "properties": {
        "type": "variant",
        "id": 2,
        "color": "#4444ff",
        "vzdal_m": 1012,
        "prevyseni_m": 20,
        "cas_s": 242,
        "tempo_str": "3:58"
      }
    },
    {
      "type": "Feature",
      "geometry": {
        "type": "LineString",
        "coordinates": [
          [
            77.71264321511867,
            -34.84912426417319
          ],
          [
            78.26627201155654,
            -34.84915140323462
          ],
          [
            78.72762630881236,
            -34.94144625377177
          ],
          [
            79.09671217310428,
            -34.9414643464794
          ],
          [
            79.46579803739618,
            -34.94148243918702
          ],
          [
            79.83488390168809,
            -34.94150053189464
          ],
          [
            80.20396976597999,
            -34.94151862460226
          ],
          [
            80.57305563027191,
            -34.94153671730989
          ],
          [
            81.12667836049167,
            -35.12610832567657
          ],
          [
            81.68030109071142,
            -35.31067993404326
          ],
          [
            82.23392382093117,
            -35.49525154240994
          ],
          [
            82.60300968522307,
            -35.495269635117566
          ],
          [
            82.97209554951499,
            -35.495287727825186
          ],
          [
            83.3411814138069,
            -35.49530582053281
          ],
          [
            83.7102672780988,
            -35.49532391324043
          ],
          [
            84.26389000831857,
            -35.679895521607115
          ],
          [
            84.63297587261047,
            -35.67991361431474
          ],
          [
            85.0943301698663,
            -35.77220846485189
          ],
          [
            85.83248976601391,
            -36.14133358887764
          ],
          [
            86.38611249623365,
            -36.325905197244325
          ],
          [
            86.84746679348949,
            -36.418200047781475
          ],
          [
            87.21655265778139,
            -36.418218140489095
          ],
          [
            87.58562942274614,
            -36.6950529371546
          ],
          [
            87.95470315460183,
            -37.06415996847272
          ],
          [
            88.2315084534936,
            -37.340990241961315
          ],
          [
            88.69286275074944,
            -37.43328509249847
          ],
          [
            89.33875391393312,
            -37.710133458694685
          ],
          [
            90.07691351008071,
            -38.079258582720435
          ],
          [
            90.44598724193641,
            -38.44836561403856
          ],
          [
            90.63052714097331,
            -38.54064689504499
          ],
          [
            90.90733243986509,
            -38.817477168533586
          ],
          [
            91.27639707239362,
            -39.463400903809585
          ],
          [
            91.46093697143051,
            -39.55568218481602
          ],
          [
            91.64547687046742,
            -39.64796346582246
          ],
          [
            92.01455060232311,
            -40.01707049714058
          ],
          [
            92.3836182679607,
            -40.570721997763954
          ],
          [
            92.66042356685247,
            -40.847552271252546
          ]
        ]
      },
      "properties": {
        "type": "variant",
        "id": 3,
        "color": "#44ff44",
        "vzdal_m": 921,
        "prevyseni_m": 14,
        "cas_s": 254,
        "tempo_str": "4:35"
      }
    }
  ]
}