{
  "type": "FeatureCollection",
  "features": [
    {
      "type": "Feature",
      "geometry": {
        "type": "Point",
        "coordinates": [
          95.36146008335007,
          -254.29894887276595
        ]
      },
      "properties": {
        "type": "start",
        "isom": "109"
      }
    },
    {
      "type": "Feature",
      "geometry": {
        "type": "Point",
        "coordinates": [
          116.71803554556965,
          -215.7449651719774
        ]
      },
      "properties": {
        "type": "end",
        "isom": "204"
      }
    },
    {
      "type": "Feature",
      "geometry": {
        "type": "LineString",
        "coordinates": [
          [
            95.44276726468924,
            -254.23977792604373
          ],
          [
            96.36550012407344,
            -253.68618974817971
          ],
          [
            96.5500551886556,
            -253.31710985580187
          ],
          [
            96.7346102532378,
            -252.94802996342398
          ],
          [
            97.47280624669413,
            -252.20988827049842
          ],
          [
            98.39554517229644,
            -251.47175562348795
          ],
          [
            99.13374116575277,
            -250.7336139305624
          ],
          [
            100.42555988942891,
            -250.18004384452857
          ],
          [
            101.71739074554125,
            -249.25738482020176
          ],
          [
            102.27104380685162,
            -248.5192340813611
          ],
          [
            103.19378273245391,
            -247.7811014343506
          ],
          [
            103.93197265969214,
            -247.22750421057154
          ],
          [
            104.67017471936657,
            -246.3048180484995
          ],
          [
            105.22384597933127,
            -245.0130339022194
          ],
          [
            106.14658490493356,
            -244.2749012552089
          ],
          [
            106.70023190002581,
            -243.7212949855147
          ],
          [
            106.8847808983899,
            -243.53675956228335
          ],
          [
            107.25387282889996,
            -243.35223318496705
          ],
          [
            107.9920748885744,
            -242.42954702289498
          ],
          [
            108.54573401610286,
            -241.50685181490786
          ],
          [
            109.0993810111951,
            -240.9532455452137
          ],
          [
            109.46830603119358,
            -240.38454884503807
          ],
          [
            110.99294238333736,
            -239.72061144867718
          ],
          [
            111.6613065984666,
            -238.90811875208186
          ],
          [
            112.42491573426813,
            -237.8179931180072
          ],
          [
            113.05065664924702,
            -236.5619812866582
          ],
          [
            113.57898979627929,
            -234.98519553691423
          ],
          [
            114.30905239449942,
            -233.49166707030562
          ],
          [
            115.14370341460612,
            -232.06040868054066
          ],
          [
            115.71982338183695,
            -231.01612724909722
          ],
          [
            115.8505280301982,
            -230.85768822305474
          ],
          [
            116.01191111364236,
            -230.47562068710891
          ],
          [
            115.92783953990084,
            -229.6963676261367
          ],
          [
            115.92786380477327,
            -228.95818974955077
          ],
          [
            115.74335120371785,
            -228.03545835790328
          ],
          [
            115.74336333615408,
            -227.6663694196103
          ],
          [
            115.55883253644434,
            -227.29727143540228
          ],
          [
            115.3743017367346,
            -226.92817345119425
          ],
          [
            114.6361785378956,
            -225.45178151436207
          ],
          [
            114.63620280276804,
            -224.71360363777617
          ],
          [
            114.82075786735024,
            -224.34452374539828
          ],
          [
            114.82078213222267,
            -223.60634586881235
          ],
          [
            114.82080639709513,
            -222.86816799222646
          ],
          [
            115.00537966033166,
            -221.94545469240916
          ],
          [
            115.37450192193225,
            -220.83820596936047
          ],
          [
            115.55905698651445,
            -220.46912607698258
          ],
          [
            115.74363024975098,
            -219.54641277716527
          ],
          [
            115.74365451462343,
            -218.80823490057935
          ],
          [
            115.92822777785996,
            -217.88552160076208
          ],
          [
            116.29733184080624,
            -217.3319062851528
          ],
          [
            116.48188690538842,
            -216.96282639277493
          ],
          [
            116.48191117026087,
            -216.224648516189
          ],
          [
            116.66647230106116,
            -215.67102415466468
          ]
        ]
      },
      "properties": {
        "type": "variant",
        "id": 1,
        "color": "#ff4444",
        "vzdal_m": 1294,
        "prevyseni_m": 33,
        "cas_s": 383,
        "tempo_str": "4:56"
      }
    },
    {
      "type": "Feature",
      "geometry": {
        "type": "LineString",
        "coordinates": [
          [
            95.44276726468924,
            -254.23977792604373
          ],
          [
            95.44279152956167,
            -253.50160004945783
          ],
          [
            95.6273587265801,
            -252.763431218787
          ],
          [
            96.36557291869076,
            -251.47165611842198
          ],
          [
            97.10376891214707,
            -250.73351442549642
          ],
          [
            97.84197097182154,
            -249.81082826342438
          ],
          [
            98.5801851639322,
            -248.51905316305937
          ],
          [
            98.94930742553281,
            -247.41180444001066
          ],
          [
            99.13388068876932,
            -246.48909114019338
          ],
          [
            99.87209488087998,
            -245.19731603982834
          ],
          [
            100.42574794219036,
            -244.45916530098773
          ],
          [
            101.53303586615674,
            -243.53649723074582
          ],
          [
            102.2712561244855,
            -242.06017766123435
          ],
          [
            103.00946425037806,
            -240.95294703001585
          ],
          [
            103.19401931496026,
            -240.58386713763795
          ],
          [
            103.37857437954246,
            -240.2147872452601
          ],
          [
            103.56312944412464,
            -239.84570735288221
          ],
          [
            104.11677643921689,
            -239.29210108318802
          ],
          [
            104.30133150379909,
            -238.92302119081018
          ],
          [
            104.67042343430913,
            -238.73849481349387
          ],
          [
            105.40864369263791,
            -237.26217524398237
          ],
          [
            105.77776595423853,
            -236.15492652093369
          ],
          [
            106.14688821583914,
            -235.04767779788497
          ],
          [
            106.70054127714948,
            -234.3095270590443
          ],
          [
            107.43874333682392,
            -233.38684089697227
          ],
          [
            107.80784133355209,
            -233.0177700505095
          ],
          [
            108.17693326406214,
            -232.8332436731932
          ],
          [
            108.73057419293629,
            -232.4641818726455
          ],
          [
            108.91512925751847,
            -232.0951019802676
          ],
          [
            109.46879445126507,
            -230.98786230313402
          ],
          [
            109.65334951584724,
            -230.61878241075613
          ],
          [
            110.39156370795791,
            -229.32700731039114
          ],
          [
            110.94524103414071,
            -227.85067869496456
          ],
          [
            111.86798602596114,
            -226.9280015788076
          ],
          [
            112.05255928919766,
            -226.00528827899032
          ],
          [
            112.0525835540701,
            -225.2671104024044
          ],
          [
            112.23715681730664,
            -224.34439710258707
          ],
          [
            112.23716288352475,
            -224.1598526334406
          ],
          [
            112.23716894974285,
            -223.97530816429412
          ],
          [
            112.23717501596096,
            -223.79076369514763
          ],
          [
            112.42173008054316,
            -223.4216838027698
          ],
          [
            112.4217482791975,
            -222.86805039533036
          ],
          [
            112.79084020970755,
            -222.68352401801405
          ],
          [
            113.15993214021759,
            -222.49899764069772
          ],
          [
            113.34447507236357,
            -222.49900668661283
          ],
          [
            113.52903013694576,
            -222.12992679423493
          ],
          [
            114.08268926447423,
            -221.20723158624784
          ],
          [
            114.26724432905642,
            -220.83815169386995
          ],
          [
            115.0054645873852,
            -219.36183212435847
          ],
          [
            115.74367271327775,
            -218.25460149313992
          ],
          [
            116.29733184080624,
            -217.3319062851528
          ],
          [
            116.48188690538842,
            -216.96282639277493
          ],
          [
            116.48191117026087,
            -216.224648516189
          ],
          [
            116.66647230106116,
            -215.67102415466468
          ]
        ]
      },
      "properties": {
        "type": "variant",
        "id": 2,
        "color": "#4444ff",
        "vzdal_m": 1232,
        "prevyseni_m": 36,
        "cas_s": 403,
        "tempo_str": "5:27"
      }
    },
    {
      "type": "Feature",
      "geometry": {
        "type": "LineString",
        "coordinates": [
          [
            95.44276726468924,
            -254.23977792604373
          ],
          [
            95.44279152956167,
            -253.50160004945783
          ],
          [
            95.44281579443413,
            -252.7634221728719
          ],
          [
            95.44284005930656,
            -252.025244296286
          ],
          [
            95.44286432417901,
            -251.28706641970007
          ],
          [
            95.44288858905145,
            -250.54888854311417
          ],
          [
            95.44291285392391,
            -249.81071066652825
          ],
          [
            95.44293711879635,
            -249.07253278994233
          ],
          [
            95.81205938039695,
            -247.96528406689364
          ],
          [
            96.36571850792544,
            -247.0425888589065
          ],
          [
            96.55027963872573,
            -246.48896449738217
          ],
          [
            96.73483470330792,
            -246.1198846050043
          ],
          [
            96.91938370167202,
            -245.9353491817729
          ],
          [
            97.10396303112665,
            -244.82809141280913
          ],
          [
            97.1039872959991,
            -244.0899135362232
          ],
          [
            97.28854236058129,
            -243.7208336438453
          ],
          [
            97.2885484267994,
            -243.53628917469885
          ],
          [
            97.4731034913816,
            -243.16720928232098
          ],
          [
            98.21132374971037,
            -241.69088971280948
          ],
          [
            98.58044601131098,
            -240.5836409897608
          ],
          [
            98.7650192745475,
            -239.6609276899435
          ],
          [
            98.76504353941995,
            -238.9227498133576
          ],
          [
            98.94959860400213,
            -238.5536699209797
          ],
          [
            98.94961073643836,
            -238.18458098268675
          ],
          [
            99.13416580102056,
            -237.81550109030889
          ],
          [
            99.134190065893,
            -237.077323213723
          ],
          [
            99.31876332912954,
            -236.15460991390566
          ],
          [
            99.26004097231846,
            -235.44261724512705
          ],
          [
            99.5033487248023,
            -234.86280767579538
          ],
          [
            100.61063058255056,
            -234.1246840747
          ],
          [
            101.71791244029883,
            -233.38656047360462
          ],
          [
            102.45610843375516,
            -232.648418780679
          ],
          [
            103.00975542884741,
            -232.09481251098487
          ],
          [
            103.19431049342958,
            -231.725732618607
          ],
          [
            103.1943165596477,
            -231.5411881494605
          ],
          [
            103.3788716242299,
            -231.17210825708267
          ],
          [
            103.5634266888121,
            -230.80302836470477
          ],
          [
            104.85525147870634,
            -230.06491380952446
          ],
          [
            105.4089045400167,
            -229.3267630706838
          ],
          [
            106.331643465619,
            -228.5886304236733
          ],
          [
            107.06983945907533,
            -227.85048873074774
          ],
          [
            107.80806578362221,
            -226.1896246920898
          ],
          [
            108.54626177707856,
            -225.45148299916426
          ],
          [
            109.09990877217079,
            -224.89787672947006
          ],
          [
            109.46900070268084,
            -224.71335035215375
          ],
          [
            110.39173962828316,
            -223.97521770514325
          ],
          [
            111.12992955552136,
            -223.4216204813642
          ],
          [
            111.31447248766733,
            -223.42162952727926
          ],
          [
            111.68356441817738,
            -223.23710314996296
          ],
          [
            112.4217482791975,
            -222.86805039533036
          ],
          [
            112.79084020970755,
            -222.68352401801405
          ],
          [
            113.15993214021759,
            -222.49899764069772
          ],
          [
            113.34447507236357,
            -222.49900668661283
          ],
          [
            113.52903013694576,
            -222.12992679423493
          ],
          [
            114.08268926447423,
            -221.20723158624784
          ],
          [
            114.26724432905642,
            -220.83815169386995
          ],
          [
            115.0054645873852,
            -219.36183212435847
          ],
          [
            115.74367271327775,
            -218.25460149313992
          ],
          [
            116.29733184080624,
            -217.3319062851528
          ],
          [
            116.48188690538842,
            -216.96282639277493
          ],
          [
            116.48191117026087,
            -216.224648516189
          ],
          [
            116.66647230106116,
            -215.67102415466468
          ]
        ]
      },
      "properties": {
        "type": "variant",
        "id": 3,
        "color": "#44ff44",
        "vzdal_m": 1275,
        "prevyseni_m": 41,
        "cas_s": 399,
        "tempo_str": "5:12"
      }
    }
  ]
}