{
  "type": "FeatureCollection",
  "features": [
    {
      "type": "Feature",
      "geometry": {
        "type": "Point",
        "coordinates": [
          146.05304519067573,
          -213.76439551200636
        ]
      },
      "properties": {
        "type": "start",
        "isom": "417"
      }
    },
    {
      "type": "Feature",
      "geometry": {
        "type": "Point",
        "coordinates": [
          142.68689799121944,
          -182.63859120505637
        ]
      },
      "properties": {
        "type": "end",
        "isom": "417"
      }
    },
    {
      "type": "Feature",
      "geometry": {
        "type": "LineString",
        "coordinates": [
          [
            146.0088591744517,
            -213.8270177636986
          ],
          [
            145.45527284154056,
            -212.535179341928
          ],
          [
            145.455297106413,
            -211.79700146534208
          ],
          [
            145.0862355069935,
            -211.058805496926
          ],
          [
            145.27080877023005,
            -210.13609219710867
          ],
          [
            145.27083303510247,
            -209.39791432052274
          ],
          [
            144.90177750190108,
            -208.47517388296023
          ],
          [
            144.16069180650547,
            -207.5515717756061
          ],
          [
            144.1636543030621,
            -206.99878194612805
          ],
          [
            144.3482093676443,
            -206.62970205375015
          ],
          [
            144.5327644322265,
            -206.2606221613723
          ],
          [
            144.7173194968087,
            -205.8915422689944
          ],
          [
            144.90187456139088,
            -205.52246237661657
          ],
          [
            144.71736196033547,
            -204.59973098496906
          ],
          [
            144.71738622520792,
            -203.86155310838316
          ],
          [
            144.71741049008037,
            -203.12337523179724
          ],
          [
            144.7174347549528,
            -202.38519735521132
          ],
          [
            144.71745901982524,
            -201.64701947862542
          ],
          [
            144.53294035255172,
            -200.90883255612442
          ],
          [
            144.34840955284199,
            -200.53973457191637
          ],
          [
            144.3484156190601,
            -200.35519010276988
          ],
          [
            144.16388481935033,
            -199.98609211856186
          ],
          [
            144.34845808258686,
            -199.06337881874452
          ],
          [
            144.1639333490952,
            -198.50973636539004
          ],
          [
            144.34850661233173,
            -197.5870230655727
          ],
          [
            144.16399401127634,
            -196.66429167392525
          ],
          [
            143.6104076783652,
            -195.37245325215466
          ],
          [
            143.05682134545407,
            -194.080614830384
          ],
          [
            142.87230874439865,
            -193.15788343873655
          ],
          [
            142.8723330092711,
            -192.41970556215065
          ],
          [
            142.68782040821569,
            -191.49697417050314
          ],
          [
            142.8723876052341,
            -190.75880533983235
          ],
          [
            142.68786893796056,
            -190.02061841733132
          ],
          [
            142.687893202833,
            -189.2824405407454
          ],
          [
            142.5033745355595,
            -188.5442536182444
          ],
          [
            142.68794173257788,
            -187.80608478757358
          ],
          [
            142.68796599745036,
            -187.06790691098766
          ],
          [
            142.87253319446876,
            -186.32973808031684
          ],
          [
            142.68801452719524,
            -185.59155115781584
          ],
          [
            142.6880387920677,
            -184.85337328122992
          ],
          [
            142.50352012479416,
            -184.11518635872892
          ],
          [
            142.68808732181256,
            -183.37701752805808
          ],
          [
            142.68811158668504,
            -182.63883965147218
          ]
        ]
      },
      "properties": {
        "type": "variant",
        "id": 1,
        "color": "#ff4444",
        "vzdal_m": 882,
        "prevyseni_m": 40,
        "cas_s": 301,
        "tempo_str": "5:41"
      }
    },
    {
      "type": "Feature",
      "geometry": {
        "type": "LineString",
        "coordinates": [
          [
            146.0088591744517,
            -213.8270177636986
          ],
          [
            145.45527284154056,
            -212.535179341928
          ],
          [
            145.455297106413,
            -211.79700146534208
          ],
          [
            145.08624157321162,
            -210.8742610277795
          ],
          [
            145.27080877023005,
            -210.13609219710867
          ],
          [
            145.63993103183066,
            -209.02884347405998
          ],
          [
            146.20041792934663,
            -208.05586800156757
          ],
          [
            146.93179221903358,
            -207.1834621040008
          ],
          [
            147.67001247736232,
            -205.70714253448932
          ],
          [
            148.223683737327,
            -204.41535838820923
          ],
          [
            148.22370800219946,
            -203.6771805116233
          ],
          [
            148.59283026380007,
            -202.56993178857462
          ],
          [
            148.7774035270366,
            -201.64721848875735
          ],
          [
            148.77742779190905,
            -200.90904061217142
          ],
          [
            148.7774520567815,
            -200.1708627355855
          ],
          [
            148.96201925379992,
            -199.43269390491466
          ],
          [
            148.77750058652637,
            -198.69450698241369
          ],
          [
            148.77752485139885,
            -197.95632910582776
          ],
          [
            148.77754911627127,
            -197.21815122924184
          ],
          [
            148.77757338114372,
            -196.47997335265595
          ],
          [
            148.77759764601618,
            -195.74179547607002
          ],
          [
            148.77762191088863,
            -195.0036175994841
          ],
          [
            148.77764617576105,
            -194.2654397228982
          ],
          [
            148.96221943899758,
            -193.34272642308088
          ],
          [
            148.59315783957808,
            -192.60453045466477
          ],
          [
            148.03956544044885,
            -191.49723650204066
          ],
          [
            147.30143010917362,
            -190.38993350350142
          ],
          [
            146.93237457597223,
            -189.46719306593886
          ],
          [
            146.37877004440676,
            -188.72898805160767
          ],
          [
            146.3787882430611,
            -188.17535464416824
          ],
          [
            145.6406650442221,
            -186.69896270733608
          ],
          [
            144.9025297129469,
            -185.59165970879687
          ],
          [
            144.16438831545358,
            -184.66890117940414
          ],
          [
            143.42625298417835,
            -183.5615981808649
          ],
          [
            142.68811158668504,
            -182.63883965147218
          ]
        ]
      },
      "properties": {
        "type": "variant",
        "id": 2,
        "color": "#4444ff",
        "vzdal_m": 925,
        "prevyseni_m": 35,
        "cas_s": 303,
        "tempo_str": "5:28"
      }
    },
    {
      "type": "Feature",
      "geometry": {
        "type": "LineString",
        "coordinates": [
          [
            146.0088591744517,
            -213.8270177636986
          ],
          [
            145.27071171074027,
            -213.08880370345233
          ],
          [
            144.5325642470288,
            -212.3505896432061
          ],
          [
            143.47987426421744,
            -211.13069735944757
          ],
          [
            143.288704124831,
            -211.00377724560565
          ],
          [
            142.98759824980112,
            -210.74125021868488
          ],
          [
            142.1805813902921,
            -210.07985996442977
          ],
          [
            141.30580883145194,
            -209.50162716269554
          ],
          [
            140.2169289435056,
            -208.7197269720549
          ],
          [
            139.53315410097554,
            -207.9283050540058
          ],
          [
            139.11300329104827,
            -206.78052651911923
          ],
          [
            138.65712267338347,
            -206.48681555346354
          ],
          [
            138.26654094339654,
            -206.40534219720192
          ],
          [
            137.73598965146886,
            -206.2946719043961
          ],
          [
            137.34498278794965,
            -206.21418707363674
          ],
          [
            136.5569319872811,
            -205.89862289421782
          ],
          [
            136.54847727238263,
            -205.15571897218712
          ],
          [
            136.50602036856813,
            -204.42057257036578
          ],
          [
            136.51042829939954,
            -203.66448183027214
          ],
          [
            136.63683133566335,
            -202.73482652538132
          ],
          [
            136.7488371398118,
            -202.00729649073193
          ],
          [
            136.9229454670974,
            -201.31241885563642
          ],
          [
            137.01973255816077,
            -200.92160128109452
          ],
          [
            137.1418271998918,
            -200.3764579662119
          ],
          [
            137.18949246904683,
            -199.99047117966708
          ],
          [
            137.41194204744622,
            -198.85639938037477
          ],
          [
            137.5537102199901,
            -198.14694285897215
          ],
          [
            137.6633106911785,
            -197.403043949831
          ],
          [
            137.66428559505772,
            -196.66397307158303
          ],
          [
            137.6897562460947,
            -196.3231017141203
          ],
          [
            137.72870842869574,
            -195.9264474748705
          ],
          [
            137.74722272400152,
            -195.18819142438883
          ],
          [
            137.81205515700415,
            -194.43354256281148
          ],
          [
            137.70337862771302,
            -193.71152809228178
          ],
          [
            137.53800767584409,
            -193.03496800848217
          ],
          [
            137.88966777511177,
            -192.60400579158977
          ],
          [
            138.07424103834828,
            -191.6812924917725
          ],
          [
            138.07425923700262,
            -191.12765908433306
          ],
          [
            138.25881430158483,
            -190.75857919195516
          ],
          [
            138.25882643402105,
            -190.38949025366222
          ],
          [
            138.44338149860323,
            -190.02041036128432
          ],
          [
            138.44338756482134,
            -189.83586589213786
          ],
          [
            138.44339363103947,
            -189.65132142299137
          ],
          [
            138.2588628313297,
            -189.28222343878335
          ],
          [
            138.25888709620216,
            -188.5440455621974
          ],
          [
            138.25889922863837,
            -188.17495662390445
          ],
          [
            138.44345429322055,
            -187.80587673152658
          ],
          [
            138.81256442238495,
            -187.06771694677084
          ],
          [
            138.99711948696716,
            -186.69863705439298
          ],
          [
            139.18167455154935,
            -186.32955716201508
          ],
          [
            139.73531548042348,
            -185.9604953614674
          ],
          [
            140.10440741093353,
            -185.7759689841511
          ],
          [
            140.84260947060798,
            -184.85328282207905
          ],
          [
            141.39626253191832,
            -184.1151320832384
          ],
          [
            142.31900145752064,
            -183.37699943622792
          ],
          [
            142.68811158668504,
            -182.63883965147218
          ]
        ]
      },
      "properties": {
        "type": "variant",
        "id": 3,
        "color": "#44ff44",
        "vzdal_m": 1030,
        "prevyseni_m": 34,
        "cas_s": 306,
        "tempo_str": "4:56"
      }
    }
  ]
}