{
  "type": "FeatureCollection",
  "features": [
    {
      "type": "Feature",
      "geometry": {
        "type": "Point",
        "coordinates": [
          55.55893434141759,
          -23.778574954222496
        ]
      },
      "properties": {
        "type": "start",
        "isom": "109"
      }
    },
    {
      "type": "Feature",
      "geometry": {
        "type": "Point",
        "coordinates": [
          41.02057871065363,
          -43.96604055335711
        ]
      },
      "properties": {
        "type": "end",
        "isom": "417"
      }
    },
    {
      "type": "Feature",
      "geometry": {
        "type": "LineString",
        "coordinates": [
          [
            55.4781428005627,
            -23.83351747285172
          ],
          [
            55.47809012122535,
            -24.571714973355025
          ],
          [
            55.29348476651978,
            -25.494461576722635
          ],
          [
            54.92435307611469,
            -26.232658532702892
          ],
          [
            54.739787230912135,
            -26.601757010693024
          ],
          [
            54.370629200838366,
            -27.709052716924933
          ],
          [
            54.370576521501015,
            -28.44725021742824
          ],
          [
            54.37052384216367,
            -29.18544771793155
          ],
          [
            54.370510672329324,
            -29.369997093057375
          ],
          [
            54.18594482712677,
            -29.739095571047503
          ],
          [
            53.26316828045138,
            -30.846390460494842
          ],
          [
            52.34040490361032,
            -31.769135974816354
          ],
          [
            51.60214152280012,
            -33.24552988677687
          ],
          [
            50.863878141989915,
            -34.721923798737386
          ],
          [
            50.12561476117972,
            -36.1983177106979
          ],
          [
            49.01833821847346,
            -36.75196420250624
          ],
          [
            48.28012751700061,
            -37.49016061396344
          ],
          [
            47.17283780446001,
            -38.2283564808976
          ],
          [
            46.619192948189706,
            -38.597454414364684
          ],
          [
            46.06556126175375,
            -38.78200297270594
          ],
          [
            45.327324220612226,
            -39.8892981344148
          ],
          [
            44.589100349305035,
            -40.81204392099784
          ],
          [
            44.40453450410249,
            -41.181142398987966
          ],
          [
            43.11271845586235,
            -41.73478861853477
          ],
          [
            42.92813944082546,
            -42.28843647165073
          ],
          [
            42.559047259923375,
            -42.47298530225351
          ],
          [
            42.374494584555165,
            -42.657534405117815
          ],
          [
            41.933167652912424,
            -42.917726520798254
          ],
          [
            41.082625856977685,
            -43.949378125167925
          ]
        ]
      },
      "properties": {
        "type": "variant",
        "id": 1,
        "color": "#ff4444",
        "vzdal_m": 709,
        "prevyseni_m": 6,
        "cas_s": 193,
        "tempo_str": "4:32"
      }
    },
    {
      "type": "Feature",
      "geometry": {
        "type": "LineString",
        "coordinates": [
          [
            55.4781428005627,
            -23.83351747285172
          ],
          [
            54.3708530880221,
            -24.57171333978588
          ],
          [
            54.001760907120016,
            -24.75626217038866
          ],
          [
            53.81719506191746,
            -25.125360648378788
          ],
          [
            53.63262921671492,
            -25.49445912636892
          ],
          [
            53.26353703581283,
            -25.679007956971695
          ],
          [
            52.52535267400866,
            -26.04810561817725
          ],
          [
            52.3407868288061,
            -26.417204096167378
          ],
          [
            51.60257612733326,
            -27.15540050762459
          ],
          [
            51.23348394643118,
            -27.339949338227367
          ],
          [
            50.49528641479266,
            -27.893596374558747
          ],
          [
            49.018917691184306,
            -28.631791696969863
          ],
          [
            48.64982551028223,
            -28.816340527572642
          ],
          [
            47.9115884691407,
            -29.9236356892815
          ],
          [
            47.1733250883305,
            -31.400029601242018
          ],
          [
            46.8041933979254,
            -32.138226557222275
          ],
          [
            46.619627552722854,
            -32.5073250352124
          ],
          [
            46.250482692483416,
            -33.43007136631849
          ],
          [
            46.250430013146065,
            -34.1682688668218
          ],
          [
            45.69671930770408,
            -35.46011367591801
          ],
          [
            44.958455926893876,
            -36.93650758787853
          ],
          [
            45.51198225465514,
            -38.22835403054388
          ],
          [
            45.51192957531779,
            -38.966551531047195
          ],
          [
            45.327324220612226,
            -39.8892981344148
          ],
          [
            44.589100349305035,
            -40.81204392099784
          ],
          [
            44.40453450410249,
            -41.181142398987966
          ],
          [
            43.66635014229831,
            -41.550240060193524
          ],
          [
            43.11271845586235,
            -41.73478861853477
          ],
          [
            42.92813944082546,
            -42.28843647165073
          ],
          [
            42.559047259923375,
            -42.47298530225351
          ],
          [
            42.374494584555165,
            -42.657534405117815
          ],
          [
            41.933167652912424,
            -42.917726520798254
          ],
          [
            41.082625856977685,
            -43.949378125167925
          ]
        ]
      },
      "properties": {
        "type": "variant",
        "id": 2,
        "color": "#4444ff",
        "vzdal_m": 728,
        "prevyseni_m": 9,
        "cas_s": 200,
        "tempo_str": "4:34"
      }
    },
    {
      "type": "Feature",
      "geometry": {
        "type": "LineString",
        "coordinates": [
          [
            55.4781428005627,
            -23.83351747285172
          ],
          [
            55.478037441888,
            -25.309912473858333
          ],
          [
            56.400682290220026,
            -26.04811133566926
          ],
          [
            56.58519545608522,
            -26.417210358182437
          ],
          [
            56.58514277674787,
            -27.155407858685745
          ],
          [
            56.58509009741052,
            -27.89360535918905
          ],
          [
            57.13861642517178,
            -29.18545180185441
          ],
          [
            57.84880409325976,
            -30.57381969120403
          ],
          [
            57.651573826341554,
            -30.925137926591976
          ],
          [
            57.45595920828735,
            -31.285546212321474
          ],
          [
            57.26363880565619,
            -31.650555846889805
          ],
          [
            57.071318402623135,
            -32.01557111345811
          ],
          [
            56.8789923682932,
            -32.38058074801813
          ],
          [
            56.68667196566206,
            -32.745590382586464
          ],
          [
            56.494345930930216,
            -33.11060564914646
          ],
          [
            55.733883339639526,
            -34.57374180041663
          ],
          [
            55.00018157857132,
            -36.05092419910351
          ],
          [
            54.17751337432514,
            -37.4841881307366
          ],
          [
            53.37435762680622,
            -38.5421975648955
          ],
          [
            52.729841987132765,
            -39.35245555425256
          ],
          [
            51.88191418070948,
            -40.56905077762223
          ],
          [
            51.24372712099821,
            -41.55745456749111
          ],
          [
            50.83139575110266,
            -42.201574532172174
          ],
          [
            50.309719662180456,
            -42.288447362111704
          ],
          [
            49.571522130541936,
            -42.84209439844309
          ],
          [
            48.83331142906909,
            -43.5802908099003
          ],
          [
            47.74835200045576,
            -44.467937461087395
          ],
          [
            46.81963536864426,
            -44.609209178245145
          ],
          [
            45.890521584710825,
            -44.75212543880934
          ],
          [
            44.96141061662678,
            -44.89504169937768
          ],
          [
            44.037722302293396,
            -44.652791121730274
          ],
          [
            43.1574493220765,
            -44.086908993634864
          ],
          [
            42.92800774248209,
            -44.133930222909
          ],
          [
            42.55891556158,
            -44.31847905351177
          ],
          [
            41.45170486804543,
            -43.94937866969098
          ],
          [
            41.082625856977685,
            -43.949378125167925
          ]
        ]
      },
      "properties": {
        "type": "variant",
        "id": 3,
        "color": "#44ff44",
        "vzdal_m": 859,
        "prevyseni_m": 11,
        "cas_s": 223,
        "tempo_str": "4:19"
      }
    }
  ]
}