{
  "type": "FeatureCollection",
  "features": [
    {
      "type": "Feature",
      "geometry": {
        "type": "Point",
        "coordinates": [
          46.98105689239075,
          -72.87126815738435
        ]
      },
      "properties": {
        "type": "start",
        "isom": "204"
      }
    },
    {
      "type": "Feature",
      "geometry": {
        "type": "Point",
        "coordinates": [
          42.96826209405334,
          -138.72602191558806
        ]
      },
      "properties": {
        "type": "end",
        "isom": "204"
      }
    },
    {
      "type": "Feature",
      "geometry": {
        "type": "LineString",
        "coordinates": [
          [
            47.00876037071807,
            -72.80812829851166
          ],
          [
            47.56237519887297,
            -73.5463589325014
          ],
          [
            48.30052350265279,
            -74.65370195671589
          ],
          [
            48.3004947000926,
            -75.39191503008483
          ],
          [
            48.300465897532405,
            -76.13012810345379
          ],
          [
            48.48497777123718,
            -77.05290029870524
          ],
          [
            48.484948968676996,
            -77.79111337207418
          ],
          [
            48.4849201661168,
            -78.52932644544313
          ],
          [
            48.4848913635566,
            -79.26753951881209
          ],
          [
            48.66942483918154,
            -79.63665190903683
          ],
          [
            49.22301806541628,
            -80.92854234805328
          ],
          [
            49.96115196791601,
            -82.40499190895224
          ],
          [
            50.699285870415736,
            -83.88144146985121
          ],
          [
            51.068360022305654,
            -84.43511298195845
          ],
          [
            51.806537128645665,
            -84.80424293280399
          ],
          [
            51.991077804910645,
            -84.9888020546865
          ],
          [
            52.17561128053558,
            -85.35791444491124
          ],
          [
            52.36014475616051,
            -85.72702683513599
          ],
          [
            52.729197306130274,
            -86.83435815226993
          ],
          [
            53.09824985610005,
            -87.9416894694039
          ],
          [
            53.467302406069805,
            -89.04902078653784
          ],
          [
            53.6518142797746,
            -89.97179298178929
          ],
          [
            54.020866829744364,
            -91.07912429892326
          ],
          [
            53.83630455155923,
            -91.44822498206746
          ],
          [
            53.46718719582903,
            -92.00187308001364
          ],
          [
            53.28263211828395,
            -92.18642049481561
          ],
          [
            53.09806984009883,
            -92.55552117795982
          ],
          [
            52.35984232927847,
            -93.47826410550994
          ],
          [
            52.17528005109334,
            -93.84736478865413
          ],
          [
            51.99071777290821,
            -94.21646547179834
          ],
          [
            52.175229646613005,
            -95.13923766704978
          ],
          [
            52.17520084405281,
            -95.87745074041872
          ],
          [
            52.17517204149261,
            -96.61566381378768
          ],
          [
            52.17514323893242,
            -97.35387688715662
          ],
          [
            52.175114436372226,
            -98.09208996052557
          ],
          [
            52.17510723573218,
            -98.27664322886781
          ],
          [
            51.9905233556269,
            -99.19940371703873
          ],
          [
            51.9905089543468,
            -99.56851025372322
          ],
          [
            51.252259841606296,
            -101.04491298630003
          ],
          [
            50.51401072886579,
            -102.52131571887685
          ],
          [
            50.513981926305604,
            -103.25952879224579
          ],
          [
            50.5139531237454,
            -103.99774186561474
          ],
          [
            50.14481416609505,
            -105.10504976858765
          ],
          [
            49.4065578527145,
            -106.76600576950669
          ],
          [
            48.66833034189414,
            -107.6887486970568
          ],
          [
            47.93008122915363,
            -109.16515142963364
          ],
          [
            47.930038025313344,
            -110.27247103968706
          ],
          [
            47.745454145208065,
            -111.19523152785797
          ],
          [
            47.191760110012645,
            -112.48708684563282
          ],
          [
            47.19173130745245,
            -113.22529991900177
          ],
          [
            47.19170250489225,
            -113.96351299237071
          ],
          [
            47.19167370233206,
            -114.70172606573966
          ],
          [
            47.00709702286683,
            -115.43993328556834
          ],
          [
            47.191616097211664,
            -116.17815221247756
          ],
          [
            47.19158729465148,
            -116.91636528584651
          ],
          [
            47.37610636899631,
            -117.65458421275572
          ],
          [
            47.19152968953108,
            -118.3927914325844
          ],
          [
            47.19150088697089,
            -119.13100450595334
          ],
          [
            47.56055343694065,
            -120.23833582308731
          ],
          [
            48.29870894136053,
            -121.16112557895957
          ],
          [
            49.0368500445003,
            -122.45302187151628
          ],
          [
            48.85226616439503,
            -123.3757823596872
          ],
          [
            48.85223736183484,
            -124.11399543305615
          ],
          [
            48.85220855927464,
            -124.85220850642509
          ],
          [
            48.85217975671445,
            -125.59042157979404
          ],
          [
            48.48304079906409,
            -126.69772948276695
          ],
          [
            47.744791686323595,
            -128.17413221534377
          ],
          [
            47.00654257358309,
            -129.65053494792056
          ],
          [
            46.82198029539796,
            -130.0196356310648
          ],
          [
            45.53010915386251,
            -130.9423609979941
          ],
          [
            44.97642231930713,
            -132.04966304742672
          ],
          [
            44.79183123856181,
            -133.15697680393987
          ],
          [
            44.42269948155151,
            -134.07973143857052
          ],
          [
            43.499916893186075,
            -135.1870217809226
          ],
          [
            43.3153330130808,
            -136.10978226909353
          ],
          [
            43.31529700988056,
            -137.03254861080472
          ],
          [
            43.130720330415336,
            -137.7707558306334
          ],
          [
            42.946136450310064,
            -138.6935163188043
          ]
        ]
      },
      "properties": {
        "type": "variant",
        "id": 1,
        "color": "#ff4444",
        "vzdal_m": 1949,
        "prevyseni_m": 70,
        "cas_s": 644,
        "tempo_str": "5:30"
      }
    },
    {
      "type": "Feature",
      "geometry": {
        "type": "LineString",
        "coordinates": [
          [
            47.00876037071807,
            -72.80812829851166
          ],
          [
            47.008745969437975,
            -73.17723483519613
          ],
          [
            46.824183691252856,
            -73.54633551834033
          ],
          [
            46.63962141306772,
            -73.91543620148454
          ],
          [
            46.455059134882596,
            -74.28453688462875
          ],
          [
            46.27049685669747,
            -74.65363756777296
          ],
          [
            45.71680282150204,
            -75.94549288554781
          ],
          [
            45.532240543316924,
            -76.31459356869202
          ],
          [
            45.34767826513179,
            -76.68369425183623
          ],
          [
            45.163115986946664,
            -77.05279493498043
          ],
          [
            45.163108786306616,
            -77.23734820332267
          ],
          [
            44.60941475111119,
            -78.52920352109753
          ],
          [
            44.42485247292606,
            -78.89830420424173
          ],
          [
            43.68663216274575,
            -79.6364938634496
          ],
          [
            42.948411852565435,
            -80.37468352265749
          ],
          [
            42.76382797246017,
            -81.2974440108284
          ],
          [
            42.763813571180066,
            -81.66655054751287
          ],
          [
            42.57925129299495,
            -82.03565123065708
          ],
          [
            42.579222490434745,
            -82.77386430402602
          ],
          [
            42.2100835327844,
            -83.88117220699891
          ],
          [
            41.28729374377892,
            -85.17301581769323
          ],
          [
            41.287264941218716,
            -85.91122889106218
          ],
          [
            41.102681061113444,
            -86.8339893792331
          ],
          [
            40.91809718100817,
            -87.75674986740401
          ],
          [
            40.73352050154295,
            -88.49495708723269
          ],
          [
            40.54895822335783,
            -88.86405777037689
          ],
          [
            39.810723511897415,
            -89.97135396626925
          ],
          [
            39.07248159979696,
            -91.26320343050384
          ],
          [
            38.88791932161183,
            -91.63230411364805
          ],
          [
            38.703357043426706,
            -92.00140479679224
          ],
          [
            38.51879476524158,
            -92.37050547993645
          ],
          [
            38.07241896603817,
            -92.9060832902939
          ],
          [
            37.99608774233654,
            -93.66236178056589
          ],
          [
            37.79998479042269,
            -94.77369087264091
          ],
          [
            37.60992669495417,
            -95.695319131302
          ],
          [
            37.528414964631544,
            -96.42875358343758
          ],
          [
            37.67109714278402,
            -97.23719807256794
          ],
          [
            38.4317941259302,
            -98.3872276403109
          ],
          [
            39.200335398128985,
            -99.41913502944017
          ],
          [
            39.854434911660285,
            -100.46252831100962
          ],
          [
            40.28297592695873,
            -101.18468091084193
          ],
          [
            40.471249469807006,
            -101.54227010464706
          ],
          [
            40.66197822102282,
            -101.90815548730754
          ],
          [
            40.85270697245839,
            -102.27403523784925
          ],
          [
            41.043435723674214,
            -102.63992062050973
          ],
          [
            41.23416447510978,
            -103.00580037105142
          ],
          [
            41.358892938678466,
            -103.2123622839134
          ],
          [
            41.58197248421239,
            -103.55648618567363
          ],
          [
            41.80505202952658,
            -103.90061571955265
          ],
          [
            41.97959281526202,
            -104.3108140994129
          ],
          [
            42.1323052527412,
            -104.69265406879873
          ],
          [
            41.8401237021685,
            -106.02755270098677
          ],
          [
            41.10187458942799,
            -107.50395543356362
          ],
          [
            40.91731231124287,
            -107.87305611670782
          ],
          [
            40.73274383962392,
            -108.40089525174386
          ],
          [
            39.99451532159733,
            -109.34945299574437
          ],
          [
            39.80993144149206,
            -110.27221348391531
          ],
          [
            39.80990263893187,
            -111.01042655728425
          ],
          [
            39.80987383637167,
            -111.7486396306532
          ],
          [
            39.6252899562664,
            -112.67140011882411
          ],
          [
            39.07159592107097,
            -113.96325543659896
          ],
          [
            38.70245696342062,
            -115.07056333957183
          ],
          [
            38.88696163648536,
            -116.17788880316553
          ],
          [
            39.80965061653016,
            -117.46979094926253
          ],
          [
            40.363251043404965,
            -118.57712811993675
          ],
          [
            40.54778451902989,
            -118.94624051016149
          ],
          [
            40.73231799465482,
            -119.31535290038623
          ],
          [
            40.732289192094626,
            -120.05356597375518
          ],
          [
            40.73227479081453,
            -120.42267251043965
          ],
          [
            40.54771251262941,
            -120.79177319358385
          ],
          [
            40.547698111349305,
            -121.16087973026833
          ],
          [
            40.178559153698956,
            -122.26818763324121
          ],
          [
            39.99398247423373,
            -123.00639485306989
          ],
          [
            40.547575700468485,
            -124.29828529208635
          ],
          [
            40.54754689790828,
            -125.0364983654553
          ],
          [
            40.36296301780301,
            -125.95925885362621
          ],
          [
            40.5474892927879,
            -126.5129245121932
          ],
          [
            40.91654184275767,
            -127.62025582932715
          ],
          [
            40.73195796265239,
            -128.54301631749806
          ],
          [
            40.731914758812096,
            -129.65033592755148
          ],
          [
            40.3627686005217,
            -130.94219709886661
          ],
          [
            40.178191921056474,
            -131.68040431869528
          ],
          [
            40.91632582355621,
            -133.15685387959425
          ],
          [
            41.28537837352597,
            -134.26418519672822
          ],
          [
            42.02351227602569,
            -135.74063475762716
          ],
          [
            42.20802414973048,
            -136.66340695287863
          ],
          [
            42.57706229842015,
            -138.13984480669706
          ],
          [
            42.946136450310064,
            -138.6935163188043
          ]
        ]
      },
      "properties": {
        "type": "variant",
        "id": 2,
        "color": "#4444ff",
        "vzdal_m": 1944,
        "prevyseni_m": 73,
        "cas_s": 634,
        "tempo_str": "5:26"
      }
    },
    {
      "type": "Feature",
      "geometry": {
        "type": "LineString",
        "coordinates": [
          [
            47.00876037071807,
            -72.80812829851166
          ],
          [
            47.008745969437975,
            -73.17723483519613
          ],
          [
            46.824183691252856,
            -73.54633551834033
          ],
          [
            46.63962141306772,
            -73.91543620148454
          ],
          [
            46.455059134882596,
            -74.28453688462875
          ],
          [
            46.27049685669747,
            -74.65363756777296
          ],
          [
            45.71680282150204,
            -75.94549288554781
          ],
          [
            45.532240543316924,
            -76.31459356869202
          ],
          [
            45.34767826513179,
            -76.68369425183623
          ],
          [
            45.163115986946664,
            -77.05279493498043
          ],
          [
            45.163108786306616,
            -77.23734820332267
          ],
          [
            44.60941475111119,
            -78.52920352109753
          ],
          [
            44.42485247292606,
            -78.89830420424173
          ],
          [
            43.68663216274575,
            -79.6364938634496
          ],
          [
            42.948411852565435,
            -80.37468352265749
          ],
          [
            42.21016273982493,
            -81.8510862552343
          ],
          [
            42.025600461639804,
            -82.22018693837852
          ],
          [
            41.65648310590961,
            -82.77383503632468
          ],
          [
            41.471920827724475,
            -83.1429357194689
          ],
          [
            40.91826279572929,
            -83.51202469553257
          ],
          [
            40.733700517544165,
            -83.88112537867677
          ],
          [
            41.287300944418966,
            -84.98846254935098
          ],
          [
            41.10273866623383,
            -85.35756323249521
          ],
          [
            41.10270986367364,
            -86.09577630586415
          ],
          [
            41.102681061113444,
            -86.8339893792331
          ],
          [
            41.28717853353813,
            -88.12586811116901
          ],
          [
            40.54895822335783,
            -88.86405777037689
          ],
          [
            39.81073071253746,
            -89.786800697927
          ],
          [
            39.07251040235715,
            -90.5249903571349
          ],
          [
            38.51885237036197,
            -90.89407933319856
          ],
          [
            38.33429729281689,
            -91.07862674800053
          ],
          [
            37.965194338366786,
            -91.26316830926223
          ],
          [
            37.63948753032395,
            -91.5423646353903
          ],
          [
            38.07411033319249,
            -92.57174387610186
          ],
          [
            37.99610214361664,
            -93.29325524388142
          ],
          [
            37.9820763089223,
            -94.21748549274514
          ],
          [
            37.72695832161068,
            -95.12774043997803
          ],
          [
            37.53878088661839,
            -96.05993461314388
          ],
          [
            37.51806030677295,
            -96.79756692196977
          ],
          [
            38.241465873779596,
            -98.14953492617437
          ],
          [
            38.98116454970578,
            -99.07191358632156
          ],
          [
            39.6201156717158,
            -100.36387995028751
          ],
          [
            40.07638803228332,
            -100.80752515545434
          ],
          [
            40.28297592695873,
            -101.18468091084193
          ],
          [
            40.471249469807006,
            -101.54227010464706
          ],
          [
            40.66197822102282,
            -101.90815548730754
          ],
          [
            40.85270697245839,
            -102.27403523784925
          ],
          [
            41.043435723674214,
            -102.63992062050973
          ],
          [
            41.23416447510978,
            -103.00580037105142
          ],
          [
            41.358892938678466,
            -103.2123622839134
          ],
          [
            41.58197248421239,
            -103.55648618567363
          ],
          [
            41.80505202952658,
            -103.90061571955265
          ],
          [
            41.97959281526202,
            -104.3108140994129
          ],
          [
            42.1323052527412,
            -104.69265406879873
          ],
          [
            42.19594012839265,
            -104.85175217881876
          ],
          [
            42.348663829780335,
            -105.23359214856188
          ],
          [
            42.501376267479266,
            -105.61542648582893
          ],
          [
            42.87194176947895,
            -106.34209420604903
          ],
          [
            43.05662167503543,
            -106.71122912939343
          ],
          [
            43.2410312453595,
            -107.08040065293544
          ],
          [
            43.33467512905184,
            -108.05545855687436
          ],
          [
            43.38962405015586,
            -108.82990761028906
          ],
          [
            42.76271187325263,
            -109.9032006038751
          ],
          [
            42.02448436243227,
            -110.82594353142521
          ],
          [
            42.393536912402034,
            -111.93327484855917
          ],
          [
            42.94713733927683,
            -113.0406120192334
          ],
          [
            43.13167081490176,
            -113.40972440945814
          ],
          [
            43.31620429052669,
            -113.77883679968288
          ],
          [
            43.50073776615162,
            -114.1479491899076
          ],
          [
            43.500730565511574,
            -114.33250245824983
          ],
          [
            43.685264041136506,
            -114.70161484847458
          ],
          [
            43.68525684049646,
            -114.88616811681682
          ],
          [
            43.86979031612139,
            -115.25528050704156
          ],
          [
            43.86978311548134,
            -115.4398337753838
          ],
          [
            44.05431659110627,
            -115.80894616560855
          ],
          [
            44.42336914107604,
            -116.9162774827425
          ],
          [
            44.42334033851584,
            -117.65449055611145
          ],
          [
            44.23876365905062,
            -118.39269777594012
          ],
          [
            44.42328273339545,
            -119.13091670284935
          ],
          [
            44.42325393083526,
            -119.86912977621829
          ],
          [
            44.23866285008994,
            -120.97644353273144
          ],
          [
            44.23864124816979,
            -121.53010333775815
          ],
          [
            44.2386124456096,
            -122.2683164111271
          ],
          [
            44.054028565504325,
            -123.19107689929801
          ],
          [
            43.13123877649884,
            -124.48292050999234
          ],
          [
            42.94665489639357,
            -125.40568099816326
          ],
          [
            43.50026252390841,
            -126.32846490049523
          ],
          [
            42.946575689353025,
            -127.43576694992787
          ],
          [
            42.208348178532674,
            -128.35850987747796
          ],
          [
            41.28556559016723,
            -129.46580021983007
          ],
          [
            40.7318859562519,
            -130.38854900092045
          ],
          [
            40.54729487550658,
            -131.4958627574336
          ],
          [
            40.73179954857132,
            -132.60318822102727
          ],
          [
            41.28539277480606,
            -133.89507866004374
          ],
          [
            41.4699118491509,
            -134.63329758695295
          ],
          [
            42.02350507538564,
            -135.92518802596942
          ],
          [
            42.392557625355415,
            -137.03251934310336
          ],
          [
            42.76161017532518,
            -138.13985066023733
          ],
          [
            42.946136450310064,
            -138.6935163188043
          ]
        ]
      },
      "properties": {
        "type": "variant",
        "id": 3,
        "color": "#44ff44",
        "vzdal_m": 2001,
        "prevyseni_m": 82,
        "cas_s": 661,
        "tempo_str": "5:30"
      }
    }
  ]
}