{
  "type": "FeatureCollection",
  "features": [
    {
      "type": "Feature",
      "geometry": {
        "type": "Point",
        "coordinates": [
          37.24361032036095,
          -108.02831023110558
        ]
      },
      "properties": {
        "type": "start",
        "isom": "204"
      }
    },
    {
      "type": "Feature",
      "geometry": {
        "type": "Point",
        "coordinates": [
          55.07331848638203,
          -105.20676113102455
        ]
      },
      "properties": {
        "type": "end",
        "isom": "204"
      }
    },
    {
      "type": "Feature",
      "geometry": {
        "type": "LineString",
        "coordinates": [
          [
            37.20306435360233,
            -108.01902066904358
          ],
          [
            37.94123001596803,
            -108.20360132376408
          ],
          [
            38.31031588025994,
            -108.20361941647168
          ],
          [
            38.86395074291591,
            -108.01910208622787
          ],
          [
            39.23304873964403,
            -107.65003124032499
          ],
          [
            39.7866836023,
            -107.46551391008119
          ],
          [
            40.155769466591906,
            -107.46553200278879
          ],
          [
            40.52485533088382,
            -107.46555009549643
          ],
          [
            40.89394119517572,
            -107.46556818820403
          ],
          [
            41.26302705946763,
            -107.46558628091167
          ],
          [
            41.81664978968739,
            -107.65015788927835
          ],
          [
            42.27799498761606,
            -108.01926944377338
          ],
          [
            42.73934928487189,
            -108.11156429431053
          ],
          [
            43.20070054901867,
            -108.29613137950031
          ],
          [
            43.93886014516627,
            -108.66525650352605
          ],
          [
            44.400214442422104,
            -108.75755135406322
          ],
          [
            44.861580872114146,
            -108.48075726598987
          ],
          [
            45.23067886884227,
            -108.111686420087
          ],
          [
            45.87659126378932,
            -107.74262914371482
          ],
          [
            46.337960726590424,
            -107.37356282098884
          ],
          [
            46.79933322250058,
            -106.91222426361026
          ],
          [
            47.168434252337754,
            -106.45088118305473
          ],
          [
            47.81434968039386,
            -105.98955167202996
          ],
          [
            48.36798454304982,
            -105.80503434178614
          ],
          [
            48.82935097274188,
            -105.5282402537128
          ],
          [
            49.0139090704331,
            -105.06688812680346
          ],
          [
            49.47528156634324,
            -104.60554956942488
          ],
          [
            50.02891642899922,
            -104.42103223918106
          ],
          [
            50.49027679247315,
            -104.32878262041297
          ],
          [
            51.22846065349319,
            -103.9597298672177
          ],
          [
            51.59754651778509,
            -103.95974795992534
          ],
          [
            52.05890081504092,
            -104.05204281046248
          ],
          [
            52.61251444593352,
            -104.51343112278704
          ],
          [
            53.166131109935165,
            -104.88254720045899
          ],
          [
            53.62748237408194,
            -105.06711428564876
          ],
          [
            53.99656823837385,
            -105.06713237835638
          ],
          [
            54.365654102665765,
            -105.06715047106401
          ],
          [
            54.82700839992159,
            -105.15944532160115
          ],
          [
            55.103819765031474,
            -105.2517311257845
          ]
        ]
      },
      "properties": {
        "type": "variant",
        "id": 1,
        "color": "#ff4444",
        "vzdal_m": 1113,
        "prevyseni_m": 53,
        "cas_s": 349,
        "tempo_str": "5:13"
      }
    },
    {
      "type": "Feature",
      "geometry": {
        "type": "LineString",
        "coordinates": [
          [
            37.20306435360233,
            -108.01902066904358
          ],
          [
            37.572165383439504,
            -107.55767758848806
          ],
          [
            38.03353787934965,
            -107.09633903110948
          ],
          [
            38.494910375259806,
            -106.63500047373087
          ],
          [
            39.1408197370978,
            -106.35821543201132
          ],
          [
            39.50990560138971,
            -106.35823352471895
          ],
          [
            40.248089462409744,
            -105.98918077152369
          ],
          [
            40.89399882424774,
            -105.71239572980416
          ],
          [
            41.17082838801194,
            -105.25104812607175
          ],
          [
            41.263115019630185,
            -104.78969147598553
          ],
          [
            41.263127152066396,
            -104.42060253737503
          ],
          [
            41.632234248121684,
            -103.77471498751429
          ],
          [
            42.00134437728602,
            -103.03655520300089
          ],
          [
            42.37043934090509,
            -102.75975659175064
          ],
          [
            42.739534304524156,
            -102.48295798050037
          ],
          [
            43.10863230125228,
            -102.1138871345975
          ],
          [
            43.4777302979804,
            -101.74481628869464
          ],
          [
            44.03136819374542,
            -101.46802672379819
          ],
          [
            44.677280588692476,
            -101.09896944742601
          ],
          [
            45.4154644497125,
            -100.72991669423075
          ],
          [
            45.876824813186445,
            -100.63766707546267
          ],
          [
            46.43045360962431,
            -100.63769421452409
          ],
          [
            46.799530374589054,
            -100.9145290111896
          ],
          [
            47.16860410644475,
            -101.28363604250771
          ],
          [
            47.537683904518545,
            -101.4681986045206
          ],
          [
            47.906757636374245,
            -101.83730563583873
          ],
          [
            48.27583136822994,
            -102.20641266715684
          ],
          [
            48.82944803223159,
            -102.57552874482879
          ],
          [
            49.198521764087275,
            -102.9446357761469
          ],
          [
            49.844409894161906,
            -103.31375637699576
          ],
          [
            50.58256949030951,
            -103.6828815010215
          ],
          [
            51.04392378756534,
            -103.77517635155864
          ],
          [
            51.50527808482117,
            -103.8674712020958
          ],
          [
            51.87436394911308,
            -103.86748929480342
          ],
          [
            52.42798061311473,
            -104.23660537247537
          ],
          [
            52.70478287889744,
            -104.60570788061656
          ],
          [
            53.35067100897207,
            -104.97482848146542
          ],
          [
            53.8120253062279,
            -105.06712333200257
          ],
          [
            54.181111170519806,
            -105.0671414247102
          ],
          [
            54.64246546777564,
            -105.15943627524734
          ],
          [
            55.103819765031474,
            -105.2517311257845
          ]
        ]
      },
      "properties": {
        "type": "variant",
        "id": 2,
        "color": "#4444ff",
        "vzdal_m": 1234,
        "prevyseni_m": 48,
        "cas_s": 355,
        "tempo_str": "4:47"
      }
    },
    {
      "type": "Feature",
      "geometry": {
        "type": "LineString",
        "coordinates": [
          [
            37.20306435360233,
            -108.01902066904358
          ],
          [
            37.572165383439504,
            -107.55767758848806
          ],
          [
            38.03353787934965,
            -107.09633903110948
          ],
          [
            38.494910375259806,
            -106.63500047373087
          ],
          [
            39.1408197370978,
            -106.35821543201132
          ],
          [
            39.50990560138971,
            -106.35823352471895
          ],
          [
            40.15581496322771,
            -106.08144848299942
          ],
          [
            40.52490082751962,
            -106.08146657570704
          ],
          [
            41.07852355773937,
            -106.26603818407372
          ],
          [
            41.447609422031285,
            -106.26605627678136
          ],
          [
            41.816695286323196,
            -106.26607436948896
          ],
          [
            42.27805564979713,
            -106.17382475072087
          ],
          [
            43.01623951081716,
            -105.80477199752562
          ],
          [
            43.47760897361826,
            -105.43570567479965
          ],
          [
            44.031237770056116,
            -105.43573281386108
          ],
          [
            44.40032666745708,
            -105.34347867191609
          ],
          [
            44.86169613025818,
            -104.9744123491901
          ],
          [
            45.32307469238644,
            -104.32852932250626
          ],
          [
            45.692172689114564,
            -103.95945847660337
          ],
          [
            46.15353911880661,
            -103.68266438853003
          ],
          [
            46.6149025153896,
            -103.4981425351093
          ],
          [
            46.98400354522678,
            -103.0367994545538
          ],
          [
            47.44537300802788,
            -102.66773313182782
          ],
          [
            48.09128236986588,
            -102.39094809010828
          ],
          [
            48.460368234157784,
            -102.3909661828159
          ],
          [
            48.921716465195516,
            -102.66780550265833
          ],
          [
            49.2907901970512,
            -103.03691253397643
          ],
          [
            50.028949793198805,
            -103.40603765800218
          ],
          [
            50.76710938934641,
            -103.77516278202792
          ],
          [
            51.13619525363831,
            -103.77518087473555
          ],
          [
            51.59754955089414,
            -103.86747572527271
          ],
          [
            52.05890384814998,
            -103.95977057580986
          ],
          [
            52.52024904607865,
            -104.3288821303049
          ],
          [
            52.70478287889744,
            -104.60570788061656
          ],
          [
            53.35067100897207,
            -104.97482848146542
          ],
          [
            53.8120253062279,
            -105.06712333200257
          ],
          [
            54.181111170519806,
            -105.0671414247102
          ],
          [
            54.64246546777564,
            -105.15943627524734
          ],
          [
            55.103819765031474,
            -105.2517311257845
          ]
        ]
      },
      "properties": {
        "type": "variant",
        "id": 3,
        "color": "#44ff44",
        "vzdal_m": 1130,
        "prevyseni_m": 47,
        "cas_s": 346,
        "tempo_str": "5:06"
      }
    }
  ]
}