{
  "type": "FeatureCollection",
  "features": [
    {
      "type": "Feature",
      "geometry": {
        "type": "Point",
        "coordinates": [
          176.21236188193785,
          -233.47189869909297
        ]
      },
      "properties": {
        "type": "start",
        "isom": "204"
      }
    },
    {
      "type": "Feature",
      "geometry": {
        "type": "Point",
        "coordinates": [
          208.6153674890982,
          -159.42944773073157
        ]
      },
      "properties": {
        "type": "end",
        "isom": "109"
      }
    },
    {
      "type": "Feature",
      "geometry": {
        "type": "LineString",
        "coordinates": [
          [
            176.24199489483493,
            -233.47805396159242
          ],
          [
            176.61111715643557,
            -232.37080523854374
          ],
          [
            176.79567222101775,
            -232.00172534616584
          ],
          [
            177.5338682144741,
            -231.2635836532403
          ],
          [
            178.08751520956633,
            -230.7099773835461
          ],
          [
            178.27207027414852,
            -230.34089749116825
          ],
          [
            178.45662533873073,
            -229.97181759879035
          ],
          [
            178.64118040331292,
            -229.6027377064125
          ],
          [
            178.64120466818537,
            -228.86455982982662
          ],
          [
            178.82577793142187,
            -227.9418465300093
          ],
          [
            178.82580219629432,
            -227.20366865342336
          ],
          [
            178.6412895952389,
            -226.2809372617759
          ],
          [
            178.27224012825562,
            -225.17365235506685
          ],
          [
            178.2722643931281,
            -224.43547447848096
          ],
          [
            177.9032149261448,
            -223.3281895717719
          ],
          [
            178.08778818938134,
            -222.40547627195457
          ],
          [
            178.8260084477101,
            -220.9291567024431
          ],
          [
            178.82603271258256,
            -220.1909788258572
          ],
          [
            179.0106059758191,
            -219.26826552603987
          ],
          [
            178.82609337476367,
            -218.3455341343924
          ],
          [
            178.82610550719988,
            -217.97644519609943
          ],
          [
            178.64157470749015,
            -217.6073472118914
          ],
          [
            178.45706210643473,
            -216.68461582024392
          ],
          [
            178.3188454172536,
            -215.51671650150163
          ],
          [
            178.48596327527645,
            -214.846187915391
          ],
          [
            178.61012478773273,
            -214.09610542708248
          ],
          [
            178.55958746965828,
            -213.35157232393257
          ],
          [
            178.47950677475936,
            -212.62218821683345
          ],
          [
            178.3683074022614,
            -211.90174824230593
          ],
          [
            178.1222300412286,
            -210.77089159543775
          ],
          [
            178.00596900850664,
            -210.37807105988463
          ],
          [
            177.88436628937868,
            -209.98929100428032
          ],
          [
            177.81553700065882,
            -209.8161687851249
          ],
          [
            177.65688747777227,
            -209.43626288877203
          ],
          [
            177.37224894457296,
            -208.82668594989224
          ],
          [
            177.90373055468424,
            -207.64190969432124
          ],
          [
            177.90375481955672,
            -206.90373181773532
          ],
          [
            178.08832808279323,
            -205.981018517918
          ],
          [
            178.08835234766568,
            -205.24284064133207
          ],
          [
            178.08837661253813,
            -204.50466276474617
          ],
          [
            178.82657867221255,
            -203.58197660267413
          ],
          [
            179.19568880137695,
            -202.8438168179184
          ],
          [
            179.38024386595916,
            -202.4747369255405
          ],
          [
            180.11846412428793,
            -200.99841735602902
          ],
          [
            180.48758638588853,
            -199.89116863298034
          ],
          [
            180.48761065076098,
            -199.15299075639442
          ],
          [
            180.8567329123616,
            -198.04574203334573
          ],
          [
            181.41040417232628,
            -196.75395788706564
          ],
          [
            181.41042843719873,
            -196.01578001047972
          ],
          [
            182.05418691588966,
            -194.60827171775563
          ],
          [
            181.96412396203587,
            -193.9858179876137
          ],
          [
            182.33324622363648,
            -192.87856926456502
          ],
          [
            183.11031131426154,
            -192.0031364053042
          ],
          [
            183.90057176868316,
            -191.3031200245473
          ],
          [
            184.79611040625457,
            -190.55723825028377
          ],
          [
            185.40258149633576,
            -190.15875990088622
          ],
          [
            185.78470346167964,
            -189.7899910423504
          ],
          [
            186.16602705513688,
            -189.63588551382998
          ],
          [
            186.31810835706654,
            -189.5738399052111
          ],
          [
            186.71806067804624,
            -189.4248173809868
          ],
          [
            187.1054658630707,
            -189.29489743740302
          ],
          [
            187.87609567612066,
            -189.02014002068753
          ],
          [
            189.1783107878823,
            -188.49099718545273
          ],
          [
            190.5271967139237,
            -187.82018770912234
          ],
          [
            191.44732917260762,
            -187.04807724443828
          ],
          [
            192.20582478715238,
            -186.32113172721643
          ],
          [
            192.91647079185816,
            -185.55645894025693
          ],
          [
            193.62040068387589,
            -184.78388038835712
          ],
          [
            194.2067966138567,
            -183.92752364606733
          ],
          [
            195.06704218370461,
            -182.72924762964965
          ],
          [
            195.4361401804328,
            -182.36017678318686
          ],
          [
            195.62069524501499,
            -181.99109689080896
          ],
          [
            196.17436650497967,
            -180.6993127445289
          ],
          [
            196.3589215695619,
            -180.33023285215103
          ],
          [
            196.91259282952657,
            -179.03844870587093
          ],
          [
            197.650794889201,
            -178.1157625437989
          ],
          [
            198.20444188429326,
            -177.5621562741047
          ],
          [
            198.9426500101858,
            -176.4549256428862
          ],
          [
            199.49630913771426,
            -175.53223043489905
          ],
          [
            200.2345111973887,
            -174.609544272827
          ],
          [
            200.41907839440714,
            -173.87137544215616
          ],
          [
            200.7881763911353,
            -173.5023045956934
          ],
          [
            201.52637238459164,
            -172.76416290276782
          ],
          [
            202.26457444426606,
            -171.84147674069575
          ],
          [
            203.00279470259485,
            -170.36515717118428
          ],
          [
            203.92554576063336,
            -169.25793558588086
          ],
          [
            204.47921702059807,
            -167.96615143960076
          ],
          [
            205.03288828056276,
            -166.67436729332067
          ],
          [
            205.21744941136305,
            -166.12074293179631
          ],
          [
            205.9556454048194,
            -165.38260123887076
          ],
          [
            206.69384139827574,
            -164.64445954594518
          ],
          [
            207.43203739173202,
            -163.90631785301963
          ],
          [
            207.61658639009613,
            -163.72178242978822
          ],
          [
            207.80114145467832,
            -163.35270253741035
          ],
          [
            207.98569651926053,
            -162.98362264503248
          ],
          [
            207.9857086516967,
            -162.6145337067395
          ],
          [
            208.17026371627892,
            -162.24545381436167
          ],
          [
            208.1702879811514,
            -161.50727593777574
          ],
          [
            208.17029404736945,
            -161.32273146862926
          ],
          [
            208.3548491119517,
            -160.9536515762514
          ],
          [
            208.35486731060604,
            -160.40001816881195
          ],
          [
            208.5394223751882,
            -160.03093827643409
          ],
          [
            208.53944057384254,
            -159.47730486899465
          ]
        ]
      },
      "properties": {
        "type": "variant",
        "id": 1,
        "color": "#ff4444",
        "vzdal_m": 2364,
        "prevyseni_m": 52,
        "cas_s": 696,
        "tempo_str": "4:54"
      }
    },
    {
      "type": "Feature",
      "geometry": {
        "type": "LineString",
        "coordinates": [
          [
            176.24199489483493,
            -233.47805396159242
          ],
          [
            177.34925855392888,
            -233.2935637679365
          ],
          [
            178.08746667982146,
            -232.18633313671793
          ],
          [
            178.45657680898583,
            -231.4481733519622
          ],
          [
            178.641131873568,
            -231.07909345958436
          ],
          [
            179.37932786702436,
            -230.34095176665875
          ],
          [
            180.85569558906457,
            -229.60284625739354
          ],
          [
            181.22478751957462,
            -229.41831988007723
          ],
          [
            181.59387945008467,
            -229.2337935027609
          ],
          [
            181.96297138059472,
            -229.0492671254446
          ],
          [
            182.1475203789588,
            -228.86473170221325
          ],
          [
            183.623888100999,
            -228.12662619294798
          ],
          [
            184.91571289089327,
            -227.3885116377677
          ],
          [
            186.2075376807875,
            -226.65039708258738
          ],
          [
            187.49936247068175,
            -225.91228252740706
          ],
          [
            188.60664432843,
            -225.1741589263117
          ],
          [
            189.34485852054073,
            -223.8823838259467
          ],
          [
            190.08307271265136,
            -222.59060872558166
          ],
          [
            190.82129297098015,
            -221.11428915607019
          ],
          [
            191.55948896443647,
            -220.37614746314463
          ],
          [
            192.29769709032902,
            -219.26891683192608
          ],
          [
            193.03590521622155,
            -218.16168620070755
          ],
          [
            193.77411940833224,
            -216.86991110034256
          ],
          [
            194.51232753422482,
            -215.76268046912406
          ],
          [
            195.61960939197306,
            -215.02455686802864
          ],
          [
            196.3578053854294,
            -214.2864151751031
          ],
          [
            197.2805443110317,
            -213.54828252809259
          ],
          [
            198.11460085312723,
            -212.67111970610438
          ],
          [
            198.30435769187778,
            -212.2722802459666
          ],
          [
            198.33453932540456,
            -211.52303301836523
          ],
          [
            198.35085652461783,
            -210.74790748670648
          ],
          [
            198.27740616243156,
            -210.0379112939555
          ],
          [
            198.17416460768447,
            -209.30780226987594
          ],
          [
            197.9860396530049,
            -208.3886289268794
          ],
          [
            197.77521452677746,
            -207.47194612003625
          ],
          [
            197.64987282404812,
            -206.16652185406363
          ],
          [
            197.64989708892054,
            -205.4283439774777
          ],
          [
            197.649921353793,
            -204.6901661008918
          ],
          [
            198.0190436153936,
            -203.5829173778431
          ],
          [
            198.20359867997578,
            -203.2138374854652
          ],
          [
            198.3881719432123,
            -202.29112418564793
          ],
          [
            198.57274520644884,
            -201.3684108858306
          ],
          [
            198.38822047295722,
            -200.81476843247611
          ],
          [
            198.57279373619374,
            -199.89205513265878
          ],
          [
            198.38828113513833,
            -198.96932374101132
          ],
          [
            198.57284833215672,
            -198.23115491034048
          ],
          [
            198.3883296648832,
            -197.4929679878395
          ],
          [
            198.38835392975565,
            -196.75479011125358
          ],
          [
            198.3883781946281,
            -196.01661223466766
          ],
          [
            199.12659845295687,
            -194.54029266515616
          ],
          [
            199.86481871128566,
            -193.06397309564468
          ],
          [
            200.41848997125035,
            -191.7721889493646
          ],
          [
            200.2339713039768,
            -191.0340020268636
          ],
          [
            200.78763649772338,
            -189.92676234972998
          ],
          [
            200.78765469637773,
            -189.37312894229055
          ],
          [
            201.34133202256055,
            -187.89680032686397
          ],
          [
            201.52590528579705,
            -186.97408702704666
          ],
          [
            202.07957654576174,
            -185.68230288076657
          ],
          [
            202.81777860543622,
            -184.75961671869453
          ],
          [
            203.5559806651106,
            -183.8369305566225
          ],
          [
            203.74053572969285,
            -183.4678506642446
          ],
          [
            204.10963372642098,
            -183.09877981778183
          ],
          [
            204.2941887910032,
            -182.72969992540396
          ],
          [
            205.03240298311383,
            -181.43792482503895
          ],
          [
            205.7706111090064,
            -180.33069419382042
          ],
          [
            206.50881316868086,
            -179.40800803174838
          ],
          [
            206.69336823326304,
            -179.0389281393705
          ],
          [
            206.8779232978452,
            -178.66984824699264
          ],
          [
            207.06247836242744,
            -178.30076835461477
          ],
          [
            207.06250262729984,
            -177.56259047802885
          ],
          [
            207.06250869351797,
            -177.37804600888236
          ],
          [
            207.24706375810018,
            -177.0089661165045
          ],
          [
            207.24707589053642,
            -176.63987717821155
          ],
          [
            207.616198152137,
            -175.53262845516284
          ],
          [
            208.48063553758425,
            -174.75922590142375
          ],
          [
            209.2581811166576,
            -174.03258045817665
          ],
          [
            209.95620373531682,
            -173.2675541410609
          ],
          [
            210.72546663055,
            -172.37132763016237
          ],
          [
            211.19543218346877,
            -171.70866816598237
          ],
          [
            211.43048411688343,
            -171.37519530744723
          ],
          [
            211.66054777532696,
            -170.9059464524716
          ],
          [
            211.63486153410147,
            -170.5790344060397
          ],
          [
            211.75558901761394,
            -170.20674560717427
          ],
          [
            211.71656698434748,
            -169.88227681661522
          ],
          [
            211.85683235988057,
            -169.6425696668034
          ],
          [
            211.89934584868524,
            -168.89107452192758
          ],
          [
            211.93127063115966,
            -168.13147911306905
          ],
          [
            211.83469242992663,
            -167.41470026267308
          ],
          [
            211.92728436368756,
            -166.68194662914357
          ],
          [
            211.93618820511415,
            -165.93652780111344
          ],
          [
            211.6764884337807,
            -165.01379272394547
          ],
          [
            210.93834703628738,
            -164.09103419455275
          ],
          [
            210.20021777123026,
            -162.79918672686705
          ],
          [
            209.4620945723913,
            -161.32279479003486
          ],
          [
            208.72397137355227,
            -159.8464028532027
          ],
          [
            208.53944057384254,
            -159.47730486899465
          ]
        ]
      },
      "properties": {
        "type": "variant",
        "id": 2,
        "color": "#4444ff",
        "vzdal_m": 2430,
        "prevyseni_m": 52,
        "cas_s": 705,
        "tempo_str": "4:50"
      }
    },
    {
      "type": "Feature",
      "geometry": {
        "type": "LineString",
        "coordinates": [
          [
            176.24199489483493,
            -233.47805396159242
          ],
          [
            176.61111715643557,
            -232.37080523854374
          ],
          [
            176.79567222101775,
            -232.00172534616584
          ],
          [
            177.5338682144741,
            -231.2635836532403
          ],
          [
            178.08751520956633,
            -230.7099773835461
          ],
          [
            178.27207027414852,
            -230.34089749116825
          ],
          [
            178.45662533873073,
            -229.97181759879035
          ],
          [
            178.64118040331292,
            -229.6027377064125
          ],
          [
            178.64120466818537,
            -228.86455982982662
          ],
          [
            179.19487592815005,
            -227.5727756835465
          ],
          [
            179.56399818975066,
            -226.4655269604978
          ],
          [
            179.37948558869525,
            -225.5427955688503
          ],
          [
            179.56404065327743,
            -225.17371567647245
          ],
          [
            179.74859571785962,
            -224.8046357840946
          ],
          [
            180.11771797946022,
            -223.69738706104587
          ],
          [
            180.30229124269678,
            -222.77467376122857
          ],
          [
            180.48685843971518,
            -222.03650493055775
          ],
          [
            180.6714135042974,
            -221.66742503817986
          ],
          [
            181.040535765898,
            -220.56017631513117
          ],
          [
            181.22509083048018,
            -220.19109642275333
          ],
          [
            181.77874995800866,
            -219.2684012147662
          ],
          [
            182.3324090855371,
            -218.34570600677904
          ],
          [
            182.51697021633743,
            -217.7920816452547
          ],
          [
            182.51699448120988,
            -217.0539037686688
          ],
          [
            182.33247581393636,
            -216.31571684616776
          ],
          [
            182.70159200931883,
            -215.39301259226556
          ],
          [
            182.70159807553696,
            -215.20846812311908
          ],
          [
            182.88615314011915,
            -214.83938823074118
          ],
          [
            183.07070820470133,
            -214.47030833836334
          ],
          [
            183.25528146793786,
            -213.547595038546
          ],
          [
            183.2553057328103,
            -212.8094171619601
          ],
          [
            183.43987292982874,
            -212.0712483312893
          ],
          [
            183.25535426255522,
            -211.33306140878827
          ],
          [
            183.25537852742767,
            -210.59488353220237
          ],
          [
            183.62448865659204,
            -209.85672374744664
          ],
          [
            183.6245129214645,
            -209.11854587086071
          ],
          [
            183.6245189876826,
            -208.93400140171423
          ],
          [
            183.80907405226478,
            -208.5649215093364
          ],
          [
            184.17819631386539,
            -207.45767278628765
          ],
          [
            184.91640443975794,
            -206.35044215506915
          ],
          [
            185.83914336536026,
            -205.61230950805864
          ],
          [
            186.76188229096255,
            -204.8741768610482
          ],
          [
            187.5000782844189,
            -204.13603516812262
          ],
          [
            187.68462728278297,
            -203.95149974489124
          ],
          [
            188.053719213293,
            -203.76697336757493
          ],
          [
            188.60737227460336,
            -203.02882262873428
          ],
          [
            188.97646420511344,
            -202.84429625141797
          ],
          [
            189.7146601985698,
            -202.10615455849236
          ],
          [
            190.4528622582442,
            -201.18346839642032
          ],
          [
            191.1910764503549,
            -199.89169329605534
          ],
          [
            191.92928457624743,
            -198.78446266483684
          ],
          [
            192.66749876835812,
            -197.4926875644718
          ],
          [
            192.85204776672217,
            -197.30815214124044
          ],
          [
            193.59025589261475,
            -196.20092151002189
          ],
          [
            193.95937208799725,
            -195.27821725611966
          ],
          [
            193.95937815421533,
            -195.09367278697317
          ],
          [
            194.14393321879754,
            -194.72459289459533
          ],
          [
            194.88214741090817,
            -193.4328177942303
          ],
          [
            195.62036766923697,
            -191.9564982247188
          ],
          [
            196.35858792756574,
            -190.48017865520737
          ],
          [
            196.91226525374856,
            -189.0038500397808
          ],
          [
            197.65047944585922,
            -187.71207493941577
          ],
          [
            198.38869363796988,
            -186.42029983905076
          ],
          [
            198.7578158995705,
            -185.31305111600204
          ],
          [
            199.12692602873489,
            -184.57489133124633
          ],
          [
            199.31148109331707,
            -184.20581143886847
          ],
          [
            199.49603615789925,
            -183.8367315464906
          ],
          [
            199.68058515626336,
            -183.6521961232592
          ],
          [
            199.86514022084555,
            -183.28311623088132
          ],
          [
            199.865164485718,
            -182.5449383542954
          ],
          [
            200.04971955030018,
            -182.17585846191753
          ],
          [
            200.0497256165183,
            -181.99131399277104
          ],
          [
            200.0497316827364,
            -181.80676952362458
          ],
          [
            200.23428674731858,
            -181.4376896312467
          ],
          [
            200.4188418119008,
            -181.06860973886884
          ],
          [
            200.41886607677327,
            -180.33043186228292
          ],
          [
            201.157086335102,
            -178.85411229277142
          ],
          [
            201.89528839477646,
            -177.9314261306994
          ],
          [
            202.07984345935864,
            -177.56234623832154
          ],
          [
            202.81805765146927,
            -176.27057113795652
          ],
          [
            203.00261271605152,
            -175.90149124557865
          ],
          [
            203.3717349776521,
            -174.79424252252994
          ],
          [
            203.55630824088865,
            -173.87152922271264
          ],
          [
            203.74087543790705,
            -173.1333603920418
          ],
          [
            204.47908356379958,
            -172.0261297608233
          ],
          [
            204.47911996110827,
            -170.91886294594443
          ],
          [
            204.29460736005285,
            -169.99613155429694
          ],
          [
            204.47918062328938,
            -169.07341825447963
          ],
          [
            204.84829075245378,
            -168.3352584697239
          ],
          [
            205.21738268296383,
            -168.15073209240757
          ],
          [
            205.95557867642017,
            -167.412590399482
          ],
          [
            206.6937928685308,
            -166.120815299117
          ],
          [
            207.2474580622774,
            -165.0135756219834
          ],
          [
            208.17020912031592,
            -163.90635403667997
          ],
          [
            207.98569651926053,
            -162.98362264503248
          ],
          [
            207.9857086516967,
            -162.6145337067395
          ],
          [
            208.17026371627892,
            -162.24545381436167
          ],
          [
            208.1702879811514,
            -161.50727593777574
          ],
          [
            208.17029404736945,
            -161.32273146862926
          ],
          [
            208.3548491119517,
            -160.9536515762514
          ],
          [
            208.35486731060604,
            -160.40001816881195
          ],
          [
            208.5394223751882,
            -160.03093827643409
          ],
          [
            208.53944057384254,
            -159.47730486899465
          ]
        ]
      },
      "properties": {
        "type": "variant",
        "id": 3,
        "color": "#44ff44",
        "vzdal_m": 2271,
        "prevyseni_m": 50,
        "cas_s": 750,
        "tempo_str": "5:30"
      }
    }
  ]
}