{
  "type": "FeatureCollection",
  "features": [
    {
      "type": "Feature",
      "geometry": {
        "type": "Point",
        "coordinates": [
          98.66370890562122,
          -110.77678779012498
        ]
      },
      "properties": {
        "type": "start",
        "isom": "109"
      }
    },
    {
      "type": "Feature",
      "geometry": {
        "type": "Point",
        "coordinates": [
          101.09233856031389,
          -86.96162758458243
        ]
      },
      "properties": {
        "type": "end",
        "isom": "109"
      }
    },
    {
      "type": "Feature",
      "geometry": {
        "type": "LineString",
        "coordinates": [
          [
            98.64014173182437,
            -110.7418473790941
          ],
          [
            98.64015386426058,
            -110.3727584404836
          ],
          [
            98.64016599669678,
            -110.00366950187309
          ],
          [
            98.82472712749707,
            -109.45004514031115
          ],
          [
            98.9170137591153,
            -108.98868849022493
          ],
          [
            99.00930039073354,
            -108.52733184013871
          ],
          [
            99.00931252316975,
            -108.15824290152821
          ],
          [
            99.00932465560598,
            -107.78915396291771
          ],
          [
            99.10161128722422,
            -107.32779731283149
          ],
          [
            99.10162341966043,
            -106.95870837422099
          ],
          [
            99.10163555209665,
            -106.58961943561049
          ],
          [
            99.10164768453286,
            -106.22053049699998
          ],
          [
            99.10165981696908,
            -105.85144155838948
          ],
          [
            99.28622094776937,
            -105.29781719682755
          ],
          [
            99.65533107693369,
            -104.55965741231415
          ],
          [
            99.74761770855193,
            -104.09830076222794
          ],
          [
            99.74762984098815,
            -103.72921182361743
          ],
          [
            99.65537354046045,
            -103.26784612717739
          ],
          [
            99.65538567289666,
            -102.8987571885669
          ],
          [
            99.56312937236895,
            -102.43739149212686
          ],
          [
            99.6554220702053,
            -101.7914903727354
          ],
          [
            99.83998320100557,
            -101.23786601117345
          ],
          [
            99.83999533344179,
            -100.86877707256295
          ],
          [
            99.840007465878,
            -100.49968813395245
          ],
          [
            99.84001959831421,
            -100.13059919534196
          ],
          [
            99.84003173075044,
            -99.76151025673146
          ],
          [
            99.74777543022273,
            -99.30014456029141
          ],
          [
            99.74778756265894,
            -98.93105562168091
          ],
          [
            99.74779969509514,
            -98.56196668307041
          ],
          [
            99.74781182753138,
            -98.1928777444599
          ],
          [
            99.74782395996758,
            -97.8237888058494
          ],
          [
            99.74783609240379,
            -97.4546998672389
          ],
          [
            100.02467172238609,
            -96.80880779420126
          ],
          [
            100.11695835400435,
            -96.34745114411503
          ],
          [
            100.11697048644055,
            -95.97836220550454
          ],
          [
            100.20925711805879,
            -95.51700555541831
          ],
          [
            100.39381824885908,
            -94.96338119385635
          ],
          [
            100.39383038129529,
            -94.59429225524585
          ],
          [
            100.67066601127759,
            -93.94840018220819
          ],
          [
            100.76295264289585,
            -93.48704353212197
          ],
          [
            101.13205973895113,
            -92.84115598226121
          ],
          [
            101.50116683500642,
            -92.19526843240045
          ],
          [
            101.59344436729748,
            -92.01072848627211
          ],
          [
            101.5934564997337,
            -91.64163954766161
          ],
          [
            101.68574313135196,
            -91.1802828975754
          ],
          [
            101.68575526378815,
            -90.81119395896489
          ],
          [
            101.96259089377048,
            -90.16530188592722
          ],
          [
            102.23942652375277,
            -89.51940981288956
          ],
          [
            102.23943865618898,
            -89.15032087427907
          ],
          [
            102.2394507886252,
            -88.78123193566857
          ],
          [
            102.1471944880975,
            -88.31986623922853
          ],
          [
            101.77812075624179,
            -87.95075920791041
          ],
          [
            101.40905309060422,
            -87.39710770728703
          ],
          [
            101.13225385793054,
            -86.93573296449318
          ]
        ]
      },
      "properties": {
        "type": "variant",
        "id": 1,
        "color": "#ff4444",
        "vzdal_m": 1350,
        "prevyseni_m": 14,
        "cas_s": 337,
        "tempo_str": "4:09"
      }
    },
    {
      "type": "Feature",
      "geometry": {
        "type": "LineString",
        "coordinates": [
          [
            98.64014173182437,
            -110.7418473790941
          ],
          [
            98.64015386426058,
            -110.3727584404836
          ],
          [
            98.64016599669678,
            -110.00366950187309
          ],
          [
            98.82472712749707,
            -109.45004514031115
          ],
          [
            98.9170137591153,
            -108.98868849022493
          ],
          [
            99.00930039073354,
            -108.52733184013871
          ],
          [
            99.00931252316975,
            -108.15824290152821
          ],
          [
            99.00932465560598,
            -107.78915396291771
          ],
          [
            99.10161128722422,
            -107.32779731283149
          ],
          [
            99.10162341966043,
            -106.95870837422099
          ],
          [
            99.10163555209665,
            -106.58961943561049
          ],
          [
            99.10164768453286,
            -106.22053049699998
          ],
          [
            99.10165981696908,
            -105.85144155838948
          ],
          [
            99.1016719494053,
            -105.48235261977898
          ],
          [
            99.10168408184151,
            -105.11326368116848
          ],
          [
            99.10169621427771,
            -104.74417474255797
          ],
          [
            99.00943991375,
            -104.28280904611795
          ],
          [
            98.73264674729447,
            -103.63688983401885
          ],
          [
            98.4558535808389,
            -102.99097062191977
          ],
          [
            98.08679198141942,
            -102.25277465199113
          ],
          [
            97.99453568089172,
            -101.79140895555109
          ],
          [
            97.99454781332794,
            -101.42232001694059
          ],
          [
            97.90229151280023,
            -100.96095432050056
          ],
          [
            97.90230364523643,
            -100.59186538189006
          ],
          [
            97.90231577767264,
            -100.22277644327956
          ],
          [
            97.90232791010885,
            -99.85368750466905
          ],
          [
            97.90234004254508,
            -99.48459856605855
          ],
          [
            97.90235217498129,
            -99.11550962744805
          ],
          [
            97.71782744148966,
            -98.56186717317848
          ],
          [
            97.71783957392587,
            -98.19277823456798
          ],
          [
            97.71785170636207,
            -97.82368929595748
          ],
          [
            97.71786383879831,
            -97.45460035734698
          ],
          [
            97.7178759712345,
            -97.08551141873647
          ],
          [
            97.71788810367072,
            -96.71642248012597
          ],
          [
            97.81017473528898,
            -96.25506583003975
          ],
          [
            97.90246136690722,
            -95.79370917995354
          ],
          [
            97.90247349934342,
            -95.42462024134304
          ],
          [
            97.90248563177965,
            -95.05553130273253
          ],
          [
            97.90249776421585,
            -94.68644236412203
          ],
          [
            97.90250989665206,
            -94.31735342551153
          ],
          [
            97.90252202908829,
            -93.94826448690102
          ],
          [
            97.9025341615245,
            -93.57917554829052
          ],
          [
            97.90254629396071,
            -93.21008660968002
          ],
          [
            97.90255842639694,
            -92.84099767106952
          ],
          [
            97.90257055883315,
            -92.47190873245901
          ],
          [
            97.90258269126934,
            -92.10281979384851
          ],
          [
            97.90259482370557,
            -91.73373085523801
          ],
          [
            97.90260695614178,
            -91.3646419166275
          ],
          [
            97.99489662086908,
            -90.81101303188866
          ],
          [
            98.17945775166935,
            -90.25738867032672
          ],
          [
            98.36401888246964,
            -89.70376430876478
          ],
          [
            98.73312294541586,
            -89.15014899355666
          ],
          [
            99.10222397525304,
            -88.68880591300115
          ],
          [
            99.47132197198115,
            -88.31973506709826
          ],
          [
            100.1172343669282,
            -87.95067779072612
          ],
          [
            100.57860382972932,
            -87.58161146800013
          ],
          [
            100.94770182645745,
            -87.21254062209726
          ],
          [
            101.13225385793054,
            -86.93573296449318
          ]
        ]
      },
      "properties": {
        "type": "variant",
        "id": 2,
        "color": "#4444ff",
        "vzdal_m": 1377,
        "prevyseni_m": 19,
        "cas_s": 345,
        "tempo_str": "4:10"
      }
    },
    {
      "type": "Feature",
      "geometry": {
        "type": "LineString",
        "coordinates": [
          [
            98.64014173182437,
            -110.7418473790941
          ],
          [
            98.64015386426058,
            -110.3727584404836
          ],
          [
            99.00926399342491,
            -109.63459865597022
          ],
          [
            99.37837412258924,
            -108.89643887145685
          ],
          [
            99.65520975257155,
            -108.25054679841917
          ],
          [
            99.7474963841898,
            -107.78919014833295
          ],
          [
            100.11660348024508,
            -107.1433025984722
          ],
          [
            100.20889011186333,
            -106.68194594838599
          ],
          [
            100.39343911022739,
            -106.49741052543453
          ],
          [
            100.48572574184563,
            -106.03605387534832
          ],
          [
            100.6702868726459,
            -105.48242951378637
          ],
          [
            100.76257350426415,
            -105.02107286370016
          ],
          [
            101.03940913424645,
            -104.3751807906625
          ],
          [
            101.22397026504673,
            -103.82155642910057
          ],
          [
            101.31625689666498,
            -103.36019977901432
          ],
          [
            101.40854352828322,
            -102.8988431289281
          ],
          [
            101.40855566071943,
            -102.5297541903176
          ],
          [
            101.40856779315565,
            -102.1606652517071
          ],
          [
            101.40857992559187,
            -101.7915763130966
          ],
          [
            101.40859205802808,
            -101.4224873744861
          ],
          [
            101.4086041904643,
            -101.0533984358756
          ],
          [
            101.3163478899366,
            -100.59203273943557
          ],
          [
            100.94728629051711,
            -99.85383676950694
          ],
          [
            100.8550299899894,
            -99.39247107306691
          ],
          [
            100.8550421224256,
            -99.02338213445641
          ],
          [
            100.85505425486181,
            -98.65429319584591
          ],
          [
            100.85506638729804,
            -98.2852042572354
          ],
          [
            100.76281008677033,
            -97.82383856079538
          ],
          [
            100.39374848735085,
            -97.08564259086674
          ],
          [
            100.30149218682314,
            -96.62427689442673
          ],
          [
            100.1169674533315,
            -96.07063444015716
          ],
          [
            100.20925408494976,
            -95.60927779007093
          ],
          [
            100.39381521575002,
            -95.05565342850898
          ],
          [
            100.39382734818624,
            -94.68656448989847
          ],
          [
            100.57838847898653,
            -94.13294012833654
          ],
          [
            100.76294960978679,
            -93.5793157667746
          ],
          [
            101.03978220666004,
            -93.02569592838957
          ],
          [
            101.40888930271532,
            -92.37980837852881
          ],
          [
            101.59344436729748,
            -92.01072848627211
          ],
          [
            101.5934564997337,
            -91.64163954766161
          ],
          [
            101.59346863216992,
            -91.27255060905111
          ],
          [
            101.59348076460613,
            -90.9034616704406
          ],
          [
            101.87031639458844,
            -90.25756959740295
          ],
          [
            102.23942349064372,
            -89.61168204754219
          ],
          [
            102.23943562307993,
            -89.2425931089317
          ],
          [
            102.23944775551615,
            -88.8735041703212
          ],
          [
            102.23945988795236,
            -88.5044152317107
          ],
          [
            102.1471944880975,
            -88.31986623922853
          ],
          [
            101.77812075624179,
            -87.95075920791041
          ],
          [
            101.40905309060422,
            -87.39710770728703
          ],
          [
            101.13225385793054,
            -86.93573296449318
          ]
        ]
      },
      "properties": {
        "type": "variant",
        "id": 3,
        "color": "#44ff44",
        "vzdal_m": 1379,
        "prevyseni_m": 14,
        "cas_s": 349,
        "tempo_str": "4:13"
      }
    }
  ]
}