{
  "type": "FeatureCollection",
  "features": [
    {
      "type": "Feature",
      "geometry": {
        "type": "Point",
        "coordinates": [
          59.15944082586245,
          -100.42227697066706
        ]
      },
      "properties": {
        "type": "start",
        "isom": "204"
      }
    },
    {
      "type": "Feature",
      "geometry": {
        "type": "Point",
        "coordinates": [
          43.92203373455761,
          -96.82346650423473
        ]
      },
      "properties": {
        "type": "end",
        "isom": "204"
      }
    },
    {
      "type": "Feature",
      "geometry": {
        "type": "LineString",
        "coordinates": [
          [
            59.16392199391324,
            -100.45377394363182
          ],
          [
            58.79482399718512,
            -100.82284478953471
          ],
          [
            58.610278031930115,
            -100.91510797783353
          ],
          [
            58.05665530171036,
            -100.73053636946683
          ],
          [
            57.687569437418446,
            -100.73051827675921
          ],
          [
            57.13394670719869,
            -100.54594666839252
          ],
          [
            56.395787111051085,
            -100.17682154436677
          ],
          [
            55.657627514903496,
            -99.80769642034103
          ],
          [
            54.91946791875589,
            -99.43857129631529
          ],
          [
            54.18130832260829,
            -99.06944617228955
          ],
          [
            53.44314872646068,
            -98.7003210482638
          ],
          [
            52.98179442920485,
            -98.60802619772664
          ],
          [
            52.520440131949016,
            -98.5157313471895
          ],
          [
            51.966820434838326,
            -98.23888750417018
          ],
          [
            51.59773457054641,
            -98.23886941146256
          ],
          [
            51.2286487062545,
            -98.23885131875494
          ],
          [
            50.4904891101069,
            -97.8697261947292
          ],
          [
            50.12140324581499,
            -97.86970810202156
          ],
          [
            49.66004894855916,
            -97.77741325148442
          ],
          [
            48.921889352411554,
            -97.40828812745868
          ],
          [
            48.460535055155724,
            -97.3159932769215
          ],
          [
            47.81464389197205,
            -97.0391449107253
          ],
          [
            47.44555802768014,
            -97.03912681801766
          ],
          [
            47.07647216338823,
            -97.03910872531006
          ],
          [
            46.70738629909633,
            -97.03909063260242
          ],
          [
            46.33830043480442,
            -97.0390725398948
          ],
          [
            45.969214570512506,
            -97.03905444718718
          ],
          [
            45.6001287062206,
            -97.03903635447956
          ],
          [
            45.23104284192869,
            -97.03901826177194
          ],
          [
            44.86195697763679,
            -97.03900016906431
          ],
          [
            44.492871113344876,
            -97.03898207635669
          ],
          [
            43.93924838312512,
            -96.85441046799001
          ]
        ]
      },
      "properties": {
        "type": "variant",
        "id": 1,
        "color": "#ff4444",
        "vzdal_m": 881,
        "prevyseni_m": 0,
        "cas_s": 229,
        "tempo_str": "4:19"
      }
    },
    {
      "type": "Feature",
      "geometry": {
        "type": "LineString",
        "coordinates": [
          [
            59.16392199391324,
            -100.45377394363182
          ],
          [
            58.79482399718512,
            -100.82284478953471
          ],
          [
            58.33346363371118,
            -100.9150944083028
          ],
          [
            57.964377769419265,
            -100.91507631559519
          ],
          [
            57.410742906763296,
            -101.099593645839
          ],
          [
            56.94938254328936,
            -101.1918432646071
          ],
          [
            56.580296678997456,
            -101.19182517189947
          ],
          [
            56.21121081470555,
            -101.19180707919185
          ],
          [
            55.842124950413634,
            -101.19178898648423
          ],
          [
            55.47303908612173,
            -101.19177089377659
          ],
          [
            55.10395625493888,
            -101.09948056641636
          ],
          [
            55.0116847888659,
            -101.09947604323946
          ],
          [
            54.73486735753792,
            -101.19173470836135
          ],
          [
            54.273513060282085,
            -101.09943985782421
          ],
          [
            53.90442719599017,
            -101.09942176511659
          ],
          [
            53.53534133169826,
            -101.09940367240895
          ],
          [
            53.07398703444243,
            -101.00710882187181
          ],
          [
            52.52036430422268,
            -100.82253721350513
          ],
          [
            52.15127843993078,
            -100.82251912079751
          ],
          [
            51.413118843783174,
            -100.45339399677177
          ],
          [
            50.67495924763557,
            -100.08426887274602
          ],
          [
            49.936799651487966,
            -99.71514374872025
          ],
          [
            49.29091152141335,
            -99.34602314787142
          ],
          [
            48.73729485741169,
            -98.97690707019949
          ],
          [
            48.183678193410046,
            -98.60779099252754
          ],
          [
            47.44551859726244,
            -98.2386658685018
          ],
          [
            46.799627434078765,
            -97.96181750230559
          ],
          [
            46.06146783793117,
            -97.59269237827985
          ],
          [
            45.96919940496724,
            -97.50041562045031
          ],
          [
            45.23103980881964,
            -97.13129049642457
          ],
          [
            44.76968551156381,
            -97.03899564588741
          ],
          [
            44.4005996472719,
            -97.03897755317979
          ],
          [
            43.93924838312512,
            -96.85441046799001
          ]
        ]
      },
      "properties": {
        "type": "variant",
        "id": 2,
        "color": "#4444ff",
        "vzdal_m": 893,
        "prevyseni_m": 5,
        "cas_s": 231,
        "tempo_str": "4:19"
      }
    },
    {
      "type": "Feature",
      "geometry": {
        "type": "LineString",
        "coordinates": [
          [
            59.16392199391324,
            -100.45377394363182
          ],
          [
            59.071656594058375,
            -100.26922495114967
          ],
          [
            58.97938816109445,
            -100.17694819332013
          ],
          [
            58.241228564946844,
            -99.80782306929439
          ],
          [
            57.77988336701817,
            -99.43871151479937
          ],
          [
            57.31853816908951,
            -99.06959996030433
          ],
          [
            56.672650039014876,
            -98.7004793594555
          ],
          [
            56.11902730879512,
            -98.51590775108882
          ],
          [
            55.38086771264752,
            -98.14678262706305
          ],
          [
            54.73497654946384,
            -97.86993426086684
          ],
          [
            54.08908538628016,
            -97.59308589467064
          ],
          [
            53.71999952198826,
            -97.593067801963
          ],
          [
            53.166376791768506,
            -97.40849619359632
          ],
          [
            52.79729092747659,
            -97.4084781008887
          ],
          [
            52.428205063184684,
            -97.40846000818108
          ],
          [
            52.15139369807481,
            -97.31617420399773
          ],
          [
            51.59777703407316,
            -96.94705812632581
          ],
          [
            51.044154303853404,
            -96.76248651795912
          ],
          [
            50.6750684395615,
            -96.7624684252515
          ],
          [
            50.305982575269596,
            -96.76245033254388
          ],
          [
            49.84462827801376,
            -96.67015548200673
          ],
          [
            49.47554241372185,
            -96.6701373892991
          ],
          [
            49.106456549429936,
            -96.67011929659147
          ],
          [
            48.73737068513803,
            -96.67010120388386
          ],
          [
            48.276010321664096,
            -96.76235082265194
          ],
          [
            47.72237545900813,
            -96.94686815289577
          ],
          [
            47.168746662570264,
            -96.94684101383432
          ],
          [
            46.79966079827835,
            -96.94682292112671
          ],
          [
            46.43057493398645,
            -96.94680482841908
          ],
          [
            46.06148906969454,
            -96.94678673571147
          ],
          [
            45.6001287062206,
            -97.03903635447956
          ],
          [
            45.23104284192869,
            -97.03901826177194
          ],
          [
            44.86195697763679,
            -97.03900016906431
          ],
          [
            44.492871113344876,
            -97.03898207635669
          ],
          [
            43.93924838312512,
            -96.85441046799001
          ]
        ]
      },
      "properties": {
        "type": "variant",
        "id": 3,
        "color": "#44ff44",
        "vzdal_m": 885,
        "prevyseni_m": 5,
        "cas_s": 229,
        "tempo_str": "4:19"
      }
    }
  ]
}