{
  "type": "FeatureCollection",
  "features": [
    {
      "type": "Feature",
      "geometry": {
        "type": "Point",
        "coordinates": [
          87.57432038546783,
          -229.40403765901664
        ]
      },
      "properties": {
        "type": "start",
        "isom": "204"
      }
    },
    {
      "type": "Feature",
      "geometry": {
        "type": "Point",
        "coordinates": [
          33.481571848024444,
          -174.74929130492055
        ]
      },
      "properties": {
        "type": "end",
        "isom": "204"
      }
    },
    {
      "type": "Feature",
      "geometry": {
        "type": "LineString",
        "coordinates": [
          [
            87.5582235341923,
            -229.685816776619
          ],
          [
            83.1294861187287,
            -226.73302024032918
          ],
          [
            79.43890672540061,
            -223.78022479308547
          ],
          [
            75.74827465273516,
            -221.56562684634505
          ],
          [
            73.53406398301543,
            -217.87463607669022
          ],
          [
            68.36716854541633,
            -214.92183845135435
          ],
          [
            63.938431129952754,
            -211.9690419150645
          ],
          [
            59.50969371448916,
            -209.0162453787747
          ],
          [
            55.81906164182373,
            -206.80164743203431
          ],
          [
            54.34279827689008,
            -206.06344775343882
          ],
          [
            53.60474561342928,
            -204.5870516633861
          ],
          [
            52.12848224849564,
            -203.8488519847906
          ],
          [
            52.12853492783299,
            -203.1106544842873
          ],
          [
            50.652271562899344,
            -202.37245480569177
          ],
          [
            49.914166220101194,
            -201.6342562161424
          ],
          [
            47.6996921536947,
            -201.63425294900412
          ],
          [
            46.223797544122505,
            -195.72867076688544
          ],
          [
            43.27142885226726,
            -192.0376789081845
          ],
          [
            42.533376188806464,
            -190.56128281813182
          ],
          [
            41.79532352534567,
            -189.08488672807908
          ],
          [
            38.84300751282778,
            -184.65569736887488
          ],
          [
            35.89058614163519,
            -181.70290301067726
          ],
          [
            33.676586189264846,
            -175.05912223900918
          ]
        ]
      },
      "properties": {
        "type": "variant",
        "id": 1,
        "color": "#ff4444",
        "vzdal_m": 547,
        "prevyseni_m": 1,
        "cas_s": 160,
        "tempo_str": "4:52"
      }
    },
    {
      "type": "Feature",
      "geometry": {
        "type": "LineString",
        "coordinates": [
          [
            87.5582235341923,
            -229.685816776619
          ],
          [
            82.39127541725586,
            -227.47121665178636
          ],
          [
            78.7005379859157,
            -226.7330137060526
          ],
          [
            73.53337915162987,
            -227.4712035832332
          ],
          [
            68.36653639336814,
            -223.78020845739402
          ],
          [
            65.41390430482613,
            -223.78020410120962
          ],
          [
            62.461272216284144,
            -223.78019974502521
          ],
          [
            58.032482121483206,
            -221.56560070923874
          ],
          [
            53.60374470601962,
            -218.61280417294893
          ],
          [
            49.17500729055603,
            -215.66000763665912
          ],
          [
            48.43690194775788,
            -214.9218090471097
          ],
          [
            47.25171053562569,
            -213.19129645854497
          ],
          [
            44.008269890969,
            -210.49261750981327
          ],
          [
            41.05584851977641,
            -207.53982315161565
          ],
          [
            38.103532507258514,
            -203.11063379241145
          ],
          [
            37.365479843797715,
            -201.63423770235872
          ],
          [
            34.41321651061718,
            -196.46685084265118
          ],
          [
            31.46100585677399,
            -190.56126648244037
          ],
          [
            31.461058536111338,
            -189.82306898193704
          ],
          [
            30.72300587265054,
            -188.34667289188434
          ],
          [
            30.723216589999947,
            -185.39388288987112
          ],
          [
            31.461585329484844,
            -182.44109397690397
          ],
          [
            34.414638852725645,
            -176.53551832906192
          ],
          [
            33.676586189264846,
            -175.05912223900918
          ]
        ]
      },
      "properties": {
        "type": "variant",
        "id": 2,
        "color": "#4444ff",
        "vzdal_m": 611,
        "prevyseni_m": 5,
        "cas_s": 168,
        "tempo_str": "4:35"
      }
    },
    {
      "type": "Feature",
      "geometry": {
        "type": "LineString",
        "coordinates": [
          [
            87.5582235341923,
            -229.685816776619
          ],
          [
            84.6060128803491,
            -223.78023241640813
          ],
          [
            82.39190756930405,
            -218.61284664574669
          ],
          [
            79.43959155678617,
            -214.18365728654248
          ],
          [
            78.70180229001213,
            -209.01627369397323
          ],
          [
            77.22580232176523,
            -204.58708651286122
          ],
          [
            77.22601303911463,
            -201.634296510848
          ],
          [
            77.2261710771267,
            -199.41970400933806
          ],
          [
            76.48811841366589,
            -197.94330791928536
          ],
          [
            74.27390774394615,
            -194.25231714963053
          ],
          [
            72.7976443790125,
            -193.51411747103504
          ],
          [
            71.32138101407885,
            -192.77591779243951
          ],
          [
            69.84511764914521,
            -192.03771811384402
          ],
          [
            68.36885428421155,
            -191.29951843524853
          ],
          [
            63.94001151007327,
            -189.82311689996533
          ],
          [
            61.725590123004125,
            -189.0849161323237
          ],
          [
            58.77322143114888,
            -185.3939242736228
          ],
          [
            55.821010777305695,
            -179.48833991341195
          ],
          [
            55.082958113844896,
            -178.01194382335925
          ],
          [
            53.60669474891125,
            -177.27374414476375
          ],
          [
            52.13043138397761,
            -176.53554446616823
          ],
          [
            49.91595731757111,
            -176.53554119902995
          ],
          [
            46.963219870354415,
            -178.01193184385218
          ],
          [
            43.272482439014276,
            -177.27372889811838
          ],
          [
            39.58174500767414,
            -176.5355259523846
          ],
          [
            36.62911291913214,
            -176.5355215962002
          ],
          [
            33.676586189264846,
            -175.05912223900918
          ]
        ]
      },
      "properties": {
        "type": "variant",
        "id": 3,
        "color": "#44ff44",
        "vzdal_m": 594,
        "prevyseni_m": 0,
        "cas_s": 168,
        "tempo_str": "4:42"
      }
    }
  ]
}