{
  "type": "FeatureCollection",
  "features": [
    {
      "type": "Feature",
      "geometry": {
        "type": "Point",
        "coordinates": [
          124.54554331362559,
          -273.018276934072
        ]
      },
      "properties": {
        "type": "start",
        "isom": "109"
      }
    },
    {
      "type": "Feature",
      "geometry": {
        "type": "Point",
        "coordinates": [
          103.16732487058083,
          -206.55241883626795
        ]
      },
      "properties": {
        "type": "end",
        "isom": "204"
      }
    },
    {
      "type": "Feature",
      "geometry": {
        "type": "LineString",
        "coordinates": [
          [
            124.46301656006352,
            -273.23952375861893
          ],
          [
            123.72491121726537,
            -272.5013251690695
          ],
          [
            122.24864785233174,
            -271.763125490474
          ],
          [
            118.55801577966629,
            -269.54852754373366
          ],
          [
            117.81991043686814,
            -268.81032895418423
          ],
          [
            117.08185777340736,
            -267.3339328641315
          ],
          [
            116.34380510994654,
            -265.8575367740788
          ],
          [
            113.3913310594166,
            -263.6429399163845
          ],
          [
            111.91506769448297,
            -262.904740237789
          ],
          [
            111.17696235168482,
            -262.1665416482396
          ],
          [
            110.43890968822402,
            -260.6901455581869
          ],
          [
            106.01017227276044,
            -257.73734902189705
          ],
          [
            104.53390890782678,
            -256.9991493433016
          ],
          [
            103.05790893957989,
            -252.5699621621895
          ],
          [
            100.84380362853484,
            -247.40257639152807
          ],
          [
            99.36780366028796,
            -242.97338921041606
          ],
          [
            97.89180369204107,
            -238.54420202930405
          ],
          [
            97.89201440939046,
            -235.59141202729083
          ],
          [
            97.33698363224306,
            -232.3376471274925
          ],
          [
            97.89254120276397,
            -228.20943702225776
          ],
          [
            97.89269924077603,
            -225.99484452074782
          ],
          [
            99.36927868173377,
            -222.3038591963235
          ],
          [
            99.36948939908316,
            -219.35106919431024
          ],
          [
            98.63154209429709,
            -216.3982781032509
          ],
          [
            100.10812153525482,
            -212.7072927788266
          ],
          [
            103.06117505849562,
            -206.8017171309845
          ]
        ]
      },
      "properties": {
        "type": "variant",
        "id": 1,
        "color": "#ff4444",
        "vzdal_m": 537,
        "prevyseni_m": 5,
        "cas_s": 152,
        "tempo_str": "4:42"
      }
    },
    {
      "type": "Feature",
      "geometry": {
        "type": "LineString",
        "coordinates": [
          [
            124.46301656006352,
            -273.23952375861893
          ],
          [
            123.72491121726537,
            -272.5013251690695
          ],
          [
            122.24864785233174,
            -271.763125490474
          ],
          [
            120.03422646526259,
            -271.02492472283245
          ],
          [
            118.55796310032895,
            -270.28672504423696
          ],
          [
            117.0816997353953,
            -269.5485253656414
          ],
          [
            116.3435417132598,
            -269.54852427659534
          ],
          [
            114.86727834832617,
            -268.8103245979998
          ],
          [
            111.17664627566072,
            -266.59572665125944
          ],
          [
            107.48606688233262,
            -263.64293120401567
          ],
          [
            106.74801421887183,
            -262.166535113963
          ],
          [
            105.27185621261287,
            -259.9519404343609
          ],
          [
            103.79585624436599,
            -255.52275325324885
          ],
          [
            102.3198562761191,
            -251.09356607213684
          ],
          [
            100.8438563078722,
            -246.66437889102477
          ],
          [
            99.3678563396253,
            -242.23519170991275
          ],
          [
            97.89185637137841,
            -237.80600452880074
          ],
          [
            97.89201440939046,
            -235.59141202729083
          ],
          [
            98.63027779020067,
            -234.11501811533026
          ],
          [
            99.10904737837477,
            -231.48300500987625
          ],
          [
            100.53126001516189,
            -230.61039629618813
          ],
          [
            103.79344704223476,
            -228.20107657623518
          ],
          [
            106.14013928675978,
            -226.97828273210578
          ],
          [
            106.75064818573937,
            -225.25666008879767
          ],
          [
            104.53654287469432,
            -220.08927431813626
          ],
          [
            103.06054290644741,
            -215.6600871370242
          ],
          [
            103.06075362379681,
            -212.70729713501095
          ],
          [
            103.06096434114623,
            -209.75450713299773
          ],
          [
            103.06117505849562,
            -206.8017171309845
          ]
        ]
      },
      "properties": {
        "type": "variant",
        "id": 2,
        "color": "#4444ff",
        "vzdal_m": 561,
        "prevyseni_m": 7,
        "cas_s": 155,
        "tempo_str": "4:35"
      }
    },
    {
      "type": "Feature",
      "geometry": {
        "type": "LineString",
        "coordinates": [
          [
            124.46301656006352,
            -273.23952375861893
          ],
          [
            124.46322727741294,
            -270.2867337566057
          ],
          [
            122.98722730916604,
            -265.8575465754937
          ],
          [
            121.51096394423239,
            -265.11934689689815
          ],
          [
            120.7729112807716,
            -263.6429508068455
          ],
          [
            120.77296396010894,
            -262.9047533063422
          ],
          [
            120.0350693346602,
            -259.21376471477953
          ],
          [
            119.2970166711994,
            -257.7373686247268
          ],
          [
            118.55896400773861,
            -256.2609725346741
          ],
          [
            116.34464797934416,
            -254.0463767660259
          ],
          [
            115.60659531588337,
            -252.5699806759732
          ],
          [
            113.39238464616362,
            -248.87898990631837
          ],
          [
            112.65449002071487,
            -245.18800131475572
          ],
          [
            112.65470073806426,
            -242.2352113127425
          ],
          [
            111.91670075394084,
            -240.0206177221865
          ],
          [
            111.17864809048002,
            -238.54422163213377
          ],
          [
            109.70264812223313,
            -234.11503445102173
          ],
          [
            109.70285883958255,
            -231.16224444900848
          ],
          [
            107.6167003517739,
            -225.91231627549652
          ],
          [
            104.53654287469432,
            -220.08927431813626
          ],
          [
            103.06054290644741,
            -215.6600871370242
          ],
          [
            103.06075362379681,
            -212.70729713501095
          ],
          [
            103.06096434114623,
            -209.75450713299773
          ],
          [
            103.06117505849562,
            -206.8017171309845
          ]
        ]
      },
      "properties": {
        "type": "variant",
        "id": 3,
        "color": "#44ff44",
        "vzdal_m": 487,
        "prevyseni_m": 10,
        "cas_s": 149,
        "tempo_str": "5:05"
      }
    }
  ]
}