{
  "type": "FeatureCollection",
  "features": [
    {
      "type": "Feature",
      "geometry": {
        "type": "Point",
        "coordinates": [
          88.18290659043721,
          -79.76992879412272
        ]
      },
      "properties": {
        "type": "start",
        "isom": "109"
      }
    },
    {
      "type": "Feature",
      "geometry": {
        "type": "Point",
        "coordinates": [
          94.55697695601901,
          -213.17699050315093
        ]
      },
      "properties": {
        "type": "end",
        "isom": "204"
      }
    },
    {
      "type": "Feature",
      "geometry": {
        "type": "LineString",
        "coordinates": [
          [
            88.30707546180996,
            -79.83172526349385
          ],
          [
            86.83060137952691,
            -82.04631558691158
          ],
          [
            86.8304960208522,
            -83.52271058791818
          ],
          [
            86.092232640042,
            -84.9991044998787
          ],
          [
            83.8776532149608,
            -86.47549623374702
          ],
          [
            82.5665334960786,
            -88.2666955710823
          ],
          [
            85.77792557509024,
            -94.02307737036912
          ],
          [
            87.92798643917514,
            -98.09639073160939
          ],
          [
            88.69828742521486,
            -99.55575570131874
          ],
          [
            89.46859967465213,
            -101.01512067104473
          ],
          [
            90.86537624264581,
            -103.6613517115318
          ],
          [
            93.64189016349721,
            -108.92150861551667
          ],
          [
            96.72312789624108,
            -114.75899102240383
          ],
          [
            100.0759660285721,
            -120.35323901512493
          ],
          [
            102.420014929007,
            -125.55184878535485
          ],
          [
            105.50125266335853,
            -131.38930866424212
          ],
          [
            108.5824791343125,
            -137.2267685431128
          ],
          [
            110.14046203196745,
            -140.12443482827211
          ],
          [
            110.90712817334159,
            -141.3806648175596
          ],
          [
            111.1852856869862,
            -145.53133656871717
          ],
          [
            111.18507496963682,
            -148.48412657073038
          ],
          [
            110.44665355081455,
            -152.1751129842008
          ],
          [
            111.1845481762633,
            -155.86610157576345
          ],
          [
            111.92254816038675,
            -158.08069516631946
          ],
          [
            111.9224954810494,
            -158.81889266682276
          ],
          [
            111.18423210023919,
            -160.29528657878328
          ],
          [
            111.18417942090184,
            -161.03348407928658
          ],
          [
            110.44591604009165,
            -162.5098779912471
          ],
          [
            110.44570532274224,
            -165.4626679932603
          ],
          [
            109.70728390391999,
            -169.15365440673077
          ],
          [
            109.7070731865706,
            -172.10644440874398
          ],
          [
            108.96880980576039,
            -173.58283832070452
          ],
          [
            108.23054642495018,
            -175.059232232665
          ],
          [
            108.23033570760079,
            -178.01202223467826
          ],
          [
            108.23012499025138,
            -180.96481223669147
          ],
          [
            107.49175625076649,
            -183.9176011496586
          ],
          [
            108.96775621901338,
            -188.34678833077064
          ],
          [
            108.96770353967602,
            -189.08498583127394
          ],
          [
            108.34362532838976,
            -191.23692704456946
          ],
          [
            106.75291339724544,
            -193.5141675671555
          ],
          [
            106.01465001643523,
            -194.990561479116
          ],
          [
            103.79980719466728,
            -200.15794071550087
          ],
          [
            103.79975451532992,
            -200.89613821600418
          ],
          [
            103.06149113451974,
            -202.37253212796466
          ],
          [
            102.32328043304688,
            -203.1107285394219
          ],
          [
            101.5850170522367,
            -204.5871224513824
          ],
          [
            98.63217424634529,
            -207.53990809721122
          ],
          [
            94.94117341831839,
            -210.492692653994
          ],
          [
            94.20280467883349,
            -213.44548156696112
          ]
        ]
      },
      "properties": {
        "type": "variant",
        "id": 1,
        "color": "#ff4444",
        "vzdal_m": 1007,
        "prevyseni_m": 5,
        "cas_s": 260,
        "tempo_str": "4:17"
      }
    },
    {
      "type": "Feature",
      "geometry": {
        "type": "LineString",
        "coordinates": [
          [
            88.30707546180996,
            -79.83172526349385
          ],
          [
            86.83060137952691,
            -82.04631558691158
          ],
          [
            86.8304960208522,
            -83.52271058791818
          ],
          [
            86.092232640042,
            -84.9991044998787
          ],
          [
            83.8776532149608,
            -86.47549623374702
          ],
          [
            82.5665334960786,
            -88.2666955710823
          ],
          [
            85.77792557509024,
            -94.02307737036912
          ],
          [
            87.92798643917514,
            -98.09639073160939
          ],
          [
            88.69828742521486,
            -99.55575570131874
          ],
          [
            89.46859967465213,
            -101.01512067104473
          ],
          [
            90.86537624264581,
            -103.6613517115318
          ],
          [
            92.19509459172167,
            -106.56649695588494
          ],
          [
            92.16342054097032,
            -107.21712807414103
          ],
          [
            90.51933699604773,
            -110.83602355177102
          ],
          [
            89.78107361523752,
            -112.31241746373152
          ],
          [
            89.78091557722547,
            -114.52700996524145
          ],
          [
            89.04265219641528,
            -116.00340387720196
          ],
          [
            88.30438881560508,
            -117.47979778916249
          ],
          [
            85.35154600971367,
            -120.43258343499132
          ],
          [
            83.87496656875592,
            -124.12356875941568
          ],
          [
            83.87475585140652,
            -127.07635876142889
          ],
          [
            83.87454513405713,
            -130.02914876344212
          ],
          [
            84.61243975950588,
            -133.72013735500474
          ],
          [
            84.61222904215646,
            -136.67292735701798
          ],
          [
            83.87380762333422,
            -140.3639137704884
          ],
          [
            83.13538620451196,
            -144.05490018395884
          ],
          [
            83.8732808299607,
            -147.74588877552148
          ],
          [
            82.39659603032825,
            -152.91326910095242
          ],
          [
            83.13454333511436,
            -155.86606019201173
          ],
          [
            83.13449065577701,
            -156.60425769251506
          ],
          [
            82.3962272749668,
            -158.08065160447558
          ],
          [
            81.65780585614455,
            -161.771638017946
          ],
          [
            78.70475233290375,
            -167.67721366578806
          ],
          [
            77.96648895209356,
            -169.1536075777486
          ],
          [
            79.44248892034045,
            -173.58279475886062
          ],
          [
            80.1803835457892,
            -177.27378335042326
          ],
          [
            81.6563835140361,
            -181.70297053153527
          ],
          [
            81.65617279668669,
            -184.6557605335485
          ],
          [
            81.65606743801199,
            -186.13215553455512
          ],
          [
            82.39412010147278,
            -187.60855162460783
          ],
          [
            83.87012006971968,
            -192.03773880571987
          ],
          [
            86.08422538076472,
            -197.2051245763813
          ],
          [
            86.82212000621347,
            -200.89611316794392
          ],
          [
            88.29811997446035,
            -205.32530034905596
          ],
          [
            90.51227796484275,
            -209.7544886192141
          ],
          [
            93.46469933603535,
            -212.70728297741172
          ],
          [
            94.20280467883349,
            -213.44548156696112
          ]
        ]
      },
      "properties": {
        "type": "variant",
        "id": 2,
        "color": "#4444ff",
        "vzdal_m": 987,
        "prevyseni_m": 8,
        "cas_s": 262,
        "tempo_str": "4:25"
      }
    },
    {
      "type": "Feature",
      "geometry": {
        "type": "LineString",
        "coordinates": [
          [
            88.30707546180996,
            -79.83172526349385
          ],
          [
            86.83060137952691,
            -82.04631558691158
          ],
          [
            86.8304960208522,
            -83.52271058791818
          ],
          [
            86.092232640042,
            -84.9991044998787
          ],
          [
            83.8776532149608,
            -86.47549623374702
          ],
          [
            82.5665334960786,
            -88.2666955710823
          ],
          [
            85.77792557509024,
            -94.02307737036912
          ],
          [
            87.92798643917514,
            -98.09639073160939
          ],
          [
            88.69828742521486,
            -99.55575570131874
          ],
          [
            89.46859967465213,
            -101.01512067104473
          ],
          [
            90.86537624264581,
            -103.6613517115318
          ],
          [
            93.64189016349721,
            -108.92150861551667
          ],
          [
            96.72312789624108,
            -114.75899102240383
          ],
          [
            100.0759660285721,
            -120.35323901512493
          ],
          [
            102.420014929007,
            -125.55184878535485
          ],
          [
            105.50125266335853,
            -131.38930866424212
          ],
          [
            108.5824791343125,
            -137.2267685431128
          ],
          [
            110.14046203196745,
            -140.12443482827211
          ],
          [
            110.90712817334159,
            -141.3806648175596
          ],
          [
            109.70912768072725,
            -143.31674188911504
          ],
          [
            108.23275895711892,
            -144.05493721152615
          ],
          [
            107.49433753829666,
            -147.74592362499658
          ],
          [
            107.49423217962196,
            -149.2223186260032
          ],
          [
            106.75596879881175,
            -150.69871253796373
          ],
          [
            106.75575808146236,
            -153.65150253997695
          ],
          [
            105.27912596116725,
            -158.08068536490458
          ],
          [
            105.2789679231552,
            -160.2952778664145
          ],
          [
            106.01675718992925,
            -165.46266145898375
          ],
          [
            103.8019143681613,
            -170.6300406953686
          ],
          [
            102.3252822478662,
            -175.05922352029623
          ],
          [
            100.84880816558315,
            -177.27381384371398
          ],
          [
            100.1105974641103,
            -178.01201025517116
          ],
          [
            99.37238676263746,
            -178.7502066666284
          ],
          [
            98.63417606116461,
            -179.4884030780856
          ],
          [
            97.89580732167971,
            -182.44119199105273
          ],
          [
            97.8955966043303,
            -185.39398199306595
          ],
          [
            97.89554392499295,
            -186.13217949356925
          ],
          [
            97.15728054418275,
            -187.60857340552977
          ],
          [
            96.41901716337254,
            -189.0849673174903
          ],
          [
            94.2042797002793,
            -192.77595155286852
          ],
          [
            94.2039636242552,
            -197.20513655588837
          ],
          [
            94.20375290690579,
            -200.1579265579016
          ],
          [
            93.46538416742091,
            -203.11071547086874
          ],
          [
            94.203331472207,
            -206.06350656192805
          ],
          [
            94.2031207548576,
            -209.01629656394127
          ],
          [
            94.20291003750819,
            -211.96908656595448
          ],
          [
            94.20280467883349,
            -213.44548156696112
          ]
        ]
      },
      "properties": {
        "type": "variant",
        "id": 3,
        "color": "#44ff44",
        "vzdal_m": 997,
        "prevyseni_m": 6,
        "cas_s": 263,
        "tempo_str": "4:23"
      }
    }
  ]
}