{
  "type": "FeatureCollection",
  "features": [
    {
      "type": "Feature",
      "geometry": {
        "type": "Point",
        "coordinates": [
          137.36733704253714,
          -247.76813369617255
        ]
      },
      "properties": {
        "type": "start",
        "isom": "419"
      }
    },
    {
      "type": "Feature",
      "geometry": {
        "type": "Point",
        "coordinates": [
          87.24314476722975,
          -206.4240246665227
        ]
      },
      "properties": {
        "type": "end",
        "isom": "417"
      }
    },
    {
      "type": "Feature",
      "geometry": {
        "type": "LineString",
        "coordinates": [
          [
            137.33422517945857,
            -247.78277492864157
          ],
          [
            136.59607771574713,
            -247.0445608683953
          ],
          [
            135.8579302520357,
            -246.30634680814904
          ],
          [
            135.11978278832427,
            -245.5681327479028
          ],
          [
            134.38164139083094,
            -244.64537421851006
          ],
          [
            133.45895099497352,
            -243.9071511123487
          ],
          [
            132.35171766697013,
            -243.16891896027226
          ],
          [
            131.42902727111274,
            -242.43069585411095
          ],
          [
            130.69087980740127,
            -241.69248179386466
          ],
          [
            129.95274447612607,
            -240.58517879532548
          ],
          [
            129.21459701241463,
            -239.8469647350792
          ],
          [
            128.2919066165572,
            -239.10874162891787
          ],
          [
            127.55374702040956,
            -238.73961650696455
          ],
          [
            126.26197076026021,
            -238.00137530897305
          ],
          [
            125.15473743225682,
            -237.2631431568966
          ],
          [
            124.04749803803534,
            -236.70945547396667
          ],
          [
            123.49388744025175,
            -236.15579492878197
          ],
          [
            122.91827460767522,
            -236.2244042161245
          ],
          [
            121.46394551773663,
            -235.23297307798364
          ],
          [
            120.72582231889763,
            -233.75658114115146
          ],
          [
            119.9876748551862,
            -233.01836708090516
          ],
          [
            119.06499052554689,
            -232.09559950559736
          ],
          [
            119.24956378878343,
            -231.1728862057801
          ],
          [
            119.24958805365587,
            -230.43470832919417
          ],
          [
            119.24961231852832,
            -229.69653045260824
          ],
          [
            118.88056285154504,
            -228.5892455458992
          ],
          [
            117.40423152681348,
            -228.22008424028553
          ],
          [
            116.48153506473797,
            -227.66640560327068
          ],
          [
            115.74336333615408,
            -227.6663694196103
          ],
          [
            115.0051916075702,
            -227.66633323595
          ],
          [
            114.2670198789863,
            -227.66629705228965
          ],
          [
            112.790700686691,
            -226.92804680838304
          ],
          [
            111.31438149439566,
            -226.18979656447644
          ],
          [
            109.83806230210035,
            -225.45154632056983
          ],
          [
            108.36174310980502,
            -224.71329607666323
          ],
          [
            107.06996684965567,
            -223.9750548786717
          ],
          [
            105.77818452328819,
            -223.42135814982666
          ],
          [
            104.30186533099288,
            -222.68310790592008
          ],
          [
            103.01008907084352,
            -221.94486670792855
          ],
          [
            102.27194160713209,
            -221.2066526476823
          ],
          [
            100.98016534698273,
            -220.46841144969076
          ],
          [
            99.50384615468741,
            -219.73016120578416
          ],
          [
            98.58116182504811,
            -218.80739363047633
          ],
          [
            97.84301436133666,
            -218.0691795702301
          ],
          [
            97.10487296384335,
            -217.14642104083734
          ],
          [
            96.36673763256812,
            -216.03911804229813
          ],
          [
            95.62859016885668,
            -215.30090398205186
          ],
          [
            94.89044270514525,
            -214.56268992180563
          ],
          [
            93.96775230928783,
            -213.82446681564429
          ],
          [
            93.22960484557639,
            -213.08625275539802
          ],
          [
            92.49146344808307,
            -212.16349422600527
          ],
          [
            91.56877911844377,
            -211.24072665069744
          ],
          [
            91.01518065309641,
            -210.31797716721982
          ],
          [
            90.27703318938497,
            -209.57976310697353
          ],
          [
            89.53888572567354,
            -208.84154904672727
          ],
          [
            88.616189263598,
            -208.2878704097124
          ],
          [
            88.43166453010637,
            -207.7342279563579
          ],
          [
            88.24713373039661,
            -207.36512997214984
          ],
          [
            87.50898626668517,
            -206.62691591190358
          ],
          [
            87.32444940075732,
            -206.44236239684201
          ]
        ]
      },
      "properties": {
        "type": "variant",
        "id": 1,
        "color": "#ff4444",
        "vzdal_m": 1843,
        "prevyseni_m": 111,
        "cas_s": 688,
        "tempo_str": "6:13"
      }
    },
    {
      "type": "Feature",
      "geometry": {
        "type": "LineString",
        "coordinates": [
          [
            137.33422517945857,
            -247.78277492864157
          ],
          [
            136.59607771574713,
            -247.0445608683953
          ],
          [
            135.8579302520357,
            -246.30634680814904
          ],
          [
            135.11978278832427,
            -245.5681327479028
          ],
          [
            134.38164139083094,
            -244.64537421851006
          ],
          [
            133.45895099497352,
            -243.9071511123487
          ],
          [
            131.98263180267818,
            -243.1689008684421
          ],
          [
            131.24446007409432,
            -243.1688646847818
          ],
          [
            130.50628834551043,
            -243.16882850112142
          ],
          [
            129.39904288507083,
            -242.79968528733792
          ],
          [
            128.10726055870336,
            -242.2459885584929
          ],
          [
            126.63094136640804,
            -241.5077383145863
          ],
          [
            125.52370803840466,
            -240.76950616250986
          ],
          [
            124.41647471040127,
            -240.03127401043346
          ],
          [
            122.75560651974187,
            -239.47755918975824
          ],
          [
            121.8328857927939,
            -239.6620584293293
          ],
          [
            120.62761652713274,
            -239.40085229300792
          ],
          [
            120.11812777265119,
            -240.25672434921105
          ],
          [
            119.61835847460603,
            -240.03103881664117
          ],
          [
            118.69563168143993,
            -240.4000825253587
          ],
          [
            117.77289275583765,
            -241.1382151723692
          ],
          [
            116.85019629376212,
            -240.58453653535435
          ],
          [
            115.92749983168659,
            -240.0308578983395
          ],
          [
            115.55842003361276,
            -239.84629533736282
          ],
          [
            114.63573570397347,
            -238.92352776205502
          ],
          [
            114.6357539026278,
            -238.36989435461558
          ],
          [
            113.52849630975197,
            -238.36984007912503
          ],
          [
            113.343953377606,
            -238.36983103320998
          ],
          [
            112.97486144709595,
            -238.55435741052628
          ],
          [
            112.05214072014797,
            -238.73885665009732
          ],
          [
            110.94488312727215,
            -238.7388023746068
          ],
          [
            110.20671139868827,
            -238.73876619094642
          ],
          [
            110.0221684665423,
            -238.73875714503137
          ],
          [
            109.65308866846847,
            -238.5541945840547
          ],
          [
            109.4685518025406,
            -238.36964106899316
          ],
          [
            108.17677554239127,
            -237.63139987100163
          ],
          [
            107.43862807867981,
            -236.89318581075537
          ],
          [
            107.25409121275196,
            -236.70863229569383
          ],
          [
            106.88501141467813,
            -236.52406973471716
          ],
          [
            105.96232101882072,
            -235.78584662855582
          ],
          [
            105.22417355510929,
            -235.04763256830955
          ],
          [
            104.30147709303375,
            -234.4939539312947
          ],
          [
            103.56332962932233,
            -233.75573987104843
          ],
          [
            102.82518216561087,
            -233.01752581080217
          ],
          [
            101.7179488376075,
            -232.27929365872575
          ],
          [
            100.24162964531216,
            -231.54104341481911
          ],
          [
            98.94985338516283,
            -230.80280221682762
          ],
          [
            98.21172412010571,
            -229.5109547491419
          ],
          [
            97.8426625206862,
            -228.77275878072584
          ],
          [
            97.47362518613916,
            -227.29638493572384
          ],
          [
            96.73550198730017,
            -225.81999299889165
          ],
          [
            96.73552625217262,
            -225.08181512230576
          ],
          [
            95.9973909208974,
            -223.97451212376652
          ],
          [
            95.62835358635034,
            -222.49813827876451
          ],
          [
            94.89023038751135,
            -221.02174634193238
          ],
          [
            94.15210718867235,
            -219.5453544051002
          ],
          [
            93.22942892525117,
            -218.43804236064588
          ],
          [
            92.860385524486,
            -217.14621298479037
          ],
          [
            92.67585472477626,
            -216.77711500058234
          ],
          [
            92.49132392506651,
            -216.40801701637426
          ],
          [
            91.7531885937913,
            -215.30071401783505
          ],
          [
            90.83051639658821,
            -214.00885750423427
          ],
          [
            90.64602199418714,
            -212.53249270514738
          ],
          [
            89.90789879534813,
            -211.0561007683152
          ],
          [
            89.16977559650914,
            -209.579708831483
          ],
          [
            88.24709126686984,
            -208.6569412561752
          ],
          [
            87.69351100017681,
            -207.18055836525812
          ],
          [
            87.32444940075732,
            -206.44236239684201
          ]
        ]
      },
      "properties": {
        "type": "variant",
        "id": 2,
        "color": "#4444ff",
        "vzdal_m": 1983,
        "prevyseni_m": 97,
        "cas_s": 751,
        "tempo_str": "6:18"
      }
    },
    {
      "type": "Feature",
      "geometry": {
        "type": "LineString",
        "coordinates": [
          [
            137.33422517945857,
            -247.78277492864157
          ],
          [
            136.59607771574713,
            -247.0445608683953
          ],
          [
            135.8579302520357,
            -246.30634680814904
          ],
          [
            135.11978278832427,
            -245.5681327479028
          ],
          [
            134.38164139083094,
            -244.64537421851006
          ],
          [
            133.45895099497352,
            -243.9071511123487
          ],
          [
            132.35171766697013,
            -243.16891896027226
          ],
          [
            131.42902727111274,
            -242.43069585411095
          ],
          [
            130.69087980740127,
            -241.69248179386466
          ],
          [
            129.95275660856228,
            -240.21608985703253
          ],
          [
            129.76824400750687,
            -239.293358465385
          ],
          [
            129.58373140645148,
            -238.37062707373755
          ],
          [
            129.5837556713239,
            -237.63244919715166
          ],
          [
            129.3992430702685,
            -236.70971780550414
          ],
          [
            128.66109560655707,
            -235.9715037452579
          ],
          [
            127.92294814284561,
            -235.23328968501164
          ],
          [
            127.18480674535229,
            -234.3105311556189
          ],
          [
            127.36938000858882,
            -233.38781785580161
          ],
          [
            127.36940427346127,
            -232.6496399792157
          ],
          [
            127.00034874025988,
            -231.72689954165313
          ],
          [
            126.44676240734874,
            -230.4350611198825
          ],
          [
            126.11718158176548,
            -229.7749424027769
          ],
          [
            125.8931760744376,
            -229.1432226981119
          ],
          [
            125.5241144750181,
            -228.4050267296958
          ],
          [
            125.15504074316239,
            -228.03591969957267
          ],
          [
            124.78596701130667,
            -227.66681266944957
          ],
          [
            123.67873368330328,
            -226.92858051737312
          ],
          [
            122.94061048446429,
            -225.45218858054093
          ],
          [
            122.01793222104311,
            -224.34487653608664
          ],
          [
            121.27977262489543,
            -223.97575141413333
          ],
          [
            120.91071709169407,
            -223.05301097657082
          ],
          [
            120.9107413565665,
            -222.3148330999849
          ],
          [
            120.91076562143896,
            -221.57665522339897
          ],
          [
            121.09533888467547,
            -220.65394192358167
          ],
          [
            120.79498057185795,
            -219.80958133073804
          ],
          [
            119.98816015263509,
            -218.25480954918692
          ],
          [
            119.06547582299578,
            -217.3320419738791
          ],
          [
            118.69640209114007,
            -216.96293494375595
          ],
          [
            118.32732229306625,
            -216.77837238277928
          ],
          [
            117.95826675986486,
            -215.85563194521677
          ],
          [
            117.40468042695372,
            -214.56379352344612
          ],
          [
            116.65474226673922,
            -213.4511242364869
          ],
          [
            115.52461258490236,
            -213.17157956748883
          ],
          [
            114.8885804004888,
            -212.91744672680545
          ],
          [
            114.46937637743386,
            -212.79687482571148
          ],
          [
            113.13502374747827,
            -212.43710788959547
          ],
          [
            112.45289795057715,
            -212.24155721893774
          ],
          [
            111.88255551457924,
            -212.17022441848576
          ],
          [
            111.5182978174153,
            -212.09938349505063
          ],
          [
            111.17798132357402,
            -212.00042318758796
          ],
          [
            110.78819390171425,
            -211.8870772763248
          ],
          [
            110.61803565479362,
            -211.8375971225935
          ],
          [
            110.24871239190364,
            -211.77188275122433
          ],
          [
            108.67716409595116,
            -211.16560315729754
          ],
          [
            107.35945117228803,
            -210.45368216519566
          ],
          [
            106.0784844917282,
            -209.70357101768715
          ],
          [
            104.63190851399493,
            -208.95066889562966
          ],
          [
            103.5684538615572,
            -208.28215292993295
          ],
          [
            103.22738034475817,
            -208.05545318255432
          ],
          [
            103.06370470175202,
            -207.96755091175172
          ],
          [
            102.6682601140594,
            -207.82594745515016
          ],
          [
            101.10128662247705,
            -207.29562281224517
          ],
          [
            100.03026154508947,
            -206.8852463852905
          ],
          [
            98.63962823551576,
            -205.99485432382892
          ],
          [
            98.31118853949438,
            -205.75412153515092
          ],
          [
            97.92082854963203,
            -205.52015946234104
          ],
          [
            97.56607559703589,
            -205.20998201501592
          ],
          [
            97.1737240851207,
            -204.91133868587397
          ],
          [
            96.73619353616486,
            -204.78192351619313
          ],
          [
            96.3671016056548,
            -204.9664498935094
          ],
          [
            94.89072781739648,
            -205.88909987192113
          ],
          [
            93.96799495801228,
            -206.44268804978515
          ],
          [
            92.86071916648213,
            -206.99626718173405
          ],
          [
            92.12254743789823,
            -206.99623099807368
          ],
          [
            91.19983884338649,
            -206.81164129935178
          ],
          [
            90.09259338294689,
            -206.4424980855683
          ],
          [
            89.35442772058111,
            -206.2579174327615
          ],
          [
            88.61624992577912,
            -206.44242571824762
          ],
          [
            87.87807819719524,
            -206.44238953458728
          ],
          [
            87.32444940075732,
            -206.44236239684201
          ]
        ]
      },
      "properties": {
        "type": "variant",
        "id": 3,
        "color": "#44ff44",
        "vzdal_m": 2015,
        "prevyseni_m": 115,
        "cas_s": 735,
        "tempo_str": "6:04"
      }
    }
  ]
}