{
  "type": "FeatureCollection",
  "features": [
    {
      "type": "Feature",
      "geometry": {
        "type": "Point",
        "coordinates": [
          80.6554988457615,
          -81.40066998394735
        ]
      },
      "properties": {
        "type": "start",
        "isom": "419"
      }
    },
    {
      "type": "Feature",
      "geometry": {
        "type": "Point",
        "coordinates": [
          74.89465164951369,
          -131.0293781621908
        ]
      },
      "properties": {
        "type": "end",
        "isom": "526"
      }
    },
    {
      "type": "Feature",
      "geometry": {
        "type": "LineString",
        "coordinates": [
          [
            80.64817037627286,
            -81.39839474006263
          ],
          [
            80.27906328021757,
            -82.04428228992337
          ],
          [
            80.18677664859932,
            -82.5056389400096
          ],
          [
            79.817666519435,
            -83.24379872452297
          ],
          [
            79.69938382017493,
            -83.76726135147014
          ],
          [
            79.54081875701648,
            -84.25877973617114
          ],
          [
            79.54080662458026,
            -84.62786867478164
          ],
          [
            79.54079449214404,
            -84.99695761339214
          ],
          [
            79.1716843629797,
            -85.73511739790553
          ],
          [
            79.40682652880912,
            -86.22674405414818
          ],
          [
            79.35619696403514,
            -86.6578487907856
          ],
          [
            79.35618483159891,
            -87.0269377293961
          ],
          [
            79.3561726991627,
            -87.3960266680066
          ],
          [
            79.35616056672649,
            -87.7651156066171
          ],
          [
            79.26387393510824,
            -88.22647225670332
          ],
          [
            79.17158730348999,
            -88.68782890678953
          ],
          [
            79.17157517105379,
            -89.05691784540004
          ],
          [
            79.3560999045454,
            -89.6105602996696
          ],
          [
            79.3560877721092,
            -89.9796492382801
          ],
          [
            79.35607563967298,
            -90.3487381768906
          ],
          [
            79.63286880612854,
            -90.9946573889897
          ],
          [
            79.7251220735472,
            -91.54829532008236
          ],
          [
            79.99805658390875,
            -92.01339770426463
          ],
          [
            80.30800440933746,
            -92.40597434566239
          ],
          [
            80.78443931452341,
            -92.80381064230875
          ],
          [
            80.86672103748907,
            -92.90426736133867
          ],
          [
            80.97415365518398,
            -93.11267546513491
          ],
          [
            81.02839878306008,
            -93.29826958281629
          ],
          [
            81.16802039029545,
            -93.70559378988511
          ],
          [
            81.01683463840632,
            -94.22425344948518
          ],
          [
            80.64772450924198,
            -94.96241323399856
          ],
          [
            80.64771237680577,
            -95.33150217260906
          ],
          [
            80.73996867733348,
            -95.79286786904909
          ],
          [
            80.8322249778612,
            -96.25423356548913
          ],
          [
            81.01674971135282,
            -96.8078760197587
          ],
          [
            81.10900601188052,
            -97.26924171619874
          ],
          [
            81.10899387944433,
            -97.63833065480922
          ],
          [
            81.1089817470081,
            -98.00741959341973
          ],
          [
            81.10896961457189,
            -98.37650853203023
          ],
          [
            81.10895748213568,
            -98.74559747064073
          ],
          [
            81.10894534969947,
            -99.11468640925123
          ],
          [
            81.10893321726324,
            -99.48377534786174
          ],
          [
            81.10892108482703,
            -99.85286428647224
          ],
          [
            81.10890895239082,
            -100.22195322508274
          ],
          [
            81.10889942644458,
            -100.51174839289745
          ],
          [
            81.1088846875184,
            -100.96013110230375
          ],
          [
            81.10887255508217,
            -101.32922004091425
          ],
          [
            81.10886042264596,
            -101.69830897952475
          ],
          [
            81.10884829020975,
            -102.06739791813526
          ],
          [
            81.10883615777354,
            -102.43648685674574
          ],
          [
            81.10882402533731,
            -102.80557579535625
          ],
          [
            81.01653739371908,
            -103.26693244544248
          ],
          [
            80.92425076210083,
            -103.7282890955287
          ],
          [
            80.83196413048259,
            -104.18964574561491
          ],
          [
            80.55512850050029,
            -104.83553781865257
          ],
          [
            80.18601837133595,
            -105.57369760316595
          ],
          [
            79.81691430838971,
            -106.12731291837407
          ],
          [
            79.54007867840741,
            -106.77320499141176
          ],
          [
            79.44779204678916,
            -107.23456164149798
          ],
          [
            79.26323091598888,
            -107.7881860030599
          ],
          [
            78.89412078682456,
            -108.52634578757328
          ],
          [
            78.80183415520631,
            -108.98770243765951
          ],
          [
            78.75436912216198,
            -109.35637668846682
          ],
          [
            78.8380820182992,
            -109.6596791031823
          ],
          [
            78.36717088729252,
            -110.22384752726983
          ],
          [
            78.18348101941768,
            -110.93385384400689
          ],
          [
            78.07469337607407,
            -111.29743452090332
          ],
          [
            77.62852695199575,
            -112.02504817407399
          ],
          [
            77.5748291490533,
            -112.49081909369158
          ],
          [
            77.56530405871935,
            -112.86326975762134
          ],
          [
            77.56704924311465,
            -113.23216470896674
          ],
          [
            77.3972428740621,
            -113.76889834599152
          ],
          [
            77.20218090719256,
            -114.24199709518415
          ],
          [
            77.20758413681862,
            -114.63036940031306
          ],
          [
            77.33714347771136,
            -115.07507866075872
          ],
          [
            77.40958708846512,
            -115.42954306329537
          ],
          [
            76.9561682512406,
            -116.18484627702617
          ],
          [
            76.6793326212583,
            -116.83073835006384
          ],
          [
            76.67932048882207,
            -117.19982728867434
          ],
          [
            76.58703385720383,
            -117.66118393876057
          ],
          [
            76.2179237280395,
            -118.39934372327394
          ],
          [
            76.12564316263936,
            -118.67615590405491
          ],
          [
            76.21790856249423,
            -118.86070489653706
          ],
          [
            76.3101739623491,
            -119.04525388901922
          ],
          [
            76.31016182991289,
            -119.41434282762972
          ],
          [
            76.31015879680383,
            -119.50661506228235
          ],
          [
            76.31015576369478,
            -119.59888729693498
          ],
          [
            76.31015273058573,
            -119.6911595315876
          ],
          [
            76.31014969747666,
            -119.78343176624023
          ],
          [
            76.35268007019762,
            -120.13664031762997
          ],
          [
            76.3285411645262,
            -120.52479526628724
          ],
          [
            76.37473703994507,
            -120.88829039924286
          ],
          [
            76.45366065074721,
            -121.33143256329828
          ],
          [
            76.4437859232676,
            -121.69931544373081
          ],
          [
            76.31007083664127,
            -122.18250986720848
          ],
          [
            76.31005870420506,
            -122.55159880581898
          ],
          [
            76.21777207258683,
            -123.01295545590521
          ],
          [
            76.2177599401506,
            -123.3820443945157
          ],
          [
            76.03319880935034,
            -123.93566875607765
          ],
          [
            75.94091217773209,
            -124.39702540616389
          ],
          [
            75.94090004529586,
            -124.7661143447744
          ],
          [
            76.03315937893264,
            -125.13520780656178
          ],
          [
            76.0919400352971,
            -125.32170180813002
          ],
          [
            75.83417963994138,
            -125.58474999670342
          ],
          [
            75.57176868436817,
            -126.15017977185614
          ],
          [
            75.47948205274992,
            -126.61153642194236
          ],
          [
            75.20264642276761,
            -127.25742849498
          ],
          [
            74.9258107927853,
            -127.90332056801769
          ],
          [
            74.83352416116706,
            -128.3646772181039
          ],
          [
            74.83351202873085,
            -128.7337661567144
          ],
          [
            74.83349989629463,
            -129.1028550953249
          ],
          [
            74.83348776385841,
            -129.47194403393542
          ],
          [
            74.92574406438612,
            -129.93330973037544
          ],
          [
            74.92573193194991,
            -130.30239866898594
          ],
          [
            74.9257197995137,
            -130.67148760759645
          ],
          [
            74.92570766707749,
            -131.04057654620695
          ]
        ]
      },
      "properties": {
        "type": "variant",
        "id": 1,
        "color": "#ff4444",
        "vzdal_m": 2826,
        "prevyseni_m": 9,
        "cas_s": 743,
        "tempo_str": "4:23"
      }
    },
    {
      "type": "Feature",
      "geometry": {
        "type": "LineString",
        "coordinates": [
          [
            80.64817037627286,
            -81.39839474006263
          ],
          [
            80.27906328021757,
            -82.04428228992337
          ],
          [
            80.18677664859932,
            -82.5056389400096
          ],
          [
            79.817666519435,
            -83.24379872452297
          ],
          [
            79.69938382017493,
            -83.76726135147014
          ],
          [
            79.54081875701648,
            -84.25877973617114
          ],
          [
            79.54080662458026,
            -84.62786867478164
          ],
          [
            79.17170862785214,
            -84.99693952068452
          ],
          [
            78.74616382929786,
            -85.57020267564789
          ],
          [
            78.43349443574157,
            -86.28871462040604
          ],
          [
            78.43348230330535,
            -86.65780355901654
          ],
          [
            78.34119567168712,
            -87.11916020910276
          ],
          [
            78.0643600417048,
            -87.7650522821404
          ],
          [
            78.06434790926859,
            -88.1341412207509
          ],
          [
            77.78751227928629,
            -88.78003329378858
          ],
          [
            77.78750014685008,
            -89.14912223239908
          ],
          [
            77.78748801441385,
            -89.51821117100958
          ],
          [
            77.78747588197764,
            -89.88730010962009
          ],
          [
            77.78746374954143,
            -90.25638904823059
          ],
          [
            77.87972005006914,
            -90.71775474467061
          ],
          [
            77.91921876395283,
            -91.23835275067113
          ],
          [
            77.97196421816064,
            -91.54820937972116
          ],
          [
            77.97195208572441,
            -91.91729831833166
          ],
          [
            77.87966545410617,
            -92.37865496841788
          ],
          [
            77.97192782085199,
            -92.65547619555265
          ],
          [
            78.03064801384129,
            -92.92186796583026
          ],
          [
            78.45309264513301,
            -93.16287640439675
          ],
          [
            78.80234068441825,
            -93.57823925067106
          ],
          [
            79.17140228383774,
            -94.31643522059969
          ],
          [
            79.17139015140151,
            -94.6855241592102
          ],
          [
            79.07910351978327,
            -95.14688080929642
          ],
          [
            79.07909138734705,
            -95.51596974790692
          ],
          [
            79.07907925491084,
            -95.88505868651743
          ],
          [
            79.07906712247463,
            -96.25414762512793
          ],
          [
            79.07905499003841,
            -96.62323656373842
          ],
          [
            79.07904285760219,
            -96.99232550234892
          ],
          [
            79.07903072516599,
            -97.36141444095942
          ],
          [
            79.07901859272977,
            -97.73050337956992
          ],
          [
            79.07900646029356,
            -98.09959231818043
          ],
          [
            79.07899432785734,
            -98.46868125679093
          ],
          [
            79.07898219542113,
            -98.83777019540143
          ],
          [
            78.89442106462086,
            -99.39139455696336
          ],
          [
            78.70985993382058,
            -99.94501891852532
          ],
          [
            78.61926138010612,
            -100.36420800510678
          ],
          [
            78.5252866705841,
            -100.86773221869777
          ],
          [
            78.34072553978382,
            -101.4213565802597
          ],
          [
            78.24843890816558,
            -101.88271323034593
          ],
          [
            78.06387777736529,
            -102.43633759190786
          ],
          [
            77.87931664656502,
            -102.98996195346979
          ],
          [
            77.8793045141288,
            -103.35905089208029
          ],
          [
            77.6024688841465,
            -104.00494296511798
          ],
          [
            77.41790775334621,
            -104.5585673266799
          ],
          [
            77.41789562091002,
            -104.92765626529041
          ],
          [
            77.23333449010973,
            -105.48128062685235
          ],
          [
            77.04877335930946,
            -106.03490498841428
          ],
          [
            76.95648672769121,
            -106.4962616385005
          ],
          [
            76.77192559689094,
            -107.04988600006246
          ],
          [
            76.58736446609066,
            -107.6035103616244
          ],
          [
            76.440473715754,
            -108.09656961131421
          ],
          [
            76.63601310696389,
            -108.36805580450951
          ],
          [
            76.37005086727683,
            -108.87448334850583
          ],
          [
            76.06440263829354,
            -109.51838864993508
          ],
          [
            75.91881012629376,
            -110.08919194161442
          ],
          [
            75.80494710847653,
            -110.5451601849951
          ],
          [
            75.66397908448647,
            -111.1096713274519
          ],
          [
            75.55011606666923,
            -111.56563957083259
          ],
          [
            75.43625304885198,
            -112.02160781421327
          ],
          [
            75.29528502486193,
            -112.58611895667008
          ],
          [
            75.19198608543216,
            -113.04397122730494
          ],
          [
            75.18373681833893,
            -113.42031631123325
          ],
          [
            75.01854025832536,
            -113.97021765864817
          ],
          [
            74.83397912752508,
            -114.5238420202101
          ],
          [
            74.64941799672482,
            -115.07746638177203
          ],
          [
            74.6494058642886,
            -115.44655532038253
          ],
          [
            74.74167126414346,
            -115.6311043128647
          ],
          [
            74.83392756467119,
            -116.09247000930473
          ],
          [
            75.01845229816281,
            -116.6461124635743
          ],
          [
            75.11070859869052,
            -117.10747816001431
          ],
          [
            75.11069646625431,
            -117.47656709862481
          ],
          [
            75.11068433381809,
            -117.84565603723532
          ],
          [
            75.11067220138189,
            -118.21474497584582
          ],
          [
            75.11066006894566,
            -118.58383391445632
          ],
          [
            75.11064793650945,
            -118.95292285306682
          ],
          [
            75.01836130489122,
            -119.41427950315305
          ],
          [
            74.92608377260012,
            -119.59881944928141
          ],
          [
            75.30100198297583,
            -120.04993731910176
          ],
          [
            75.58934367367875,
            -120.2142562596522
          ],
          [
            75.88644805217677,
            -120.50011863589673
          ],
          [
            76.0507420108617,
            -120.78847618352187
          ],
          [
            76.30450885364235,
            -121.34658349826398
          ],
          [
            76.4437859232676,
            -121.69931544373081
          ],
          [
            76.40234533582331,
            -122.09024215573277
          ],
          [
            76.31005870420506,
            -122.55159880581898
          ],
          [
            76.21777207258683,
            -123.01295545590521
          ],
          [
            76.2177599401506,
            -123.3820443945157
          ],
          [
            76.03319880935034,
            -123.93566875607765
          ],
          [
            75.94091217773209,
            -124.39702540616389
          ],
          [
            75.94090004529586,
            -124.7661143447744
          ],
          [
            76.03315937893264,
            -125.13520780656178
          ],
          [
            76.0919400352971,
            -125.32170180813002
          ],
          [
            75.83417963994138,
            -125.58474999670342
          ],
          [
            75.57176868436817,
            -126.15017977185614
          ],
          [
            75.47948205274992,
            -126.61153642194236
          ],
          [
            75.20264642276761,
            -127.25742849498
          ],
          [
            74.9258107927853,
            -127.90332056801769
          ],
          [
            74.83352416116706,
            -128.3646772181039
          ],
          [
            74.83351202873085,
            -128.7337661567144
          ],
          [
            74.83349989629463,
            -129.1028550953249
          ],
          [
            74.83348776385841,
            -129.47194403393542
          ],
          [
            74.92574406438612,
            -129.93330973037544
          ],
          [
            74.92573193194991,
            -130.30239866898594
          ],
          [
            74.9257197995137,
            -130.67148760759645
          ],
          [
            74.92570766707749,
            -131.04057654620695
          ]
        ]
      },
      "properties": {
        "type": "variant",
        "id": 2,
        "color": "#4444ff",
        "vzdal_m": 2844,
        "prevyseni_m": 15,
        "cas_s": 743,
        "tempo_str": "4:21"
      }
    },
    {
      "type": "Feature",
      "geometry": {
        "type": "LineString",
        "coordinates": [
          [
            80.64817037627286,
            -81.39839474006263
          ],
          [
            80.27906328021757,
            -82.04428228992337
          ],
          [
            80.37131958074528,
            -82.5056479863634
          ],
          [
            80.55584431423692,
            -83.05929044063298
          ],
          [
            80.64810061476463,
            -83.520656137073
          ],
          [
            80.6480884823284,
            -83.8897450756835
          ],
          [
            80.74034478285613,
            -84.35111077212355
          ],
          [
            81.06293012366037,
            -85.0378750670654
          ],
          [
            81.4100982653298,
            -85.66805273145495
          ],
          [
            81.47156940144914,
            -86.11427185881168
          ],
          [
            81.8556008302053,
            -86.83065433591858
          ],
          [
            82.19208053227173,
            -87.24693267845723
          ],
          [
            82.67355642963948,
            -87.5878213470381
          ],
          [
            82.98332844250739,
            -87.79845281768677
          ],
          [
            83.13926944395517,
            -88.4112066994386
          ],
          [
            83.3237941774468,
            -88.96484915370817
          ],
          [
            83.41605047797451,
            -89.4262148501482
          ],
          [
            83.4160383455383,
            -89.7953037887587
          ],
          [
            83.508294646066,
            -90.25666948519873
          ],
          [
            83.60055094659371,
            -90.71803518163877
          ],
          [
            83.96961557912225,
            -91.36395891691475
          ],
          [
            84.24641784490497,
            -91.73306142505598
          ],
          [
            84.61548247743349,
            -92.37898516033198
          ],
          [
            84.98455014307108,
            -92.93263666095535
          ],
          [
            85.07681554292594,
            -93.11718565343752
          ],
          [
            85.26134027641758,
            -93.67082810770707
          ],
          [
            85.44586500990923,
            -94.22447056197664
          ],
          [
            85.63039580961896,
            -94.59356854694097
          ],
          [
            85.63038367718275,
            -94.96265748555147
          ],
          [
            85.81490841067438,
            -95.51629993982104
          ],
          [
            85.72262177905613,
            -95.97765658990726
          ],
          [
            85.72260964661992,
            -96.34674552851776
          ],
          [
            85.63032301500168,
            -96.80810217860397
          ],
          [
            85.83860946119022,
            -97.34810495823271
          ],
          [
            86.18527565726508,
            -98.0527196794513
          ],
          [
            86.55297398044132,
            -98.74586433807816
          ],
          [
            86.76179309384462,
            -99.30572629177112
          ],
          [
            86.72143662527131,
            -99.66790708221774
          ],
          [
            86.74011657880209,
            -100.14589063853705
          ],
          [
            86.86003380076826,
            -100.61263695673229
          ],
          [
            87.13228912180388,
            -101.2704944200421
          ],
          [
            87.50135072122336,
            -102.00869038997071
          ],
          [
            87.87041232064283,
            -102.74688635989935
          ],
          [
            88.23947392006231,
            -103.485082329828
          ],
          [
            88.54421774472077,
            -104.11616253350631
          ],
          [
            88.88866107603883,
            -104.862329303013
          ],
          [
            89.03749702764087,
            -105.29937665525817
          ],
          [
            89.15067944796641,
            -105.7562159081247
          ],
          [
            89.22974330051599,
            -106.21992109716557
          ],
          [
            89.26978364796544,
            -106.5846131511241
          ],
          [
            89.30211575741549,
            -106.95587472743566
          ],
          [
            89.26021893750631,
            -107.33300566589813
          ],
          [
            89.20059467139059,
            -107.59732731679023
          ],
          [
            89.06178154233274,
            -107.98100812080753
          ],
          [
            88.72985266787913,
            -108.48187845867203
          ],
          [
            88.41884485545711,
            -108.8233890656984
          ],
          [
            87.9461739629991,
            -109.19310279302073
          ],
          [
            87.48873465712273,
            -109.7095770592193
          ],
          [
            87.39349379833828,
            -110.16668314097018
          ],
          [
            87.30614174394043,
            -110.63512462194163
          ],
          [
            87.14217743080481,
            -111.19752783014543
          ],
          [
            86.99916442752296,
            -111.75243012382177
          ],
          [
            86.9031324639444,
            -112.21467459138024
          ],
          [
            86.73989013526386,
            -112.77213672482256
          ],
          [
            86.64476924839289,
            -113.23260970171727
          ],
          [
            86.55248261677464,
            -113.69396635180348
          ],
          [
            86.36792148597438,
            -114.24759071336541
          ],
          [
            86.27563485435613,
            -114.70894736345164
          ],
          [
            86.09107372355587,
            -115.26257172501357
          ],
          [
            85.90651259275558,
            -115.81619608657553
          ],
          [
            85.62968606210043,
            -116.18527145565531
          ],
          [
            84.98377366715339,
            -116.55432873202749
          ],
          [
            84.61401202556152,
            -116.91689367573944
          ],
          [
            84.43011757273403,
            -117.38475170483966
          ],
          [
            84.08425293828233,
            -117.98390763318808
          ],
          [
            83.42236854140022,
            -118.32166574222607
          ],
          [
            82.76048179156457,
            -118.65941871953873
          ],
          [
            82.0253867551897,
            -119.03452460188053
          ],
          [
            81.29029171881483,
            -119.4096304842223
          ],
          [
            80.55519668243996,
            -119.78473636656406
          ],
          [
            79.8201016460651,
            -120.15984224890586
          ],
          [
            79.08500660969021,
            -120.53494813124765
          ],
          [
            78.60689218460433,
            -120.7789213924012
          ],
          [
            78.24780195526432,
            -121.25988250739725
          ],
          [
            77.87870092542715,
            -121.72122558795274
          ],
          [
            77.60187439477201,
            -122.09030095703255
          ],
          [
            77.50958776315376,
            -122.55165760711877
          ],
          [
            77.6205121626375,
            -122.99903175150155
          ],
          [
            77.6370751158403,
            -123.3898105787499
          ],
          [
            77.56011778159882,
            -123.74208841937215
          ],
          [
            77.33786681076072,
            -124.27122381002903
          ],
          [
            77.01727520445601,
            -125.02887086561333
          ],
          [
            76.791554171921,
            -125.69401594635178
          ],
          [
            76.67902627724389,
            -126.150234049979
          ],
          [
            76.58673964562564,
            -126.61159070006524
          ],
          [
            76.2176295164613,
            -127.3497504845786
          ],
          [
            76.12534288484306,
            -127.81110713466482
          ],
          [
            76.12533075240684,
            -128.1801960732753
          ],
          [
            75.94076962160658,
            -128.73382043483727
          ],
          [
            75.75620849080629,
            -129.28744479639923
          ],
          [
            75.479372860824,
            -129.93333686943686
          ],
          [
            75.20253723084168,
            -130.57922894247451
          ],
          [
            74.92570766707749,
            -131.04057654620695
          ]
        ]
      },
      "properties": {
        "type": "variant",
        "id": 3,
        "color": "#44ff44",
        "vzdal_m": 3128,
        "prevyseni_m": 5,
        "cas_s": 739,
        "tempo_str": "3:56"
      }
    },
    {
      "type": "Feature",
      "geometry": {
        "type": "LineString",
        "coordinates": [
          [
            80.64817037627286,
            -81.39839474006263
          ],
          [
            80.27906328021757,
            -82.04428228992337
          ],
          [
            80.37131958074528,
            -82.5056479863634
          ],
          [
            80.46357588127299,
            -82.96701368280344
          ],
          [
            80.64810061476463,
            -83.520656137073
          ],
          [
            80.6480884823284,
            -83.8897450756835
          ],
          [
            80.74034478285613,
            -84.35111077212355
          ],
          [
            81.10940941538465,
            -84.99703450739955
          ],
          [
            81.47847404791318,
            -85.64295824267553
          ],
          [
            81.57073034844089,
            -86.10432393911557
          ],
          [
            81.93979498096944,
            -86.75024767439157
          ],
          [
            82.21659421364309,
            -87.21162241718541
          ],
          [
            82.77021087764473,
            -87.58073849485734
          ],
          [
            83.41609900771937,
            -87.9498590957062
          ],
          [
            84.15425860386696,
            -88.31898421973193
          ],
          [
            84.33879850290387,
            -88.41126550073838
          ],
          [
            84.80014370083254,
            -88.78037705523342
          ],
          [
            85.07694596661526,
            -89.14947956337463
          ],
          [
            85.44601059914379,
            -89.79540329865063
          ],
          [
            85.81508129789043,
            -90.25678256462137
          ],
          [
            86.27642346271006,
            -90.71816635376902
          ],
          [
            86.46095729552884,
            -90.99499210408072
          ],
          [
            86.73775652820251,
            -91.45636684687456
          ],
          [
            86.92228126169414,
            -92.01000930114412
          ],
          [
            87.2913428611136,
            -92.74820527107275
          ],
          [
            87.6604105267512,
            -93.30185677169612
          ],
          [
            87.93720369320675,
            -93.94777598379522
          ],
          [
            88.02946605995257,
            -94.22459721093
          ],
          [
            88.12172236048028,
            -94.68596290737004
          ],
          [
            88.30624709397192,
            -95.2396053616396
          ],
          [
            88.6753086933914,
            -95.97780133156822
          ],
          [
            88.76757106013721,
            -96.254622558703
          ],
          [
            88.767558927701,
            -96.62371149731351
          ],
          [
            88.76755589459195,
            -96.71598373196613
          ],
          [
            88.39845789786382,
            -97.08505457786903
          ],
          [
            87.93708540195367,
            -97.54639313524761
          ],
          [
            87.56798133900745,
            -98.10000845045576
          ],
          [
            87.38343537375243,
            -98.19227163875456
          ],
          [
            87.01432827769716,
            -98.83815918861531
          ],
          [
            86.82977018000594,
            -99.29951131552464
          ],
          [
            86.73748354838769,
            -99.76086796561086
          ],
          [
            86.73747141595148,
            -100.12995690422136
          ],
          [
            87.01426458240702,
            -100.77587611632045
          ],
          [
            87.29105774886258,
            -101.42179532841955
          ],
          [
            87.66011934828207,
            -102.15999129834817
          ],
          [
            87.75237564880977,
            -102.62135699478819
          ],
          [
            88.12143724822926,
            -103.35955296471683
          ],
          [
            88.49049884764874,
            -104.09774893464547
          ],
          [
            88.85956044706822,
            -104.83594490457408
          ],
          [
            89.04408518055985,
            -105.38958735884364
          ],
          [
            89.13634451419661,
            -105.75868082063106
          ],
          [
            89.22860081472432,
            -106.22004651707108
          ],
          [
            89.2285886822881,
            -106.58913545568159
          ],
          [
            89.2285765498519,
            -106.95822439429209
          ],
          [
            89.22856441741567,
            -107.32731333290259
          ],
          [
            89.22855531808851,
            -107.60413003686047
          ],
          [
            89.04400025350635,
            -107.97320992911716
          ],
          [
            88.67489922366917,
            -108.43455300967265
          ],
          [
            88.39807269301403,
            -108.80362837875245
          ],
          [
            87.93670323021293,
            -109.1726947014784
          ],
          [
            87.56759916726669,
            -109.72631001668655
          ],
          [
            87.47531253564846,
            -110.18766666677277
          ],
          [
            87.29075140484818,
            -110.74129102833471
          ],
          [
            87.19846477322994,
            -111.20264767842093
          ],
          [
            87.01390364242965,
            -111.75627203998286
          ],
          [
            86.92161701081142,
            -112.21762869006909
          ],
          [
            86.73705588001114,
            -112.77125305163105
          ],
          [
            86.64476924839289,
            -113.23260970171727
          ],
          [
            86.55248261677464,
            -113.69396635180348
          ],
          [
            86.36792148597438,
            -114.24759071336541
          ],
          [
            86.27563485435613,
            -114.70894736345164
          ],
          [
            86.09107372355587,
            -115.26257172501357
          ],
          [
            85.90651259275558,
            -115.81619608657553
          ],
          [
            85.62968606210043,
            -116.18527145565531
          ],
          [
            84.98377366715339,
            -116.55432873202749
          ],
          [
            84.52240420435228,
            -116.92339505475344
          ],
          [
            84.15330014140605,
            -117.47701036996156
          ],
          [
            83.78420214467793,
            -117.84608121586446
          ],
          [
            83.32282964876778,
            -118.30741977324304
          ],
          [
            82.7691887198937,
            -118.67648157279211
          ],
          [
            82.03100485887367,
            -119.04553432598738
          ],
          [
            81.29282099785364,
            -119.41458707918264
          ],
          [
            80.55463713683362,
            -119.78363983237787
          ],
          [
            79.81645327581357,
            -120.15269258557313
          ],
          [
            79.07826941479355,
            -120.5217453387684
          ],
          [
            78.6169029851015,
            -120.79853942684176
          ],
          [
            78.24780195526432,
            -121.25988250739725
          ],
          [
            77.87870092542715,
            -121.72122558795274
          ],
          [
            77.60187439477201,
            -122.09030095703255
          ],
          [
            77.50958776315376,
            -122.55165760711877
          ],
          [
            77.60184406368147,
            -123.0130233035588
          ],
          [
            77.60183193124526,
            -123.3821122421693
          ],
          [
            77.60181979880905,
            -123.7512011807798
          ],
          [
            77.41725866800877,
            -124.30482554234175
          ],
          [
            77.04814853884443,
            -125.04298532685512
          ],
          [
            76.77131290886213,
            -125.68887739989279
          ],
          [
            76.67902627724389,
            -126.150234049979
          ],
          [
            76.58673964562564,
            -126.61159070006524
          ],
          [
            76.2176295164613,
            -127.3497504845786
          ],
          [
            76.12534288484306,
            -127.81110713466482
          ],
          [
            76.12533075240684,
            -128.1801960732753
          ],
          [
            76.0330441207886,
            -128.64155272336154
          ],
          [
            75.75620849080629,
            -129.28744479639923
          ],
          [
            75.479372860824,
            -129.93333686943686
          ],
          [
            75.20253723084168,
            -130.57922894247451
          ],
          [
            74.92570766707749,
            -131.04057654620695
          ]
        ]
      },
      "properties": {
        "type": "variant",
        "id": 4,
        "color": "#ffaa00",
        "vzdal_m": 3235,
        "prevyseni_m": 5,
        "cas_s": 737,
        "tempo_str": "3:47"
      }
    }
  ]
}