{
  "type": "FeatureCollection",
  "features": [
    {
      "type": "Feature",
      "geometry": {
        "type": "Point",
        "coordinates": [
          107.93992297674076,
          -178.63522300760917
        ]
      },
      "properties": {
        "type": "start",
        "isom": "204"
      }
    },
    {
      "type": "Feature",
      "geometry": {
        "type": "Point",
        "coordinates": [
          175.37902156901305,
          -209.3249522016167
        ]
      },
      "properties": {
        "type": "end",
        "isom": "419"
      }
    },
    {
      "type": "Feature",
      "geometry": {
        "type": "LineString",
        "coordinates": [
          [
            107.96291166760466,
            -178.6649996365064
          ],
          [
            108.88561419589831,
            -179.03413380437476
          ],
          [
            109.62380412313651,
            -178.48053658059567
          ],
          [
            109.99288392121034,
            -178.66509914157234
          ],
          [
            110.73103138492179,
            -179.4033132018186
          ],
          [
            112.02281371128925,
            -179.95700993066365
          ],
          [
            113.3145839052205,
            -180.87979559780163
          ],
          [
            114.97546422831613,
            -181.06442148018388
          ],
          [
            116.45178342061146,
            -181.8026717240905
          ],
          [
            117.92810261290677,
            -182.5409219679971
          ],
          [
            119.21988493927425,
            -183.09461869684213
          ],
          [
            120.88075312993365,
            -183.64833351751733
          ],
          [
            121.80344352579105,
            -184.38655662367867
          ],
          [
            122.5415909895025,
            -185.12477068392494
          ],
          [
            123.27973238699583,
            -186.0475292133177
          ],
          [
            124.75605157929114,
            -186.7857794572243
          ],
          [
            125.4942111754388,
            -187.15490457917758
          ],
          [
            126.78599350180627,
            -187.70860130802262
          ],
          [
            127.89322682980965,
            -188.44683346009907
          ],
          [
            129.18500915617713,
            -189.0005301889441
          ],
          [
            130.66132834847244,
            -189.73878043285072
          ],
          [
            132.13764754076777,
            -190.47703067675732
          ],
          [
            133.24489300120737,
            -190.8461738905408
          ],
          [
            133.6139727992812,
            -191.03073645151744
          ],
          [
            134.35212026299266,
            -191.7689505117637
          ],
          [
            135.27481065885004,
            -192.50717361792505
          ],
          [
            136.38204398685343,
            -193.2454057700015
          ],
          [
            137.75397208068534,
            -193.9717363940744
          ],
          [
            137.78479385753803,
            -194.1791319932994
          ],
          [
            138.22743691100447,
            -194.3527630440312
          ],
          [
            138.59651670907832,
            -194.53732560500788
          ],
          [
            138.96559650715216,
            -194.72188816598452
          ],
          [
            139.70376823573602,
            -194.7219243496449
          ],
          [
            140.07284803380986,
            -194.9064869106215
          ],
          [
            140.25739096595584,
            -194.90649595653662
          ],
          [
            140.62647076402965,
            -195.09105851751326
          ],
          [
            140.9955505621035,
            -195.27562107848993
          ],
          [
            141.36463036017733,
            -195.46018363946655
          ],
          [
            141.5491732923233,
            -195.46019268538166
          ],
          [
            143.0254924846186,
            -196.19844292928823
          ],
          [
            144.1327379450582,
            -196.56758614307174
          ],
          [
            145.2399834054978,
            -196.93672935685518
          ],
          [
            145.9781490678636,
            -197.121310009662
          ],
          [
            146.7163268626656,
            -196.9368017241759
          ],
          [
            147.4544985912495,
            -196.93683790783624
          ],
          [
            148.19267031983335,
            -196.93687409149658
          ],
          [
            148.93084204841725,
            -196.93691027515692
          ],
          [
            150.03808750885685,
            -197.30605348894042
          ],
          [
            151.3298577027881,
            -198.2288391560784
          ],
          [
            152.9907258934475,
            -198.78255397675363
          ],
          [
            154.09797135388712,
            -199.15169719053708
          ],
          [
            155.02067994839885,
            -199.336286889259
          ],
          [
            156.31245620854818,
            -200.07452808725048
          ],
          [
            157.78877540084352,
            -200.81277833115712
          ],
          [
            158.71148399535528,
            -200.99736802987903
          ],
          [
            159.44965572393914,
            -200.99740421353937
          ],
          [
            160.18782745252304,
            -200.99744039719968
          ],
          [
            161.1105360470348,
            -201.18203009592165
          ],
          [
            161.84870777561866,
            -201.18206627958196
          ],
          [
            162.58687950420256,
            -201.1821024632423
          ],
          [
            163.32505123278645,
            -201.18213864690267
          ],
          [
            163.87868002922434,
            -201.1821657846479
          ],
          [
            164.24775982729818,
            -201.36672834562458
          ],
          [
            164.61683962537202,
            -201.55129090660122
          ],
          [
            164.98592548966394,
            -201.5513089984314
          ],
          [
            165.35500528773778,
            -201.73587155940803
          ],
          [
            165.72408508581162,
            -201.92043412038467
          ],
          [
            167.20040427810693,
            -202.6586843642913
          ],
          [
            168.12310680640059,
            -203.0278185321597
          ],
          [
            168.4921866044744,
            -203.21238109313634
          ],
          [
            169.5994259986959,
            -203.76606877606628
          ],
          [
            170.70665932669928,
            -204.50430092814273
          ],
          [
            171.44480679041072,
            -205.242514988389
          ],
          [
            171.99840525575806,
            -206.16526447186664
          ],
          [
            172.9211017178336,
            -206.7189431088815
          ],
          [
            173.29018151590742,
            -206.90350566985816
          ],
          [
            173.65926131398126,
            -207.0880682308348
          ],
          [
            174.3974087776927,
            -207.82628229108107
          ],
          [
            174.7664825095484,
            -208.19538932120417
          ],
          [
            174.95101330925817,
            -208.56448730541223
          ],
          [
            175.135550175186,
            -208.7490408204738
          ],
          [
            175.3200809748958,
            -209.11813880468185
          ],
          [
            175.32007490867767,
            -209.30268327382834
          ]
        ]
      },
      "properties": {
        "type": "variant",
        "id": 1,
        "color": "#ff4444",
        "vzdal_m": 2081,
        "prevyseni_m": 9,
        "cas_s": 579,
        "tempo_str": "4:38"
      }
    },
    {
      "type": "Feature",
      "geometry": {
        "type": "LineString",
        "coordinates": [
          [
            107.96291166760466,
            -178.6649996365064
          ],
          [
            108.88561419589831,
            -179.03413380437476
          ],
          [
            109.62380412313651,
            -178.48053658059567
          ],
          [
            109.99288392121034,
            -178.66509914157234
          ],
          [
            110.73103138492179,
            -179.4033132018186
          ],
          [
            112.02281371128925,
            -179.95700993066365
          ],
          [
            113.3145839052205,
            -180.87979559780163
          ],
          [
            114.97546422831613,
            -181.06442148018388
          ],
          [
            116.45178342061146,
            -181.8026717240905
          ],
          [
            117.92810261290677,
            -182.5409219679971
          ],
          [
            119.03534807334637,
            -182.91006518178057
          ],
          [
            119.95806880029434,
            -182.72556594220953
          ],
          [
            121.43440012502589,
            -183.09472724782316
          ],
          [
            122.72618245139336,
            -183.6484239766682
          ],
          [
            124.20250164368868,
            -184.3866742205748
          ],
          [
            124.94067337227256,
            -184.38671040423515
          ],
          [
            125.67883903463833,
            -184.57129105704198
          ],
          [
            126.41701682944033,
            -184.38678277155583
          ],
          [
            127.15518855802421,
            -184.38681895521617
          ],
          [
            128.07789715253597,
            -184.5714086539381
          ],
          [
            129.36967947890344,
            -185.12510538278315
          ],
          [
            130.1078451412692,
            -185.30968603558995
          ],
          [
            130.8460229360712,
            -185.12517775010383
          ],
          [
            131.5841946646551,
            -185.12521393376417
          ],
          [
            132.32237245945709,
            -184.94070564827803
          ],
          [
            133.06053812182284,
            -185.12528630108486
          ],
          [
            133.79870985040674,
            -185.1253224847452
          ],
          [
            134.72141844491847,
            -185.30991218346713
          ],
          [
            135.09050430921042,
            -185.3099302752973
          ],
          [
            135.5086316013725,
            -185.4885987946094
          ],
          [
            136.01320077128594,
            -185.86360891231217
          ],
          [
            136.56682350150575,
            -186.0481805192039
          ],
          [
            136.93590329957956,
            -186.23274308018054
          ],
          [
            137.3049830976534,
            -186.4173056411572
          ],
          [
            137.67406289572725,
            -186.60186820213386
          ],
          [
            138.59676542402087,
            -186.97100237000222
          ],
          [
            138.9658452220947,
            -187.1555649309789
          ],
          [
            139.33492502016853,
            -187.34012749195554
          ],
          [
            139.70400481824237,
            -187.5246900529322
          ],
          [
            140.0730846163162,
            -187.70925261390883
          ],
          [
            140.25761541602594,
            -188.07835059811688
          ],
          [
            140.8112138813733,
            -189.00110008159456
          ],
          [
            142.10299620774077,
            -189.5547968104396
          ],
          [
            143.21022953574413,
            -190.29302896251605
          ],
          [
            144.68654872803947,
            -191.03127920642262
          ],
          [
            146.16286792033478,
            -191.76952945032926
          ],
          [
            147.2701012483382,
            -192.50776160240565
          ],
          [
            148.7464204406335,
            -193.24601184631229
          ],
          [
            149.853659834855,
            -193.79969952924222
          ],
          [
            150.22273963292884,
            -193.98426209021886
          ],
          [
            150.77636842936676,
            -193.98428922796413
          ],
          [
            151.14544822744057,
            -194.16885178894077
          ],
          [
            151.5145280255144,
            -194.35341434991741
          ],
          [
            152.25267548922585,
            -195.0916284101637
          ],
          [
            152.99081688671916,
            -196.01438693955646
          ],
          [
            153.7289643504306,
            -196.75260099980267
          ],
          [
            154.46711181414204,
            -197.49081506004896
          ],
          [
            155.20524107919914,
            -198.78266252773466
          ],
          [
            155.94338247669248,
            -199.70542105712735
          ],
          [
            157.05061580469587,
            -200.4436532092038
          ],
          [
            157.9733183329895,
            -200.8127873770722
          ],
          [
            158.89602692750125,
            -200.9973770757941
          ],
          [
            159.63419865608512,
            -200.99741325945445
          ],
          [
            160.55690725059688,
            -201.18200295817635
          ],
          [
            161.29507897918074,
            -201.1820391418367
          ],
          [
            162.03325070776464,
            -201.18207532549707
          ],
          [
            162.77142243634853,
            -201.18211150915738
          ],
          [
            163.50959416493242,
            -201.18214769281775
          ],
          [
            163.87868002922434,
            -201.1821657846479
          ],
          [
            164.24775982729818,
            -201.36672834562458
          ],
          [
            164.61683962537202,
            -201.55129090660122
          ],
          [
            164.98592548966394,
            -201.5513089984314
          ],
          [
            165.35500528773778,
            -201.73587155940803
          ],
          [
            165.72408508581162,
            -201.92043412038467
          ],
          [
            167.20040427810693,
            -202.6586843642913
          ],
          [
            168.12310680640059,
            -203.0278185321597
          ],
          [
            168.4921866044744,
            -203.21238109313634
          ],
          [
            169.5994259986959,
            -203.76606877606628
          ],
          [
            170.70665932669928,
            -204.50430092814273
          ],
          [
            171.44480679041072,
            -205.242514988389
          ],
          [
            171.99840525575806,
            -206.16526447186664
          ],
          [
            172.9211017178336,
            -206.7189431088815
          ],
          [
            173.29018151590742,
            -206.90350566985816
          ],
          [
            173.65926131398126,
            -207.0880682308348
          ],
          [
            174.3974087776927,
            -207.82628229108107
          ],
          [
            174.7664825095484,
            -208.19538932120417
          ],
          [
            174.95101330925817,
            -208.56448730541223
          ],
          [
            175.135550175186,
            -208.7490408204738
          ],
          [
            175.3200809748958,
            -209.11813880468185
          ],
          [
            175.32007490867767,
            -209.30268327382834
          ]
        ]
      },
      "properties": {
        "type": "variant",
        "id": 2,
        "color": "#4444ff",
        "vzdal_m": 2114,
        "prevyseni_m": 11,
        "cas_s": 590,
        "tempo_str": "4:39"
      }
    },
    {
      "type": "Feature",
      "geometry": {
        "type": "LineString",
        "coordinates": [
          [
            107.96291166760466,
            -178.6649996365064
          ],
          [
            108.33195506836982,
            -179.9568290123619
          ],
          [
            109.43919446259133,
            -180.51051669529187
          ],
          [
            110.17734192630276,
            -181.2487307555381
          ],
          [
            110.9154893900142,
            -181.98694481578437
          ],
          [
            111.46908785536156,
            -182.90969429926201
          ],
          [
            112.76087018172903,
            -183.46339102810705
          ],
          [
            113.12994997980286,
            -183.64795358908373
          ],
          [
            113.49902977787669,
            -183.83251615006034
          ],
          [
            113.68356057758643,
            -184.2016141342684
          ],
          [
            114.42168984264353,
            -185.4934616019541
          ],
          [
            115.15981304148252,
            -186.96985353878628
          ],
          [
            115.71341150682989,
            -187.89260302226393
          ],
          [
            117.18973069912522,
            -188.63085326617053
          ],
          [
            118.11243929363697,
            -188.81544296489244
          ],
          [
            118.29698222578294,
            -188.81545201080752
          ],
          [
            118.66606202385677,
            -189.0000145717842
          ],
          [
            119.58875241971417,
            -189.73823767794553
          ],
          [
            120.32689988342561,
            -190.4764517381918
          ],
          [
            121.06504734713704,
            -191.21466579843806
          ],
          [
            122.54136653943237,
            -191.95291604234464
          ],
          [
            123.09496500477974,
            -192.87566552582234
          ],
          [
            124.20220439900123,
            -193.42935320875225
          ],
          [
            125.30943772700462,
            -194.1675853608287
          ],
          [
            126.04758519071605,
            -194.905799421075
          ],
          [
            126.97026952035536,
            -195.8285669963828
          ],
          [
            127.89296598243087,
            -196.38224563339764
          ],
          [
            128.6311134461423,
            -197.12045969364394
          ],
          [
            129.7383467741457,
            -197.85869184572033
          ],
          [
            130.29194523949306,
            -198.781441329198
          ],
          [
            131.21464170156855,
            -199.3351199662129
          ],
          [
            131.95277703284378,
            -200.44242296475207
          ],
          [
            132.69092449655523,
            -201.18063702499833
          ],
          [
            133.2445229619026,
            -202.10338650847598
          ],
          [
            134.1672194239781,
            -202.65706514549086
          ],
          [
            134.90536688768955,
            -203.3952792057371
          ],
          [
            135.643514351401,
            -204.13349326598336
          ],
          [
            136.45368034451354,
            -205.22749473855973
          ],
          [
            136.5256819872811,
            -205.61737289421782
          ],
          [
            137.667858782767,
            -206.00572874333838
          ],
          [
            138.80272310402606,
            -206.24245565106548
          ],
          [
            139.50689674017377,
            -206.40010885200715
          ],
          [
            140.6391130254421,
            -206.66078535226754
          ],
          [
            140.8143687788956,
            -206.70113546651262
          ],
          [
            141.7321785620263,
            -206.90739990871336
          ],
          [
            142.43818042243257,
            -207.05812966217965
          ],
          [
            143.57252963007693,
            -207.30031057699273
          ],
          [
            144.7078548252877,
            -207.53382800362314
          ],
          [
            144.88493717869963,
            -207.57018164494528
          ],
          [
            145.27544629866912,
            -207.65035015528454
          ],
          [
            145.98796559881393,
            -207.75000848829188
          ],
          [
            146.53193251019678,
            -207.81927951514012
          ],
          [
            147.4541393458453,
            -207.8656820727015
          ],
          [
            148.1923110744292,
            -207.86571825636182
          ],
          [
            148.93048280301306,
            -207.8657544400222
          ],
          [
            149.67253381351858,
            -207.8790725935837
          ],
          [
            150.41005337358422,
            -207.9010282369089
          ],
          [
            151.14757293364983,
            -207.92298388023417
          ],
          [
            151.886126259242,
            -207.97335637555832
          ],
          [
            152.61943767591802,
            -208.03308111646587
          ],
          [
            153.32893907810396,
            -208.14768426623868
          ],
          [
            154.2474238967444,
            -208.35132608015087
          ],
          [
            155.58069919968352,
            -208.72473686237643
          ],
          [
            156.34767309566845,
            -209.0312200108265
          ],
          [
            156.72808529500273,
            -209.18834448252238
          ],
          [
            157.11141525757017,
            -209.38850984491722
          ],
          [
            157.32708575914938,
            -209.52321507681916
          ],
          [
            157.67551569684218,
            -209.74084027458537
          ],
          [
            158.0215270569729,
            -209.97567682498206
          ],
          [
            158.4342470108708,
            -210.28690262076452
          ],
          [
            158.75825734053151,
            -210.5312338476364
          ],
          [
            159.58205604214595,
            -211.20409811255357
          ],
          [
            160.92568373776516,
            -210.59378897647693
          ],
          [
            161.8484044647131,
            -210.4092897369059
          ],
          [
            162.77110092678862,
            -210.96296837392075
          ],
          [
            163.6938216537366,
            -210.77846913434973
          ],
          [
            164.43199338232048,
            -210.77850531801005
          ],
          [
            165.17016511090438,
            -210.7785415016704
          ],
          [
            165.90833683948824,
            -210.77857768533076
          ],
          [
            166.64650856807214,
            -210.77861386899107
          ],
          [
            167.38468029665603,
            -210.77865005265141
          ],
          [
            168.1228520252399,
            -210.77868623631178
          ],
          [
            168.8610237538238,
            -210.77872241997213
          ],
          [
            169.5992076148439,
            -210.4096696653395
          ],
          [
            170.33737934342778,
            -210.40970584899986
          ],
          [
            171.4446430025217,
            -210.2252156553439
          ],
          [
            172.1828207973237,
            -210.04070736985776
          ],
          [
            172.9209985921257,
            -209.85619908437164
          ],
          [
            173.6591642544915,
            -210.04077973717847
          ],
          [
            174.39733598307535,
            -210.0408159208388
          ],
          [
            175.13551984409548,
            -209.67176316620618
          ],
          [
            175.32007490867767,
            -209.30268327382834
          ]
        ]
      },
      "properties": {
        "type": "variant",
        "id": 3,
        "color": "#44ff44",
        "vzdal_m": 2206,
        "prevyseni_m": 11,
        "cas_s": 583,
        "tempo_str": "4:24"
      }
    }
  ]
}