{
  "type": "FeatureCollection",
  "features": [
    {
      "type": "Feature",
      "geometry": {
        "type": "Point",
        "coordinates": [
          29.43460421903369,
          -82.14556556935086
        ]
      },
      "properties": {
        "type": "start",
        "isom": "111"
      }
    },
    {
      "type": "Feature",
      "geometry": {
        "type": "Point",
        "coordinates": [
          46.28160470098081,
          -85.44217109735912
        ]
      },
      "properties": {
        "type": "end",
        "isom": "204"
      }
    },
    {
      "type": "Feature",
      "geometry": {
        "type": "LineString",
        "coordinates": [
          [
            29.453110474007243,
            -82.18241501944837
          ],
          [
            29.822196338299154,
            -82.18243311215599
          ],
          [
            30.191282202591058,
            -82.18245120486363
          ],
          [
            30.283553668664037,
            -82.18245572804052
          ],
          [
            30.83717639888379,
            -82.36702733640722
          ],
          [
            31.48306756206747,
            -82.64387570260344
          ],
          [
            32.036690292287226,
            -82.82844731097012
          ],
          [
            32.68257842236185,
            -83.19756791181895
          ],
          [
            33.14393271961768,
            -83.28986276235611
          ],
          [
            33.69755544983744,
            -83.47443437072279
          ],
          [
            34.308926771216235,
            -83.72008369300347
          ],
          [
            34.712532477313026,
            -83.75130082962663
          ],
          [
            35.17388677456886,
            -83.84359568016379
          ],
          [
            35.54297263886076,
            -83.84361377287141
          ],
          [
            36.09659536908052,
            -84.0281853812381
          ],
          [
            36.46568123337243,
            -84.02820347394572
          ],
          [
            37.02183848393174,
            -84.07181043767987
          ],
          [
            37.665219391648286,
            -83.7514455712876
          ],
          [
            38.0343052559402,
            -83.75146366399522
          ],
          [
            38.57433245853978,
            -83.64711906991457
          ],
          [
            38.95702598288807,
            -83.56696442645904
          ],
          [
            39.42895230668278,
            -83.42526882526158
          ],
          [
            39.77068039617262,
            -83.52506437849058
          ],
          [
            40.51386403691457,
            -83.86243125577506
          ],
          [
            40.99488267327986,
            -84.20173318334534
          ],
          [
            41.63286816791387,
            -84.48981794511555
          ],
          [
            42.0942224651697,
            -84.5821127956527
          ],
          [
            42.64784519538945,
            -84.76668440401939
          ],
          [
            43.01693105968136,
            -84.766702496727
          ],
          [
            43.47849733883822,
            -84.85902006782833
          ],
          [
            43.93963965419302,
            -84.95129219780132
          ],
          [
            44.308725518484934,
            -84.95131029050894
          ],
          [
            44.770079815740765,
            -85.0436051410461
          ],
          [
            45.23143107988754,
            -85.22817222623587
          ],
          [
            45.69278234403432,
            -85.41273931142565
          ],
          [
            46.06186820832623,
            -85.41275740413327
          ],
          [
            46.24641114047218,
            -85.41276645048708
          ]
        ]
      },
      "properties": {
        "type": "variant",
        "id": 1,
        "color": "#ff4444",
        "vzdal_m": 955,
        "prevyseni_m": 46,
        "cas_s": 312,
        "tempo_str": "5:26"
      }
    },
    {
      "type": "Feature",
      "geometry": {
        "type": "LineString",
        "coordinates": [
          [
            29.453110474007243,
            -82.18241501944837
          ],
          [
            30.006751402881317,
            -81.81335321989931
          ],
          [
            30.560392331755395,
            -81.44429142035024
          ],
          [
            31.298576192775425,
            -81.07523866715499
          ],
          [
            31.944485554613426,
            -80.79845362543546
          ],
          [
            32.405845918087365,
            -80.70620400666735
          ],
          [
            32.77493178237928,
            -80.70622209937497
          ],
          [
            33.14401764667118,
            -80.7062401920826
          ],
          [
            33.51310351096309,
            -80.70625828479022
          ],
          [
            33.882189375254995,
            -80.70627637749784
          ],
          [
            34.2512752395469,
            -80.70629447020546
          ],
          [
            34.62036110383881,
            -80.70631256291308
          ],
          [
            34.989446968130714,
            -80.7063306556207
          ],
          [
            35.358532832422625,
            -80.70634874832832
          ],
          [
            35.727618696714536,
            -80.70636684103594
          ],
          [
            36.18897299397037,
            -80.7986616915731
          ],
          [
            36.92713259011797,
            -81.16778681559886
          ],
          [
            37.57302375330165,
            -81.44463518179506
          ],
          [
            38.218914916485325,
            -81.72148354799128
          ],
          [
            38.588000780777236,
            -81.7215016406989
          ],
          [
            39.141623510996986,
            -81.9060732490656
          ],
          [
            39.5107093752889,
            -81.90609134177322
          ],
          [
            39.87979523958081,
            -81.90610943448084
          ],
          [
            40.24888110387271,
            -81.90612752718846
          ],
          [
            40.89477226705639,
            -82.18297589338468
          ],
          [
            41.36132933634366,
            -82.3143684724942
          ],
          [
            41.63329389958296,
            -82.27232717216874
          ],
          [
            42.09265200384939,
            -82.37413622588282
          ],
          [
            42.551268750981464,
            -82.48173965585742
          ],
          [
            43.01721166863544,
            -82.55341601763315
          ],
          [
            43.38609106937338,
            -82.51109389212203
          ],
          [
            43.74899691671747,
            -82.57298895606252
          ],
          [
            44.40106674606614,
            -82.82905341667546
          ],
          [
            44.770140477921835,
            -83.19816044799359
          ],
          [
            45.13921420977753,
            -83.56726747931171
          ],
          [
            45.50828794163322,
            -83.93637451062985
          ],
          [
            45.877355607270815,
            -84.49002601125322
          ],
          [
            46.06188034076244,
            -85.04366846552277
          ],
          [
            46.24641114047218,
            -85.41276645048708
          ]
        ]
      },
      "properties": {
        "type": "variant",
        "id": 2,
        "color": "#4444ff",
        "vzdal_m": 1026,
        "prevyseni_m": 51,
        "cas_s": 337,
        "tempo_str": "5:27"
      }
    },
    {
      "type": "Feature",
      "geometry": {
        "type": "LineString",
        "coordinates": [
          [
            29.453110474007243,
            -82.18241501944837
          ],
          [
            29.822196338299154,
            -82.18243311215599
          ],
          [
            30.191282202591058,
            -82.18245120486363
          ],
          [
            30.283553668664037,
            -82.18245572804052
          ],
          [
            30.83717639888379,
            -82.36702733640722
          ],
          [
            31.48306756206747,
            -82.64387570260344
          ],
          [
            32.036690292287226,
            -82.82844731097012
          ],
          [
            32.68257842236185,
            -83.19756791181895
          ],
          [
            33.14393271961768,
            -83.28986276235611
          ],
          [
            33.78982388280136,
            -83.56671112855233
          ],
          [
            34.52798347894896,
            -83.93583625257807
          ],
          [
            35.081600142950606,
            -84.30495233025
          ],
          [
            35.72748827302523,
            -84.67407293109885
          ],
          [
            36.465647869172834,
            -85.04319805512459
          ],
          [
            37.01927059939259,
            -85.22776966349127
          ],
          [
            37.48062489664842,
            -85.32006451402843
          ],
          [
            37.849710760940326,
            -85.32008260673605
          ],
          [
            38.21879662523224,
            -85.32010069944367
          ],
          [
            38.58788248952415,
            -85.3201187921513
          ],
          [
            39.049242852998084,
            -85.2278691733832
          ],
          [
            39.520362787664524,
            -85.46268715047184
          ],
          [
            40.163352834504416,
            -85.77173162607254
          ],
          [
            40.50882195621704,
            -86.16374970707
          ],
          [
            40.903798957837864,
            -86.69594683248827
          ],
          [
            41.16502548522491,
            -86.89793245543821
          ],
          [
            41.72506683936956,
            -86.70435609995548
          ],
          [
            42.186427202843504,
            -86.61210648118737
          ],
          [
            42.71615319831559,
            -86.47551740227921
          ],
          [
            43.01687343060935,
            -86.5198749551269
          ],
          [
            43.47823379408329,
            -86.4276253363588
          ],
          [
            43.98124107394073,
            -86.27116847621657
          ],
          [
            44.49322902021319,
            -86.15085838734689
          ],
          [
            45.231412881233226,
            -85.78180563415162
          ],
          [
            45.69277324470716,
            -85.68955601538353
          ],
          [
            46.24641114047218,
            -85.41276645048708
          ]
        ]
      },
      "properties": {
        "type": "variant",
        "id": 3,
        "color": "#44ff44",
        "vzdal_m": 998,
        "prevyseni_m": 45,
        "cas_s": 311,
        "tempo_str": "5:11"
      }
    }
  ]
}