{
  "type": "FeatureCollection",
  "features": [
    {
      "type": "Feature",
      "geometry": {
        "type": "Point",
        "coordinates": [
          189.57132102299883,
          -151.4384758236273
        ]
      },
      "properties": {
        "type": "start",
        "isom": "204"
      }
    },
    {
      "type": "Feature",
      "geometry": {
        "type": "Point",
        "coordinates": [
          67.60339469809715,
          -214.2041267045953
        ]
      },
      "properties": {
        "type": "end",
        "isom": "204"
      }
    },
    {
      "type": "Feature",
      "geometry": {
        "type": "LineString",
        "coordinates": [
          [
            189.67394221965847,
            -151.50413300274963
          ],
          [
            188.19755920441824,
            -151.50408617442747
          ],
          [
            186.35209483664806,
            -151.13492110234034
          ],
          [
            185.2448075752179,
            -151.13488598109873
          ],
          [
            184.50663046887786,
            -150.7657560302532
          ],
          [
            184.1375347150678,
            -150.76574432317264
          ],
          [
            183.3993288061676,
            -151.13482744569606
          ],
          [
            182.66112289726738,
            -151.50391056821945
          ],
          [
            181.92291698836718,
            -151.87299369074287
          ],
          [
            179.33918910657638,
            -153.34933788791702
          ],
          [
            177.86274848621574,
            -154.82571720633277
          ],
          [
            176.38629346457503,
            -156.671203061433
          ],
          [
            174.90979523909402,
            -159.62400852658666
          ],
          [
            174.17151732379332,
            -161.83862433253242
          ],
          [
            173.43323940849262,
            -164.0532401384782
          ],
          [
            173.06410045084226,
            -165.16054804145108
          ],
          [
            172.694975894472,
            -165.8987494077395
          ],
          [
            170.84941071774114,
            -168.11333009244365
          ],
          [
            169.00387434357046,
            -169.58969770377888
          ],
          [
            166.7892422155897,
            -171.06605360803357
          ],
          [
            165.68189734903916,
            -172.54244463352987
          ],
          [
            163.09815506596826,
            -174.3878953673885
          ],
          [
            160.14535395818442,
            -175.86422785819664
          ],
          [
            158.66892773910388,
            -176.9715006399279
          ],
          [
            156.45429561112314,
            -178.44785654418263
          ],
          [
            154.2396922857026,
            -179.18599937506835
          ],
          [
            153.13240502427243,
            -179.18596425382677
          ],
          [
            151.28686865010175,
            -180.66233186516197
          ],
          [
            149.44133227593107,
            -182.1386994764972
          ],
          [
            148.33403061322082,
            -182.50777089194005
          ],
          [
            147.59582470432056,
            -182.87685401446348
          ],
          [
            144.6430010687197,
            -184.35318650455707
          ],
          [
            142.42839774329917,
            -185.09132933544282
          ],
          [
            140.95201472805894,
            -185.0912825071207
          ],
          [
            139.10652155772857,
            -185.46033050840248
          ],
          [
            137.2610139861181,
            -186.19848504636875
          ],
          [
            136.42668217827523,
            -186.5599730238131
          ],
          [
            136.3332647610766,
            -186.99793488226396
          ],
          [
            136.06916348955903,
            -187.7719711194634
          ],
          [
            134.30814714667693,
            -188.7821371465158
          ],
          [
            132.46259637122617,
            -190.62761129453548
          ],
          [
            129.5097871369054,
            -191.73483724794463
          ],
          [
            127.29516941020475,
            -192.84208661551486
          ],
          [
            124.71147033097415,
            -193.58021773932006
          ],
          [
            122.49686700555361,
            -194.31836057020578
          ],
          [
            120.28226368013307,
            -195.05650340109153
          ],
          [
            118.80585186233264,
            -195.79466964613832
          ],
          [
            118.06764595343243,
            -196.1637527686617
          ],
          [
            115.48391807164164,
            -197.64009696583588
          ],
          [
            112.90021899241104,
            -198.37822808964108
          ],
          [
            111.79293173098085,
            -198.37819296839947
          ],
          [
            110.31653431446053,
            -198.74725267676183
          ],
          [
            108.84016570050039,
            -198.3780993117552
          ],
          [
            106.99467253017,
            -198.74714731303703
          ],
          [
            105.51828951492978,
            -198.74710048471488
          ],
          [
            105.1491937611197,
            -198.74708877763433
          ],
          [
            104.41098785221949,
            -199.11617190015772
          ],
          [
            103.67278194331928,
            -199.48525502268117
          ],
          [
            102.93457603441907,
            -199.85433814520457
          ],
          [
            100.71997270899853,
            -200.59248097609026
          ],
          [
            98.13625922848783,
            -201.69971863657995
          ],
          [
            95.92165590306729,
            -202.43786146746572
          ],
          [
            94.44527288782704,
            -202.43781463914357
          ],
          [
            92.2306551611264,
            -203.54506400671377
          ],
          [
            91.492420449666,
            -204.65236020260613
          ],
          [
            90.01597982930538,
            -206.1287395210219
          ],
          [
            89.64689847677542,
            -205.75962127725688
          ],
          [
            88.17051546153519,
            -205.75957444893473
          ],
          [
            85.95591213611463,
            -206.49771727982048
          ],
          [
            84.11043336706436,
            -206.4976587444178
          ],
          [
            82.63403595054403,
            -206.86671845278016
          ],
          [
            80.78854278021363,
            -207.23576645406192
          ],
          [
            79.3121453636933,
            -207.6048261624243
          ],
          [
            77.83577674973317,
            -207.23567279741766
          ],
          [
            76.35939373449294,
            -207.23562596909554
          ],
          [
            74.51391496544264,
            -207.23556743369284
          ],
          [
            73.40662770401246,
            -207.23553231245123
          ],
          [
            71.93021588621204,
            -207.97369855749807
          ],
          [
            70.45377526585142,
            -209.4500778759138
          ],
          [
            68.9773058429306,
            -211.66467026769854
          ],
          [
            67.50082201872969,
            -214.2483691961677
          ]
        ]
      },
      "properties": {
        "type": "variant",
        "id": 1,
        "color": "#ff4444",
        "vzdal_m": 1989,
        "prevyseni_m": 31,
        "cas_s": 577,
        "tempo_str": "4:50"
      }
    },
    {
      "type": "Feature",
      "geometry": {
        "type": "LineString",
        "coordinates": [
          [
            189.67394221965847,
            -151.50413300274963
          ],
          [
            187.45933889423796,
            -152.24227583363535
          ],
          [
            185.98292707643753,
            -152.98044207868216
          ],
          [
            185.24472116753728,
            -153.34952520120558
          ],
          [
            184.87561101244714,
            -153.71862003080952
          ],
          [
            184.50650085735697,
            -154.08771486041346
          ],
          [
            184.13739070226683,
            -154.4568096900174
          ],
          [
            183.76826614589658,
            -155.19501105630582
          ],
          [
            183.39914158952632,
            -155.9332124225942
          ],
          [
            181.9226433640453,
            -158.88601788774787
          ],
          [
            181.18436544874461,
            -161.10063369369362
          ],
          [
            180.81522649109428,
            -162.20794159666653
          ],
          [
            180.44610193472403,
            -162.94614296295492
          ],
          [
            178.96963251180318,
            -165.16073535473964
          ],
          [
            177.1240961376325,
            -166.63710296607485
          ],
          [
            176.75492837742198,
            -168.4826239424167
          ],
          [
            176.7548707723016,
            -169.9590500891546
          ],
          [
            176.7548419697414,
            -170.69726316252354
          ],
          [
            176.38571741337114,
            -171.43546452881193
          ],
          [
            174.9092623917304,
            -173.28095038391217
          ],
          [
            173.06372601755973,
            -174.7573179952474
          ],
          [
            171.95638115100917,
            -176.23370902074367
          ],
          [
            169.3726388679383,
            -178.0791597546023
          ],
          [
            166.41982963361752,
            -179.18638570801147
          ],
          [
            163.83610175182673,
            -180.6627299051856
          ],
          [
            163.0978958429265,
            -181.031813027709
          ],
          [
            162.3597124618433,
            -181.40089615094695
          ],
          [
            160.14508033386255,
            -182.87725205520164
          ],
          [
            157.930477008442,
            -183.6153948860874
          ],
          [
            157.1922710995418,
            -183.98447800861078
          ],
          [
            154.97765337284116,
            -185.09172737618098
          ],
          [
            153.50121275248054,
            -186.56810669459674
          ],
          [
            150.5483891168797,
            -188.04443918469036
          ],
          [
            149.81018320797946,
            -188.41352230721375
          ],
          [
            147.22645532618867,
            -189.88986650438792
          ],
          [
            146.48824941728847,
            -190.25894962691132
          ],
          [
            145.01180879692785,
            -191.7353289453271
          ],
          [
            144.64269864183768,
            -192.10442377493104
          ],
          [
            143.90449273293748,
            -192.47350689745443
          ],
          [
            142.42805211257684,
            -193.94988621587018
          ],
          [
            139.84430982950596,
            -195.7953369497288
          ],
          [
            136.8914861939051,
            -197.27166943982243
          ],
          [
            135.04594981973443,
            -198.74803705115767
          ],
          [
            132.4622219379436,
            -200.22438124833178
          ],
          [
            130.9857957188631,
            -201.3316540300631
          ],
          [
            129.1403025485327,
            -201.70070203134486
          ],
          [
            127.66391953329247,
            -201.70065520302276
          ],
          [
            126.18753651805224,
            -201.7006083747006
          ],
          [
            124.71115350281201,
            -201.70056154637848
          ],
          [
            123.972976396472,
            -201.33143159553293
          ],
          [
            122.49659338123178,
            -201.33138476721078
          ],
          [
            122.12749762742172,
            -201.33137306013023
          ],
          [
            121.3892917185215,
            -201.70045618265362
          ],
          [
            119.91285109816086,
            -203.1768355010694
          ],
          [
            119.5437409430707,
            -203.54593033067334
          ],
          [
            119.17461638670046,
            -204.28413169696177
          ],
          [
            118.43639607652015,
            -205.0223213561696
          ],
          [
            118.0672715201499,
            -205.76052272245803
          ],
          [
            116.59083089978928,
            -207.23690204087382
          ],
          [
            115.11439027942865,
            -208.71328135928954
          ],
          [
            113.26888270781816,
            -209.45143589725583
          ],
          [
            111.42340393876788,
            -209.45137736185313
          ],
          [
            109.20878621206724,
            -210.55862672942337
          ],
          [
            106.62505833027645,
            -212.03497092659754
          ],
          [
            104.04135925104583,
            -212.77310205040274
          ],
          [
            101.82677032690539,
            -213.14213834460398
          ],
          [
            100.71948306547522,
            -213.14210322336237
          ],
          [
            99.24310005023499,
            -213.14205639504024
          ],
          [
            97.76670263371466,
            -213.51111610340257
          ],
          [
            95.92122386466436,
            -213.51105756799993
          ],
          [
            94.44484084942414,
            -213.51101073967777
          ],
          [
            92.2302519252837,
            -213.88004703387904
          ],
          [
            91.12296466385351,
            -213.88001191263743
          ],
          [
            90.3847587549533,
            -214.24909503516082
          ],
          [
            89.64655284605308,
            -214.61817815768427
          ],
          [
            87.43194952063253,
            -215.35632098856996
          ],
          [
            84.8399770604749,
            -216.23982810021246
          ],
          [
            84.00251811683992,
            -216.4928807953704
          ],
          [
            82.6336491301741,
            -216.78097094247892
          ],
          [
            81.15726611493388,
            -216.78092411415676
          ],
          [
            79.68315846107123,
            -216.7795481779703
          ],
          [
            78.23497413147713,
            -216.93690306793707
          ],
          [
            76.43486843093866,
            -217.46182139639492
          ],
          [
            75.6208277935903,
            -216.83237250873077
          ],
          [
            73.40628207329013,
            -216.09408919287858
          ],
          [
            70.45357364793006,
            -214.61756938949642
          ],
          [
            68.60810928015987,
            -214.2484043174093
          ],
          [
            67.50082201872969,
            -214.2483691961677
          ]
        ]
      },
      "properties": {
        "type": "variant",
        "id": 2,
        "color": "#4444ff",
        "vzdal_m": 2029,
        "prevyseni_m": 27,
        "cas_s": 584,
        "tempo_str": "4:48"
      }
    },
    {
      "type": "Feature",
      "geometry": {
        "type": "LineString",
        "coordinates": [
          [
            189.67394221965847,
            -151.50413300274963
          ],
          [
            186.7212337942984,
            -150.02761319936747
          ],
          [
            185.24487958161836,
            -149.28935329767637
          ],
          [
            182.66125250878827,
            -148.18195173805918
          ],
          [
            181.55395084607798,
            -148.5510231535021
          ],
          [
            180.81574493717778,
            -148.92010627602548
          ],
          [
            179.70842887318742,
            -149.6582842281528
          ],
          [
            178.97022296428716,
            -150.0273673506762
          ],
          [
            178.23201705538696,
            -150.39645047319962
          ],
          [
            176.75557643502634,
            -151.8728297916154
          ],
          [
            175.27910701210553,
            -154.08742218340007
          ],
          [
            173.8026519904648,
            -155.9329080385003
          ],
          [
            172.3261969688241,
            -157.77839389360054
          ],
          [
            170.84975634846347,
            -159.2547732120163
          ],
          [
            169.37330132682277,
            -161.10025906711653
          ],
          [
            167.89686070646212,
            -162.57663838553228
          ],
          [
            166.05132433229144,
            -164.0530059968675
          ],
          [
            163.8367210068709,
            -164.79114882775323
          ],
          [
            162.72945627325774,
            -164.79111370722617
          ],
          [
            160.88399190548753,
            -164.42194863513905
          ],
          [
            159.03849873515716,
            -164.79099663642083
          ],
          [
            157.56211571991693,
            -164.7909498080987
          ],
          [
            155.3475123944964,
            -165.52909263898442
          ],
          [
            153.1329954767564,
            -164.05259624976335
          ],
          [
            152.3948183704164,
            -163.68346629891778
          ],
          [
            151.6566412640764,
            -163.31433634807223
          ],
          [
            149.74733593136634,
            -163.44904112665196
          ],
          [
            148.37305689309954,
            -163.82364607892424
          ],
          [
            146.76684236266132,
            -163.91857518387582
          ],
          [
            144.27465418147474,
            -165.15963488988393
          ],
          [
            142.06005085605418,
            -165.89777772076965
          ],
          [
            139.84544753063363,
            -166.6359205516554
          ],
          [
            137.99995436030324,
            -167.00496855293719
          ],
          [
            136.52355694378292,
            -167.37402826129954
          ],
          [
            135.0471883298228,
            -167.00487489629293
          ],
          [
            133.57080531458257,
            -167.00482806797078
          ],
          [
            132.09442229934234,
            -167.00478123964865
          ],
          [
            131.35623079172223,
            -167.00475782548756
          ],
          [
            130.6180536853822,
            -166.63562787464204
          ],
          [
            129.14165626886188,
            -167.00468758300437
          ],
          [
            128.40345035996165,
            -167.37377070552776
          ],
          [
            125.81973687945096,
            -168.48100836601745
          ],
          [
            123.97424370912057,
            -168.85005636729923
          ],
          [
            121.39053022860988,
            -169.95729402778892
          ],
          [
            120.65232431970963,
            -170.3263771503123
          ],
          [
            118.80683114937928,
            -170.69542515159412
          ],
          [
            118.06865404303925,
            -170.3262952007486
          ],
          [
            117.33044813413903,
            -170.695378323272
          ],
          [
            115.8540075137784,
            -172.17175764168775
          ],
          [
            114.37756689341778,
            -173.6481369601035
          ],
          [
            112.90111187177708,
            -175.49362281520374
          ],
          [
            112.16286275903654,
            -176.97002554778055
          ],
          [
            111.7937382026663,
            -177.70822691406897
          ],
          [
            111.42461364629605,
            -178.4464282803574
          ],
          [
            109.94812982209514,
            -181.03012720882657
          ],
          [
            108.4716892017345,
            -182.5065065272423
          ],
          [
            106.99524858137389,
            -183.98288584565807
          ],
          [
            106.62613842628373,
            -184.351980675262
          ],
          [
            106.2570138699135,
            -185.09018204155043
          ],
          [
            104.78055884827278,
            -186.93566789665067
          ],
          [
            104.41143429190251,
            -187.67386926293906
          ],
          [
            104.04230973553226,
            -188.4120706292275
          ],
          [
            102.56586911517164,
            -189.88844994764324
          ],
          [
            100.72033274100096,
            -191.36481755897844
          ],
          [
            99.61298787445041,
            -192.84120858447474
          ],
          [
            98.13653285280967,
            -194.68669443957495
          ],
          [
            96.66010663372916,
            -195.79396722130627
          ],
          [
            95.18365161208844,
            -197.63945307640648
          ],
          [
            92.59995253285783,
            -198.3775842002117
          ],
          [
            90.385306003597,
            -200.22304664115083
          ],
          [
            89.64710009469678,
            -200.59212976367425
          ],
          [
            88.90882217939608,
            -202.80674556962003
          ],
          [
            87.0632858052254,
            -204.2831131809552
          ],
          [
            86.69417565013525,
            -204.6522080105592
          ],
          [
            84.11044776834446,
            -206.12855220773332
          ],
          [
            81.52673428783376,
            -207.235789868223
          ],
          [
            80.05036567387361,
            -206.86663650321637
          ],
          [
            78.57396825735329,
            -207.23569621157873
          ],
          [
            77.09758524211306,
            -207.23564938325657
          ],
          [
            75.62118782559273,
            -207.60470909161893
          ],
          [
            74.14481921163258,
            -207.23555572661232
          ],
          [
            72.66842179511225,
            -207.60461543497468
          ],
          [
            71.56110573112188,
            -208.342793387102
          ],
          [
            70.08466511076128,
            -209.81917270551773
          ],
          [
            68.60818128656035,
            -212.40287163398693
          ],
          [
            67.50082201872969,
            -214.2483691961677
          ]
        ]
      },
      "properties": {
        "type": "variant",
        "id": 3,
        "color": "#44ff44",
        "vzdal_m": 2069,
        "prevyseni_m": 33,
        "cas_s": 600,
        "tempo_str": "4:50"
      }
    }
  ]
}