{
  "type": "FeatureCollection",
  "features": [
    {
      "type": "Feature",
      "geometry": {
        "type": "Point",
        "coordinates": [
          163.77857347358707,
          -103.29656850898792
        ]
      },
      "properties": {
        "type": "start",
        "isom": "204"
      }
    },
    {
      "type": "Feature",
      "geometry": {
        "type": "Point",
        "coordinates": [
          123.35113765434605,
          -188.6607697043519
        ]
      },
      "properties": {
        "type": "end",
        "isom": "204"
      }
    },
    {
      "type": "Feature",
      "geometry": {
        "type": "LineString",
        "coordinates": [
          [
            163.83912602064714,
            -103.15035720144616
          ],
          [
            163.4700014642769,
            -103.88855856773456
          ],
          [
            162.7318468857539,
            -103.51942861760358
          ],
          [
            161.62451642048342,
            -104.6267131064154
          ],
          [
            160.88631051158322,
            -104.99579622893879
          ],
          [
            160.51720035649305,
            -105.36489105854272
          ],
          [
            159.77899444759285,
            -105.73397418106615
          ],
          [
            159.04073093357223,
            -107.57948345032743
          ],
          [
            159.04067332845185,
            -109.05590959706532
          ],
          [
            158.6715487720816,
            -109.79411096335373
          ],
          [
            158.30242421571134,
            -110.53231232964217
          ],
          [
            157.56420390553103,
            -111.27050198885003
          ],
          [
            155.71866753136035,
            -112.74686960018525
          ],
          [
            153.5040498046597,
            -113.85411896775545
          ],
          [
            152.7658438957595,
            -114.22320209027887
          ],
          [
            152.02763798685928,
            -114.59228521280227
          ],
          [
            151.28943207795908,
            -114.96136833532569
          ],
          [
            150.9203219228689,
            -115.33046316492963
          ],
          [
            150.55119736649866,
            -116.06866453121803
          ],
          [
            150.55118296521857,
            -116.4377710679025
          ],
          [
            150.18205840884832,
            -117.17597243419091
          ],
          [
            148.99716717769834,
            -118.79636301331978
          ],
          [
            148.79483792215814,
            -120.12878073108041
          ],
          [
            148.54998060840555,
            -121.92426990698854
          ],
          [
            147.76754794895248,
            -124.14459528087691
          ],
          [
            147.57998556499905,
            -126.34598181117086
          ],
          [
            146.9539011791518,
            -127.27764957187367
          ],
          [
            144.76319223172308,
            -128.78889157872698
          ],
          [
            143.07558680822137,
            -129.984525606062
          ],
          [
            141.48065428335548,
            -131.3477969565415
          ],
          [
            140.01146632049208,
            -132.8574848555339
          ],
          [
            138.58221764438505,
            -134.43208982252617
          ],
          [
            137.37488666166192,
            -136.10491471585675
          ],
          [
            135.7634724238415,
            -137.823898902219
          ],
          [
            134.72561875594116,
            -140.06008748534904
          ],
          [
            134.7255611508208,
            -141.53651363208692
          ],
          [
            134.85769510010206,
            -143.05589450961935
          ],
          [
            134.67899985665886,
            -143.75115137809055
          ],
          [
            134.3098753002886,
            -144.48935274437895
          ],
          [
            134.3098608990085,
            -144.85845928106343
          ],
          [
            133.94073634263825,
            -145.59666064735185
          ],
          [
            133.571611786268,
            -146.33486201364028
          ],
          [
            133.20248722989777,
            -147.07306337992867
          ],
          [
            132.46425251843735,
            -148.18035957582103
          ],
          [
            131.72603220825704,
            -148.9185492350289
          ],
          [
            131.3569076518868,
            -149.65675060131733
          ],
          [
            130.2495483840561,
            -151.50224816349808
          ],
          [
            130.24953398277603,
            -151.87135470018256
          ],
          [
            129.88040942640578,
            -152.60955606647096
          ],
          [
            129.8803950251257,
            -152.97866260315544
          ],
          [
            129.88038062384558,
            -153.34776913983993
          ],
          [
            129.8803662225655,
            -153.71687567652438
          ],
          [
            130.24943317381536,
            -154.45510045697387
          ],
          [
            130.24937556869494,
            -155.93152660371177
          ],
          [
            130.24931796357458,
            -157.40795275044965
          ],
          [
            130.61835611226425,
            -158.8843906042681
          ],
          [
            130.9874230635141,
            -159.62261538471756
          ],
          [
            130.9873654583937,
            -161.09904153145547
          ],
          [
            130.61824090202347,
            -161.8372428977439
          ],
          [
            130.61821209946328,
            -162.57545597111283
          ],
          [
            130.24908754309303,
            -163.31365733740125
          ],
          [
            129.87996298672275,
            -164.05185870368965
          ],
          [
            129.5108384303525,
            -164.79006006997807
          ],
          [
            128.40345035996165,
            -167.37377070552776
          ],
          [
            127.66517244466094,
            -169.58838651147354
          ],
          [
            127.29600468445041,
            -171.4339074878154
          ],
          [
            127.29597588189021,
            -172.17212056118433
          ],
          [
            126.92685132551996,
            -172.91032192747275
          ],
          [
            126.18863101533965,
            -173.6485115866806
          ],
          [
            125.81950645896939,
            -174.38671295296902
          ],
          [
            125.81949205768929,
            -174.7558194896535
          ],
          [
            125.45036750131904,
            -175.49402085594193
          ],
          [
            125.08124294494878,
            -176.23222222223032
          ],
          [
            124.71211838857855,
            -176.97042358851874
          ],
          [
            123.97384047327783,
            -179.1850393944645
          ],
          [
            123.60471591690758,
            -179.92324076075292
          ],
          [
            123.60470151562748,
            -180.2923472974374
          ],
          [
            123.23557695925723,
            -181.0305486637258
          ],
          [
            123.23556255797713,
            -181.39965520041028
          ],
          [
            122.49731344523664,
            -182.8760579329871
          ],
          [
            122.12818888886639,
            -183.61425929927552
          ],
          [
            122.49721263627595,
            -185.45980368977843
          ],
          [
            123.23531773621549,
            -187.67446632404634
          ],
          [
            123.23527453237519,
            -188.78178593409976
          ]
        ]
      },
      "properties": {
        "type": "variant",
        "id": 1,
        "color": "#ff4444",
        "vzdal_m": 1388,
        "prevyseni_m": 18,
        "cas_s": 412,
        "tempo_str": "4:56"
      }
    },
    {
      "type": "Feature",
      "geometry": {
        "type": "LineString",
        "coordinates": [
          [
            163.83912602064714,
            -103.15035720144616
          ],
          [
            164.94632687439676,
            -105.3650315427946
          ],
          [
            164.5772023180265,
            -106.10323290908302
          ],
          [
            164.94626926927637,
            -106.84145768953249
          ],
          [
            164.94624046671615,
            -107.57967076290144
          ],
          [
            164.5771159103459,
            -108.31787212918987
          ],
          [
            164.20799135397567,
            -109.05607349547827
          ],
          [
            163.8388811988855,
            -109.42516832508221
          ],
          [
            163.46975664251525,
            -110.16336969137062
          ],
          [
            163.46974224123517,
            -110.53247622805509
          ],
          [
            163.10061768486491,
            -111.27067759434352
          ],
          [
            161.62419959232128,
            -112.74705691347381
          ],
          [
            160.1477301694005,
            -114.9616493052585
          ],
          [
            159.77857681047,
            -116.43806374491588
          ],
          [
            159.40945225409976,
            -117.17626511120429
          ],
          [
            158.30209298626912,
            -119.02176267338506
          ],
          [
            157.19473371843847,
            -120.86726023556581
          ],
          [
            156.8256091620682,
            -121.60546160185422
          ],
          [
            156.45648460569794,
            -122.34366296814264
          ],
          [
            155.3490965353071,
            -124.92737360369235
          ],
          [
            153.87264151366637,
            -126.77285945879257
          ],
          [
            152.39620089330575,
            -128.24923877720835
          ],
          [
            151.28885602675518,
            -129.72562980270462
          ],
          [
            149.81237220255426,
            -132.3093287311738
          ],
          [
            148.33587397707325,
            -135.26213419632745
          ],
          [
            147.59758166049247,
            -137.8458565389577
          ],
          [
            147.59752405537208,
            -139.3222826856956
          ],
          [
            147.5974664502517,
            -140.79870883243348
          ],
          [
            147.59740884513127,
            -142.27513497917138
          ],
          [
            147.5973512400109,
            -143.75156112590926
          ],
          [
            147.59729363489052,
            -145.22798727264717
          ],
          [
            147.5972360297701,
            -146.70441341938505
          ],
          [
            147.59717842464974,
            -148.18083956612296
          ],
          [
            147.59712081952935,
            -149.65726571286086
          ],
          [
            147.59706321440893,
            -151.13369185959874
          ],
          [
            147.5602605163624,
            -152.6671026187814
          ],
          [
            148.41988421188435,
            -154.79076533197116
          ],
          [
            147.96598615285782,
            -155.56298200689295
          ],
          [
            147.5968615964876,
            -156.30118337318137
          ],
          [
            147.22773704011735,
            -157.03938473946977
          ],
          [
            146.8586124837471,
            -157.7775861057582
          ],
          [
            145.75125321591642,
            -159.62308366793897
          ],
          [
            145.75121001207611,
            -160.7304032779924
          ],
          [
            146.120276963326,
            -161.46862805844188
          ],
          [
            145.01290329421525,
            -163.6832321573071
          ],
          [
            144.643778737845,
            -164.4214335235955
          ],
          [
            143.16732371620427,
            -166.26691937869572
          ],
          [
            141.69086869456353,
            -168.11240523379595
          ],
          [
            139.8453035178327,
            -170.32698591850013
          ],
          [
            138.7379586512821,
            -171.80337694399643
          ],
          [
            137.2614748270812,
            -174.3870758724656
          ],
          [
            136.5232401156208,
            -175.49437206835796
          ],
          [
            136.15410115797042,
            -176.60167997133084
          ],
          [
            135.04675629141988,
            -178.07807099682714
          ],
          [
            134.67763173504963,
            -178.81627236311553
          ],
          [
            133.939368221029,
            -180.66178163237686
          ],
          [
            132.4629276006684,
            -182.1381609507926
          ],
          [
            130.6174056277778,
            -183.24542202544336
          ],
          [
            128.40278790107718,
            -184.35267139301357
          ],
          [
            126.18817017437654,
            -185.45992076058377
          ],
          [
            123.9735524476759,
            -186.56717012815398
          ],
          [
            123.23528893365528,
            -188.41267939741527
          ],
          [
            123.23527453237519,
            -188.78178593409976
          ]
        ]
      },
      "properties": {
        "type": "variant",
        "id": 2,
        "color": "#4444ff",
        "vzdal_m": 1376,
        "prevyseni_m": 12,
        "cas_s": 401,
        "tempo_str": "4:51"
      }
    },
    {
      "type": "Feature",
      "geometry": {
        "type": "LineString",
        "coordinates": [
          [
            163.83912602064714,
            -103.15035720144616
          ],
          [
            164.94634127567684,
            -104.99592500611013
          ],
          [
            165.68451838201688,
            -105.36505495695567
          ],
          [
            166.05358533326674,
            -106.10327973740516
          ],
          [
            166.4226522845166,
            -106.84150451785464
          ],
          [
            167.16078618701633,
            -108.3179540787536
          ],
          [
            167.5298531382662,
            -109.05617885920309
          ],
          [
            167.89892008951605,
            -109.79440363965257
          ],
          [
            168.26798704076592,
            -110.53262842010206
          ],
          [
            168.6370683932959,
            -110.90174666386704
          ],
          [
            169.00613534454573,
            -111.63997144431653
          ],
          [
            169.3751590919553,
            -113.48551583481944
          ],
          [
            169.00600573302486,
            -114.9619302744768
          ],
          [
            168.26771341644405,
            -117.54565261710705
          ],
          [
            167.1603253460532,
            -120.12936325265674
          ],
          [
            167.1603109447731,
            -120.49846978934123
          ],
          [
            166.79118638840285,
            -121.23667115562964
          ],
          [
            166.4220618320326,
            -121.97487252191806
          ],
          [
            166.05293727566234,
            -122.71307388820647
          ],
          [
            164.57643905018134,
            -125.66587935336013
          ],
          [
            163.83816113488064,
            -127.88049515930588
          ],
          [
            162.3617286410569,
            -129.72598101512065
          ],
          [
            160.51619226688624,
            -131.2023486264559
          ],
          [
            158.30154573762542,
            -133.04781106739506
          ],
          [
            156.08689920836457,
            -134.8932735083342
          ],
          [
            154.61047298928403,
            -136.0005462900655
          ],
          [
            152.76493661511336,
            -137.4769139014007
          ],
          [
            152.02664429853257,
            -140.06063624403095
          ],
          [
            150.91927062942182,
            -142.27524034289618
          ],
          [
            150.55014607305156,
            -143.0134417091846
          ],
          [
            149.44275800266072,
            -145.59715234473433
          ],
          [
            149.81178175007028,
            -147.4426967352372
          ],
          [
            149.8117241449499,
            -148.91912288197508
          ],
          [
            149.81166653982947,
            -150.395549028713
          ],
          [
            149.8116089347091,
            -151.87197517545087
          ],
          [
            149.81155132958872,
            -153.34840132218878
          ],
          [
            149.8114937244683,
            -154.82482746892669
          ],
          [
            149.81143611934795,
            -156.30125361566456
          ],
          [
            149.81137851422756,
            -157.77767976240247
          ],
          [
            149.84786188969397,
            -159.23202916249326
          ],
          [
            150.01122306904375,
            -159.50242110298612
          ],
          [
            150.21215278760587,
            -160.55164615009744
          ],
          [
            150.56029871967695,
            -161.10218554034938
          ],
          [
            150.29739998497382,
            -162.23415422914948
          ],
          [
            150.07364520439046,
            -163.02944736239036
          ],
          [
            147.28196583867046,
            -163.85676212260705
          ],
          [
            145.27469752948718,
            -164.87713700246033
          ],
          [
            144.48432273047578,
            -167.41394214358817
          ],
          [
            144.52930762074638,
            -169.22711410155972
          ],
          [
            144.5357812327348,
            -170.75095163144616
          ],
          [
            144.23984565979984,
            -172.16635001845472
          ],
          [
            143.98834547618705,
            -173.31175730423448
          ],
          [
            143.6949357832757,
            -174.07891016265773
          ],
          [
            143.501505642721,
            -174.81786054135043
          ],
          [
            142.96977028728423,
            -175.6846154934471
          ],
          [
            141.2133578392199,
            -177.06148892106305
          ],
          [
            140.0880113188301,
            -178.58729558585745
          ],
          [
            139.6597064051758,
            -179.31990801320555
          ],
          [
            139.35536187722886,
            -179.73633722338994
          ],
          [
            138.87515582262714,
            -180.39335370609948
          ],
          [
            136.89211985022936,
            -181.0309818257056
          ],
          [
            135.41573683498913,
            -181.03093499738347
          ],
          [
            135.04664108117908,
            -181.03092329030292
          ],
          [
            134.30843517227888,
            -181.40000641282631
          ],
          [
            132.09380304429814,
            -182.876362317081
          ],
          [
            130.24830987396774,
            -183.24541031836281
          ],
          [
            128.033677745987,
            -184.7217662226175
          ],
          [
            125.44996426547632,
            -185.8290038831072
          ],
          [
            123.9735524476759,
            -186.56717012815398
          ],
          [
            123.23528893365528,
            -188.41267939741527
          ],
          [
            123.23527453237519,
            -188.78178593409976
          ]
        ]
      },
      "properties": {
        "type": "variant",
        "id": 3,
        "color": "#44ff44",
        "vzdal_m": 1483,
        "prevyseni_m": 11,
        "cas_s": 417,
        "tempo_str": "4:41"
      }
    }
  ]
}