{
  "type": "FeatureCollection",
  "features": [
    {
      "type": "Feature",
      "geometry": {
        "type": "Point",
        "coordinates": [
          61.91238893126451,
          -218.3775737355268
        ]
      },
      "properties": {
        "type": "start",
        "isom": "109"
      }
    },
    {
      "type": "Feature",
      "geometry": {
        "type": "Point",
        "coordinates": [
          117.16150260754753,
          -198.58641122987237
        ]
      },
      "properties": {
        "type": "end",
        "isom": "204"
      }
    },
    {
      "type": "Feature",
      "geometry": {
        "type": "LineString",
        "coordinates": [
          [
            61.857130460436075,
            -218.4365045550812
          ],
          [
            62.59529612280184,
            -218.62108520788803
          ],
          [
            63.33347391760384,
            -218.4365769224019
          ],
          [
            64.07164564618773,
            -218.43661310606225
          ],
          [
            64.80982344098972,
            -218.2521048205761
          ],
          [
            65.54798910335549,
            -218.43668547338294
          ],
          [
            66.28616083193937,
            -218.43672165704328
          ],
          [
            67.02433256052326,
            -218.43675784070365
          ],
          [
            67.94705328747122,
            -218.2522586011326
          ],
          [
            69.23887201114735,
            -217.69868851509875
          ],
          [
            69.97704373973124,
            -217.69872469875907
          ],
          [
            70.71521546831512,
            -217.69876088241944
          ],
          [
            71.45338719689902,
            -217.6987970660798
          ],
          [
            72.1915589254829,
            -217.69883324974015
          ],
          [
            73.08066599598659,
            -217.87184721565444
          ],
          [
            73.30619779219741,
            -217.90761190839515
          ],
          [
            73.73784543982889,
            -217.90411422469955
          ],
          [
            74.36127776546914,
            -218.16737712688882
          ],
          [
            75.64232621508127,
            -218.74488519022566
          ],
          [
            76.9233746646934,
            -219.32239325356252
          ],
          [
            77.39469779290111,
            -219.40388255358533
          ],
          [
            77.91234129226311,
            -219.17546942627965
          ],
          [
            78.650513020847,
            -219.17550560994
          ],
          [
            78.83505595299297,
            -219.17551465585507
          ],
          [
            79.20414788350303,
            -218.99098827853877
          ],
          [
            79.75777667994095,
            -218.991015416284
          ],
          [
            80.68048527445268,
            -219.1756051150059
          ],
          [
            81.41865700303657,
            -219.17564129866628
          ],
          [
            82.15682873162045,
            -219.17567748232662
          ],
          [
            82.34137166376642,
            -219.1756865282417
          ],
          [
            82.71046359427648,
            -218.9911601509254
          ],
          [
            83.44863532286037,
            -218.99119633458574
          ],
          [
            84.18680705144425,
            -218.9912325182461
          ],
          [
            84.74043584788217,
            -218.99125965599134
          ],
          [
            85.6631444423939,
            -219.17584935471325
          ],
          [
            86.40131010475967,
            -219.36043000752008
          ],
          [
            87.32403083170765,
            -219.17593076794904
          ],
          [
            87.6931288284358,
            -218.80685992148625
          ],
          [
            88.61586168781999,
            -218.25327174362224
          ],
          [
            89.35405768127633,
            -217.51513005069668
          ],
          [
            90.09225367473266,
            -216.7769883577711
          ],
          [
            90.83044966818899,
            -216.03884666484552
          ],
          [
            92.12227445808323,
            -215.30073210966523
          ],
          [
            92.86047045153956,
            -214.56259041673965
          ],
          [
            93.4141174466318,
            -214.00898414704548
          ],
          [
            94.70594223652606,
            -213.27086959186516
          ],
          [
            95.44413216376428,
            -212.7172723680861
          ],
          [
            96.36687715558469,
            -211.7945952519291
          ],
          [
            97.65870194547892,
            -211.05648069674882
          ],
          [
            99.31961259966512,
            -210.3183842333987
          ],
          [
            100.24234545904929,
            -209.76479605553467
          ],
          [
            100.98054751872375,
            -208.84210989346263
          ],
          [
            101.90328644432604,
            -208.10397724645213
          ],
          [
            103.19511730043838,
            -207.18131822212536
          ],
          [
            104.67148502247862,
            -206.44321271286015
          ],
          [
            106.14785274451881,
            -205.7051072035949
          ],
          [
            106.88604873797516,
            -204.96696551066935
          ],
          [
            107.62424473143147,
            -204.22882381774374
          ],
          [
            108.3624407248878,
            -203.4906821248182
          ],
          [
            109.46972258263608,
            -202.75255852372283
          ],
          [
            110.20791857609241,
            -202.01441683079722
          ],
          [
            110.94611456954874,
            -201.27627513787166
          ],
          [
            111.68431056300507,
            -200.5381334449461
          ],
          [
            112.79158028831712,
            -200.1690987821437
          ],
          [
            113.5297459506829,
            -200.35367943495046
          ],
          [
            114.82157074057714,
            -199.61556487977018
          ],
          [
            115.9288465321073,
            -199.06198574782127
          ],
          [
            116.48248139476333,
            -198.87746841642004
          ],
          [
            116.85157332527338,
            -198.69294203910374
          ],
          [
            117.22066525578344,
            -198.50841566178744
          ]
        ]
      },
      "properties": {
        "type": "variant",
        "id": 1,
        "color": "#ff4444",
        "vzdal_m": 1714,
        "prevyseni_m": 81,
        "cas_s": 542,
        "tempo_str": "5:16"
      }
    },
    {
      "type": "Feature",
      "geometry": {
        "type": "LineString",
        "coordinates": [
          [
            61.857130460436075,
            -218.4365045550812
          ],
          [
            63.14894311789409,
            -218.06747893819383
          ],
          [
            64.25621890942425,
            -217.51389980624495
          ],
          [
            65.5480436993185,
            -216.77578525106463
          ],
          [
            67.20895435350468,
            -216.0376887877145
          ],
          [
            68.68532207554489,
            -215.29958327844926
          ],
          [
            69.79259180085694,
            -214.93054861564684
          ],
          [
            71.26895952289716,
            -214.1924431063816
          ],
          [
            71.63805145340721,
            -214.0079167290653
          ],
          [
            72.37621104955487,
            -214.37704185101862
          ],
          [
            73.48348684108502,
            -213.8234627190697
          ],
          [
            73.85257877159509,
            -213.6389363417534
          ],
          [
            74.59077476505142,
            -212.9007946488278
          ],
          [
            75.32897075850775,
            -212.16265295590225
          ],
          [
            76.43624655003791,
            -211.60907382395334
          ],
          [
            77.91262033829624,
            -210.68642384554164
          ],
          [
            79.38898806033646,
            -209.94831833627637
          ],
          [
            80.86535578237665,
            -209.2102128270112
          ],
          [
            82.34172350441688,
            -208.47210731774595
          ],
          [
            83.26443816514673,
            -208.4721525473214
          ],
          [
            84.55626295504098,
            -207.7340379921411
          ],
          [
            86.21717360922716,
            -206.99594152879092
          ],
          [
            87.69353526504926,
            -206.4423804886722
          ],
          [
            89.16990905330759,
            -205.51973051026047
          ],
          [
            89.72353784974551,
            -205.51975764800576
          ],
          [
            90.83080150883944,
            -205.33526745434978
          ],
          [
            92.30716923087965,
            -204.5971619450846
          ],
          [
            93.59898188833768,
            -204.22813632819722
          ],
          [
            94.52170868150375,
            -203.8590926194797
          ],
          [
            95.07533747794167,
            -203.85911975722493
          ],
          [
            96.3671501353997,
            -203.4900941403376
          ],
          [
            97.28986479612955,
            -203.490139369913
          ],
          [
            98.02805472336776,
            -202.93654214613395
          ],
          [
            98.39714058765969,
            -202.9365602379641
          ],
          [
            98.58168958602378,
            -202.7520248147327
          ],
          [
            99.50440424675364,
            -202.75207004430814
          ],
          [
            100.42712497370161,
            -202.56757080473713
          ],
          [
            101.71893763115963,
            -202.19854518784976
          ],
          [
            102.45711542596163,
            -202.0140369023636
          ],
          [
            103.3798422191277,
            -201.64499319364612
          ],
          [
            104.30255687985756,
            -201.64503842322154
          ],
          [
            105.22527154058741,
            -201.64508365279696
          ],
          [
            106.14799833375349,
            -201.27603994407943
          ],
          [
            106.88617006233738,
            -201.2760761277398
          ],
          [
            107.80887865684912,
            -201.46066582646168
          ],
          [
            108.54705038543301,
            -201.46070201012205
          ],
          [
            109.28521604779878,
            -201.64528266292885
          ],
          [
            110.02339384260078,
            -201.4607743774427
          ],
          [
            111.13065143547661,
            -201.46082865293326
          ],
          [
            112.42247622537084,
            -200.72271409775294
          ],
          [
            114.08338687955704,
            -199.9846176344028
          ],
          [
            115.55974853537913,
            -199.43105659428406
          ],
          [
            116.48248139476333,
            -198.87746841642004
          ],
          [
            116.85157332527338,
            -198.69294203910374
          ],
          [
            117.22066525578344,
            -198.50841566178744
          ]
        ]
      },
      "properties": {
        "type": "variant",
        "id": 2,
        "color": "#4444ff",
        "vzdal_m": 1639,
        "prevyseni_m": 80,
        "cas_s": 567,
        "tempo_str": "5:45"
      }
    },
    {
      "type": "Feature",
      "geometry": {
        "type": "LineString",
        "coordinates": [
          [
            61.857130460436075,
            -218.4365045550812
          ],
          [
            62.59532038767429,
            -217.8829073313021
          ],
          [
            63.33352244734873,
            -216.96022116923007
          ],
          [
            63.887175508659084,
            -216.2220704303894
          ],
          [
            64.80991443426139,
            -215.48393778337893
          ],
          [
            65.5481043614996,
            -214.93034055959984
          ],
          [
            66.28631248739217,
            -213.82310992838134
          ],
          [
            66.83998374735685,
            -212.53132578210122
          ],
          [
            67.76272267295916,
            -211.79319313509075
          ],
          [
            68.50091260019737,
            -211.23959591131165
          ],
          [
            69.60820052416375,
            -210.3169278410698
          ],
          [
            70.53093944976605,
            -209.57879519405932
          ],
          [
            72.00730717180626,
            -208.84068968479409
          ],
          [
            73.11458296333643,
            -208.28711055284518
          ],
          [
            73.48367489384648,
            -208.10258417552888
          ],
          [
            74.77549361752261,
            -207.54901408949505
          ],
          [
            76.06731840741686,
            -206.81089953431473
          ],
          [
            77.72822906160305,
            -206.0728030709646
          ],
          [
            79.20459071742515,
            -205.51924203084585
          ],
          [
            80.68096450568348,
            -204.59659205243412
          ],
          [
            81.41914230048546,
            -204.412083766948
          ],
          [
            83.08005295467166,
            -203.67398730359787
          ],
          [
            84.00277368161962,
            -203.4894880640268
          ],
          [
            84.74094541020351,
            -203.48952424768717
          ],
          [
            85.84821513551555,
            -203.12048958488475
          ],
          [
            86.58638686409944,
            -203.12052576854506
          ],
          [
            87.32455859268332,
            -203.1205619522054
          ],
          [
            88.61637731635945,
            -202.56699186617158
          ],
          [
            90.09273897218155,
            -202.01343082605283
          ],
          [
            91.20001476371172,
            -201.45985169410392
          ],
          [
            91.93818649229561,
            -201.45988787776426
          ],
          [
            92.6763582208795,
            -201.45992406142463
          ],
          [
            93.10853978774661,
            -201.212098110269
          ],
          [
            94.1527198767016,
            -200.90636302130588
          ],
          [
            94.8909037377217,
            -200.53731026667327
          ],
          [
            95.25999566823174,
            -200.35278388935697
          ],
          [
            96.3672653935438,
            -199.9837492265545
          ],
          [
            97.84363311558403,
            -199.2456437172893
          ],
          [
            99.32000083762424,
            -198.50753820802404
          ],
          [
            100.4272766291544,
            -197.95395907607517
          ],
          [
            100.79636855966443,
            -197.7694326987588
          ],
          [
            101.53454028824832,
            -197.76946888241918
          ],
          [
            102.27271808305032,
            -197.58496059693306
          ],
          [
            102.4572670814144,
            -197.40042517370165
          ],
          [
            103.74908580509054,
            -196.84685508766782
          ],
          [
            104.1181777356006,
            -196.66232871035152
          ],
          [
            104.48725753367442,
            -196.84689127132816
          ],
          [
            105.59450299411402,
            -197.21603448511166
          ],
          [
            106.33267472269792,
            -197.21607066877198
          ],
          [
            107.25538331720966,
            -197.4006603674939
          ],
          [
            107.99355504579354,
            -197.40069655115423
          ],
          [
            108.91626364030529,
            -197.58528624987613
          ],
          [
            109.65444143510729,
            -197.40077796439002
          ],
          [
            110.39260709747305,
            -197.58535861719685
          ],
          [
            111.13077882605694,
            -197.58539480085722
          ],
          [
            111.86894448842271,
            -197.769975453664
          ],
          [
            112.60712228322471,
            -197.58546716817787
          ],
          [
            113.34529401180859,
            -197.58550335183824
          ],
          [
            114.08346574039248,
            -197.58553953549858
          ],
          [
            114.82163746897636,
            -197.5855757191589
          ],
          [
            115.74434606348811,
            -197.7701654178808
          ],
          [
            117.22066525578344,
            -198.50841566178744
          ]
        ]
      },
      "properties": {
        "type": "variant",
        "id": 3,
        "color": "#44ff44",
        "vzdal_m": 1695,
        "prevyseni_m": 82,
        "cas_s": 591,
        "tempo_str": "5:48"
      }
    }
  ]
}