{
  "type": "FeatureCollection",
  "features": [
    {
      "type": "Feature",
      "geometry": {
        "type": "Point",
        "coordinates": [
          82.69214226706275,
          -129.3677542526646
        ]
      },
      "properties": {
        "type": "start",
        "isom": "109"
      }
    },
    {
      "type": "Feature",
      "geometry": {
        "type": "Point",
        "coordinates": [
          46.201278689427575,
          -109.41467830560201
        ]
      },
      "properties": {
        "type": "end",
        "isom": "204"
      }
    },
    {
      "type": "Feature",
      "geometry": {
        "type": "LineString",
        "coordinates": [
          [
            82.69219647938863,
            -129.33613680001451
          ],
          [
            82.04630531620495,
            -129.0592884338183
          ],
          [
            81.49219090722598,
            -128.8616164009538
          ],
          [
            81.03084265464871,
            -128.99878838770795
          ],
          [
            80.66254056303204,
            -128.99998789754608
          ],
          [
            80.29793580131526,
            -128.9368484489961
          ],
          [
            79.93057401583472,
            -128.8559013471891
          ],
          [
            79.55841209955554,
            -128.767800957209
          ],
          [
            78.99522987263725,
            -128.62248428264934
          ],
          [
            78.41963067355559,
            -128.46296489892612
          ],
          [
            77.86722932910556,
            -128.00038858432637
          ],
          [
            77.24822851082783,
            -127.85951417813507
          ],
          [
            76.60233734764415,
            -127.58266581193885
          ],
          [
            76.14098305038833,
            -127.4903709614017
          ],
          [
            75.4950949203137,
            -127.12125036055286
          ],
          [
            74.94147219009395,
            -126.93667875218618
          ],
          [
            74.38784945987419,
            -126.75210714381949
          ],
          [
            73.91744865394097,
            -126.58728504566524
          ],
          [
            73.55054372895222,
            -126.64572922297155
          ],
          [
            73.08621369840796,
            -126.79122711577767
          ],
          [
            72.75732448094764,
            -126.87328871550605
          ],
          [
            72.3578772062687,
            -126.75200763392758
          ],
          [
            71.89652290901286,
            -126.65971278339042
          ],
          [
            71.43516861175704,
            -126.56741793285327
          ],
          [
            70.9738143145012,
            -126.4751230823161
          ],
          [
            70.6015992688995,
            -126.45135067783767
          ],
          [
            70.14337415295346,
            -126.38281013907132
          ],
          [
            69.77428828866155,
            -126.3827920463637
          ],
          [
            69.31293399140573,
            -126.29049719582656
          ],
          [
            68.85157969414989,
            -126.19820234528939
          ],
          [
            68.29600731434705,
            -126.19405405901618
          ],
          [
            67.65025387835762,
            -126.46670156238089
          ],
          [
            67.28295554827395,
            -126.47869339563145
          ],
          [
            66.80179954559925,
            -126.31968411299265
          ],
          [
            66.24789994852674,
            -125.95155203198696
          ],
          [
            65.69240694940916,
            -125.58603207221128
          ],
          [
            65.06108899737747,
            -125.19532739868454
          ],
          [
            64.69939708506553,
            -125.18300422114977
          ],
          [
            64.14577435484576,
            -124.99843261278309
          ],
          [
            63.683648009445,
            -125.0890825203748
          ],
          [
            63.14233274399666,
            -124.93364115007084
          ],
          [
            62.89988631513579,
            -124.24447856254028
          ],
          [
            62.72189197882062,
            -124.0260449391063
          ],
          [
            62.48648217272013,
            -123.97347332723497
          ],
          [
            62.04536296347729,
            -124.06342323247932
          ],
          [
            61.67080079817529,
            -124.21857177585181
          ],
          [
            61.22679227965093,
            -124.36259768739062
          ],
          [
            60.64538206929223,
            -124.50369978920621
          ],
          [
            60.26168880981955,
            -124.51574330430992
          ],
          [
            59.69864675961073,
            -124.08238070732345
          ],
          [
            59.55007278596581,
            -123.94288517916944
          ],
          [
            59.29376857023582,
            -123.98286305023854
          ],
          [
            59.070874051922566,
            -124.07546149152702
          ],
          [
            58.795908095275784,
            -123.61406600575303
          ],
          [
            58.79486272398877,
            -123.52180563348843
          ],
          [
            58.791473493840016,
            -123.24347804293843
          ],
          [
            58.42501018672036,
            -122.96816301345717
          ],
          [
            57.871387456500614,
            -122.7835914050905
          ],
          [
            57.50230765842681,
            -122.59902884307762
          ],
          [
            56.948687961316104,
            -122.32218500005831
          ],
          [
            56.2105283651685,
            -121.95305987603255
          ],
          [
            55.56464023509388,
            -121.58393927518372
          ],
          [
            55.19556043702008,
            -121.39937671317085
          ],
          [
            54.82647457272817,
            -121.39935862046323
          ],
          [
            54.18058644265354,
            -121.03023801961439
          ],
          [
            53.81151877701596,
            -120.47658651899101
          ],
          [
            53.711105241406806,
            -120.3327125402598
          ],
          [
            53.165627613832285,
            -120.1997381527948
          ],
          [
            52.58603649196941,
            -119.92126777416047
          ],
          [
            52.60477043381391,
            -119.53153548597015
          ],
          [
            52.33522081648413,
            -119.09243062837115
          ],
          [
            52.242952383520205,
            -119.00015387054161
          ],
          [
            51.78160415248249,
            -118.7233145506992
          ],
          [
            51.457435720126405,
            -118.30785704976064
          ],
          [
            51.04345972188015,
            -117.89282825341033
          ],
          [
            50.76666352231553,
            -117.33918127596385
          ],
          [
            50.39759585667795,
            -116.78552977534049
          ],
          [
            50.02853122414941,
            -116.13960604006448
          ],
          [
            49.65843906690931,
            -115.58734177140379
          ],
          [
            49.29039285976519,
            -115.12457527347036
          ],
          [
            49.01359969330964,
            -114.47865606137125
          ],
          [
            48.644538093890155,
            -113.74046009144264
          ],
          [
            48.275476494470674,
            -113.00226412151402
          ],
          [
            47.99868332801512,
            -112.35634490941493
          ],
          [
            47.62962172859564,
            -111.6181489394863
          ],
          [
            47.260560129176156,
            -110.87995296955766
          ],
          [
            46.89149852975668,
            -110.14175699962905
          ],
          [
            46.522427831010035,
            -109.68037773365829
          ],
          [
            46.24562253211827,
            -109.40354746016972
          ]
        ]
      },
      "properties": {
        "type": "variant",
        "id": 1,
        "color": "#ff4444",
        "vzdal_m": 2488,
        "prevyseni_m": 101,
        "cas_s": 756,
        "tempo_str": "5:03"
      }
    },
    {
      "type": "Feature",
      "geometry": {
        "type": "LineString",
        "coordinates": [
          [
            82.69219647938863,
            -129.33613680001451
          ],
          [
            82.04630531620495,
            -129.0592884338183
          ],
          [
            81.49219090722598,
            -128.8616164009538
          ],
          [
            81.03084265464871,
            -128.99878838770795
          ],
          [
            80.66254056303204,
            -128.99998789754608
          ],
          [
            80.29793580131526,
            -128.9368484489961
          ],
          [
            79.93057401583472,
            -128.8559013471891
          ],
          [
            79.55841209955554,
            -128.767800957209
          ],
          [
            78.99522987263725,
            -128.62248428264934
          ],
          [
            78.41963067355559,
            -128.46296489892612
          ],
          [
            77.89573058728914,
            -128.04301520358564
          ],
          [
            77.52709954426842,
            -127.30489531228399
          ],
          [
            77.1559873758454,
            -126.9367873084319
          ],
          [
            76.51009924577077,
            -126.56766670758307
          ],
          [
            75.95648258176912,
            -126.19855062991114
          ],
          [
            75.3105944516945,
            -125.8294300290623
          ],
          [
            74.5724348555469,
            -125.46030490503655
          ],
          [
            73.92654672547226,
            -125.0911843041877
          ],
          [
            73.37293006147063,
            -124.72206822651576
          ],
          [
            73.00385329650588,
            -124.44523342985028
          ],
          [
            72.63476743221396,
            -124.44521533714264
          ],
          [
            72.1514487734443,
            -124.21551906215775
          ],
          [
            72.00225921063162,
            -124.28813897075862
          ],
          [
            71.66756619547782,
            -124.45105503346166
          ],
          [
            70.88250105064395,
            -123.98149286704088
          ],
          [
            70.11261542925432,
            -123.66056373317377
          ],
          [
            69.69705304100482,
            -123.23876576380252
          ],
          [
            69.3275401312359,
            -122.94795262964053
          ],
          [
            68.95007899153416,
            -122.76660458726761
          ],
          [
            68.48437949470771,
            -122.6823250882838
          ],
          [
            68.12535335157155,
            -122.62183992746438
          ],
          [
            67.9316801514613,
            -122.58625063310288
          ],
          [
            67.36264874420148,
            -122.50002134186556
          ],
          [
            66.8474967673512,
            -122.00165303353664
          ],
          [
            66.63233991284955,
            -121.86827011750987
          ],
          [
            65.9086465210052,
            -121.48331363796167
          ],
          [
            65.53657211231832,
            -121.02661011486911
          ],
          [
            65.18341886038893,
            -120.45943660852262
          ],
          [
            64.80550552193688,
            -120.08889902009463
          ],
          [
            64.3358838157745,
            -119.72675113059073
          ],
          [
            63.87023230812717,
            -119.55057171634796
          ],
          [
            63.384897922911904,
            -119.21981124670447
          ],
          [
            62.875941141971545,
            -118.87689905249286
          ],
          [
            62.4850881507297,
            -118.90838370852552
          ],
          [
            62.1160022864378,
            -118.90836561581789
          ],
          [
            61.74654812470937,
            -118.90922941842102
          ],
          [
            61.39692858508139,
            -118.81858275650009
          ],
          [
            61.25320729006261,
            -118.84802713113088
          ],
          [
            60.677607938188146,
            -119.23493964855828
          ],
          [
            60.32359091853251,
            -119.68790905633824
          ],
          [
            60.243833508057435,
            -119.7899597064005
          ],
          [
            59.624651470704045,
            -119.55414913260982
          ],
          [
            59.25556257330308,
            -119.64640327455481
          ],
          [
            58.73135616214251,
            -119.56559446575879
          ],
          [
            58.4251254448644,
            -119.46181809665741
          ],
          [
            58.05603958057249,
            -119.46180000394978
          ],
          [
            57.77922214924451,
            -119.55405866907171
          ],
          [
            57.410145384279765,
            -119.2772238724062
          ],
          [
            57.31787998442489,
            -119.09267487992403
          ],
          [
            56.76425118798703,
            -119.09264774086262
          ],
          [
            56.118341826149035,
            -119.36943278258215
          ],
          [
            55.843584976620114,
            -119.43563911260557
          ],
          [
            55.38017009756521,
            -119.3693965971669
          ],
          [
            54.918815800309375,
            -119.27710174662975
          ],
          [
            54.18065620416177,
            -118.90797662260401
          ],
          [
            53.811582472306085,
            -118.53886959128587
          ],
          [
            53.442508740450386,
            -118.16976255996777
          ],
          [
            52.98116354252171,
            -117.80065100547273
          ],
          [
            52.42754687852007,
            -117.4315349278008
          ],
          [
            51.966201680591396,
            -117.06242337330576
          ],
          [
            51.59712794873571,
            -116.69331634198764
          ],
          [
            51.123035347206105,
            -116.33426772497633
          ],
          [
            50.48981474764723,
            -115.95526452942396
          ],
          [
            49.719817028343414,
            -115.63250273235818
          ],
          [
            49.29039285976519,
            -115.12457527347036
          ],
          [
            49.01359969330964,
            -114.47865606137125
          ],
          [
            48.644538093890155,
            -113.74046009144264
          ],
          [
            48.275476494470674,
            -113.00226412151402
          ],
          [
            47.99868332801512,
            -112.35634490941493
          ],
          [
            47.62962172859564,
            -111.6181489394863
          ],
          [
            47.260560129176156,
            -110.87995296955766
          ],
          [
            46.89149852975668,
            -110.14175699962905
          ],
          [
            46.522427831010035,
            -109.68037773365829
          ],
          [
            46.24562253211827,
            -109.40354746016972
          ]
        ]
      },
      "properties": {
        "type": "variant",
        "id": 2,
        "color": "#4444ff",
        "vzdal_m": 2461,
        "prevyseni_m": 96,
        "cas_s": 764,
        "tempo_str": "5:10"
      }
    },
    {
      "type": "Feature",
      "geometry": {
        "type": "LineString",
        "coordinates": [
          [
            82.69219647938863,
            -129.33613680001451
          ],
          [
            82.32312274753292,
            -128.9670297686964
          ],
          [
            81.90704505751634,
            -128.66484870944663
          ],
          [
            81.49270381774856,
            -128.22881118288322
          ],
          [
            81.12363008589287,
            -127.85970415156511
          ],
          [
            80.75455635403718,
            -127.49059712024697
          ],
          [
            80.38548262218148,
            -127.12149008892887
          ],
          [
            80.01640889032579,
            -126.75238305761073
          ],
          [
            79.6473351584701,
            -126.3832760262926
          ],
          [
            79.27826749283251,
            -125.82962452566923
          ],
          [
            78.90919982719491,
            -125.27597302504586
          ],
          [
            78.54013216155734,
            -124.7223215244225
          ],
          [
            78.13233543865486,
            -124.20147564520676
          ],
          [
            77.80199379717311,
            -123.70729075782837
          ],
          [
            77.55865145288766,
            -123.03628547836308
          ],
          [
            77.14343697661262,
            -122.70850846889554
          ],
          [
            76.72476572518777,
            -122.35620607748463
          ],
          [
            76.38328664555902,
            -121.69552581268674
          ],
          [
            76.0663670108617,
            -120.92910118352187
          ],
          [
            75.90207305217677,
            -120.64074363589673
          ],
          [
            75.60496867367875,
            -120.3548812596522
          ],
          [
            75.13740990880864,
            -120.08864681913445
          ],
          [
            74.77800482106055,
            -119.886852519029
          ],
          [
            74.08853907665318,
            -119.69654836923829
          ],
          [
            73.32731293412532,
            -119.33233680388459
          ],
          [
            72.9742738621574,
            -119.036749705669
          ],
          [
            72.56471292519346,
            -118.3994782950216
          ],
          [
            72.24750871143412,
            -117.91708202433658
          ],
          [
            71.9204982113878,
            -117.24066419876421
          ],
          [
            71.52775855428062,
            -116.87883781750449
          ],
          [
            71.06641335635196,
            -116.50972626300947
          ],
          [
            70.32825376020435,
            -116.14060113898373
          ],
          [
            69.59009416405677,
            -115.77147601495798
          ],
          [
            69.03647143383701,
            -115.58690440659129
          ],
          [
            68.51407943644183,
            -115.53111287609245
          ],
          [
            68.25426055696249,
            -115.09666647528742
          ],
          [
            67.83696057354263,
            -115.03321219737578
          ],
          [
            67.46787470925072,
            -115.03319410466814
          ],
          [
            67.0987888449588,
            -115.03317601196052
          ],
          [
            66.7297029806669,
            -115.0331579192529
          ],
          [
            66.43984476950337,
            -115.0789633648748
          ],
          [
            65.71472595319132,
            -114.75629146034906
          ],
          [
            65.3456400888994,
            -114.75627336764143
          ],
          [
            64.7920264580068,
            -114.29488505531688
          ],
          [
            64.69976409126099,
            -114.0180638281821
          ],
          [
            64.27746697167927,
            -113.79406306930171
          ],
          [
            64.14614742725935,
            -113.64894775051017
          ],
          [
            63.86933909525852,
            -113.4643897116742
          ],
          [
            63.500253230966614,
            -113.46437161896657
          ],
          [
            63.13116736667471,
            -113.46435352625895
          ],
          [
            62.577532504018734,
            -113.64887085650275
          ],
          [
            62.1161721405448,
            -113.74112047527086
          ],
          [
            61.65482087639802,
            -113.55655339008108
          ],
          [
            61.19346961225124,
            -113.37198630489131
          ],
          [
            60.66187755443836,
            -113.18608861910646
          ],
          [
            60.27076101773958,
            -113.18739660381699
          ],
          [
            59.71712312197455,
            -113.46418616871345
          ],
          [
            59.25575972539156,
            -113.64870802213416
          ],
          [
            58.79439936191763,
            -113.74095764090227
          ],
          [
            58.14850819873395,
            -113.46410927470603
          ],
          [
            57.69356388607996,
            -113.36357360925274
          ],
          [
            57.318061970968095,
            -113.55634080076652
          ],
          [
            56.856707673712265,
            -113.46404595022938
          ],
          [
            56.21081651052859,
            -113.18719758403314
          ],
          [
            55.56492534734491,
            -112.91034921783694
          ],
          [
            54.919034184161234,
            -112.63350085164072
          ],
          [
            54.18087458801363,
            -112.26437572761498
          ],
          [
            53.442714991866026,
            -111.89525060358923
          ],
          [
            52.889092261646276,
            -111.71067899522254
          ],
          [
            52.09963859726605,
            -111.36353440229689
          ],
          [
            51.48153733033311,
            -110.97060375993675
          ],
          [
            51.295708752479015,
            -110.71554082639975
          ],
          [
            50.672456969879285,
            -110.41978025388117
          ],
          [
            50.32882729694839,
            -110.10178171084995
          ],
          [
            49.546919715079575,
            -109.7863303388068
          ],
          [
            49.1060349472715,
            -109.4959599133064
          ],
          [
            48.644680650015665,
            -109.40366506276925
          ],
          [
            48.27559478572376,
            -109.40364697006162
          ],
          [
            47.90650892143186,
            -109.40362887735401
          ],
          [
            47.53742305713994,
            -109.40361078464638
          ],
          [
            47.168337192848035,
            -109.40359269193875
          ],
          [
            46.79925132855613,
            -109.40357459923113
          ],
          [
            46.43016546426422,
            -109.40355650652351
          ],
          [
            46.24562253211827,
            -109.40354746016972
          ]
        ]
      },
      "properties": {
        "type": "variant",
        "id": 3,
        "color": "#44ff44",
        "vzdal_m": 2429,
        "prevyseni_m": 104,
        "cas_s": 760,
        "tempo_str": "5:12"
      }
    }
  ]
}