<?xml version="1.0" encoding="UTF-8"?>
<gpx version="1.1" creator="Livelox" xmlns="http://www.topografix.com/GPX/1/1" xmlns:xsi="http://www.w3.org/2001/XMLSchema-instance" xsi:schemaLocation="http://www.topografix.com/GPX/1/1 http://www.topografix.com/GPX/1/1/gpx.xsd http://www.garmin.com/xmlschemas/GpxExtensions/v3 http://www.garmin.com/xmlschemas/GpxExtensionsv3.xsd http://www.garmin.com/xmlschemas/TrackPointExtension/v1 http://www.garmin.com/xmlschemas/TrackPointExtensionv1.xsd http://www.garmin.com/xmlschemas/PowerExtension/v1 http://www.garmin.com/xmlschemas/PowerExtensionv1.xsd http://www.topografix.com/GPX/gpx_style/0/2 http://www.topografix.com/GPX/gpx_style/0/2/gpx_style.xsd" xmlns:gpxtpx="http://www.garmin.com/xmlschemas/TrackPointExtension/v1" xmlns:gpxx="http://www.garmin.com/xmlschemas/GpxExtensions/v3" xmlns:gpxpx="http://www.garmin.com/xmlschemas/PowerExtension/v1" xmlns:gpx_style="http://www.topografix.com/GPX/gpx_style/0/2">
  <metadata>
    <name>5. 4. 2026 Velikonoce PGP - middle, H18-21_Top Masters, Bialožyt Marek</name>
    <author>
      <name>gpx.studio</name>
      <link href="https://gpx.studio"/>
    </author>
  </metadata>
  <trk>
    <name>5. 4. 2026 Velikonoce PGP - middle, H18-21_Top Masters, Bialožyt Marek</name>
    <trkseg>
      <trkpt lat="49.049972" lon="15.018026">
        <time>2026-04-05T08:25:00.000Z</time>
      </trkpt>
      <trkpt lat="49.049966" lon="15.018015">
        <time>2026-04-05T08:25:02.000Z</time>
      </trkpt>
      <trkpt lat="49.049962" lon="15.017996">
        <time>2026-04-05T08:25:08.000Z</time>
      </trkpt>
      <trkpt lat="49.049998" lon="15.017997">
        <time>2026-04-05T08:25:12.000Z</time>
      </trkpt>
      <trkpt lat="49.050028" lon="15.018016">
        <time>2026-04-05T08:25:13.000Z</time>
      </trkpt>
      <trkpt lat="49.050028" lon="15.018016">
        <time>2026-04-05T08:25:14.000Z</time>
      </trkpt>
      <trkpt lat="49.050049" lon="15.01803">
        <time>2026-04-05T08:25:15.000Z</time>
      </trkpt>
      <trkpt lat="49.050068" lon="15.01804">
        <time>2026-04-05T08:25:16.000Z</time>
      </trkpt>
      <trkpt lat="49.050091" lon="15.018053">
        <time>2026-04-05T08:25:17.000Z</time>
      </trkpt>
      <trkpt lat="49.050115" lon="15.01806">
        <time>2026-04-05T08:25:18.000Z</time>
      </trkpt>
      <trkpt lat="49.05017" lon="15.018085">
        <time>2026-04-05T08:25:20.000Z</time>
      </trkpt>
      <trkpt lat="49.050197" lon="15.0181">
        <time>2026-04-05T08:25:21.000Z</time>
      </trkpt>
      <trkpt lat="49.050223" lon="15.018115">
        <time>2026-04-05T08:25:22.000Z</time>
      </trkpt>
      <trkpt lat="49.050249" lon="15.018136">
        <time>2026-04-05T08:25:23.000Z</time>
      </trkpt>
      <trkpt lat="49.050271" lon="15.018159">
        <time>2026-04-05T08:25:24.000Z</time>
      </trkpt>
      <trkpt lat="49.050289" lon="15.018188">
        <time>2026-04-05T08:25:25.000Z</time>
      </trkpt>
      <trkpt lat="49.050322" lon="15.018251">
        <time>2026-04-05T08:25:27.000Z</time>
      </trkpt>
      <trkpt lat="49.050352" lon="15.018331">
        <time>2026-04-05T08:25:29.000Z</time>
      </trkpt>
      <trkpt lat="49.050384" lon="15.018557">
        <time>2026-04-05T08:25:34.000Z</time>
      </trkpt>
      <trkpt lat="49.050462" lon="15.018749">
        <time>2026-04-05T08:25:40.000Z</time>
      </trkpt>
      <trkpt lat="49.050589" lon="15.018972">
        <time>2026-04-05T08:25:45.000Z</time>
      </trkpt>
      <trkpt lat="49.05061" lon="15.019018">
        <time>2026-04-05T08:25:46.000Z</time>
      </trkpt>
      <trkpt lat="49.050715" lon="15.019176">
        <time>2026-04-05T08:25:50.000Z</time>
      </trkpt>
      <trkpt lat="49.050763" lon="15.019224">
        <time>2026-04-05T08:25:52.000Z</time>
      </trkpt>
      <trkpt lat="49.050839" lon="15.019318">
        <time>2026-04-05T08:25:57.000Z</time>
      </trkpt>
      <trkpt lat="49.050856" lon="15.019357">
        <time>2026-04-05T08:25:59.000Z</time>
      </trkpt>
      <trkpt lat="49.050875" lon="15.019438">
        <time>2026-04-05T08:26:03.000Z</time>
      </trkpt>
      <trkpt lat="49.050935" lon="15.019602">
        <time>2026-04-05T08:26:08.000Z</time>
      </trkpt>
      <trkpt lat="49.050958" lon="15.019702">
        <time>2026-04-05T08:26:11.000Z</time>
      </trkpt>
      <trkpt lat="49.050989" lon="15.019858">
        <time>2026-04-05T08:26:16.000Z</time>
      </trkpt>
      <trkpt lat="49.051027" lon="15.019927">
        <time>2026-04-05T08:26:21.000Z</time>
      </trkpt>
      <trkpt lat="49.051054" lon="15.019936">
        <time>2026-04-05T08:26:23.000Z</time>
      </trkpt>
      <trkpt lat="49.051136" lon="15.019921">
        <time>2026-04-05T08:26:29.000Z</time>
      </trkpt>
      <trkpt lat="49.05121" lon="15.019947">
        <time>2026-04-05T08:26:35.000Z</time>
      </trkpt>
      <trkpt lat="49.051324" lon="15.019889">
        <time>2026-04-05T08:26:41.000Z</time>
      </trkpt>
      <trkpt lat="49.051451" lon="15.019808">
        <time>2026-04-05T08:26:47.000Z</time>
      </trkpt>
      <trkpt lat="49.051535" lon="15.019763">
        <time>2026-04-05T08:26:53.000Z</time>
      </trkpt>
      <trkpt lat="49.051568" lon="15.019748">
        <time>2026-04-05T08:26:56.000Z</time>
      </trkpt>
      <trkpt lat="49.051671" lon="15.019639">
        <time>2026-04-05T08:27:02.000Z</time>
      </trkpt>
      <trkpt lat="49.051804" lon="15.019539">
        <time>2026-04-05T08:27:08.000Z</time>
      </trkpt>
      <trkpt lat="49.051894" lon="15.019419">
        <time>2026-04-05T08:27:14.000Z</time>
      </trkpt>
      <trkpt lat="49.051966" lon="15.019417">
        <time>2026-04-05T08:27:20.000Z</time>
      </trkpt>
      <trkpt lat="49.052004" lon="15.019413">
        <time>2026-04-05T08:27:23.000Z</time>
      </trkpt>
      <trkpt lat="49.052122" lon="15.019529">
        <time>2026-04-05T08:27:29.000Z</time>
      </trkpt>
      <trkpt lat="49.052209" lon="15.01961">
        <time>2026-04-05T08:27:32.000Z</time>
      </trkpt>
      <trkpt lat="49.052369" lon="15.019705">
        <time>2026-04-05T08:27:38.000Z</time>
      </trkpt>
      <trkpt lat="49.052518" lon="15.019829">
        <time>2026-04-05T08:27:44.000Z</time>
      </trkpt>
      <trkpt lat="49.052707" lon="15.019902">
        <time>2026-04-05T08:27:49.000Z</time>
      </trkpt>
      <trkpt lat="49.052835" lon="15.020002">
        <time>2026-04-05T08:27:55.000Z</time>
      </trkpt>
      <trkpt lat="49.052919" lon="15.020197">
        <time>2026-04-05T08:28:01.000Z</time>
      </trkpt>
      <trkpt lat="49.053013" lon="15.020366">
        <time>2026-04-05T08:28:07.000Z</time>
      </trkpt>
      <trkpt lat="49.053067" lon="15.020525">
        <time>2026-04-05T08:28:13.000Z</time>
      </trkpt>
      <trkpt lat="49.053091" lon="15.020556">
        <time>2026-04-05T08:28:15.000Z</time>
      </trkpt>
      <trkpt lat="49.053166" lon="15.020675">
        <time>2026-04-05T08:28:21.000Z</time>
      </trkpt>
      <trkpt lat="49.053217" lon="15.020775">
        <time>2026-04-05T08:28:27.000Z</time>
      </trkpt>
      <trkpt lat="49.053298" lon="15.020842">
        <time>2026-04-05T08:28:33.000Z</time>
      </trkpt>
      <trkpt lat="49.053349" lon="15.020893">
        <time>2026-04-05T08:28:36.000Z</time>
      </trkpt>
      <trkpt lat="49.053513" lon="15.021092">
        <time>2026-04-05T08:28:42.000Z</time>
      </trkpt>
      <trkpt lat="49.053554" lon="15.021158">
        <time>2026-04-05T08:28:46.000Z</time>
      </trkpt>
      <trkpt lat="49.053612" lon="15.021305">
        <time>2026-04-05T08:28:52.000Z</time>
      </trkpt>
      <trkpt lat="49.053655" lon="15.021477">
        <time>2026-04-05T08:28:58.000Z</time>
      </trkpt>
      <trkpt lat="49.053724" lon="15.021668">
        <time>2026-04-05T08:29:04.000Z</time>
      </trkpt>
      <trkpt lat="49.053774" lon="15.021871">
        <time>2026-04-05T08:29:10.000Z</time>
      </trkpt>
      <trkpt lat="49.053867" lon="15.022132">
        <time>2026-04-05T08:29:16.000Z</time>
      </trkpt>
      <trkpt lat="49.053913" lon="15.022274">
        <time>2026-04-05T08:29:22.000Z</time>
      </trkpt>
      <trkpt lat="49.053929" lon="15.022348">
        <time>2026-04-05T08:29:25.000Z</time>
      </trkpt>
      <trkpt lat="49.053946" lon="15.022538">
        <time>2026-04-05T08:29:31.000Z</time>
      </trkpt>
      <trkpt lat="49.053939" lon="15.02261">
        <time>2026-04-05T08:29:32.000Z</time>
      </trkpt>
      <trkpt lat="49.053887" lon="15.022783">
        <time>2026-04-05T08:29:38.000Z</time>
      </trkpt>
      <trkpt lat="49.053871" lon="15.022965">
        <time>2026-04-05T08:29:44.000Z</time>
      </trkpt>
      <trkpt lat="49.053875" lon="15.022969">
        <time>2026-04-05T08:29:45.000Z</time>
      </trkpt>
      <trkpt lat="49.053894" lon="15.022958">
        <time>2026-04-05T08:29:48.000Z</time>
      </trkpt>
      <trkpt lat="49.053921" lon="15.022934">
        <time>2026-04-05T08:29:50.000Z</time>
      </trkpt>
      <trkpt lat="49.053966" lon="15.022859">
        <time>2026-04-05T08:29:55.000Z</time>
      </trkpt>
      <trkpt lat="49.054075" lon="15.022729">
        <time>2026-04-05T08:30:01.000Z</time>
      </trkpt>
      <trkpt lat="49.054176" lon="15.022561">
        <time>2026-04-05T08:30:07.000Z</time>
      </trkpt>
      <trkpt lat="49.054267" lon="15.022367">
        <time>2026-04-05T08:30:13.000Z</time>
      </trkpt>
      <trkpt lat="49.054329" lon="15.022176">
        <time>2026-04-05T08:30:19.000Z</time>
      </trkpt>
      <trkpt lat="49.054431" lon="15.022039">
        <time>2026-04-05T08:30:25.000Z</time>
      </trkpt>
      <trkpt lat="49.054528" lon="15.021879">
        <time>2026-04-05T08:30:31.000Z</time>
      </trkpt>
      <trkpt lat="49.0546" lon="15.02175">
        <time>2026-04-05T08:30:37.000Z</time>
      </trkpt>
      <trkpt lat="49.054673" lon="15.02168">
        <time>2026-04-05T08:30:43.000Z</time>
      </trkpt>
      <trkpt lat="49.054816" lon="15.021612">
        <time>2026-04-05T08:30:49.000Z</time>
      </trkpt>
      <trkpt lat="49.054896" lon="15.021564">
        <time>2026-04-05T08:30:55.000Z</time>
      </trkpt>
      <trkpt lat="49.054994" lon="15.021518">
        <time>2026-04-05T08:31:01.000Z</time>
      </trkpt>
      <trkpt lat="49.05505" lon="15.02152">
        <time>2026-04-05T08:31:07.000Z</time>
      </trkpt>
      <trkpt lat="49.055054" lon="15.021518">
        <time>2026-04-05T08:31:08.000Z</time>
      </trkpt>
      <trkpt lat="49.055098" lon="15.021523">
        <time>2026-04-05T08:31:13.000Z</time>
      </trkpt>
      <trkpt lat="49.055112" lon="15.02152">
        <time>2026-04-05T08:31:16.000Z</time>
      </trkpt>
      <trkpt lat="49.055134" lon="15.021508">
        <time>2026-04-05T08:31:19.000Z</time>
      </trkpt>
      <trkpt lat="49.055196" lon="15.021464">
        <time>2026-04-05T08:31:23.000Z</time>
      </trkpt>
      <trkpt lat="49.055327" lon="15.021335">
        <time>2026-04-05T08:31:29.000Z</time>
      </trkpt>
      <trkpt lat="49.055346" lon="15.021317">
        <time>2026-04-05T08:31:33.000Z</time>
      </trkpt>
      <trkpt lat="49.055348" lon="15.021316">
        <time>2026-04-05T08:31:34.000Z</time>
      </trkpt>
      <trkpt lat="49.055353" lon="15.021313">
        <time>2026-04-05T08:31:36.000Z</time>
      </trkpt>
      <trkpt lat="49.05537" lon="15.021305">
        <time>2026-04-05T08:31:42.000Z</time>
      </trkpt>
      <trkpt lat="49.055381" lon="15.021306">
        <time>2026-04-05T08:31:44.000Z</time>
      </trkpt>
      <trkpt lat="49.05541" lon="15.02137">
        <time>2026-04-05T08:31:50.000Z</time>
      </trkpt>
      <trkpt lat="49.055425" lon="15.021439">
        <time>2026-04-05T08:31:55.000Z</time>
      </trkpt>
      <trkpt lat="49.055459" lon="15.021475">
        <time>2026-04-05T08:31:59.000Z</time>
      </trkpt>
      <trkpt lat="49.055461" lon="15.021588">
        <time>2026-04-05T08:32:05.000Z</time>
      </trkpt>
      <trkpt lat="49.05546" lon="15.021701">
        <time>2026-04-05T08:32:11.000Z</time>
      </trkpt>
      <trkpt lat="49.055477" lon="15.02177">
        <time>2026-04-05T08:32:15.000Z</time>
      </trkpt>
      <trkpt lat="49.055478" lon="15.021787">
        <time>2026-04-05T08:32:16.000Z</time>
      </trkpt>
      <trkpt lat="49.055477" lon="15.021806">
        <time>2026-04-05T08:32:17.000Z</time>
      </trkpt>
      <trkpt lat="49.055476" lon="15.021854">
        <time>2026-04-05T08:32:20.000Z</time>
      </trkpt>
      <trkpt lat="49.055487" lon="15.021896">
        <time>2026-04-05T08:32:23.000Z</time>
      </trkpt>
      <trkpt lat="49.055495" lon="15.021907">
        <time>2026-04-05T08:32:24.000Z</time>
      </trkpt>
      <trkpt lat="49.055506" lon="15.021928">
        <time>2026-04-05T08:32:26.000Z</time>
      </trkpt>
      <trkpt lat="49.055508" lon="15.021941">
        <time>2026-04-05T08:32:27.000Z</time>
      </trkpt>
      <trkpt lat="49.05553" lon="15.022008">
        <time>2026-04-05T08:32:31.000Z</time>
      </trkpt>
      <trkpt lat="49.055552" lon="15.022051">
        <time>2026-04-05T08:32:33.000Z</time>
      </trkpt>
      <trkpt lat="49.055567" lon="15.022072">
        <time>2026-04-05T08:32:34.000Z</time>
      </trkpt>
      <trkpt lat="49.05558" lon="15.022084">
        <time>2026-04-05T08:32:35.000Z</time>
      </trkpt>
      <trkpt lat="49.055602" lon="15.022097">
        <time>2026-04-05T08:32:37.000Z</time>
      </trkpt>
      <trkpt lat="49.055615" lon="15.022148">
        <time>2026-04-05T08:32:40.000Z</time>
      </trkpt>
      <trkpt lat="49.055664" lon="15.022352">
        <time>2026-04-05T08:32:46.000Z</time>
      </trkpt>
      <trkpt lat="49.055702" lon="15.022512">
        <time>2026-04-05T08:32:51.000Z</time>
      </trkpt>
      <trkpt lat="49.055721" lon="15.022579">
        <time>2026-04-05T08:32:55.000Z</time>
      </trkpt>
      <trkpt lat="49.055726" lon="15.0226">
        <time>2026-04-05T08:32:57.000Z</time>
      </trkpt>
      <trkpt lat="49.055727" lon="15.022625">
        <time>2026-04-05T08:32:59.000Z</time>
      </trkpt>
      <trkpt lat="49.055744" lon="15.022631">
        <time>2026-04-05T08:33:05.000Z</time>
      </trkpt>
      <trkpt lat="49.055765" lon="15.022623">
        <time>2026-04-05T08:33:07.000Z</time>
      </trkpt>
      <trkpt lat="49.055778" lon="15.022605">
        <time>2026-04-05T08:33:09.000Z</time>
      </trkpt>
      <trkpt lat="49.055793" lon="15.022557">
        <time>2026-04-05T08:33:12.000Z</time>
      </trkpt>
      <trkpt lat="49.055866" lon="15.022404">
        <time>2026-04-05T08:33:18.000Z</time>
      </trkpt>
      <trkpt lat="49.055899" lon="15.022334">
        <time>2026-04-05T08:33:24.000Z</time>
      </trkpt>
      <trkpt lat="49.05592" lon="15.022232">
        <time>2026-04-05T08:33:28.000Z</time>
      </trkpt>
      <trkpt lat="49.055932" lon="15.022172">
        <time>2026-04-05T08:33:30.000Z</time>
      </trkpt>
      <trkpt lat="49.055943" lon="15.022108">
        <time>2026-04-05T08:33:31.000Z</time>
      </trkpt>
      <trkpt lat="49.055943" lon="15.022108">
        <time>2026-04-05T08:33:32.000Z</time>
      </trkpt>
      <trkpt lat="49.055969" lon="15.022016">
        <time>2026-04-05T08:33:36.000Z</time>
      </trkpt>
      <trkpt lat="49.05607" lon="15.021856">
        <time>2026-04-05T08:33:42.000Z</time>
      </trkpt>
      <trkpt lat="49.05608" lon="15.021784">
        <time>2026-04-05T08:33:46.000Z</time>
      </trkpt>
      <trkpt lat="49.056115" lon="15.021695">
        <time>2026-04-05T08:33:51.000Z</time>
      </trkpt>
      <trkpt lat="49.056154" lon="15.021651">
        <time>2026-04-05T08:33:54.000Z</time>
      </trkpt>
      <trkpt lat="49.0562" lon="15.021417">
        <time>2026-04-05T08:34:00.000Z</time>
      </trkpt>
      <trkpt lat="49.056204" lon="15.021218">
        <time>2026-04-05T08:34:06.000Z</time>
      </trkpt>
      <trkpt lat="49.056203" lon="15.021123">
        <time>2026-04-05T08:34:09.000Z</time>
      </trkpt>
      <trkpt lat="49.056202" lon="15.021058">
        <time>2026-04-05T08:34:11.000Z</time>
      </trkpt>
      <trkpt lat="49.056193" lon="15.020959">
        <time>2026-04-05T08:34:14.000Z</time>
      </trkpt>
      <trkpt lat="49.056202" lon="15.020892">
        <time>2026-04-05T08:34:15.000Z</time>
      </trkpt>
      <trkpt lat="49.056203" lon="15.020825">
        <time>2026-04-05T08:34:18.000Z</time>
      </trkpt>
      <trkpt lat="49.056197" lon="15.020594">
        <time>2026-04-05T08:34:24.000Z</time>
      </trkpt>
      <trkpt lat="49.056232" lon="15.020379">
        <time>2026-04-05T08:34:29.000Z</time>
      </trkpt>
      <trkpt lat="49.056229" lon="15.020301">
        <time>2026-04-05T08:34:30.000Z</time>
      </trkpt>
      <trkpt lat="49.056173" lon="15.020146">
        <time>2026-04-05T08:34:36.000Z</time>
      </trkpt>
      <trkpt lat="49.05612" lon="15.020037">
        <time>2026-04-05T08:34:42.000Z</time>
      </trkpt>
      <trkpt lat="49.05606" lon="15.019935">
        <time>2026-04-05T08:34:48.000Z</time>
      </trkpt>
      <trkpt lat="49.056004" lon="15.019797">
        <time>2026-04-05T08:34:54.000Z</time>
      </trkpt>
      <trkpt lat="49.055997" lon="15.019706">
        <time>2026-04-05T08:35:00.000Z</time>
      </trkpt>
      <trkpt lat="49.056002" lon="15.0197">
        <time>2026-04-05T08:35:01.000Z</time>
      </trkpt>
      <trkpt lat="49.056021" lon="15.019697">
        <time>2026-04-05T08:35:03.000Z</time>
      </trkpt>
      <trkpt lat="49.056065" lon="15.019673">
        <time>2026-04-05T08:35:06.000Z</time>
      </trkpt>
      <trkpt lat="49.056081" lon="15.019636">
        <time>2026-04-05T08:35:08.000Z</time>
      </trkpt>
      <trkpt lat="49.056164" lon="15.019588">
        <time>2026-04-05T08:35:14.000Z</time>
      </trkpt>
      <trkpt lat="49.056283" lon="15.019421">
        <time>2026-04-05T08:35:20.000Z</time>
      </trkpt>
      <trkpt lat="49.056302" lon="15.019394">
        <time>2026-04-05T08:35:21.000Z</time>
      </trkpt>
      <trkpt lat="49.056345" lon="15.019352">
        <time>2026-04-05T08:35:22.000Z</time>
      </trkpt>
      <trkpt lat="49.056383" lon="15.019329">
        <time>2026-04-05T08:35:26.000Z</time>
      </trkpt>
      <trkpt lat="49.056399" lon="15.019332">
        <time>2026-04-05T08:35:28.000Z</time>
      </trkpt>
      <trkpt lat="49.056402" lon="15.01935">
        <time>2026-04-05T08:35:31.000Z</time>
      </trkpt>
      <trkpt lat="49.056438" lon="15.019378">
        <time>2026-04-05T08:35:33.000Z</time>
      </trkpt>
      <trkpt lat="49.056459" lon="15.019387">
        <time>2026-04-05T08:35:34.000Z</time>
      </trkpt>
      <trkpt lat="49.056491" lon="15.019406">
        <time>2026-04-05T08:35:36.000Z</time>
      </trkpt>
      <trkpt lat="49.056611" lon="15.019457">
        <time>2026-04-05T08:35:42.000Z</time>
      </trkpt>
      <trkpt lat="49.056681" lon="15.019488">
        <time>2026-04-05T08:35:45.000Z</time>
      </trkpt>
      <trkpt lat="49.056704" lon="15.019491">
        <time>2026-04-05T08:35:46.000Z</time>
      </trkpt>
      <trkpt lat="49.056753" lon="15.019498">
        <time>2026-04-05T08:35:47.000Z</time>
      </trkpt>
      <trkpt lat="49.056753" lon="15.019498">
        <time>2026-04-05T08:35:48.000Z</time>
      </trkpt>
      <trkpt lat="49.056897" lon="15.01958">
        <time>2026-04-05T08:35:54.000Z</time>
      </trkpt>
      <trkpt lat="49.057021" lon="15.019662">
        <time>2026-04-05T08:35:59.000Z</time>
      </trkpt>
      <trkpt lat="49.057205" lon="15.019821">
        <time>2026-04-05T08:36:05.000Z</time>
      </trkpt>
      <trkpt lat="49.057347" lon="15.020034">
        <time>2026-04-05T08:36:11.000Z</time>
      </trkpt>
      <trkpt lat="49.057438" lon="15.020146">
        <time>2026-04-05T08:36:16.000Z</time>
      </trkpt>
      <trkpt lat="49.05758" lon="15.020163">
        <time>2026-04-05T08:36:22.000Z</time>
      </trkpt>
      <trkpt lat="49.057627" lon="15.020161">
        <time>2026-04-05T08:36:25.000Z</time>
      </trkpt>
      <trkpt lat="49.057708" lon="15.020186">
        <time>2026-04-05T08:36:31.000Z</time>
      </trkpt>
      <trkpt lat="49.057826" lon="15.020221">
        <time>2026-04-05T08:36:37.000Z</time>
      </trkpt>
      <trkpt lat="49.057929" lon="15.020208">
        <time>2026-04-05T08:36:43.000Z</time>
      </trkpt>
      <trkpt lat="49.058024" lon="15.020162">
        <time>2026-04-05T08:36:49.000Z</time>
      </trkpt>
      <trkpt lat="49.058034" lon="15.020168">
        <time>2026-04-05T08:36:51.000Z</time>
      </trkpt>
      <trkpt lat="49.058041" lon="15.020209">
        <time>2026-04-05T08:36:55.000Z</time>
      </trkpt>
      <trkpt lat="49.058032" lon="15.020235">
        <time>2026-04-05T08:36:58.000Z</time>
      </trkpt>
      <trkpt lat="49.058021" lon="15.020244">
        <time>2026-04-05T08:37:01.000Z</time>
      </trkpt>
      <trkpt lat="49.058018" lon="15.020249">
        <time>2026-04-05T08:37:03.000Z</time>
      </trkpt>
      <trkpt lat="49.058016" lon="15.020259">
        <time>2026-04-05T08:37:07.000Z</time>
      </trkpt>
      <trkpt lat="49.058072" lon="15.020381">
        <time>2026-04-05T08:37:13.000Z</time>
      </trkpt>
      <trkpt lat="49.058083" lon="15.020427">
        <time>2026-04-05T08:37:14.000Z</time>
      </trkpt>
      <trkpt lat="49.058079" lon="15.020529">
        <time>2026-04-05T08:37:20.000Z</time>
      </trkpt>
      <trkpt lat="49.058087" lon="15.020624">
        <time>2026-04-05T08:37:26.000Z</time>
      </trkpt>
      <trkpt lat="49.058093" lon="15.020715">
        <time>2026-04-05T08:37:32.000Z</time>
      </trkpt>
      <trkpt lat="49.05812" lon="15.02077">
        <time>2026-04-05T08:37:36.000Z</time>
      </trkpt>
      <trkpt lat="49.058198" lon="15.020775">
        <time>2026-04-05T08:37:42.000Z</time>
      </trkpt>
      <trkpt lat="49.058203" lon="15.020758">
        <time>2026-04-05T08:37:44.000Z</time>
      </trkpt>
      <trkpt lat="49.058198" lon="15.020748">
        <time>2026-04-05T08:37:46.000Z</time>
      </trkpt>
      <trkpt lat="49.058197" lon="15.020751">
        <time>2026-04-05T08:37:48.000Z</time>
      </trkpt>
      <trkpt lat="49.058152" lon="15.020771">
        <time>2026-04-05T08:37:54.000Z</time>
      </trkpt>
      <trkpt lat="49.058125" lon="15.020765">
        <time>2026-04-05T08:37:56.000Z</time>
      </trkpt>
      <trkpt lat="49.058032" lon="15.020755">
        <time>2026-04-05T08:38:02.000Z</time>
      </trkpt>
      <trkpt lat="49.057983" lon="15.020732">
        <time>2026-04-05T08:38:08.000Z</time>
      </trkpt>
      <trkpt lat="49.058001" lon="15.020798">
        <time>2026-04-05T08:38:11.000Z</time>
      </trkpt>
      <trkpt lat="49.05801" lon="15.020835">
        <time>2026-04-05T08:38:12.000Z</time>
      </trkpt>
      <trkpt lat="49.058039" lon="15.020903">
        <time>2026-04-05T08:38:13.000Z</time>
      </trkpt>
      <trkpt lat="49.05806" lon="15.020924">
        <time>2026-04-05T08:38:15.000Z</time>
      </trkpt>
      <trkpt lat="49.058177" lon="15.021158">
        <time>2026-04-05T08:38:21.000Z</time>
      </trkpt>
      <trkpt lat="49.058173" lon="15.021468">
        <time>2026-04-05T08:38:26.000Z</time>
      </trkpt>
      <trkpt lat="49.058109" lon="15.021726">
        <time>2026-04-05T08:38:32.000Z</time>
      </trkpt>
      <trkpt lat="49.057971" lon="15.02183">
        <time>2026-04-05T08:38:38.000Z</time>
      </trkpt>
      <trkpt lat="49.057847" lon="15.021861">
        <time>2026-04-05T08:38:44.000Z</time>
      </trkpt>
      <trkpt lat="49.057755" lon="15.021933">
        <time>2026-04-05T08:38:50.000Z</time>
      </trkpt>
      <trkpt lat="49.057674" lon="15.022084">
        <time>2026-04-05T08:38:56.000Z</time>
      </trkpt>
      <trkpt lat="49.057643" lon="15.022099">
        <time>2026-04-05T08:38:57.000Z</time>
      </trkpt>
      <trkpt lat="49.057626" lon="15.022095">
        <time>2026-04-05T08:38:59.000Z</time>
      </trkpt>
      <trkpt lat="49.057591" lon="15.022089">
        <time>2026-04-05T08:39:05.000Z</time>
      </trkpt>
      <trkpt lat="49.057689" lon="15.022122">
        <time>2026-04-05T08:39:11.000Z</time>
      </trkpt>
      <trkpt lat="49.057776" lon="15.022135">
        <time>2026-04-05T08:39:16.000Z</time>
      </trkpt>
      <trkpt lat="49.057789" lon="15.022149">
        <time>2026-04-05T08:39:17.000Z</time>
      </trkpt>
      <trkpt lat="49.057904" lon="15.022268">
        <time>2026-04-05T08:39:23.000Z</time>
      </trkpt>
      <trkpt lat="49.057944" lon="15.022365">
        <time>2026-04-05T08:39:29.000Z</time>
      </trkpt>
      <trkpt lat="49.057956" lon="15.022412">
        <time>2026-04-05T08:39:30.000Z</time>
      </trkpt>
      <trkpt lat="49.058035" lon="15.022526">
        <time>2026-04-05T08:39:36.000Z</time>
      </trkpt>
      <trkpt lat="49.058082" lon="15.022623">
        <time>2026-04-05T08:39:40.000Z</time>
      </trkpt>
      <trkpt lat="49.058163" lon="15.022736">
        <time>2026-04-05T08:39:46.000Z</time>
      </trkpt>
      <trkpt lat="49.058254" lon="15.022826">
        <time>2026-04-05T08:39:52.000Z</time>
      </trkpt>
      <trkpt lat="49.058311" lon="15.022891">
        <time>2026-04-05T08:39:57.000Z</time>
      </trkpt>
      <trkpt lat="49.058371" lon="15.023019">
        <time>2026-04-05T08:40:03.000Z</time>
      </trkpt>
      <trkpt lat="49.058406" lon="15.023081">
        <time>2026-04-05T08:40:07.000Z</time>
      </trkpt>
      <trkpt lat="49.058421" lon="15.023101">
        <time>2026-04-05T08:40:08.000Z</time>
      </trkpt>
      <trkpt lat="49.058433" lon="15.023124">
        <time>2026-04-05T08:40:11.000Z</time>
      </trkpt>
      <trkpt lat="49.058453" lon="15.023297">
        <time>2026-04-05T08:40:17.000Z</time>
      </trkpt>
      <trkpt lat="49.058499" lon="15.023436">
        <time>2026-04-05T08:40:22.000Z</time>
      </trkpt>
      <trkpt lat="49.058638" lon="15.023435">
        <time>2026-04-05T08:40:28.000Z</time>
      </trkpt>
      <trkpt lat="49.058762" lon="15.023389">
        <time>2026-04-05T08:40:34.000Z</time>
      </trkpt>
      <trkpt lat="49.058787" lon="15.023349">
        <time>2026-04-05T08:40:35.000Z</time>
      </trkpt>
      <trkpt lat="49.058819" lon="15.023259">
        <time>2026-04-05T08:40:41.000Z</time>
      </trkpt>
      <trkpt lat="49.058904" lon="15.023193">
        <time>2026-04-05T08:40:47.000Z</time>
      </trkpt>
      <trkpt lat="49.05901" lon="15.023039">
        <time>2026-04-05T08:40:53.000Z</time>
      </trkpt>
      <trkpt lat="49.059059" lon="15.02298">
        <time>2026-04-05T08:40:58.000Z</time>
      </trkpt>
      <trkpt lat="49.059075" lon="15.022925">
        <time>2026-04-05T08:41:01.000Z</time>
      </trkpt>
      <trkpt lat="49.059115" lon="15.022756">
        <time>2026-04-05T08:41:07.000Z</time>
      </trkpt>
      <trkpt lat="49.059143" lon="15.022629">
        <time>2026-04-05T08:41:13.000Z</time>
      </trkpt>
      <trkpt lat="49.059179" lon="15.022564">
        <time>2026-04-05T08:41:17.000Z</time>
      </trkpt>
      <trkpt lat="49.059256" lon="15.022328">
        <time>2026-04-05T08:41:23.000Z</time>
      </trkpt>
      <trkpt lat="49.059281" lon="15.022105">
        <time>2026-04-05T08:41:29.000Z</time>
      </trkpt>
      <trkpt lat="49.059269" lon="15.021988">
        <time>2026-04-05T08:41:32.000Z</time>
      </trkpt>
      <trkpt lat="49.059272" lon="15.021843">
        <time>2026-04-05T08:41:38.000Z</time>
      </trkpt>
      <trkpt lat="49.059307" lon="15.021767">
        <time>2026-04-05T08:41:42.000Z</time>
      </trkpt>
      <trkpt lat="49.059308" lon="15.021716">
        <time>2026-04-05T08:41:45.000Z</time>
      </trkpt>
      <trkpt lat="49.059316" lon="15.021669">
        <time>2026-04-05T08:41:47.000Z</time>
      </trkpt>
      <trkpt lat="49.05933" lon="15.021639">
        <time>2026-04-05T08:41:49.000Z</time>
      </trkpt>
      <trkpt lat="49.059336" lon="15.021624">
        <time>2026-04-05T08:41:50.000Z</time>
      </trkpt>
      <trkpt lat="49.059352" lon="15.021588">
        <time>2026-04-05T08:41:52.000Z</time>
      </trkpt>
      <trkpt lat="49.059352" lon="15.021546">
        <time>2026-04-05T08:41:54.000Z</time>
      </trkpt>
      <trkpt lat="49.059365" lon="15.021488">
        <time>2026-04-05T08:41:56.000Z</time>
      </trkpt>
      <trkpt lat="49.05938" lon="15.021409">
        <time>2026-04-05T08:41:59.000Z</time>
      </trkpt>
      <trkpt lat="49.059424" lon="15.021322">
        <time>2026-04-05T08:42:05.000Z</time>
      </trkpt>
      <trkpt lat="49.05947" lon="15.021231">
        <time>2026-04-05T08:42:11.000Z</time>
      </trkpt>
      <trkpt lat="49.059489" lon="15.021167">
        <time>2026-04-05T08:42:16.000Z</time>
      </trkpt>
      <trkpt lat="49.059507" lon="15.02112">
        <time>2026-04-05T08:42:19.000Z</time>
      </trkpt>
      <trkpt lat="49.059576" lon="15.020974">
        <time>2026-04-05T08:42:25.000Z</time>
      </trkpt>
      <trkpt lat="49.059554" lon="15.02069">
        <time>2026-04-05T08:42:31.000Z</time>
      </trkpt>
      <trkpt lat="49.059508" lon="15.020436">
        <time>2026-04-05T08:42:37.000Z</time>
      </trkpt>
      <trkpt lat="49.059506" lon="15.020312">
        <time>2026-04-05T08:42:42.000Z</time>
      </trkpt>
      <trkpt lat="49.059392" lon="15.020158">
        <time>2026-04-05T08:42:48.000Z</time>
      </trkpt>
      <trkpt lat="49.059355" lon="15.020109">
        <time>2026-04-05T08:42:51.000Z</time>
      </trkpt>
      <trkpt lat="49.059337" lon="15.020084">
        <time>2026-04-05T08:42:53.000Z</time>
      </trkpt>
      <trkpt lat="49.059323" lon="15.020069">
        <time>2026-04-05T08:42:55.000Z</time>
      </trkpt>
      <trkpt lat="49.05931" lon="15.020064">
        <time>2026-04-05T08:42:57.000Z</time>
      </trkpt>
      <trkpt lat="49.059297" lon="15.020044">
        <time>2026-04-05T08:43:00.000Z</time>
      </trkpt>
      <trkpt lat="49.059292" lon="15.020016">
        <time>2026-04-05T08:43:01.000Z</time>
      </trkpt>
      <trkpt lat="49.059292" lon="15.020016">
        <time>2026-04-05T08:43:02.000Z</time>
      </trkpt>
      <trkpt lat="49.059282" lon="15.020007">
        <time>2026-04-05T08:43:03.000Z</time>
      </trkpt>
      <trkpt lat="49.059264" lon="15.019971">
        <time>2026-04-05T08:43:06.000Z</time>
      </trkpt>
      <trkpt lat="49.059246" lon="15.019922">
        <time>2026-04-05T08:43:09.000Z</time>
      </trkpt>
      <trkpt lat="49.059204" lon="15.019851">
        <time>2026-04-05T08:43:13.000Z</time>
      </trkpt>
      <trkpt lat="49.059179" lon="15.019781">
        <time>2026-04-05T08:43:17.000Z</time>
      </trkpt>
      <trkpt lat="49.059151" lon="15.019667">
        <time>2026-04-05T08:43:21.000Z</time>
      </trkpt>
      <trkpt lat="49.059093" lon="15.019502">
        <time>2026-04-05T08:43:27.000Z</time>
      </trkpt>
      <trkpt lat="49.059083" lon="15.019481">
        <time>2026-04-05T08:43:28.000Z</time>
      </trkpt>
      <trkpt lat="49.059009" lon="15.019415">
        <time>2026-04-05T08:43:32.000Z</time>
      </trkpt>
      <trkpt lat="49.058963" lon="15.01938">
        <time>2026-04-05T08:43:33.000Z</time>
      </trkpt>
      <trkpt lat="49.058947" lon="15.019358">
        <time>2026-04-05T08:43:35.000Z</time>
      </trkpt>
      <trkpt lat="49.05891" lon="15.019301">
        <time>2026-04-05T08:43:36.000Z</time>
      </trkpt>
      <trkpt lat="49.05888" lon="15.019209">
        <time>2026-04-05T08:43:40.000Z</time>
      </trkpt>
      <trkpt lat="49.058798" lon="15.019008">
        <time>2026-04-05T08:43:46.000Z</time>
      </trkpt>
      <trkpt lat="49.058739" lon="15.018913">
        <time>2026-04-05T08:43:49.000Z</time>
      </trkpt>
      <trkpt lat="49.058708" lon="15.018864">
        <time>2026-04-05T08:43:51.000Z</time>
      </trkpt>
      <trkpt lat="49.058588" lon="15.018666">
        <time>2026-04-05T08:43:57.000Z</time>
      </trkpt>
      <trkpt lat="49.058488" lon="15.018461">
        <time>2026-04-05T08:44:03.000Z</time>
      </trkpt>
      <trkpt lat="49.058405" lon="15.018224">
        <time>2026-04-05T08:44:09.000Z</time>
      </trkpt>
      <trkpt lat="49.058372" lon="15.018104">
        <time>2026-04-05T08:44:15.000Z</time>
      </trkpt>
      <trkpt lat="49.05833" lon="15.017992">
        <time>2026-04-05T08:44:21.000Z</time>
      </trkpt>
      <trkpt lat="49.058303" lon="15.017836">
        <time>2026-04-05T08:44:27.000Z</time>
      </trkpt>
      <trkpt lat="49.058229" lon="15.017614">
        <time>2026-04-05T08:44:33.000Z</time>
      </trkpt>
      <trkpt lat="49.05817" lon="15.017433">
        <time>2026-04-05T08:44:39.000Z</time>
      </trkpt>
      <trkpt lat="49.058173" lon="15.017417">
        <time>2026-04-05T08:44:40.000Z</time>
      </trkpt>
      <trkpt lat="49.058201" lon="15.017253">
        <time>2026-04-05T08:44:46.000Z</time>
      </trkpt>
      <trkpt lat="49.058163" lon="15.017015">
        <time>2026-04-05T08:44:51.000Z</time>
      </trkpt>
      <trkpt lat="49.058106" lon="15.016808">
        <time>2026-04-05T08:44:57.000Z</time>
      </trkpt>
      <trkpt lat="49.058114" lon="15.016574">
        <time>2026-04-05T08:45:03.000Z</time>
      </trkpt>
      <trkpt lat="49.058107" lon="15.016477">
        <time>2026-04-05T08:45:04.000Z</time>
      </trkpt>
      <trkpt lat="49.058064" lon="15.01627">
        <time>2026-04-05T08:45:10.000Z</time>
      </trkpt>
      <trkpt lat="49.057996" lon="15.016003">
        <time>2026-04-05T08:45:16.000Z</time>
      </trkpt>
      <trkpt lat="49.057978" lon="15.01584">
        <time>2026-04-05T08:45:22.000Z</time>
      </trkpt>
      <trkpt lat="49.057968" lon="15.015799">
        <time>2026-04-05T08:45:23.000Z</time>
      </trkpt>
      <trkpt lat="49.057942" lon="15.015684">
        <time>2026-04-05T08:45:29.000Z</time>
      </trkpt>
      <trkpt lat="49.057911" lon="15.015444">
        <time>2026-04-05T08:45:35.000Z</time>
      </trkpt>
      <trkpt lat="49.057875" lon="15.015222">
        <time>2026-04-05T08:45:41.000Z</time>
      </trkpt>
      <trkpt lat="49.057901" lon="15.015016">
        <time>2026-04-05T08:45:47.000Z</time>
      </trkpt>
      <trkpt lat="49.057873" lon="15.01475">
        <time>2026-04-05T08:45:53.000Z</time>
      </trkpt>
      <trkpt lat="49.057802" lon="15.014503">
        <time>2026-04-05T08:45:59.000Z</time>
      </trkpt>
      <trkpt lat="49.057721" lon="15.014268">
        <time>2026-04-05T08:46:05.000Z</time>
      </trkpt>
      <trkpt lat="49.05772" lon="15.014112">
        <time>2026-04-05T08:46:11.000Z</time>
      </trkpt>
      <trkpt lat="49.05774" lon="15.013961">
        <time>2026-04-05T08:46:17.000Z</time>
      </trkpt>
      <trkpt lat="49.057759" lon="15.013899">
        <time>2026-04-05T08:46:18.000Z</time>
      </trkpt>
      <trkpt lat="49.057854" lon="15.013798">
        <time>2026-04-05T08:46:24.000Z</time>
      </trkpt>
      <trkpt lat="49.057872" lon="15.013762">
        <time>2026-04-05T08:46:28.000Z</time>
      </trkpt>
      <trkpt lat="49.057805" lon="15.013752">
        <time>2026-04-05T08:46:33.000Z</time>
      </trkpt>
      <trkpt lat="49.057694" lon="15.013754">
        <time>2026-04-05T08:46:39.000Z</time>
      </trkpt>
      <trkpt lat="49.05762" lon="15.013786">
        <time>2026-04-05T08:46:45.000Z</time>
      </trkpt>
      <trkpt lat="49.057545" lon="15.013787">
        <time>2026-04-05T08:46:51.000Z</time>
      </trkpt>
      <trkpt lat="49.057533" lon="15.013791">
        <time>2026-04-05T08:46:52.000Z</time>
      </trkpt>
      <trkpt lat="49.057498" lon="15.01378">
        <time>2026-04-05T08:46:55.000Z</time>
      </trkpt>
      <trkpt lat="49.057418" lon="15.01375">
        <time>2026-04-05T08:47:01.000Z</time>
      </trkpt>
      <trkpt lat="49.057364" lon="15.013764">
        <time>2026-04-05T08:47:04.000Z</time>
      </trkpt>
      <trkpt lat="49.057324" lon="15.013791">
        <time>2026-04-05T08:47:06.000Z</time>
      </trkpt>
      <trkpt lat="49.057222" lon="15.013835">
        <time>2026-04-05T08:47:10.000Z</time>
      </trkpt>
      <trkpt lat="49.057119" lon="15.01384">
        <time>2026-04-05T08:47:14.000Z</time>
      </trkpt>
      <trkpt lat="49.056944" lon="15.013881">
        <time>2026-04-05T08:47:20.000Z</time>
      </trkpt>
      <trkpt lat="49.056868" lon="15.013902">
        <time>2026-04-05T08:47:23.000Z</time>
      </trkpt>
      <trkpt lat="49.05681" lon="15.013924">
        <time>2026-04-05T08:47:24.000Z</time>
      </trkpt>
      <trkpt lat="49.05673" lon="15.01393">
        <time>2026-04-05T08:47:28.000Z</time>
      </trkpt>
      <trkpt lat="49.056706" lon="15.013933">
        <time>2026-04-05T08:47:29.000Z</time>
      </trkpt>
      <trkpt lat="49.056685" lon="15.013934">
        <time>2026-04-05T08:47:30.000Z</time>
      </trkpt>
      <trkpt lat="49.05661" lon="15.013933">
        <time>2026-04-05T08:47:33.000Z</time>
      </trkpt>
      <trkpt lat="49.05656" lon="15.013929">
        <time>2026-04-05T08:47:35.000Z</time>
      </trkpt>
      <trkpt lat="49.056539" lon="15.013922">
        <time>2026-04-05T08:47:36.000Z</time>
      </trkpt>
      <trkpt lat="49.056473" lon="15.013896">
        <time>2026-04-05T08:47:39.000Z</time>
      </trkpt>
      <trkpt lat="49.056434" lon="15.013871">
        <time>2026-04-05T08:47:41.000Z</time>
      </trkpt>
      <trkpt lat="49.056365" lon="15.013844">
        <time>2026-04-05T08:47:44.000Z</time>
      </trkpt>
      <trkpt lat="49.056235" lon="15.01379">
        <time>2026-04-05T08:47:50.000Z</time>
      </trkpt>
      <trkpt lat="49.056195" lon="15.013801">
        <time>2026-04-05T08:47:52.000Z</time>
      </trkpt>
      <trkpt lat="49.056089" lon="15.013774">
        <time>2026-04-05T08:47:58.000Z</time>
      </trkpt>
      <trkpt lat="49.056038" lon="15.013717">
        <time>2026-04-05T08:48:02.000Z</time>
      </trkpt>
      <trkpt lat="49.055887" lon="15.013655">
        <time>2026-04-05T08:48:08.000Z</time>
      </trkpt>
      <trkpt lat="49.055749" lon="15.013623">
        <time>2026-04-05T08:48:14.000Z</time>
      </trkpt>
      <trkpt lat="49.055607" lon="15.013595">
        <time>2026-04-05T08:48:20.000Z</time>
      </trkpt>
      <trkpt lat="49.055563" lon="15.013589">
        <time>2026-04-05T08:48:21.000Z</time>
      </trkpt>
      <trkpt lat="49.055445" lon="15.013605">
        <time>2026-04-05T08:48:27.000Z</time>
      </trkpt>
      <trkpt lat="49.055301" lon="15.013588">
        <time>2026-04-05T08:48:32.000Z</time>
      </trkpt>
      <trkpt lat="49.055148" lon="15.013573">
        <time>2026-04-05T08:48:38.000Z</time>
      </trkpt>
      <trkpt lat="49.054996" lon="15.013592">
        <time>2026-04-05T08:48:44.000Z</time>
      </trkpt>
      <trkpt lat="49.05482" lon="15.013568">
        <time>2026-04-05T08:48:50.000Z</time>
      </trkpt>
      <trkpt lat="49.05467" lon="15.01354">
        <time>2026-04-05T08:48:56.000Z</time>
      </trkpt>
      <trkpt lat="49.054504" lon="15.013493">
        <time>2026-04-05T08:49:02.000Z</time>
      </trkpt>
      <trkpt lat="49.054437" lon="15.013531">
        <time>2026-04-05T08:49:07.000Z</time>
      </trkpt>
      <trkpt lat="49.054396" lon="15.01369">
        <time>2026-04-05T08:49:13.000Z</time>
      </trkpt>
      <trkpt lat="49.054358" lon="15.013893">
        <time>2026-04-05T08:49:19.000Z</time>
      </trkpt>
      <trkpt lat="49.054325" lon="15.014007">
        <time>2026-04-05T08:49:25.000Z</time>
      </trkpt>
      <trkpt lat="49.054287" lon="15.014132">
        <time>2026-04-05T08:49:31.000Z</time>
      </trkpt>
      <trkpt lat="49.054274" lon="15.014245">
        <time>2026-04-05T08:49:37.000Z</time>
      </trkpt>
      <trkpt lat="49.054242" lon="15.014482">
        <time>2026-04-05T08:49:43.000Z</time>
      </trkpt>
      <trkpt lat="49.054264" lon="15.014677">
        <time>2026-04-05T08:49:49.000Z</time>
      </trkpt>
      <trkpt lat="49.05425" lon="15.014847">
        <time>2026-04-05T08:49:55.000Z</time>
      </trkpt>
      <trkpt lat="49.05423" lon="15.014982">
        <time>2026-04-05T08:50:01.000Z</time>
      </trkpt>
      <trkpt lat="49.054247" lon="15.015036">
        <time>2026-04-05T08:50:05.000Z</time>
      </trkpt>
      <trkpt lat="49.054268" lon="15.015056">
        <time>2026-04-05T08:50:07.000Z</time>
      </trkpt>
      <trkpt lat="49.054333" lon="15.015059">
        <time>2026-04-05T08:50:13.000Z</time>
      </trkpt>
      <trkpt lat="49.054402" lon="15.015044">
        <time>2026-04-05T08:50:17.000Z</time>
      </trkpt>
      <trkpt lat="49.054523" lon="15.014968">
        <time>2026-04-05T08:50:23.000Z</time>
      </trkpt>
      <trkpt lat="49.054631" lon="15.014893">
        <time>2026-04-05T08:50:28.000Z</time>
      </trkpt>
      <trkpt lat="49.054766" lon="15.014802">
        <time>2026-04-05T08:50:34.000Z</time>
      </trkpt>
      <trkpt lat="49.054833" lon="15.014735">
        <time>2026-04-05T08:50:37.000Z</time>
      </trkpt>
      <trkpt lat="49.05487" lon="15.014688">
        <time>2026-04-05T08:50:38.000Z</time>
      </trkpt>
      <trkpt lat="49.05487" lon="15.014688">
        <time>2026-04-05T08:50:39.000Z</time>
      </trkpt>
      <trkpt lat="49.054886" lon="15.014661">
        <time>2026-04-05T08:50:40.000Z</time>
      </trkpt>
      <trkpt lat="49.055004" lon="15.01446">
        <time>2026-04-05T08:50:46.000Z</time>
      </trkpt>
      <trkpt lat="49.055031" lon="15.014382">
        <time>2026-04-05T08:50:48.000Z</time>
      </trkpt>
      <trkpt lat="49.055093" lon="15.014227">
        <time>2026-04-05T08:50:52.000Z</time>
      </trkpt>
      <trkpt lat="49.055137" lon="15.01418">
        <time>2026-04-05T08:50:54.000Z</time>
      </trkpt>
      <trkpt lat="49.05518" lon="15.014154">
        <time>2026-04-05T08:50:56.000Z</time>
      </trkpt>
      <trkpt lat="49.055328" lon="15.014096">
        <time>2026-04-05T08:51:02.000Z</time>
      </trkpt>
      <trkpt lat="49.055468" lon="15.013993">
        <time>2026-04-05T08:51:08.000Z</time>
      </trkpt>
      <trkpt lat="49.055561" lon="15.014147">
        <time>2026-04-05T08:51:14.000Z</time>
      </trkpt>
      <trkpt lat="49.055664" lon="15.014319">
        <time>2026-04-05T08:51:20.000Z</time>
      </trkpt>
      <trkpt lat="49.055718" lon="15.014359">
        <time>2026-04-05T08:51:25.000Z</time>
      </trkpt>
      <trkpt lat="49.055767" lon="15.014298">
        <time>2026-04-05T08:51:31.000Z</time>
      </trkpt>
      <trkpt lat="49.055844" lon="15.014213">
        <time>2026-04-05T08:51:37.000Z</time>
      </trkpt>
      <trkpt lat="49.055941" lon="15.013962">
        <time>2026-04-05T08:51:43.000Z</time>
      </trkpt>
      <trkpt lat="49.056021" lon="15.013692">
        <time>2026-04-05T08:51:49.000Z</time>
      </trkpt>
      <trkpt lat="49.056044" lon="15.013446">
        <time>2026-04-05T08:51:55.000Z</time>
      </trkpt>
      <trkpt lat="49.056115" lon="15.013182">
        <time>2026-04-05T08:52:01.000Z</time>
      </trkpt>
      <trkpt lat="49.05619" lon="15.012963">
        <time>2026-04-05T08:52:07.000Z</time>
      </trkpt>
      <trkpt lat="49.056207" lon="15.012689">
        <time>2026-04-05T08:52:13.000Z</time>
      </trkpt>
      <trkpt lat="49.056185" lon="15.012551">
        <time>2026-04-05T08:52:17.000Z</time>
      </trkpt>
      <trkpt lat="49.056216" lon="15.012307">
        <time>2026-04-05T08:52:23.000Z</time>
      </trkpt>
      <trkpt lat="49.056304" lon="15.012033">
        <time>2026-04-05T08:52:29.000Z</time>
      </trkpt>
      <trkpt lat="49.0564" lon="15.011786">
        <time>2026-04-05T08:52:35.000Z</time>
      </trkpt>
      <trkpt lat="49.056546" lon="15.011673">
        <time>2026-04-05T08:52:41.000Z</time>
      </trkpt>
      <trkpt lat="49.056737" lon="15.01165">
        <time>2026-04-05T08:52:47.000Z</time>
      </trkpt>
      <trkpt lat="49.056867" lon="15.01153">
        <time>2026-04-05T08:52:53.000Z</time>
      </trkpt>
      <trkpt lat="49.056933" lon="15.011452">
        <time>2026-04-05T08:52:59.000Z</time>
      </trkpt>
      <trkpt lat="49.056963" lon="15.011422">
        <time>2026-04-05T08:53:02.000Z</time>
      </trkpt>
      <trkpt lat="49.057026" lon="15.011302">
        <time>2026-04-05T08:53:08.000Z</time>
      </trkpt>
      <trkpt lat="49.057136" lon="15.011096">
        <time>2026-04-05T08:53:14.000Z</time>
      </trkpt>
      <trkpt lat="49.057225" lon="15.01093">
        <time>2026-04-05T08:53:19.000Z</time>
      </trkpt>
      <trkpt lat="49.057239" lon="15.010894">
        <time>2026-04-05T08:53:20.000Z</time>
      </trkpt>
      <trkpt lat="49.057272" lon="15.010811">
        <time>2026-04-05T08:53:21.000Z</time>
      </trkpt>
      <trkpt lat="49.057272" lon="15.010811">
        <time>2026-04-05T08:53:22.000Z</time>
      </trkpt>
      <trkpt lat="49.05729" lon="15.010769">
        <time>2026-04-05T08:53:23.000Z</time>
      </trkpt>
      <trkpt lat="49.057417" lon="15.010575">
        <time>2026-04-05T08:53:29.000Z</time>
      </trkpt>
      <trkpt lat="49.057469" lon="15.010492">
        <time>2026-04-05T08:53:32.000Z</time>
      </trkpt>
      <trkpt lat="49.057493" lon="15.010414">
        <time>2026-04-05T08:53:36.000Z</time>
      </trkpt>
      <trkpt lat="49.057512" lon="15.01035">
        <time>2026-04-05T08:53:39.000Z</time>
      </trkpt>
      <trkpt lat="49.057548" lon="15.010319">
        <time>2026-04-05T08:53:42.000Z</time>
      </trkpt>
      <trkpt lat="49.057582" lon="15.010239">
        <time>2026-04-05T08:53:48.000Z</time>
      </trkpt>
      <trkpt lat="49.057611" lon="15.010149">
        <time>2026-04-05T08:53:54.000Z</time>
      </trkpt>
      <trkpt lat="49.057615" lon="15.010091">
        <time>2026-04-05T08:53:57.000Z</time>
      </trkpt>
      <trkpt lat="49.057614" lon="15.009987">
        <time>2026-04-05T08:54:03.000Z</time>
      </trkpt>
      <trkpt lat="49.057647" lon="15.009887">
        <time>2026-04-05T08:54:09.000Z</time>
      </trkpt>
      <trkpt lat="49.05769" lon="15.00979">
        <time>2026-04-05T08:54:15.000Z</time>
      </trkpt>
      <trkpt lat="49.057701" lon="15.009632">
        <time>2026-04-05T08:54:21.000Z</time>
      </trkpt>
      <trkpt lat="49.057708" lon="15.009531">
        <time>2026-04-05T08:54:25.000Z</time>
      </trkpt>
      <trkpt lat="49.057731" lon="15.009436">
        <time>2026-04-05T08:54:30.000Z</time>
      </trkpt>
      <trkpt lat="49.057768" lon="15.009385">
        <time>2026-04-05T08:54:35.000Z</time>
      </trkpt>
      <trkpt lat="49.05777" lon="15.009362">
        <time>2026-04-05T08:54:37.000Z</time>
      </trkpt>
      <trkpt lat="49.0578" lon="15.009322">
        <time>2026-04-05T08:54:41.000Z</time>
      </trkpt>
      <trkpt lat="49.057825" lon="15.009307">
        <time>2026-04-05T08:54:43.000Z</time>
      </trkpt>
      <trkpt lat="49.057862" lon="15.009276">
        <time>2026-04-05T08:54:46.000Z</time>
      </trkpt>
      <trkpt lat="49.057945" lon="15.009213">
        <time>2026-04-05T08:54:52.000Z</time>
      </trkpt>
      <trkpt lat="49.058033" lon="15.009097">
        <time>2026-04-05T08:54:58.000Z</time>
      </trkpt>
      <trkpt lat="49.058068" lon="15.009065">
        <time>2026-04-05T08:55:02.000Z</time>
      </trkpt>
      <trkpt lat="49.058167" lon="15.008973">
        <time>2026-04-05T08:55:08.000Z</time>
      </trkpt>
      <trkpt lat="49.05829" lon="15.00888">
        <time>2026-04-05T08:55:13.000Z</time>
      </trkpt>
      <trkpt lat="49.058405" lon="15.008816">
        <time>2026-04-05T08:55:19.000Z</time>
      </trkpt>
      <trkpt lat="49.058416" lon="15.008804">
        <time>2026-04-05T08:55:20.000Z</time>
      </trkpt>
      <trkpt lat="49.058432" lon="15.008795">
        <time>2026-04-05T08:55:21.000Z</time>
      </trkpt>
      <trkpt lat="49.05845" lon="15.00879">
        <time>2026-04-05T08:55:22.000Z</time>
      </trkpt>
      <trkpt lat="49.058562" lon="15.008784">
        <time>2026-04-05T08:55:28.000Z</time>
      </trkpt>
      <trkpt lat="49.058598" lon="15.008776">
        <time>2026-04-05T08:55:30.000Z</time>
      </trkpt>
      <trkpt lat="49.058617" lon="15.008768">
        <time>2026-04-05T08:55:31.000Z</time>
      </trkpt>
      <trkpt lat="49.058631" lon="15.008757">
        <time>2026-04-05T08:55:32.000Z</time>
      </trkpt>
      <trkpt lat="49.058642" lon="15.008745">
        <time>2026-04-05T08:55:33.000Z</time>
      </trkpt>
      <trkpt lat="49.058677" lon="15.008694">
        <time>2026-04-05T08:55:36.000Z</time>
      </trkpt>
      <trkpt lat="49.058697" lon="15.008648">
        <time>2026-04-05T08:55:37.000Z</time>
      </trkpt>
      <trkpt lat="49.058697" lon="15.008648">
        <time>2026-04-05T08:55:38.000Z</time>
      </trkpt>
      <trkpt lat="49.058721" lon="15.008599">
        <time>2026-04-05T08:55:41.000Z</time>
      </trkpt>
      <trkpt lat="49.058739" lon="15.00859">
        <time>2026-04-05T08:55:42.000Z</time>
      </trkpt>
      <trkpt lat="49.05876" lon="15.00858">
        <time>2026-04-05T08:55:45.000Z</time>
      </trkpt>
      <trkpt lat="49.058797" lon="15.008495">
        <time>2026-04-05T08:55:51.000Z</time>
      </trkpt>
      <trkpt lat="49.058804" lon="15.008483">
        <time>2026-04-05T08:55:52.000Z</time>
      </trkpt>
      <trkpt lat="49.058847" lon="15.008398">
        <time>2026-04-05T08:55:58.000Z</time>
      </trkpt>
      <trkpt lat="49.05885" lon="15.008383">
        <time>2026-04-05T08:55:59.000Z</time>
      </trkpt>
      <trkpt lat="49.058856" lon="15.00836">
        <time>2026-04-05T08:56:04.000Z</time>
      </trkpt>
      <trkpt lat="49.058839" lon="15.008338">
        <time>2026-04-05T08:56:07.000Z</time>
      </trkpt>
      <trkpt lat="49.05883" lon="15.008332">
        <time>2026-04-05T08:56:09.000Z</time>
      </trkpt>
      <trkpt lat="49.058821" lon="15.008347">
        <time>2026-04-05T08:56:12.000Z</time>
      </trkpt>
      <trkpt lat="49.058821" lon="15.008441">
        <time>2026-04-05T08:56:18.000Z</time>
      </trkpt>
      <trkpt lat="49.05882" lon="15.008539">
        <time>2026-04-05T08:56:24.000Z</time>
      </trkpt>
      <trkpt lat="49.058833" lon="15.008568">
        <time>2026-04-05T08:56:25.000Z</time>
      </trkpt>
      <trkpt lat="49.058854" lon="15.008617">
        <time>2026-04-05T08:56:30.000Z</time>
      </trkpt>
      <trkpt lat="49.058858" lon="15.008676">
        <time>2026-04-05T08:56:33.000Z</time>
      </trkpt>
      <trkpt lat="49.058877" lon="15.008849">
        <time>2026-04-05T08:56:39.000Z</time>
      </trkpt>
      <trkpt lat="49.058884" lon="15.009046">
        <time>2026-04-05T08:56:45.000Z</time>
      </trkpt>
      <trkpt lat="49.05888" lon="15.009126">
        <time>2026-04-05T08:56:48.000Z</time>
      </trkpt>
      <trkpt lat="49.058886" lon="15.009214">
        <time>2026-04-05T08:56:52.000Z</time>
      </trkpt>
      <trkpt lat="49.058893" lon="15.009336">
        <time>2026-04-05T08:56:56.000Z</time>
      </trkpt>
      <trkpt lat="49.058912" lon="15.009425">
        <time>2026-04-05T08:56:59.000Z</time>
      </trkpt>
      <trkpt lat="49.058921" lon="15.009448">
        <time>2026-04-05T08:57:00.000Z</time>
      </trkpt>
      <trkpt lat="49.058944" lon="15.009494">
        <time>2026-04-05T08:57:02.000Z</time>
      </trkpt>
      <trkpt lat="49.059008" lon="15.009646">
        <time>2026-04-05T08:57:08.000Z</time>
      </trkpt>
      <trkpt lat="49.059042" lon="15.009742">
        <time>2026-04-05T08:57:14.000Z</time>
      </trkpt>
      <trkpt lat="49.059054" lon="15.009767">
        <time>2026-04-05T08:57:15.000Z</time>
      </trkpt>
      <trkpt lat="49.059092" lon="15.009933">
        <time>2026-04-05T08:57:21.000Z</time>
      </trkpt>
      <trkpt lat="49.059104" lon="15.010015">
        <time>2026-04-05T08:57:23.000Z</time>
      </trkpt>
      <trkpt lat="49.059141" lon="15.010215">
        <time>2026-04-05T08:57:29.000Z</time>
      </trkpt>
      <trkpt lat="49.059155" lon="15.010283">
        <time>2026-04-05T08:57:31.000Z</time>
      </trkpt>
      <trkpt lat="49.059155" lon="15.010318">
        <time>2026-04-05T08:57:32.000Z</time>
      </trkpt>
      <trkpt lat="49.05915" lon="15.010365">
        <time>2026-04-05T08:57:34.000Z</time>
      </trkpt>
      <trkpt lat="49.059149" lon="15.0104">
        <time>2026-04-05T08:57:36.000Z</time>
      </trkpt>
      <trkpt lat="49.059151" lon="15.010446">
        <time>2026-04-05T08:57:38.000Z</time>
      </trkpt>
      <trkpt lat="49.059087" lon="15.010595">
        <time>2026-04-05T08:57:44.000Z</time>
      </trkpt>
      <trkpt lat="49.059082" lon="15.010673">
        <time>2026-04-05T08:57:45.000Z</time>
      </trkpt>
      <trkpt lat="49.059045" lon="15.010832">
        <time>2026-04-05T08:57:51.000Z</time>
      </trkpt>
      <trkpt lat="49.059012" lon="15.010965">
        <time>2026-04-05T08:57:57.000Z</time>
      </trkpt>
      <trkpt lat="49.059006" lon="15.010987">
        <time>2026-04-05T08:57:58.000Z</time>
      </trkpt>
      <trkpt lat="49.058979" lon="15.010989">
        <time>2026-04-05T08:58:02.000Z</time>
      </trkpt>
      <trkpt lat="49.058942" lon="15.010981">
        <time>2026-04-05T08:58:05.000Z</time>
      </trkpt>
      <trkpt lat="49.058829" lon="15.010912">
        <time>2026-04-05T08:58:11.000Z</time>
      </trkpt>
      <trkpt lat="49.058743" lon="15.010892">
        <time>2026-04-05T08:58:17.000Z</time>
      </trkpt>
      <trkpt lat="49.058733" lon="15.010887">
        <time>2026-04-05T08:58:18.000Z</time>
      </trkpt>
      <trkpt lat="49.058705" lon="15.010864">
        <time>2026-04-05T08:58:21.000Z</time>
      </trkpt>
      <trkpt lat="49.058682" lon="15.010847">
        <time>2026-04-05T08:58:24.000Z</time>
      </trkpt>
      <trkpt lat="49.058656" lon="15.01084">
        <time>2026-04-05T08:58:27.000Z</time>
      </trkpt>
      <trkpt lat="49.058611" lon="15.010818">
        <time>2026-04-05T08:58:32.000Z</time>
      </trkpt>
      <trkpt lat="49.058542" lon="15.010785">
        <time>2026-04-05T08:58:38.000Z</time>
      </trkpt>
      <trkpt lat="49.058489" lon="15.010761">
        <time>2026-04-05T08:58:42.000Z</time>
      </trkpt>
      <trkpt lat="49.058422" lon="15.010715">
        <time>2026-04-05T08:58:48.000Z</time>
      </trkpt>
      <trkpt lat="49.058379" lon="15.010615">
        <time>2026-04-05T08:58:54.000Z</time>
      </trkpt>
      <trkpt lat="49.058383" lon="15.010602">
        <time>2026-04-05T08:58:55.000Z</time>
      </trkpt>
      <trkpt lat="49.058338" lon="15.010576">
        <time>2026-04-05T08:58:59.000Z</time>
      </trkpt>
      <trkpt lat="49.058229" lon="15.010529">
        <time>2026-04-05T08:59:05.000Z</time>
      </trkpt>
      <trkpt lat="49.058126" lon="15.010493">
        <time>2026-04-05T08:59:11.000Z</time>
      </trkpt>
      <trkpt lat="49.058084" lon="15.01047">
        <time>2026-04-05T08:59:14.000Z</time>
      </trkpt>
      <trkpt lat="49.058075" lon="15.010455">
        <time>2026-04-05T08:59:15.000Z</time>
      </trkpt>
      <trkpt lat="49.058054" lon="15.010435">
        <time>2026-04-05T08:59:16.000Z</time>
      </trkpt>
      <trkpt lat="49.058054" lon="15.010435">
        <time>2026-04-05T08:59:17.000Z</time>
      </trkpt>
      <trkpt lat="49.058037" lon="15.010418">
        <time>2026-04-05T08:59:18.000Z</time>
      </trkpt>
      <trkpt lat="49.058006" lon="15.01039">
        <time>2026-04-05T08:59:19.000Z</time>
      </trkpt>
      <trkpt lat="49.058006" lon="15.01039">
        <time>2026-04-05T08:59:20.000Z</time>
      </trkpt>
      <trkpt lat="49.057969" lon="15.010354">
        <time>2026-04-05T08:59:23.000Z</time>
      </trkpt>
      <trkpt lat="49.057922" lon="15.010302">
        <time>2026-04-05T08:59:26.000Z</time>
      </trkpt>
      <trkpt lat="49.057843" lon="15.010237">
        <time>2026-04-05T08:59:32.000Z</time>
      </trkpt>
      <trkpt lat="49.057737" lon="15.010182">
        <time>2026-04-05T08:59:38.000Z</time>
      </trkpt>
      <trkpt lat="49.057612" lon="15.010089">
        <time>2026-04-05T08:59:44.000Z</time>
      </trkpt>
      <trkpt lat="49.057593" lon="15.010066">
        <time>2026-04-05T08:59:46.000Z</time>
      </trkpt>
      <trkpt lat="49.057584" lon="15.010058">
        <time>2026-04-05T08:59:47.000Z</time>
      </trkpt>
      <trkpt lat="49.057567" lon="15.010046">
        <time>2026-04-05T08:59:49.000Z</time>
      </trkpt>
      <trkpt lat="49.057558" lon="15.010039">
        <time>2026-04-05T08:59:50.000Z</time>
      </trkpt>
      <trkpt lat="49.057544" lon="15.010026">
        <time>2026-04-05T08:59:51.000Z</time>
      </trkpt>
      <trkpt lat="49.05752" lon="15.010013">
        <time>2026-04-05T08:59:52.000Z</time>
      </trkpt>
      <trkpt lat="49.05748" lon="15.00999">
        <time>2026-04-05T08:59:53.000Z</time>
      </trkpt>
      <trkpt lat="49.057438" lon="15.009972">
        <time>2026-04-05T08:59:56.000Z</time>
      </trkpt>
      <trkpt lat="49.057402" lon="15.009962">
        <time>2026-04-05T08:59:58.000Z</time>
      </trkpt>
      <trkpt lat="49.057356" lon="15.009926">
        <time>2026-04-05T09:00:01.000Z</time>
      </trkpt>
      <trkpt lat="49.057344" lon="15.009904">
        <time>2026-04-05T09:00:02.000Z</time>
      </trkpt>
      <trkpt lat="49.057334" lon="15.009881">
        <time>2026-04-05T09:00:03.000Z</time>
      </trkpt>
      <trkpt lat="49.057295" lon="15.00983">
        <time>2026-04-05T09:00:06.000Z</time>
      </trkpt>
      <trkpt lat="49.057267" lon="15.009815">
        <time>2026-04-05T09:00:07.000Z</time>
      </trkpt>
      <trkpt lat="49.057253" lon="15.009813">
        <time>2026-04-05T09:00:09.000Z</time>
      </trkpt>
      <trkpt lat="49.057228" lon="15.009799">
        <time>2026-04-05T09:00:11.000Z</time>
      </trkpt>
      <trkpt lat="49.057182" lon="15.009769">
        <time>2026-04-05T09:00:14.000Z</time>
      </trkpt>
      <trkpt lat="49.057094" lon="15.009753">
        <time>2026-04-05T09:00:20.000Z</time>
      </trkpt>
      <trkpt lat="49.057036" lon="15.009687">
        <time>2026-04-05T09:00:25.000Z</time>
      </trkpt>
      <trkpt lat="49.056958" lon="15.009639">
        <time>2026-04-05T09:00:31.000Z</time>
      </trkpt>
      <trkpt lat="49.056895" lon="15.00962">
        <time>2026-04-05T09:00:36.000Z</time>
      </trkpt>
      <trkpt lat="49.056883" lon="15.009632">
        <time>2026-04-05T09:00:37.000Z</time>
      </trkpt>
      <trkpt lat="49.056875" lon="15.009634">
        <time>2026-04-05T09:00:39.000Z</time>
      </trkpt>
      <trkpt lat="49.056838" lon="15.009619">
        <time>2026-04-05T09:00:43.000Z</time>
      </trkpt>
      <trkpt lat="49.056773" lon="15.009546">
        <time>2026-04-05T09:00:49.000Z</time>
      </trkpt>
      <trkpt lat="49.056727" lon="15.009462">
        <time>2026-04-05T09:00:54.000Z</time>
      </trkpt>
      <trkpt lat="49.056688" lon="15.009406">
        <time>2026-04-05T09:00:59.000Z</time>
      </trkpt>
      <trkpt lat="49.056651" lon="15.009424">
        <time>2026-04-05T09:01:04.000Z</time>
      </trkpt>
      <trkpt lat="49.05656" lon="15.009509">
        <time>2026-04-05T09:01:10.000Z</time>
      </trkpt>
      <trkpt lat="49.056518" lon="15.00955">
        <time>2026-04-05T09:01:11.000Z</time>
      </trkpt>
      <trkpt lat="49.056495" lon="15.00957">
        <time>2026-04-05T09:01:13.000Z</time>
      </trkpt>
      <trkpt lat="49.056472" lon="15.009587">
        <time>2026-04-05T09:01:14.000Z</time>
      </trkpt>
      <trkpt lat="49.056432" lon="15.009632">
        <time>2026-04-05T09:01:16.000Z</time>
      </trkpt>
      <trkpt lat="49.056399" lon="15.009698">
        <time>2026-04-05T09:01:18.000Z</time>
      </trkpt>
      <trkpt lat="49.056372" lon="15.009763">
        <time>2026-04-05T09:01:20.000Z</time>
      </trkpt>
      <trkpt lat="49.056356" lon="15.009819">
        <time>2026-04-05T09:01:21.000Z</time>
      </trkpt>
      <trkpt lat="49.056356" lon="15.009819">
        <time>2026-04-05T09:01:22.000Z</time>
      </trkpt>
      <trkpt lat="49.056353" lon="15.009836">
        <time>2026-04-05T09:01:23.000Z</time>
      </trkpt>
      <trkpt lat="49.056346" lon="15.009852">
        <time>2026-04-05T09:01:24.000Z</time>
      </trkpt>
      <trkpt lat="49.056333" lon="15.009865">
        <time>2026-04-05T09:01:25.000Z</time>
      </trkpt>
      <trkpt lat="49.056321" lon="15.009875">
        <time>2026-04-05T09:01:26.000Z</time>
      </trkpt>
      <trkpt lat="49.05631" lon="15.009884">
        <time>2026-04-05T09:01:27.000Z</time>
      </trkpt>
      <trkpt lat="49.056284" lon="15.009904">
        <time>2026-04-05T09:01:29.000Z</time>
      </trkpt>
      <trkpt lat="49.05627" lon="15.009911">
        <time>2026-04-05T09:01:30.000Z</time>
      </trkpt>
      <trkpt lat="49.056254" lon="15.009918">
        <time>2026-04-05T09:01:31.000Z</time>
      </trkpt>
      <trkpt lat="49.056241" lon="15.00993">
        <time>2026-04-05T09:01:32.000Z</time>
      </trkpt>
      <trkpt lat="49.056161" lon="15.009968">
        <time>2026-04-05T09:01:37.000Z</time>
      </trkpt>
      <trkpt lat="49.056118" lon="15.00998">
        <time>2026-04-05T09:01:38.000Z</time>
      </trkpt>
      <trkpt lat="49.056064" lon="15.010007">
        <time>2026-04-05T09:01:42.000Z</time>
      </trkpt>
      <trkpt lat="49.056019" lon="15.010084">
        <time>2026-04-05T09:01:45.000Z</time>
      </trkpt>
      <trkpt lat="49.0559" lon="15.01017">
        <time>2026-04-05T09:01:51.000Z</time>
      </trkpt>
      <trkpt lat="49.05585" lon="15.010191">
        <time>2026-04-05T09:01:52.000Z</time>
      </trkpt>
      <trkpt lat="49.05585" lon="15.010191">
        <time>2026-04-05T09:01:53.000Z</time>
      </trkpt>
      <trkpt lat="49.055801" lon="15.010215">
        <time>2026-04-05T09:01:54.000Z</time>
      </trkpt>
      <trkpt lat="49.055801" lon="15.010215">
        <time>2026-04-05T09:01:55.000Z</time>
      </trkpt>
      <trkpt lat="49.055643" lon="15.010289">
        <time>2026-04-05T09:02:01.000Z</time>
      </trkpt>
      <trkpt lat="49.0555" lon="15.010352">
        <time>2026-04-05T09:02:07.000Z</time>
      </trkpt>
      <trkpt lat="49.055477" lon="15.010347">
        <time>2026-04-05T09:02:08.000Z</time>
      </trkpt>
      <trkpt lat="49.05546" lon="15.010345">
        <time>2026-04-05T09:02:09.000Z</time>
      </trkpt>
      <trkpt lat="49.055444" lon="15.010349">
        <time>2026-04-05T09:02:10.000Z</time>
      </trkpt>
      <trkpt lat="49.05537" lon="15.01035">
        <time>2026-04-05T09:02:14.000Z</time>
      </trkpt>
      <trkpt lat="49.055323" lon="15.010361">
        <time>2026-04-05T09:02:17.000Z</time>
      </trkpt>
      <trkpt lat="49.055229" lon="15.010384">
        <time>2026-04-05T09:02:23.000Z</time>
      </trkpt>
      <trkpt lat="49.055166" lon="15.010401">
        <time>2026-04-05T09:02:29.000Z</time>
      </trkpt>
      <trkpt lat="49.055154" lon="15.010398">
        <time>2026-04-05T09:02:30.000Z</time>
      </trkpt>
      <trkpt lat="49.055092" lon="15.010419">
        <time>2026-04-05T09:02:36.000Z</time>
      </trkpt>
      <trkpt lat="49.055061" lon="15.010422">
        <time>2026-04-05T09:02:39.000Z</time>
      </trkpt>
      <trkpt lat="49.054946" lon="15.010413">
        <time>2026-04-05T09:02:44.000Z</time>
      </trkpt>
      <trkpt lat="49.054748" lon="15.010401">
        <time>2026-04-05T09:02:50.000Z</time>
      </trkpt>
      <trkpt lat="49.054616" lon="15.01038">
        <time>2026-04-05T09:02:54.000Z</time>
      </trkpt>
      <trkpt lat="49.054585" lon="15.010375">
        <time>2026-04-05T09:02:55.000Z</time>
      </trkpt>
      <trkpt lat="49.054552" lon="15.010371">
        <time>2026-04-05T09:02:56.000Z</time>
      </trkpt>
      <trkpt lat="49.054458" lon="15.010358">
        <time>2026-04-05T09:02:59.000Z</time>
      </trkpt>
      <trkpt lat="49.054403" lon="15.010353">
        <time>2026-04-05T09:03:00.000Z</time>
      </trkpt>
      <trkpt lat="49.054403" lon="15.010353">
        <time>2026-04-05T09:03:01.000Z</time>
      </trkpt>
      <trkpt lat="49.054348" lon="15.01034">
        <time>2026-04-05T09:03:02.000Z</time>
      </trkpt>
      <trkpt lat="49.054243" lon="15.010315">
        <time>2026-04-05T09:03:07.000Z</time>
      </trkpt>
      <trkpt lat="49.054194" lon="15.010302">
        <time>2026-04-05T09:03:08.000Z</time>
      </trkpt>
      <trkpt lat="49.054086" lon="15.01029">
        <time>2026-04-05T09:03:14.000Z</time>
      </trkpt>
      <trkpt lat="49.05405" lon="15.01031">
        <time>2026-04-05T09:03:15.000Z</time>
      </trkpt>
      <trkpt lat="49.05405" lon="15.01031">
        <time>2026-04-05T09:03:16.000Z</time>
      </trkpt>
      <trkpt lat="49.054038" lon="15.010315">
        <time>2026-04-05T09:03:17.000Z</time>
      </trkpt>
      <trkpt lat="49.053999" lon="15.010326">
        <time>2026-04-05T09:03:20.000Z</time>
      </trkpt>
      <trkpt lat="49.053931" lon="15.010328">
        <time>2026-04-05T09:03:26.000Z</time>
      </trkpt>
      <trkpt lat="49.053857" lon="15.010349">
        <time>2026-04-05T09:03:32.000Z</time>
      </trkpt>
      <trkpt lat="49.053757" lon="15.010382">
        <time>2026-04-05T09:03:38.000Z</time>
      </trkpt>
      <trkpt lat="49.053661" lon="15.010465">
        <time>2026-04-05T09:03:44.000Z</time>
      </trkpt>
      <trkpt lat="49.053626" lon="15.010575">
        <time>2026-04-05T09:03:50.000Z</time>
      </trkpt>
      <trkpt lat="49.053574" lon="15.010722">
        <time>2026-04-05T09:03:56.000Z</time>
      </trkpt>
      <trkpt lat="49.053512" lon="15.010883">
        <time>2026-04-05T09:04:02.000Z</time>
      </trkpt>
      <trkpt lat="49.053488" lon="15.010998">
        <time>2026-04-05T09:04:06.000Z</time>
      </trkpt>
      <trkpt lat="49.053459" lon="15.011057">
        <time>2026-04-05T09:04:09.000Z</time>
      </trkpt>
      <trkpt lat="49.053432" lon="15.0111">
        <time>2026-04-05T09:04:10.000Z</time>
      </trkpt>
      <trkpt lat="49.053397" lon="15.011155">
        <time>2026-04-05T09:04:14.000Z</time>
      </trkpt>
      <trkpt lat="49.053382" lon="15.011174">
        <time>2026-04-05T09:04:15.000Z</time>
      </trkpt>
      <trkpt lat="49.053335" lon="15.011255">
        <time>2026-04-05T09:04:19.000Z</time>
      </trkpt>
      <trkpt lat="49.053311" lon="15.011299">
        <time>2026-04-05T09:04:21.000Z</time>
      </trkpt>
      <trkpt lat="49.053265" lon="15.011358">
        <time>2026-04-05T09:04:24.000Z</time>
      </trkpt>
      <trkpt lat="49.053248" lon="15.011386">
        <time>2026-04-05T09:04:26.000Z</time>
      </trkpt>
      <trkpt lat="49.053214" lon="15.011495">
        <time>2026-04-05T09:04:32.000Z</time>
      </trkpt>
      <trkpt lat="49.053197" lon="15.011625">
        <time>2026-04-05T09:04:37.000Z</time>
      </trkpt>
      <trkpt lat="49.053185" lon="15.011763">
        <time>2026-04-05T09:04:43.000Z</time>
      </trkpt>
      <trkpt lat="49.053171" lon="15.011823">
        <time>2026-04-05T09:04:46.000Z</time>
      </trkpt>
      <trkpt lat="49.053145" lon="15.011889">
        <time>2026-04-05T09:04:50.000Z</time>
      </trkpt>
      <trkpt lat="49.053078" lon="15.012001">
        <time>2026-04-05T09:04:56.000Z</time>
      </trkpt>
      <trkpt lat="49.052985" lon="15.012152">
        <time>2026-04-05T09:05:02.000Z</time>
      </trkpt>
      <trkpt lat="49.052862" lon="15.01235">
        <time>2026-04-05T09:05:08.000Z</time>
      </trkpt>
      <trkpt lat="49.052809" lon="15.012447">
        <time>2026-04-05T09:05:11.000Z</time>
      </trkpt>
      <trkpt lat="49.052777" lon="15.012511">
        <time>2026-04-05T09:05:13.000Z</time>
      </trkpt>
      <trkpt lat="49.052736" lon="15.012607">
        <time>2026-04-05T09:05:16.000Z</time>
      </trkpt>
      <trkpt lat="49.052725" lon="15.012632">
        <time>2026-04-05T09:05:17.000Z</time>
      </trkpt>
      <trkpt lat="49.052716" lon="15.012653">
        <time>2026-04-05T09:05:18.000Z</time>
      </trkpt>
      <trkpt lat="49.052675" lon="15.012724">
        <time>2026-04-05T09:05:21.000Z</time>
      </trkpt>
      <trkpt lat="49.052644" lon="15.012785">
        <time>2026-04-05T09:05:26.000Z</time>
      </trkpt>
      <trkpt lat="49.052607" lon="15.012796">
        <time>2026-04-05T09:05:29.000Z</time>
      </trkpt>
      <trkpt lat="49.052594" lon="15.012798">
        <time>2026-04-05T09:05:30.000Z</time>
      </trkpt>
      <trkpt lat="49.052581" lon="15.0128">
        <time>2026-04-05T09:05:31.000Z</time>
      </trkpt>
      <trkpt lat="49.052568" lon="15.012803">
        <time>2026-04-05T09:05:32.000Z</time>
      </trkpt>
      <trkpt lat="49.052538" lon="15.012809">
        <time>2026-04-05T09:05:34.000Z</time>
      </trkpt>
      <trkpt lat="49.052439" lon="15.012851">
        <time>2026-04-05T09:05:40.000Z</time>
      </trkpt>
      <trkpt lat="49.052349" lon="15.01286">
        <time>2026-04-05T09:05:46.000Z</time>
      </trkpt>
      <trkpt lat="49.052205" lon="15.012939">
        <time>2026-04-05T09:05:52.000Z</time>
      </trkpt>
      <trkpt lat="49.052059" lon="15.013064">
        <time>2026-04-05T09:05:58.000Z</time>
      </trkpt>
      <trkpt lat="49.052018" lon="15.013122">
        <time>2026-04-05T09:06:00.000Z</time>
      </trkpt>
      <trkpt lat="49.051986" lon="15.01317">
        <time>2026-04-05T09:06:01.000Z</time>
      </trkpt>
      <trkpt lat="49.051969" lon="15.013195">
        <time>2026-04-05T09:06:02.000Z</time>
      </trkpt>
      <trkpt lat="49.051969" lon="15.013195">
        <time>2026-04-05T09:06:03.000Z</time>
      </trkpt>
      <trkpt lat="49.051953" lon="15.013218">
        <time>2026-04-05T09:06:04.000Z</time>
      </trkpt>
      <trkpt lat="49.051931" lon="15.013245">
        <time>2026-04-05T09:06:06.000Z</time>
      </trkpt>
      <trkpt lat="49.05192" lon="15.013279">
        <time>2026-04-05T09:06:07.000Z</time>
      </trkpt>
      <trkpt lat="49.05192" lon="15.013279">
        <time>2026-04-05T09:06:08.000Z</time>
      </trkpt>
      <trkpt lat="49.051914" lon="15.013291">
        <time>2026-04-05T09:06:09.000Z</time>
      </trkpt>
      <trkpt lat="49.051906" lon="15.013305">
        <time>2026-04-05T09:06:10.000Z</time>
      </trkpt>
      <trkpt lat="49.051899" lon="15.013316">
        <time>2026-04-05T09:06:11.000Z</time>
      </trkpt>
      <trkpt lat="49.051872" lon="15.013367">
        <time>2026-04-05T09:06:14.000Z</time>
      </trkpt>
      <trkpt lat="49.051845" lon="15.013427">
        <time>2026-04-05T09:06:18.000Z</time>
      </trkpt>
      <trkpt lat="49.051783" lon="15.013565">
        <time>2026-04-05T09:06:23.000Z</time>
      </trkpt>
      <trkpt lat="49.051751" lon="15.013622">
        <time>2026-04-05T09:06:25.000Z</time>
      </trkpt>
      <trkpt lat="49.051655" lon="15.013754">
        <time>2026-04-05T09:06:31.000Z</time>
      </trkpt>
      <trkpt lat="49.05164" lon="15.013771">
        <time>2026-04-05T09:06:33.000Z</time>
      </trkpt>
      <trkpt lat="49.051609" lon="15.013786">
        <time>2026-04-05T09:06:36.000Z</time>
      </trkpt>
      <trkpt lat="49.05155" lon="15.013839">
        <time>2026-04-05T09:06:42.000Z</time>
      </trkpt>
      <trkpt lat="49.051515" lon="15.013897">
        <time>2026-04-05T09:06:46.000Z</time>
      </trkpt>
      <trkpt lat="49.051471" lon="15.014012">
        <time>2026-04-05T09:06:52.000Z</time>
      </trkpt>
      <trkpt lat="49.05146" lon="15.01405">
        <time>2026-04-05T09:06:54.000Z</time>
      </trkpt>
      <trkpt lat="49.051445" lon="15.014132">
        <time>2026-04-05T09:06:59.000Z</time>
      </trkpt>
      <trkpt lat="49.051443" lon="15.01415">
        <time>2026-04-05T09:07:00.000Z</time>
      </trkpt>
      <trkpt lat="49.051392" lon="15.014273">
        <time>2026-04-05T09:07:06.000Z</time>
      </trkpt>
      <trkpt lat="49.051338" lon="15.014373">
        <time>2026-04-05T09:07:11.000Z</time>
      </trkpt>
      <trkpt lat="49.051248" lon="15.01455">
        <time>2026-04-05T09:07:17.000Z</time>
      </trkpt>
      <trkpt lat="49.051175" lon="15.01469">
        <time>2026-04-05T09:07:23.000Z</time>
      </trkpt>
      <trkpt lat="49.051115" lon="15.014776">
        <time>2026-04-05T09:07:29.000Z</time>
      </trkpt>
      <trkpt lat="49.051014" lon="15.014865">
        <time>2026-04-05T09:07:35.000Z</time>
      </trkpt>
      <trkpt lat="49.050875" lon="15.015032">
        <time>2026-04-05T09:07:41.000Z</time>
      </trkpt>
      <trkpt lat="49.050747" lon="15.01513">
        <time>2026-04-05T09:07:47.000Z</time>
      </trkpt>
      <trkpt lat="49.050634" lon="15.015247">
        <time>2026-04-05T09:07:53.000Z</time>
      </trkpt>
      <trkpt lat="49.050606" lon="15.015317">
        <time>2026-04-05T09:07:57.000Z</time>
      </trkpt>
      <trkpt lat="49.050612" lon="15.01541">
        <time>2026-04-05T09:08:01.000Z</time>
      </trkpt>
      <trkpt lat="49.050617" lon="15.015439">
        <time>2026-04-05T09:08:02.000Z</time>
      </trkpt>
      <trkpt lat="49.050638" lon="15.01561">
        <time>2026-04-05T09:08:08.000Z</time>
      </trkpt>
      <trkpt lat="49.050568" lon="15.0158">
        <time>2026-04-05T09:08:14.000Z</time>
      </trkpt>
      <trkpt lat="49.050456" lon="15.016012">
        <time>2026-04-05T09:08:20.000Z</time>
      </trkpt>
      <trkpt lat="49.050419" lon="15.016227">
        <time>2026-04-05T09:08:26.000Z</time>
      </trkpt>
      <trkpt lat="49.050406" lon="15.016363">
        <time>2026-04-05T09:08:30.000Z</time>
      </trkpt>
      <trkpt lat="49.050362" lon="15.01653">
        <time>2026-04-05T09:08:36.000Z</time>
      </trkpt>
      <trkpt lat="49.050302" lon="15.016659">
        <time>2026-04-05T09:08:42.000Z</time>
      </trkpt>
      <trkpt lat="49.050269" lon="15.016752">
        <time>2026-04-05T09:08:45.000Z</time>
      </trkpt>
      <trkpt lat="49.050236" lon="15.016946">
        <time>2026-04-05T09:08:51.000Z</time>
      </trkpt>
      <trkpt lat="49.050218" lon="15.01698">
        <time>2026-04-05T09:08:53.000Z</time>
      </trkpt>
    </trkseg>
  </trk>
</gpx>
